{"type":"FeatureCollection","features":[{"type":"Feature","geometry":{"type":"LineString","coordinates":[[3.80127,51.09662],[3.823242,51.09662],[3.823242,51.08282],[3.80127,51.08282],[3.80127,51.09662]]},"properties":{"id":"89759917","zoom":"14"}},{"type":"Feature","geometry":{"type":"LineString","coordinates":[[3.81723,51.08335],[3.81735,51.08194]]},"properties":{"name":"Lichtelarestraat","cyclenetwork":"yes","maxspeed":"50","highway":"residential","vertex1":19734,"vertex2":19735}},{"type":"Feature","geometry":{"type":"LineString","coordinates":[[3.81723,51.08335],[3.816772,51.08334],[3.816404,51.08331],[3.816084,51.08325],[3.815724,51.08318],[3.81504,51.08305],[3.814894,51.08301],[3.81464,51.08289]]},"properties":{"highway":"track","vertex1":19734,"vertex2":19733}},{"type":"Feature","geometry":{"type":"LineString","coordinates":[[3.801409,51.08611],[3.80143,51.08607],[3.801459,51.08603],[3.801587,51.08588],[3.80241,51.0848],[3.802571,51.08469]]},"properties":{"name":"Sparrenlaan","highway":"residential","vertex1":19732,"vertex2":19721}},{"type":"Feature","geometry":{"type":"LineString","coordinates":[[3.801409,51.08611],[3.802389,51.08645]]},"properties":{"name":"Antwerpse Steenweg","highway":"primary","maxspeed":"70","cycleway":"lane","vertex1":19732,"vertex2":19818}},{"type":"Feature","geometry":{"type":"LineString","coordinates":[[3.801409,51.08611],[3.800422,51.08576],[3.79984,51.08556]]},"properties":{"name":"Antwerpse Steenweg","highway":"primary","maxspeed":"70","cycleway":"lane","vertex1":19732,"vertex2":19646}},{"type":"Feature","geometry":{"type":"LineString","coordinates":[[3.810052,51.08411],[3.808728,51.08353],[3.808231,51.08331],[3.807159,51.08279]]},"properties":{"highway":"cycleway","vertex1":19731,"vertex2":19729}},{"type":"Feature","geometry":{"type":"LineString","coordinates":[[3.810052,51.08411],[3.810494,51.0843]]},"properties":{"highway":"cycleway","vertex1":19731,"vertex2":19717}},{"type":"Feature","geometry":{"type":"LineString","coordinates":[[3.810052,51.08411],[3.810019,51.08413]]},"properties":{"highway":"cycleway","vertex1":19731,"vertex2":19725}},{"type":"Feature","geometry":{"type":"LineString","coordinates":[[3.807159,51.08279],[3.807125,51.08282]]},"properties":{"highway":"track","vertex1":19729,"vertex2":19719}},{"type":"Feature","geometry":{"type":"LineString","coordinates":[[3.803208,51.08448],[3.803436,51.08473],[3.803597,51.08481],[3.804146,51.08497]]},"properties":{"name":"Bloembollenlaan","highway":"residential","vertex1":19730,"vertex2":19728}},{"type":"Feature","geometry":{"type":"LineString","coordinates":[[3.803208,51.08448],[3.802918,51.08458],[3.802571,51.08469]]},"properties":{"name":"Sparrenlaan","maxspeed":"50","highway":"residential","vertex1":19730,"vertex2":19721}},{"type":"Feature","geometry":{"type":"LineString","coordinates":[[3.803208,51.08448],[3.803658,51.08432],[3.803833,51.08422],[3.804113,51.08387],[3.804665,51.08322],[3.804878,51.08283],[3.805283,51.08236],[3.80557,51.08205]]},"properties":{"name":"Sparrenlaan","maxspeed":"50","highway":"residential","vertex1":19730,"vertex2":19727}},{"type":"Feature","geometry":{"type":"LineString","coordinates":[[3.804146,51.08497],[3.804976,51.0852]]},"properties":{"name":"Bloembollenlaan","highway":"residential","vertex1":19728,"vertex2":19722}},{"type":"Feature","geometry":{"type":"LineString","coordinates":[[3.804146,51.08497],[3.803512,51.08587]]},"properties":{"name":"Bloembollenlaan","highway":"residential","vertex1":19728,"vertex2":19726}},{"type":"Feature","geometry":{"type":"LineString","coordinates":[[3.810019,51.08413],[3.808695,51.08356],[3.808196,51.08334],[3.807125,51.08282]]},"properties":{"name":"Voordestraat","bicycle":"no","maxspeed":"50","highway":"tertiary","vertex1":19725,"vertex2":19719}},{"type":"Feature","geometry":{"type":"LineString","coordinates":[[3.810019,51.08413],[3.81046,51.08433]]},"properties":{"name":"Voordestraat","bicycle":"no","maxspeed":"50","highway":"tertiary","vertex1":19725,"vertex2":19716}},{"type":"Feature","geometry":{"type":"LineString","coordinates":[[3.810019,51.08413],[3.809198,51.08498],[3.809114,51.08504],[3.80903,51.08508],[3.808504,51.08535],[3.808385,51.08544],[3.808306,51.08553],[3.807568,51.08673],[3.806812,51.08789],[3.806783,51.08794],[3.806764,51.08797]]},"properties":{"name":"Doornikstraat","maxspeed":"50","highway":"residential","vertex1":19725,"vertex2":19830}},{"type":"Feature","geometry":{"type":"LineString","coordinates":[[3.802571,51.08469],[3.80237,51.08461],[3.801747,51.08442],[3.801333,51.08427]]},"properties":{"name":"Gloxinalaan","highway":"residential","vertex1":19721,"vertex2":19718}},{"type":"Feature","geometry":{"type":"LineString","coordinates":[[3.801333,51.08427],[3.801108,51.08407]]},"properties":{"name":"Gloxinalaan","highway":"residential","vertex1":19718,"vertex2":19670}},{"type":"Feature","geometry":{"type":"LineString","coordinates":[[3.801333,51.08427],[3.801112,51.08424]]},"properties":{"name":"Gloxinalaan","highway":"residential","vertex1":19718,"vertex2":19651}},{"type":"Feature","geometry":{"type":"LineString","coordinates":[[3.810494,51.0843],[3.81046,51.08433]]},"properties":{"highway":"track","vertex1":19717,"vertex2":19716}},{"type":"Feature","geometry":{"type":"LineString","coordinates":[[3.810494,51.0843],[3.810862,51.08399],[3.811746,51.08323],[3.812641,51.08247],[3.812922,51.08223],[3.812998,51.0821],[3.813038,51.08202],[3.812984,51.08197],[3.812802,51.08189],[3.812351,51.08176],[3.812281,51.08173]]},"properties":{"highway":"track","vertex1":19717,"vertex2":19736}},{"type":"Feature","geometry":{"type":"LineString","coordinates":[[3.801656,51.09473],[3.801672,51.09462],[3.801576,51.09428],[3.801479,51.09408],[3.801415,51.09378],[3.80134,51.0937],[3.801097,51.09359]]},"properties":{"name":"Smalle Heerweg","highway":"unclassified","vertex1":19854,"vertex2":19864}},{"type":"Feature","geometry":{"type":"LineString","coordinates":[[3.806167,51.09309],[3.806221,51.09115]]},"properties":{"highway":"track","vertex1":19853,"vertex2":19842}},{"type":"Feature","geometry":{"type":"LineString","coordinates":[[3.806381,51.08824],[3.806288,51.08825],[3.805714,51.08876]]},"properties":{"highway":"service","vertex1":19852,"vertex2":19821}},{"type":"Feature","geometry":{"type":"LineString","coordinates":[[3.806381,51.08824],[3.806494,51.08813],[3.807004,51.0883]]},"properties":{"highway":"service","vertex1":19852,"vertex2":19839}},{"type":"Feature","geometry":{"type":"LineString","coordinates":[[3.806381,51.08824],[3.80685,51.08845]]},"properties":{"highway":"service","vertex1":19852,"vertex2":19811}},{"type":"Feature","geometry":{"type":"LineString","coordinates":[[3.805687,51.08924],[3.805122,51.08975]]},"properties":{"name":"Dahlialaan","highway":"residential","vertex1":19851,"vertex2":19829}},{"type":"Feature","geometry":{"type":"LineString","coordinates":[[3.808761,51.08983],[3.809552,51.09011]]},"properties":{"name":"Heidegrond","highway":"residential","vertex1":19850,"vertex2":19825}},{"type":"Feature","geometry":{"type":"LineString","coordinates":[[3.808768,51.09188],[3.808964,51.09165],[3.809177,51.09156],[3.809391,51.0913]]},"properties":{"name":"Smalle Heerweg","highway":"residential","vertex1":19849,"vertex2":19813}},{"type":"Feature","geometry":{"type":"LineString","coordinates":[[3.805943,51.08838],[3.806068,51.08826]]},"properties":{"oneway":"yes","highway":"service","vertex1":19848,"vertex2":19841}},{"type":"Feature","geometry":{"type":"LineString","coordinates":[[3.805943,51.08838],[3.80549,51.08818],[3.805613,51.08806]]},"properties":{"oneway":"yes","highway":"service","vertex1":19848,"vertex2":19817}},{"type":"Feature","geometry":{"type":"LineString","coordinates":[[3.807922,51.09163],[3.808426,51.09098]]},"properties":{"name":"Heidegrond","highway":"residential","vertex1":19847,"vertex2":19827}},{"type":"Feature","geometry":{"type":"LineString","coordinates":[[3.806496,51.08788],[3.80657,51.08791]]},"properties":{"name":"Antwerpse Steenweg","highway":"primary","maxspeed":"70","cycleway":"lane","vertex1":19846,"vertex2":19838}},{"type":"Feature","geometry":{"type":"LineString","coordinates":[[3.806496,51.08788],[3.805893,51.08767]]},"properties":{"name":"Antwerpse Steenweg","highway":"primary","maxspeed":"70","cycleway":"lane","vertex1":19846,"vertex2":19822}},{"type":"Feature","geometry":{"type":"LineString","coordinates":[[3.806496,51.08788],[3.806304,51.08805]]},"properties":{"highway":"service","vertex1":19846,"vertex2":19834}},{"type":"Feature","geometry":{"type":"LineString","coordinates":[[3.80937,51.09068],[3.809266,51.09069],[3.808899,51.09056],[3.808786,51.09058],[3.808426,51.09098]]},"properties":{"name":"Heidegrond","highway":"residential","vertex1":19845,"vertex2":19827}},{"type":"Feature","geometry":{"type":"LineString","coordinates":[[3.80937,51.09068],[3.809731,51.09024],[3.809707,51.09018],[3.809552,51.09011]]},"properties":{"name":"Heidegrond","highway":"residential","vertex1":19845,"vertex2":19825}},{"type":"Feature","geometry":{"type":"LineString","coordinates":[[3.803457,51.09034],[3.803798,51.08989],[3.803927,51.08978],[3.804304,51.08942]]},"properties":{"name":"Dahlialaan","highway":"residential","vertex1":19844,"vertex2":19816}},{"type":"Feature","geometry":{"type":"LineString","coordinates":[[3.80468,51.08957],[3.804304,51.08942]]},"properties":{"name":"Dahlialaan","highway":"residential","vertex1":19843,"vertex2":19816}},{"type":"Feature","geometry":{"type":"LineString","coordinates":[[3.80468,51.08957],[3.805122,51.08975]]},"properties":{"name":"Dahlialaan","highway":"residential","vertex1":19843,"vertex2":19829}},{"type":"Feature","geometry":{"type":"LineString","coordinates":[[3.80468,51.08957],[3.805618,51.08875],[3.80657,51.08791]]},"properties":{"highway":"path","vertex1":19843,"vertex2":19838}},{"type":"Feature","geometry":{"type":"LineString","coordinates":[[3.806068,51.08826],[3.805613,51.08806]]},"properties":{"oneway":"yes","highway":"service","vertex1":19841,"vertex2":19817}},{"type":"Feature","geometry":{"type":"LineString","coordinates":[[3.806068,51.08826],[3.806207,51.08814]]},"properties":{"oneway":"yes","highway":"service","vertex1":19841,"vertex2":19828}},{"type":"Feature","geometry":{"type":"LineString","coordinates":[[3.807626,51.09072],[3.808426,51.09098]]},"properties":{"name":"Heidegrond","highway":"residential","vertex1":19840,"vertex2":19827}},{"type":"Feature","geometry":{"type":"LineString","coordinates":[[3.807626,51.09072],[3.807619,51.09064],[3.807772,51.09046]]},"properties":{"name":"Heidegrond","highway":"residential","vertex1":19840,"vertex2":19836}},{"type":"Feature","geometry":{"type":"LineString","coordinates":[[3.807626,51.09072],[3.807515,51.09072],[3.807144,51.09062]]},"properties":{"highway":"track","vertex1":19840,"vertex2":19812}},{"type":"Feature","geometry":{"type":"LineString","coordinates":[[3.807004,51.0883],[3.80685,51.08845]]},"properties":{"highway":"service","vertex1":19839,"vertex2":19811}},{"type":"Feature","geometry":{"type":"LineString","coordinates":[[3.807004,51.0883],[3.807217,51.08813]]},"properties":{"highway":"service","vertex1":19839,"vertex2":19837}},{"type":"Feature","geometry":{"type":"LineString","coordinates":[[3.80657,51.08791],[3.806764,51.08797]]},"properties":{"name":"Antwerpse Steenweg","highway":"primary","maxspeed":"70","cycleway":"lane","vertex1":19838,"vertex2":19830}},{"type":"Feature","geometry":{"type":"LineString","coordinates":[[3.807217,51.08813],[3.806764,51.08797]]},"properties":{"name":"Antwerpse Steenweg","highway":"primary","maxspeed":"70","cycleway":"lane","vertex1":19837,"vertex2":19830}},{"type":"Feature","geometry":{"type":"LineString","coordinates":[[3.807217,51.08813],[3.810389,51.08924]]},"properties":{"name":"Antwerpse Steenweg","highway":"primary","maxspeed":"70","cycleway":"lane","vertex1":19837,"vertex2":19833}},{"type":"Feature","geometry":{"type":"LineString","coordinates":[[3.806032,51.09109],[3.806688,51.09029]]},"properties":{"name":"Dahlialaan","highway":"residential","vertex1":19835,"vertex2":19819}},{"type":"Feature","geometry":{"type":"LineString","coordinates":[[3.806304,51.08805],[3.805843,51.08786]]},"properties":{"highway":"service","vertex1":19834,"vertex2":19831}},{"type":"Feature","geometry":{"type":"LineString","coordinates":[[3.806304,51.08805],[3.806207,51.08814]]},"properties":{"highway":"service","vertex1":19834,"vertex2":19828}},{"type":"Feature","geometry":{"type":"LineString","coordinates":[[3.810389,51.08924],[3.810008,51.08966],[3.809916,51.0897],[3.809552,51.09011]]},"properties":{"highway":"footway","vertex1":19833,"vertex2":19825}},{"type":"Feature","geometry":{"type":"LineString","coordinates":[[3.810389,51.08924],[3.810752,51.08937]]},"properties":{"name":"Antwerpse Steenweg","highway":"primary","maxspeed":"70","cycleway":"lane","vertex1":19833,"vertex2":19814}},{"type":"Feature","geometry":{"type":"LineString","coordinates":[[3.802778,51.09014],[3.803347,51.0896],[3.803323,51.08954],[3.803084,51.08942]]},"properties":{"name":"Orchideeënhof","highway":"residential","vertex1":19832,"vertex2":19824}},{"type":"Feature","geometry":{"type":"LineString","coordinates":[[3.805122,51.08975],[3.805861,51.09002],[3.806688,51.09029]]},"properties":{"name":"Dahlialaan","highway":"residential","vertex1":19829,"vertex2":19819}},{"type":"Feature","geometry":{"type":"LineString","coordinates":[[3.806207,51.08814],[3.805748,51.08794],[3.805613,51.08806]]},"properties":{"oneway":"yes","highway":"service","vertex1":19828,"vertex2":19817}},{"type":"Feature","geometry":{"type":"LineString","coordinates":[[3.803781,51.08874],[3.803752,51.0887],[3.803012,51.08844],[3.802918,51.08845],[3.802093,51.0892],[3.802126,51.08925],[3.802746,51.0893]]},"properties":{"name":"Orchideeënhof","highway":"residential","vertex1":19826,"vertex2":19820}},{"type":"Feature","geometry":{"type":"LineString","coordinates":[[3.803781,51.08874],[3.803084,51.08942]]},"properties":{"name":"Orchideeënhof","highway":"residential","vertex1":19826,"vertex2":19824}},{"type":"Feature","geometry":{"type":"LineString","coordinates":[[3.803084,51.08942],[3.802746,51.0893]]},"properties":{"name":"Orchideeënhof","highway":"residential","vertex1":19824,"vertex2":19820}},{"type":"Feature","geometry":{"type":"LineString","coordinates":[[3.804432,51.08922],[3.804304,51.08942]]},"properties":{"name":"Dahlialaan","highway":"unclassified","vertex1":19823,"vertex2":19816}},{"type":"Feature","geometry":{"type":"LineString","coordinates":[[3.805893,51.08767],[3.803648,51.08689],[3.802389,51.08645]]},"properties":{"name":"Antwerpse Steenweg","highway":"primary","maxspeed":"70","cycleway":"lane","vertex1":19822,"vertex2":19818}},{"type":"Feature","geometry":{"type":"LineString","coordinates":[[3.806688,51.09029],[3.80681,51.09027],[3.807035,51.09001]]},"properties":{"name":"Dahlialaan","highway":"residential","vertex1":19819,"vertex2":19815}},{"type":"Feature","geometry":{"type":"LineString","coordinates":[[3.810752,51.08937],[3.812301,51.08991]]},"properties":{"name":"Antwerpse Steenweg","highway":"primary","maxspeed":"70","cycleway":"lane","vertex1":19814,"vertex2":19810}}]}