{"type":"FeatureCollection","features":[{"type":"Feature","geometry":{"type":"LineString","coordinates":[[3.80127,51.06902],[3.823242,51.06902],[3.823242,51.05521],[3.80127,51.05521],[3.80127,51.06902]]},"properties":{"id":"89792685","zoom":"14"}},{"type":"Feature","geometry":{"type":"LineString","coordinates":[[3.814531,51.05825],[3.816708,51.055]]},"properties":{"highway":"motorway","maxspeed":"120","oneway":"yes","vertex1":4993,"vertex2":4994}},{"type":"Feature","geometry":{"type":"LineString","coordinates":[[3.814531,51.05825],[3.814353,51.05852]]},"properties":{"bridge":"yes","highway":"motorway","maxspeed":"120","oneway":"yes","vertex1":4993,"vertex2":4990}},{"type":"Feature","geometry":{"type":"LineString","coordinates":[[3.81434,51.05821],[3.814165,51.05846]]},"properties":{"bridge":"yes","highway":"motorway","maxspeed":"120","oneway":"yes","vertex1":4992,"vertex2":4978}},{"type":"Feature","geometry":{"type":"LineString","coordinates":[[3.81434,51.05821],[3.816504,51.05498]]},"properties":{"highway":"motorway","maxspeed":"120","oneway":"yes","vertex1":4992,"vertex2":4980}},{"type":"Feature","geometry":{"type":"LineString","coordinates":[[3.820335,51.05882],[3.82026,51.05898]]},"properties":{"name":"Damvalleistraat","cyclenetwork":"yes","highway":"unclassified","vertex1":4991,"vertex2":4882}},{"type":"Feature","geometry":{"type":"LineString","coordinates":[[3.820335,51.05882],[3.820478,51.05832],[3.820609,51.05775],[3.820876,51.05656]]},"properties":{"name":"Damvalleistraat","cyclenetwork":"yes","highway":"unclassified","vertex1":4991,"vertex2":4979}},{"type":"Feature","geometry":{"type":"LineString","coordinates":[[3.814353,51.05852],[3.813832,51.0593]]},"properties":{"highway":"motorway","maxspeed":"120","oneway":"yes","vertex1":4990,"vertex2":4891}},{"type":"Feature","geometry":{"type":"LineString","coordinates":[[3.816029,51.05864],[3.815957,51.05878],[3.815902,51.05901],[3.815948,51.05945],[3.816035,51.05987],[3.816081,51.06013],[3.816081,51.06029],[3.816066,51.06044],[3.816032,51.06056],[3.815989,51.06067],[3.815911,51.0608],[3.81581,51.06091],[3.815695,51.061],[3.815564,51.06108],[3.81535,51.06118],[3.815097,51.06125],[3.814838,51.06128],[3.814507,51.06132],[3.81378,51.06139],[3.813362,51.06144],[3.813057,51.06151],[3.812632,51.06166],[3.812482,51.06174],[3.812372,51.06182],[3.812227,51.06194]]},"properties":{"maxspeed":"120","oneway":"yes","highway":"motorway_link","vertex1":4986,"vertex2":4924}},{"type":"Feature","geometry":{"type":"LineString","coordinates":[[3.816029,51.05864],[3.816046,51.05858]]},"properties":{"name":"Dendermondesteenweg","oneway":"yes","maxspeed":"70","highway":"secondary","vertex1":4986,"vertex2":4982}},{"type":"Feature","geometry":{"type":"LineString","coordinates":[[3.816029,51.05864],[3.816889,51.05875]]},"properties":{"name":"Dendermondesteenweg","oneway":"yes","maxspeed":"70","highway":"secondary","cycleway":"lane","vertex1":4986,"vertex2":4971}},{"type":"Feature","geometry":{"type":"LineString","coordinates":[[3.816029,51.05864],[3.815801,51.05861]]},"properties":{"name":"Dendermondesteenweg","oneway":"yes","maxspeed":"70","highway":"secondary","cycleway":"lane","vertex1":4986,"vertex2":4985}},{"type":"Feature","geometry":{"type":"LineString","coordinates":[[3.815801,51.05861],[3.815817,51.05855]]},"properties":{"name":"Dendermondesteenweg","oneway":"yes","maxspeed":"70","highway":"secondary","vertex1":4985,"vertex2":4968}},{"type":"Feature","geometry":{"type":"LineString","coordinates":[[3.815801,51.05861],[3.812001,51.05802]]},"properties":{"name":"Dendermondesteenweg","oneway":"yes","maxspeed":"70","highway":"secondary","cycleway":"lane","vertex1":4985,"vertex2":4938}},{"type":"Feature","geometry":{"type":"LineString","coordinates":[[3.815801,51.05861],[3.815771,51.05925],[3.815901,51.05988],[3.81595,51.06019],[3.815949,51.06033],[3.815923,51.06047],[3.815875,51.06062],[3.815798,51.06076],[3.815612,51.06093],[3.81547,51.06101],[3.815306,51.06109],[3.815088,51.06116],[3.81483,51.0612],[3.814575,51.0612],[3.814314,51.06117],[3.814149,51.06113],[3.814012,51.06108],[3.8138,51.06097],[3.81367,51.06088],[3.813584,51.06078],[3.813482,51.06064],[3.813439,51.06055],[3.813418,51.06042],[3.813421,51.06029],[3.81346,51.06015],[3.813586,51.05986],[3.813866,51.05939]]},"properties":{"maxspeed":"120","oneway":"yes","highway":"motorway_link","vertex1":4985,"vertex2":4879}},{"type":"Feature","geometry":{"type":"LineString","coordinates":[[3.817706,51.05878],[3.816908,51.05869]]},"properties":{"name":"Dendermondesteenweg","oneway":"yes","maxspeed":"70","highway":"secondary","cycleway":"lane","vertex1":4984,"vertex2":4974}},{"type":"Feature","geometry":{"type":"LineString","coordinates":[[3.817706,51.05878],[3.817677,51.05885]]},"properties":{"highway":"cycleway","vertex1":4984,"vertex2":4973}},{"type":"Feature","geometry":{"type":"LineString","coordinates":[[3.817706,51.05878],[3.818591,51.05888]]},"properties":{"name":"Dendermondesteenweg","oneway":"yes","maxspeed":"70","highway":"secondary","cycleway":"lane","vertex1":4984,"vertex2":4975}},{"type":"Feature","geometry":{"type":"LineString","coordinates":[[3.816046,51.05858],[3.815817,51.05855]]},"properties":{"name":"Dendermondesteenweg","oneway":"yes","maxspeed":"70","highway":"secondary","cycleway":"lane","vertex1":4982,"vertex2":4968}},{"type":"Feature","geometry":{"type":"LineString","coordinates":[[3.816046,51.05858],[3.816908,51.05869]]},"properties":{"name":"Dendermondesteenweg","oneway":"yes","maxspeed":"70","highway":"secondary","cycleway":"lane","vertex1":4982,"vertex2":4974}},{"type":"Feature","geometry":{"type":"LineString","coordinates":[[3.816996,51.05616],[3.817801,51.05619],[3.819452,51.05632],[3.820876,51.05656]]},"properties":{"name":"Solariumdreef","highway":"residential","vertex1":4981,"vertex2":4979}},{"type":"Feature","geometry":{"type":"LineString","coordinates":[[3.820876,51.05656],[3.821251,51.05444],[3.821269,51.05439]]},"properties":{"name":"Damvalleistraat","cyclenetwork":"yes","highway":"unclassified","vertex1":4979,"vertex2":4970}},{"type":"Feature","geometry":{"type":"LineString","coordinates":[[3.814165,51.05846],[3.813546,51.05937]]},"properties":{"highway":"motorway","maxspeed":"120","oneway":"yes","vertex1":4978,"vertex2":4886}},{"type":"Feature","geometry":{"type":"LineString","coordinates":[[3.818591,51.05888],[3.818576,51.05896]]},"properties":{"highway":"footway","vertex1":4975,"vertex2":4884}},{"type":"Feature","geometry":{"type":"LineString","coordinates":[[3.818591,51.05888],[3.819837,51.05903],[3.820024,51.05904]]},"properties":{"name":"Dendermondesteenweg","oneway":"yes","maxspeed":"70","highway":"secondary","cycleway":"lane","vertex1":4975,"vertex2":4890}},{"type":"Feature","geometry":{"type":"LineString","coordinates":[[3.816908,51.05869],[3.816889,51.05875]]},"properties":{"highway":"footway","vertex1":4974,"vertex2":4971}},{"type":"Feature","geometry":{"type":"LineString","coordinates":[[3.817677,51.05885],[3.818576,51.05896]]},"properties":{"name":"Dendermondesteenweg","oneway":"yes","maxspeed":"70","highway":"secondary","cycleway":"lane","vertex1":4973,"vertex2":4884}},{"type":"Feature","geometry":{"type":"LineString","coordinates":[[3.817677,51.05885],[3.817481,51.05883],[3.816889,51.05875]]},"properties":{"name":"Dendermondesteenweg","oneway":"yes","maxspeed":"70","highway":"secondary","cycleway":"lane","vertex1":4973,"vertex2":4971}},{"type":"Feature","geometry":{"type":"LineString","coordinates":[[3.815817,51.05855],[3.815282,51.05847],[3.812021,51.05797]]},"properties":{"name":"Dendermondesteenweg","oneway":"yes","maxspeed":"70","highway":"secondary","cycleway":"lane","vertex1":4968,"vertex2":4950}},{"type":"Feature","geometry":{"type":"LineString","coordinates":[[3.811413,51.0579],[3.811448,51.05791]]},"properties":{"name":"Dendermondesteenweg","highway":"secondary","cycleway":"lane","vertex1":4967,"vertex2":4943}},{"type":"Feature","geometry":{"type":"LineString","coordinates":[[3.811413,51.0579],[3.811152,51.05786]]},"properties":{"name":"Dendermondesteenweg","highway":"secondary","cycleway":"lane","vertex1":4967,"vertex2":4951}},{"type":"Feature","geometry":{"type":"LineString","coordinates":[[3.811413,51.0579],[3.811213,51.05831],[3.810592,51.05936],[3.810538,51.05939],[3.810486,51.05941]]},"properties":{"highway":"unclassified","vertex1":4967,"vertex2":4902}},{"type":"Feature","geometry":{"type":"LineString","coordinates":[[3.801736,51.0589],[3.801774,51.05894],[3.801853,51.05896],[3.801929,51.05894],[3.801984,51.05892],[3.801984,51.05886],[3.801946,51.05882]]},"properties":{"name":"Graaf Wichmanstraat","highway":"residential","vertex1":4966,"vertex2":4964}},{"type":"Feature","geometry":{"type":"LineString","coordinates":[[3.801736,51.0589],[3.801746,51.05872]]},"properties":{"name":"Graaf Wichmanstraat","highway":"residential","vertex1":4966,"vertex2":4962}},{"type":"Feature","geometry":{"type":"LineString","coordinates":[[3.801292,51.05799],[3.80097,51.05832],[3.800924,51.05833],[3.800854,51.05832],[3.800338,51.05817],[3.800307,51.05814],[3.800318,51.0581],[3.800532,51.05775]]},"properties":{"highway":"service","vertex1":4965,"vertex2":5213}},{"type":"Feature","geometry":{"type":"LineString","coordinates":[[3.801946,51.05882],[3.801746,51.05872]]},"properties":{"name":"Graaf Wichmanstraat","highway":"residential","vertex1":4964,"vertex2":4962}},{"type":"Feature","geometry":{"type":"LineString","coordinates":[[3.801469,51.05642],[3.801508,51.05632]]},"properties":{"highway":"footway","vertex1":4963,"vertex2":4953}},{"type":"Feature","geometry":{"type":"LineString","coordinates":[[3.801746,51.05872],[3.801766,51.05844]]},"properties":{"name":"Graaf Wichmanstraat","highway":"residential","vertex1":4962,"vertex2":4933}},{"type":"Feature","geometry":{"type":"LineString","coordinates":[[3.809452,51.05527],[3.809684,51.05536],[3.809772,51.05544]]},"properties":{"highway":"path","vertex1":4960,"vertex2":4944}},{"type":"Feature","geometry":{"type":"LineString","coordinates":[[3.809452,51.05527],[3.809254,51.05524],[3.808985,51.05518],[3.808766,51.05516]]},"properties":{"highway":"path","vertex1":4960,"vertex2":4932}},{"type":"Feature","geometry":{"type":"LineString","coordinates":[[3.809452,51.05527],[3.80954,51.05516],[3.809695,51.05491]]},"properties":{"highway":"path","vertex1":4960,"vertex2":4949}},{"type":"Feature","geometry":{"type":"LineString","coordinates":[[3.808766,51.05516],[3.809695,51.05491]]},"properties":{"highway":"path","vertex1":4932,"vertex2":4949}},{"type":"Feature","geometry":{"type":"LineString","coordinates":[[3.808766,51.05516],[3.80856,51.05524],[3.808056,51.05524],[3.806714,51.05542],[3.806386,51.05545],[3.805303,51.05551],[3.804907,51.05548]]},"properties":{"highway":"path","vertex1":4932,"vertex2":4936}},{"type":"Feature","geometry":{"type":"LineString","coordinates":[[3.804453,51.05684],[3.804298,51.05681],[3.803878,51.05674]]},"properties":{"name":"Dendermondesteenweg","highway":"secondary","vertex1":4958,"vertex2":4956}},{"type":"Feature","geometry":{"type":"LineString","coordinates":[[3.804453,51.05684],[3.804778,51.05688]]},"properties":{"name":"Dendermondesteenweg","highway":"secondary","cycleway":"lane","vertex1":4958,"vertex2":4930}},{"type":"Feature","geometry":{"type":"LineString","coordinates":[[3.803878,51.05674],[3.803795,51.05779],[3.80379,51.05785],[3.803753,51.05791],[3.803666,51.05799],[3.803343,51.05818],[3.803254,51.05825],[3.803213,51.05829]]},"properties":{"name":"Sint Pietershofstraat","cyclenetwork":"yes","maxspeed":"50","highway":"residential","vertex1":4956,"vertex2":4941}},{"type":"Feature","geometry":{"type":"LineString","coordinates":[[3.803878,51.05674],[3.803928,51.05571]]},"properties":{"name":"Koedreef","cyclenetwork":"yes","highway":"residential","vertex1":4956,"vertex2":4931}},{"type":"Feature","geometry":{"type":"LineString","coordinates":[[3.803878,51.05674],[3.803595,51.05671]]},"properties":{"name":"Dendermondesteenweg","highway":"secondary","cycleway":"lane","vertex1":4956,"vertex2":4952}},{"type":"Feature","geometry":{"type":"LineString","coordinates":[[3.803595,51.05671],[3.802378,51.05651],[3.800923,51.05628],[3.800213,51.05618],[3.799432,51.0561]]},"properties":{"name":"Dendermondesteenweg","highway":"secondary","vertex1":4952,"vertex2":5181}},{"type":"Feature","geometry":{"type":"LineString","coordinates":[[3.811152,51.05786],[3.808328,51.05743]]},"properties":{"name":"Dendermondesteenweg","highway":"secondary","vertex1":4951,"vertex2":4948}},{"type":"Feature","geometry":{"type":"LineString","coordinates":[[3.812021,51.05797],[3.812001,51.05802]]},"properties":{"maxspeed":"120","oneway":"yes","highway":"motorway_link","vertex1":4950,"vertex2":4938}},{"type":"Feature","geometry":{"type":"LineString","coordinates":[[3.812021,51.05797],[3.811848,51.05795]]},"properties":{"name":"Dendermondesteenweg","oneway":"yes","maxspeed":"70","highway":"secondary","cycleway":"lane","vertex1":4950,"vertex2":4939}},{"type":"Feature","geometry":{"type":"LineString","coordinates":[[3.808328,51.05743],[3.808687,51.05683],[3.809505,51.05555],[3.809552,51.0555],[3.809656,51.05547],[3.809772,51.05544]]},"properties":{"name":"Schoofmeersstraat","highway":"residential","vertex1":4948,"vertex2":4944}},{"type":"Feature","geometry":{"type":"LineString","coordinates":[[3.808328,51.05743],[3.804778,51.05688]]},"properties":{"name":"Dendermondesteenweg","highway":"secondary","vertex1":4948,"vertex2":4930}},{"type":"Feature","geometry":{"type":"LineString","coordinates":[[3.80432,51.05539],[3.803928,51.05571]]},"properties":{"cyclenetwork":"yes","highway":"service","vertex1":4947,"vertex2":4931}},{"type":"Feature","geometry":{"type":"LineString","coordinates":[[3.80432,51.05539],[3.804503,51.05489]]},"properties":{"cyclenetwork":"yes","highway":"path","vertex1":4947,"vertex2":4946}},{"type":"Feature","geometry":{"type":"LineString","coordinates":[[3.80432,51.05539],[3.804907,51.05548]]},"properties":{"highway":"path","vertex1":4947,"vertex2":4936}},{"type":"Feature","geometry":{"type":"LineString","coordinates":[[3.804503,51.05489],[3.804569,51.05518],[3.804614,51.05531],[3.804907,51.05548]]},"properties":{"highway":"path","vertex1":4946,"vertex2":4936}},{"type":"Feature","geometry":{"type":"LineString","coordinates":[[3.801299,51.05639],[3.801149,51.05672]]},"properties":{"highway":"service","vertex1":4945,"vertex2":5190}},{"type":"Feature","geometry":{"type":"LineString","coordinates":[[3.809772,51.05544],[3.810138,51.05554],[3.810651,51.05561],[3.811839,51.05567],[3.81238,51.05573],[3.812894,51.05584],[3.814031,51.05591],[3.815065,51.05611],[3.815156,51.05609],[3.816319,51.05425]]},"properties":{"highway":"path","vertex1":4944,"vertex2":4987}},{"type":"Feature","geometry":{"type":"LineString","coordinates":[[3.811448,51.05791],[3.811617,51.05792],[3.811848,51.05795]]},"properties":{"name":"Dendermondesteenweg","oneway":"yes","maxspeed":"70","highway":"secondary","cycleway":"lane","vertex1":4943,"vertex2":4939}},{"type":"Feature","geometry":{"type":"LineString","coordinates":[[3.811448,51.05791],[3.811598,51.05796],[3.811812,51.05799]]},"properties":{"name":"Dendermondesteenweg","oneway":"yes","maxspeed":"70","highway":"secondary","cycleway":"lane","vertex1":4943,"vertex2":4934}},{"type":"Feature","geometry":{"type":"LineString","coordinates":[[3.803213,51.05829],[3.802089,51.05831]]},"properties":{"name":"Graaf Wichmanstraat","highway":"residential","vertex1":4941,"vertex2":4935}},{"type":"Feature","geometry":{"type":"LineString","coordinates":[[3.803213,51.05829],[3.803142,51.05841],[3.803124,51.05851],[3.803149,51.0589],[3.803112,51.05909]]},"properties":{"name":"Sint Pietershofstraat","cyclenetwork":"yes","maxspeed":"50","highway":"residential","vertex1":4941,"vertex2":4928}},{"type":"Feature","geometry":{"type":"LineString","coordinates":[[3.811616,51.0583],[3.811386,51.05863],[3.810917,51.05927],[3.810867,51.05938],[3.810846,51.05947],[3.810841,51.05959],[3.810853,51.05971],[3.810901,51.05981],[3.810998,51.05995],[3.811121,51.06007],[3.811263,51.06019],[3.811545,51.06042],[3.811661,51.06053],[3.811751,51.06064],[3.811847,51.0608],[3.811926,51.061],[3.811949,51.06115],[3.811945,51.06132],[3.811872,51.06159],[3.811761,51.06187]]},"properties":{"maxspeed":"120","oneway":"yes","highway":"motorway_link","vertex1":4940,"vertex2":4916}},{"type":"Feature","geometry":{"type":"LineString","coordinates":[[3.811616,51.0583],[3.811789,51.05803],[3.811812,51.05799]]},"properties":{"maxspeed":"120","oneway":"yes","highway":"motorway_link","vertex1":4940,"vertex2":4934}},{"type":"Feature","geometry":{"type":"LineString","coordinates":[[3.811848,51.05795],[3.811812,51.05799]]},"properties":{"maxspeed":"120","oneway":"yes","highway":"motorway_link","vertex1":4939,"vertex2":4934}},{"type":"Feature","geometry":{"type":"LineString","coordinates":[[3.812001,51.05802],[3.811046,51.0593],[3.810971,51.05949],[3.810981,51.05966],[3.811034,51.0598],[3.811118,51.05991],[3.811231,51.06],[3.811356,51.06009],[3.811487,51.06014],[3.81168,51.06021],[3.811863,51.06025],[3.812099,51.06026],[3.812312,51.06023],[3.81258,51.06018],[3.812762,51.06012],[3.812896,51.06004],[3.813164,51.05978],[3.813413,51.05945]]},"properties":{"maxspeed":"120","oneway":"yes","highway":"motorway_link","vertex1":4938,"vertex2":4887}},{"type":"Feature","geometry":{"type":"LineString","coordinates":[[3.812001,51.05802],[3.811812,51.05799]]},"properties":{"name":"Dendermondesteenweg","oneway":"yes","maxspeed":"70","highway":"secondary","cycleway":"lane","vertex1":4938,"vertex2":4934}},{"type":"Feature","geometry":{"type":"LineString","coordinates":[[3.801784,51.05827],[3.801766,51.05844]]},"properties":{"name":"Graaf Wichmanstraat","highway":"residential","vertex1":4937,"vertex2":4933}},{"type":"Feature","geometry":{"type":"LineString","coordinates":[[3.801784,51.05827],[3.801987,51.05827],[3.802089,51.05831]]},"properties":{"name":"Graaf Wichmanstraat","highway":"residential","vertex1":4937,"vertex2":4935}},{"type":"Feature","geometry":{"type":"LineString","coordinates":[[3.802089,51.05831],[3.801766,51.05844]]},"properties":{"name":"Graaf Wichmanstraat","highway":"residential","vertex1":4935,"vertex2":4933}},{"type":"Feature","geometry":{"type":"LineString","coordinates":[[3.803928,51.05571],[3.804029,51.0552],[3.803146,51.05497],[3.802138,51.05471]]},"properties":{"name":"Koedreef","highway":"residential","vertex1":4931,"vertex2":4954}},{"type":"Feature","geometry":{"type":"LineString","coordinates":[[3.812094,51.0621],[3.812227,51.06194]]},"properties":{"bridge":"yes","maxspeed":"120","oneway":"yes","highway":"motorway_link","vertex1":4929,"vertex2":4924}},{"type":"Feature","geometry":{"type":"LineString","coordinates":[[3.812094,51.0621],[3.811993,51.06224]]},"properties":{"maxspeed":"120","oneway":"yes","highway":"motorway_link","vertex1":4929,"vertex2":4920}},{"type":"Feature","geometry":{"type":"LineString","coordinates":[[3.803112,51.05909],[3.803486,51.05921],[3.803853,51.05931],[3.803943,51.05938],[3.804048,51.05946],[3.804362,51.05966],[3.804482,51.0597],[3.804939,51.05981],[3.80521,51.05988],[3.805348,51.05993],[3.805465,51.06001],[3.805575,51.06009],[3.805718,51.06023],[3.805763,51.06029],[3.805836,51.0605],[3.805901,51.06059],[3.806007,51.0607],[3.806085,51.06075],[3.806162,51.06079],[3.806441,51.06091],[3.806506,51.06096],[3.806582,51.06106]]},"properties":{"name":"Sint Pieterswegel","highway":"path","vertex1":4928,"vertex2":4901}},{"type":"Feature","geometry":{"type":"LineString","coordinates":[[3.803112,51.05909],[3.802961,51.0599]]},"properties":{"name":"Sint Pietershofstraat","cyclenetwork":"yes","maxspeed":"50","highway":"residential","vertex1":4928,"vertex2":4912}},{"type":"Feature","geometry":{"type":"LineString","coordinates":[[3.811988,51.06211],[3.811861,51.06231]]},"properties":{"highway":"motorway","maxspeed":"120","oneway":"yes","vertex1":4927,"vertex2":4906}},{"type":"Feature","geometry":{"type":"LineString","coordinates":[[3.811988,51.06211],[3.812105,51.06192]]},"properties":{"bridge":"yes","highway":"motorway","maxspeed":"120","oneway":"yes","vertex1":4927,"vertex2":4908}},{"type":"Feature","geometry":{"type":"LineString","coordinates":[[3.806693,51.0642],[3.807292,51.06444],[3.80759,51.06453],[3.807925,51.06459],[3.808547,51.06467],[3.809244,51.06473],[3.809415,51.06473],[3.809488,51.06471]]},"properties":{"name":"Kleingentstraat","highway":"track","vertex1":4926,"vertex2":19762}},{"type":"Feature","geometry":{"type":"LineString","coordinates":[[3.806693,51.0642],[3.806689,51.06488]]},"properties":{"name":"Petegemstraat","highway":"residential","vertex1":4926,"vertex2":19765}},{"type":"Feature","geometry":{"type":"LineString","coordinates":[[3.806693,51.0642],[3.80633,51.06406],[3.805927,51.06397],[3.805361,51.06387],[3.802427,51.06352]]},"properties":{"name":"Kleingentstraat","highway":"residential","vertex1":4926,"vertex2":4909}},{"type":"Feature","geometry":{"type":"LineString","coordinates":[[3.809212,51.05957],[3.809518,51.05928],[3.809524,51.05927],[3.809547,51.05925],[3.809604,51.05923],[3.809688,51.05923],[3.810357,51.0594],[3.810417,51.05941],[3.810486,51.05941]]},"properties":{"highway":"unclassified","vertex1":4925,"vertex2":4902}},{"type":"Feature","geometry":{"type":"LineString","coordinates":[[3.802671,51.06054],[3.802533,51.06217],[3.802427,51.06352]]},"properties":{"name":"Dorekenswegel","highway":"residential","maxspeed":"40","vertex1":4923,"vertex2":4909}},{"type":"Feature","geometry":{"type":"LineString","coordinates":[[3.802671,51.06054],[3.802816,51.06054]]},"properties":{"name":"Kouterstraat","cyclenetwork":"yes","highway":"residential","vertex1":4923,"vertex2":4907}},{"type":"Feature","geometry":{"type":"LineString","coordinates":[[3.802671,51.06054],[3.801567,51.06055]]},"properties":{"name":"Kouterstraat","cyclenetwork":"yes","maxspeed":"50","highway":"residential","vertex1":4923,"vertex2":4899}},{"type":"Feature","geometry":{"type":"LineString","coordinates":[[3.804059,51.05986],[3.805022,51.0601],[3.805105,51.06023],[3.804913,51.06079]]},"properties":{"name":"Hoge Kouter","highway":"residential","vertex1":4922,"vertex2":4917}},{"type":"Feature","geometry":{"type":"LineString","coordinates":[[3.811397,51.06258],[3.811399,51.06273]]},"properties":{"maxspeed":"120","oneway":"yes","highway":"motorway_link","vertex1":4921,"vertex2":4903}},{"type":"Feature","geometry":{"type":"LineString","coordinates":[[3.811397,51.06258],[3.811649,51.0621]]},"properties":{"maxspeed":"120","oneway":"yes","highway":"motorway_link","vertex1":4921,"vertex2":4918}},{"type":"Feature","geometry":{"type":"LineString","coordinates":[[3.811993,51.06224],[3.811861,51.06231]]},"properties":{"maxspeed":"120","oneway":"yes","highway":"motorway_link","vertex1":4920,"vertex2":4906}},{"type":"Feature","geometry":{"type":"LineString","coordinates":[[3.802127,51.06433],[3.802097,51.06398],[3.802279,51.0635]]},"properties":{"name":"Hermelijnestraat","highway":"residential","vertex1":4919,"vertex2":4900}},{"type":"Feature","geometry":{"type":"LineString","coordinates":[[3.802127,51.06433],[3.801793,51.0643]]},"properties":{"name":"Malpertuussingel","highway":"residential","vertex1":4919,"vertex2":4905}},{"type":"Feature","geometry":{"type":"LineString","coordinates":[[3.802127,51.06433],[3.802738,51.06445]]},"properties":{"name":"Malpertuussingel","highway":"residential","vertex1":4919,"vertex2":4913}},{"type":"Feature","geometry":{"type":"LineString","coordinates":[[3.811649,51.0621],[3.811761,51.06187]]},"properties":{"bridge":"yes","maxspeed":"120","oneway":"yes","highway":"motorway_link","vertex1":4918,"vertex2":4916}},{"type":"Feature","geometry":{"type":"LineString","coordinates":[[3.804913,51.06079],[3.806273,51.06099],[3.806433,51.06102],[3.806582,51.06106]]},"properties":{"name":"Kouterstraat","highway":"residential","vertex1":4917,"vertex2":4901}},{"type":"Feature","geometry":{"type":"LineString","coordinates":[[3.804913,51.06079],[3.804076,51.06067],[3.803944,51.06065],[3.80381,51.06063],[3.802816,51.06054]]},"properties":{"name":"Kouterstraat","highway":"residential","vertex1":4917,"vertex2":4907}},{"type":"Feature","geometry":{"type":"LineString","coordinates":[[3.808834,51.0617],[3.809256,51.06181],[3.809719,51.0619],[3.810017,51.06195],[3.810344,51.06199],[3.810607,51.062],[3.810926,51.06202],[3.812119,51.06199],[3.81326,51.06195],[3.815838,51.06191],[3.816351,51.06194],[3.818959,51.06205]]},"properties":{"name":"Kouterstraat","highway":"residential","vertex1":4915,"vertex2":4894}},{"type":"Feature","geometry":{"type":"LineString","coordinates":[[3.808834,51.0617],[3.808257,51.06153],[3.806582,51.06106]]},"properties":{"name":"Kouterstraat","highway":"residential","vertex1":4915,"vertex2":4901}},{"type":"Feature","geometry":{"type":"LineString","coordinates":[[3.808834,51.0617],[3.809056,51.06209]]},"properties":{"name":"Zandstraat","highway":"residential","vertex1":4915,"vertex2":4911}},{"type":"Feature","geometry":{"type":"LineString","coordinates":[[3.811748,51.06214],[3.811897,51.06192]]},"properties":{"bridge":"yes","highway":"motorway","maxspeed":"120","oneway":"yes","vertex1":4914,"vertex2":4910}},{"type":"Feature","geometry":{"type":"LineString","coordinates":[[3.811748,51.06214],[3.811399,51.06273]]},"properties":{"highway":"motorway","maxspeed":"120","oneway":"yes","vertex1":4914,"vertex2":4903}},{"type":"Feature","geometry":{"type":"LineString","coordinates":[[3.802738,51.06445],[3.803269,51.06456],[3.803427,51.06462],[3.803512,51.06467],[3.80356,51.06472],[3.803573,51.06481],[3.803522,51.06539],[3.803522,51.06544]]},"properties":{"name":"Malpertuussingel","highway":"residential","vertex1":4913,"vertex2":19787}},{"type":"Feature","geometry":{"type":"LineString","coordinates":[[3.802738,51.06445],[3.802518,51.06514]]},"properties":{"name":"Grimbeerthof","highway":"residential","vertex1":4913,"vertex2":19791}},{"type":"Feature","geometry":{"type":"LineString","coordinates":[[3.802961,51.0599],[3.802816,51.06054]]},"properties":{"name":"Sint-Pietershofstraat","cyclenetwork":"yes","maxspeed":"50","highway":"residential","vertex1":4912,"vertex2":4907}},{"type":"Feature","geometry":{"type":"LineString","coordinates":[[3.809056,51.06209],[3.809355,51.06245],[3.809942,51.0632],[3.810028,51.06335],[3.810028,51.06346],[3.810007,51.06355],[3.809744,51.06402],[3.809542,51.0645],[3.809539,51.06461],[3.809488,51.06471]]},"properties":{"name":"Zandstraat","highway":"track","vertex1":4911,"vertex2":19762}},{"type":"Feature","geometry":{"type":"LineString","coordinates":[[3.811897,51.06192],[3.812709,51.06064],[3.813546,51.05937]]},"properties":{"highway":"motorway","maxspeed":"120","oneway":"yes","vertex1":4910,"vertex2":4886}},{"type":"Feature","geometry":{"type":"LineString","coordinates":[[3.802427,51.06352],[3.802279,51.0635]]},"properties":{"name":"Kleingentstraat","highway":"residential","vertex1":4909,"vertex2":4900}},{"type":"Feature","geometry":{"type":"LineString","coordinates":[[3.812105,51.06192],[3.812484,51.06131],[3.813832,51.0593]]},"properties":{"highway":"motorway","maxspeed":"120","oneway":"yes","vertex1":4908,"vertex2":4891}},{"type":"Feature","geometry":{"type":"LineString","coordinates":[[3.811861,51.06231],[3.811222,51.06337],[3.810644,51.06446]]},"properties":{"highway":"motorway","maxspeed":"120","oneway":"yes","vertex1":4906,"vertex2":19788}},{"type":"Feature","geometry":{"type":"LineString","coordinates":[[3.801793,51.0643],[3.801045,51.06421],[3.800794,51.06417]]},"properties":{"name":"Malpertuussingel","highway":"residential","vertex1":4905,"vertex2":5216}},{"type":"Feature","geometry":{"type":"LineString","coordinates":[[3.801793,51.0643],[3.801536,51.06499]]},"properties":{"name":"Nobelhof","highway":"residential","vertex1":4905,"vertex2":19782}},{"type":"Feature","geometry":{"type":"LineString","coordinates":[[3.81038,51.05966],[3.810455,51.05958],[3.810486,51.05951],[3.81049,51.05945],[3.810486,51.05941]]},"properties":{"highway":"unclassified","vertex1":4904,"vertex2":4902}},{"type":"Feature","geometry":{"type":"LineString","coordinates":[[3.811399,51.06273],[3.810698,51.06389],[3.810332,51.06461]]},"properties":{"highway":"motorway","maxspeed":"120","oneway":"yes","vertex1":4903,"vertex2":19760}},{"type":"Feature","geometry":{"type":"LineString","coordinates":[[3.802279,51.0635],[3.801903,51.06346],[3.801708,51.06343],[3.799998,51.06322]]},"properties":{"name":"Kleingentstraat","highway":"residential","vertex1":4900,"vertex2":5229}},{"type":"Feature","geometry":{"type":"LineString","coordinates":[[3.801567,51.06055],[3.800448,51.05939],[3.800452,51.05933]]},"properties":{"cyclenetwork":"yes","highway":"footway","vertex1":4899,"vertex2":5219}},{"type":"Feature","geometry":{"type":"LineString","coordinates":[[3.801567,51.06055],[3.798995,51.06054]]},"properties":{"name":"Kouterstraat","maxspeed":"50","highway":"residential","vertex1":4899,"vertex2":5244}},{"type":"Feature","geometry":{"type":"LineString","coordinates":[[3.820399,51.05909],[3.820483,51.0591],[3.820562,51.05912],[3.820654,51.05913],[3.820905,51.05915]]},"properties":{"name":"Dendermondesteenweg","oneway":"yes","maxspeed":"50","highway":"secondary","vertex1":4898,"vertex2":4881}},{"type":"Feature","geometry":{"type":"LineString","coordinates":[[3.820399,51.05909],[3.820402,51.0591],[3.820401,51.05912],[3.820393,51.05914],[3.820378,51.05917]]},"properties":{"name":"Dendermondesteenweg","cyclenetwork":"yes","maxspeed":"50","junction":"roundabout","highway":"secondary","cycleway":"lane","vertex1":4898,"vertex2":4897}},{"type":"Feature","geometry":{"type":"LineString","coordinates":[[3.820399,51.05909],[3.820396,51.05907],[3.820382,51.05905],[3.820345,51.05902],[3.820307,51.059],[3.82026,51.05898]]},"properties":{"name":"Dendermondesteenweg","cyclenetwork":"yes","maxspeed":"50","junction":"roundabout","highway":"secondary","cycleway":"lane","vertex1":4898,"vertex2":4882}},{"type":"Feature","geometry":{"type":"LineString","coordinates":[[3.820378,51.05917],[3.820346,51.05919],[3.820304,51.05922],[3.820252,51.05923],[3.820212,51.05923]]},"properties":{"name":"Dendermondesteenweg","cyclenetwork":"yes","maxspeed":"50","junction":"roundabout","highway":"secondary","cycleway":"lane","vertex1":4897,"vertex2":4895}},{"type":"Feature","geometry":{"type":"LineString","coordinates":[[3.820378,51.05917],[3.820562,51.05917],[3.820666,51.05918],[3.820946,51.05924]]},"properties":{"name":"Dendermondesteenweg","oneway":"yes","maxspeed":"50","highway":"secondary","vertex1":4897,"vertex2":4880}},{"type":"Feature","geometry":{"type":"LineString","coordinates":[[3.822178,51.06358],[3.822195,51.06355],[3.822285,51.06344],[3.822612,51.06321],[3.823085,51.06286],[3.823624,51.06248],[3.824111,51.06223],[3.824435,51.06211],[3.82475,51.06207],[3.824922,51.06205],[3.825227,51.06209]]},"properties":{"name":"Balleliewegel","highway":"footway","vertex1":4896,"vertex2":4870}},{"type":"Feature","geometry":{"type":"LineString","coordinates":[[3.820212,51.05923],[3.820167,51.05923],[3.820112,51.05922],[3.820044,51.05919],[3.820015,51.05915],[3.819999,51.05912]]},"properties":{"name":"Dendermondesteenweg","cyclenetwork":"yes","maxspeed":"50","junction":"roundabout","highway":"secondary","cycleway":"lane","vertex1":4895,"vertex2":4889}},{"type":"Feature","geometry":{"type":"LineString","coordinates":[[3.820212,51.05923],[3.820179,51.05943],[3.820084,51.05969],[3.819901,51.06017],[3.819395,51.0615],[3.819322,51.06166],[3.819249,51.06176],[3.819178,51.06185],[3.819078,51.06195],[3.818959,51.06205]]},"properties":{"name":"Damstraat","cyclenetwork":"yes","maxspeed":"50","highway":"tertiary","cycleway":"lane","vertex1":4895,"vertex2":4894}},{"type":"Feature","geometry":{"type":"LineString","coordinates":[[3.818959,51.06205],[3.818801,51.06215]]},"properties":{"name":"Damstraat","cyclenetwork":"yes","maxspeed":"50","highway":"tertiary","cycleway":"lane","vertex1":4894,"vertex2":4892}},{"type":"Feature","geometry":{"type":"LineString","coordinates":[[3.821087,51.06322],[3.820876,51.06352],[3.820735,51.06373],[3.82033,51.06426],[3.820254,51.06424],[3.820097,51.06422],[3.819865,51.06421],[3.819538,51.0642],[3.818832,51.06421],[3.817616,51.06424],[3.817504,51.06424]]},"properties":{"highway":"track","vertex1":4893,"vertex2":4888}},{"type":"Feature","geometry":{"type":"LineString","coordinates":[[3.818801,51.06215],[3.818016,51.06266],[3.817879,51.06276],[3.817765,51.06287],[3.817638,51.06305],[3.817468,51.06332],[3.817236,51.06367],[3.81692,51.06416]]},"properties":{"name":"Damstraat","cyclenetwork":"yes","maxspeed":"50","highway":"tertiary","cycleway":"lane","vertex1":4892,"vertex2":4883}},{"type":"Feature","geometry":{"type":"LineString","coordinates":[[3.813832,51.0593],[3.813866,51.05939]]},"properties":{"maxspeed":"120","oneway":"yes","highway":"motorway_link","vertex1":4891,"vertex2":4879}},{"type":"Feature","geometry":{"type":"LineString","coordinates":[[3.820024,51.05904],[3.820073,51.05901],[3.820133,51.05899],[3.820192,51.05898],[3.82026,51.05898]]},"properties":{"name":"Dendermondesteenweg","cyclenetwork":"yes","maxspeed":"50","junction":"roundabout","highway":"secondary","cycleway":"lane","vertex1":4890,"vertex2":4882}},{"type":"Feature","geometry":{"type":"LineString","coordinates":[[3.820024,51.05904],[3.820002,51.05908],[3.819999,51.05912]]},"properties":{"name":"Dendermondesteenweg","cyclenetwork":"yes","maxspeed":"50","junction":"roundabout","highway":"secondary","cycleway":"lane","vertex1":4890,"vertex2":4889}},{"type":"Feature","geometry":{"type":"LineString","coordinates":[[3.819999,51.05912],[3.819738,51.05907],[3.819362,51.05905],[3.818954,51.059],[3.818576,51.05896]]},"properties":{"name":"Dendermondesteenweg","oneway":"yes","maxspeed":"70","highway":"secondary","cycleway":"lane","vertex1":4889,"vertex2":4884}},{"type":"Feature","geometry":{"type":"LineString","coordinates":[[3.817504,51.06424],[3.81692,51.06416]]},"properties":{"highway":"track","vertex1":4888,"vertex2":4883}},{"type":"Feature","geometry":{"type":"LineString","coordinates":[[3.813413,51.05945],[3.813546,51.05937]]},"properties":{"maxspeed":"120","oneway":"yes","highway":"motorway_link","vertex1":4887,"vertex2":4886}},{"type":"Feature","geometry":{"type":"LineString","coordinates":[[3.822202,51.05933],[3.820905,51.05915]]},"properties":{"name":"Dendermondesteenweg","oneway":"yes","maxspeed":"70","highway":"secondary","cycleway":"lane","vertex1":4885,"vertex2":4881}},{"type":"Feature","geometry":{"type":"LineString","coordinates":[[3.822202,51.05933],[3.823306,51.05949],[3.824053,51.0596],[3.824412,51.05966]]},"properties":{"name":"Dendermondesteenweg","oneway":"yes","maxspeed":"70","highway":"secondary","cycleway":"lane","vertex1":4885,"vertex2":4877}},{"type":"Feature","geometry":{"type":"LineString","coordinates":[[3.822202,51.05933],[3.822221,51.05925],[3.822897,51.05805],[3.823189,51.05754],[3.823605,51.05681]]},"properties":{"highway":"service","vertex1":4885,"vertex2":4867}},{"type":"Feature","geometry":{"type":"LineString","coordinates":[[3.824412,51.05966],[3.825183,51.05981]]},"properties":{"name":"Dendermondesteenweg","oneway":"yes","maxspeed":"70","highway":"secondary","cycleway":"lane","vertex1":4877,"vertex2":4875}},{"type":"Feature","geometry":{"type":"LineString","coordinates":[[3.81692,51.06416],[3.815851,51.06581]]},"properties":{"name":"Damstraat","cyclenetwork":"yes","maxspeed":"50","highway":"tertiary","cycleway":"lane","vertex1":4883,"vertex2":19793}},{"type":"Feature","geometry":{"type":"LineString","coordinates":[[3.820946,51.05924],[3.823032,51.05954],[3.823714,51.05964],[3.824432,51.05973],[3.825183,51.05981]]},"properties":{"name":"Dendermondesteenweg","oneway":"yes","maxspeed":"70","highway":"secondary","cycleway":"lane","vertex1":4880,"vertex2":4875}},{"type":"Feature","geometry":{"type":"LineString","coordinates":[[3.820572,51.0675],[3.820542,51.06754]]},"properties":{"name":"Kapellestraat","highway":"residential","vertex1":19804,"vertex2":19794}},{"type":"Feature","geometry":{"type":"LineString","coordinates":[[3.816755,51.06625],[3.816019,51.06741]]},"properties":{"name":"Rozenstraat","highway":"residential","vertex1":19803,"vertex2":19802}},{"type":"Feature","geometry":{"type":"LineString","coordinates":[[3.816755,51.06625],[3.817869,51.06663],[3.818008,51.06667]]},"properties":{"name":"Haenhoutstraat","highway":"tertiary","vertex1":19803,"vertex2":19799}},{"type":"Feature","geometry":{"type":"LineString","coordinates":[[3.816755,51.06625],[3.816082,51.06603],[3.815869,51.06595]]},"properties":{"name":"Haenhoutstraat","highway":"tertiary","vertex1":19803,"vertex2":19800}},{"type":"Feature","geometry":{"type":"LineString","coordinates":[[3.816019,51.06741],[3.814825,51.06718],[3.813577,51.06699],[3.813299,51.06692]]},"properties":{"name":"Bonsgrachtstraat","cyclenetwork":"yes","highway":"residential","vertex1":19802,"vertex2":19797}},{"type":"Feature","geometry":{"type":"LineString","coordinates":[[3.816019,51.06741],[3.8165,51.06749],[3.816756,51.06756],[3.816974,51.06762],[3.817472,51.06783],[3.817916,51.06803],[3.819794,51.06886]]},"properties":{"name":"Bonsgrachtstraat","cyclenetwork":"yes","highway":"residential","vertex1":19802,"vertex2":19798}},{"type":"Feature","geometry":{"type":"LineString","coordinates":[[3.815679,51.06585],[3.811385,51.06494]]},"properties":{"name":"Vissersstraat","highway":"residential","vertex1":19801,"vertex2":19785}},{"type":"Feature","geometry":{"type":"LineString","coordinates":[[3.815679,51.06585],[3.815669,51.06588],[3.815669,51.06589],[3.815674,51.06591],[3.815682,51.06592],[3.815698,51.06594]]},"properties":{"cyclenetwork":"yes","highway":"tertiary","junction":"roundabout","cycleway":"lane","vertex1":19801,"vertex2":19792}},{"type":"Feature","geometry":{"type":"LineString","coordinates":[[3.815679,51.06585],[3.815699,51.06583],[3.815728,51.06581],[3.81575,51.06581],[3.815784,51.0658],[3.815818,51.0658],[3.815851,51.06581]]},"properties":{"cyclenetwork":"yes","highway":"tertiary","junction":"roundabout","cycleway":"lane","vertex1":19801,"vertex2":19793}},{"type":"Feature","geometry":{"type":"LineString","coordinates":[[3.815869,51.06595],[3.815886,51.06594],[3.815909,51.06593],[3.815923,51.06591],[3.815928,51.06588],[3.815917,51.06585],[3.815902,51.06583],[3.815882,51.06582],[3.815851,51.06581]]},"properties":{"cyclenetwork":"yes","highway":"tertiary","junction":"roundabout","cycleway":"lane","vertex1":19800,"vertex2":19793}},{"type":"Feature","geometry":{"type":"LineString","coordinates":[[3.815869,51.06595],[3.815821,51.06596],[3.815782,51.06596],[3.81575,51.06596],[3.815719,51.06595],[3.815698,51.06594]]},"properties":{"cyclenetwork":"yes","highway":"tertiary","junction":"roundabout","cycleway":"lane","vertex1":19800,"vertex2":19792}},{"type":"Feature","geometry":{"type":"LineString","coordinates":[[3.819794,51.06886],[3.821594,51.06967],[3.822011,51.06985],[3.823925,51.0707]]},"properties":{"name":"Bonsgrachtstraat","cyclenetwork":"yes","highway":"residential","vertex1":19798,"vertex2":19809}},{"type":"Feature","geometry":{"type":"LineString","coordinates":[[3.819794,51.06886],[3.820012,51.06847],[3.820273,51.06794],[3.820403,51.0677],[3.820542,51.06754]]},"properties":{"name":"Kapellestraat","highway":"residential","vertex1":19798,"vertex2":19794}},{"type":"Feature","geometry":{"type":"LineString","coordinates":[[3.819794,51.06886],[3.819171,51.06932],[3.818983,51.0695],[3.818623,51.06991],[3.81828,51.07042],[3.817741,51.07141],[3.817711,51.07153],[3.817774,51.07161],[3.8179,51.07166],[3.818057,51.07169],[3.818148,51.07174],[3.818213,51.07181],[3.818333,51.07187],[3.818626,51.07192],[3.818648,51.07197],[3.816851,51.07382],[3.811428,51.07261]]},"properties":{"highway":"track","vertex1":19798,"vertex2":19757}},{"type":"Feature","geometry":{"type":"LineString","coordinates":[[3.811428,51.07261],[3.811458,51.07249],[3.811809,51.07128],[3.811962,51.07041],[3.812045,51.06996],[3.812157,51.06947],[3.812219,51.06913],[3.812291,51.06889],[3.812487,51.06833],[3.81268,51.06791],[3.81276,51.06768],[3.812794,51.0674],[3.812762,51.06718]]},"properties":{"name":"Schaessestraat","cyclenetwork":"yes","highway":"residential","maxspeed":"90","vertex1":19757,"vertex2":19795}},{"type":"Feature","geometry":{"type":"LineString","coordinates":[[3.813299,51.06692],[3.813763,51.06684],[3.814155,51.06679],[3.814324,51.06675],[3.814443,51.0667],[3.814696,51.06656],[3.814953,51.0664],[3.815698,51.06594]]},"properties":{"name":"Houtstraat","cyclenetwork":"yes","cycleway":"lane","highway":"unclassified","vertex1":19797,"vertex2":19792}},{"type":"Feature","geometry":{"type":"LineString","coordinates":[[3.813299,51.06692],[3.812451,51.06681]]},"properties":{"name":"Schaessestraat","highway":"residential","vertex1":19797,"vertex2":19796}},{"type":"Feature","geometry":{"type":"LineString","coordinates":[[3.813299,51.06692],[3.812835,51.06715],[3.812762,51.06718]]},"properties":{"name":"Houtstraat","cyclenetwork":"yes","highway":"residential","cycleway":"lane","vertex1":19797,"vertex2":19795}},{"type":"Feature","geometry":{"type":"LineString","coordinates":[[3.812451,51.06681],[3.812233,51.06677],[3.81211,51.06672],[3.811946,51.06661],[3.810566,51.06566]]},"properties":{"name":"Schaessestraat","highway":"residential","vertex1":19796,"vertex2":19771}},{"type":"Feature","geometry":{"type":"LineString","coordinates":[[3.812451,51.06681],[3.812558,51.06695],[3.812762,51.06718]]},"properties":{"name":"Schaessestraat","highway":"residential","vertex1":19796,"vertex2":19795}},{"type":"Feature","geometry":{"type":"LineString","coordinates":[[3.812762,51.06718],[3.812132,51.06739],[3.811624,51.06758],[3.811365,51.06763],[3.810989,51.06769],[3.810593,51.06775],[3.810218,51.06778],[3.809954,51.06781],[3.80985,51.06784],[3.809781,51.06787],[3.809732,51.06795],[3.809705,51.06802],[3.809572,51.06849]]},"properties":{"name":"Houtstraat","cyclenetwork":"yes","highway":"residential","cycleway":"lane","vertex1":19795,"vertex2":19780}},{"type":"Feature","geometry":{"type":"LineString","coordinates":[[3.802518,51.06514],[3.802521,51.06534]]},"properties":{"highway":"footway","vertex1":19791,"vertex2":19772}},{"type":"Feature","geometry":{"type":"LineString","coordinates":[[3.807325,51.06894],[3.807654,51.06874],[3.807832,51.06861],[3.807983,51.06847],[3.808424,51.06799],[3.808789,51.06751],[3.809152,51.06688]]},"properties":{"maxspeed":"120","oneway":"yes","highway":"motorway_link","vertex1":19790,"vertex2":19789}},{"type":"Feature","geometry":{"type":"LineString","coordinates":[[3.807325,51.06894],[3.806954,51.069],[3.806889,51.069],[3.806804,51.069],[3.806669,51.069],[3.806551,51.06898]]},"properties":{"name":"Houtstraat","cyclenetwork":"yes","highway":"residential","cycleway":"lane","vertex1":19790,"vertex2":19763}},{"type":"Feature","geometry":{"type":"LineString","coordinates":[[3.807325,51.06894],[3.807904,51.06885],[3.809318,51.06859],[3.809527,51.06853],[3.809572,51.06849]]},"properties":{"name":"Houtstraat","cyclenetwork":"yes","highway":"residential","cycleway":"lane","vertex1":19790,"vertex2":19780}},{"type":"Feature","geometry":{"type":"LineString","coordinates":[[3.809152,51.06688],[3.809339,51.06667]]},"properties":{"maxspeed":"120","oneway":"yes","highway":"motorway_link","vertex1":19789,"vertex2":19778}},{"type":"Feature","geometry":{"type":"LineString","coordinates":[[3.810644,51.06446],[3.810172,51.0654],[3.809871,51.06596],[3.80961,51.06653],[3.808804,51.06848]]},"properties":{"highway":"motorway","maxspeed":"120","oneway":"yes","vertex1":19788,"vertex2":19775}},{"type":"Feature","geometry":{"type":"LineString","coordinates":[[3.803522,51.06544],[3.80353,51.0658],[3.803482,51.06591],[3.803403,51.066],[3.803063,51.0661],[3.802683,51.06622],[3.80251,51.06622]]},"properties":{"name":"Malpertuussingel","highway":"residential","vertex1":19787,"vertex2":19783}},{"type":"Feature","geometry":{"type":"LineString","coordinates":[[3.803522,51.06544],[3.802716,51.06536]]},"properties":{"highway":"footway","vertex1":19787,"vertex2":19766}},{"type":"Feature","geometry":{"type":"LineString","coordinates":[[3.808427,51.06892],[3.808564,51.06856]]},"properties":{"bridge":"yes","highway":"motorway","maxspeed":"120","oneway":"yes","vertex1":19786,"vertex2":19770}},{"type":"Feature","geometry":{"type":"LineString","coordinates":[[3.808427,51.06892],[3.807822,51.0704],[3.807267,51.07159]]},"properties":{"highway":"motorway","maxspeed":"120","oneway":"yes","vertex1":19786,"vertex2":19748}},{"type":"Feature","geometry":{"type":"LineString","coordinates":[[3.801584,51.06522],[3.802096,51.06528],[3.802521,51.06534]]},"properties":{"highway":"footway","vertex1":19784,"vertex2":19772}},{"type":"Feature","geometry":{"type":"LineString","coordinates":[[3.801584,51.06522],[3.800712,51.0651]]},"properties":{"highway":"footway","vertex1":19784,"vertex2":19393}},{"type":"Feature","geometry":{"type":"LineString","coordinates":[[3.801584,51.06522],[3.801536,51.06499]]},"properties":{"highway":"footway","vertex1":19784,"vertex2":19782}},{"type":"Feature","geometry":{"type":"LineString","coordinates":[[3.801584,51.06522],[3.801692,51.06535]]},"properties":{"highway":"footway","vertex1":19784,"vertex2":19768}},{"type":"Feature","geometry":{"type":"LineString","coordinates":[[3.80251,51.06622],[3.802138,51.06621],[3.801506,51.06614]]},"properties":{"name":"Malpertuussingel","highway":"residential","vertex1":19783,"vertex2":19781}},{"type":"Feature","geometry":{"type":"LineString","coordinates":[[3.80251,51.06622],[3.802674,51.06549]]},"properties":{"name":"Kantekleerhof","highway":"residential","vertex1":19783,"vertex2":19774}},{"type":"Feature","geometry":{"type":"LineString","coordinates":[[3.801506,51.06614],[3.800495,51.06602]]},"properties":{"name":"Malpertuussingel","highway":"residential","vertex1":19781,"vertex2":19405}},{"type":"Feature","geometry":{"type":"LineString","coordinates":[[3.801506,51.06614],[3.801692,51.06535]]},"properties":{"name":"Tibeerthof","highway":"residential","vertex1":19781,"vertex2":19768}},{"type":"Feature","geometry":{"type":"LineString","coordinates":[[3.809572,51.06849],[3.80919,51.06983]]},"properties":{"name":"Houtstraat","highway":"unclassified","vertex1":19780,"vertex2":19776}},{"type":"Feature","geometry":{"type":"LineString","coordinates":[[3.805419,51.06591],[3.805272,51.06708]]},"properties":{"name":"Vossenberglaan","highway":"residential","vertex1":19779,"vertex2":19777}},{"type":"Feature","geometry":{"type":"LineString","coordinates":[[3.809339,51.06667],[3.809088,51.06731],[3.808564,51.06856]]},"properties":{"highway":"motorway","maxspeed":"120","oneway":"yes","vertex1":19778,"vertex2":19770}},{"type":"Feature","geometry":{"type":"LineString","coordinates":[[3.809339,51.06667],[3.809952,51.06536],[3.810332,51.06461]]},"properties":{"highway":"motorway","maxspeed":"120","oneway":"yes","vertex1":19778,"vertex2":19760}},{"type":"Feature","geometry":{"type":"LineString","coordinates":[[3.805272,51.06708],[3.805239,51.06747],[3.805078,51.06765],[3.804803,51.06778],[3.804546,51.06783],[3.803962,51.06787],[3.803133,51.06792],[3.802869,51.06794],[3.802703,51.06798],[3.802246,51.06819],[3.801722,51.0685]]},"properties":{"name":"Vossenberglaan","highway":"residential","vertex1":19777,"vertex2":19764}},{"type":"Feature","geometry":{"type":"LineString","coordinates":[[3.805272,51.06708],[3.804109,51.06704],[3.803761,51.06704],[3.803492,51.06707],[3.803056,51.06725],[3.802908,51.06727],[3.802667,51.06727],[3.802279,51.06723],[3.798901,51.06675],[3.798465,51.06673]]},"properties":{"name":"Eyloschlaan","highway":"residential","vertex1":19777,"vertex2":19379}},{"type":"Feature","geometry":{"type":"LineString","coordinates":[[3.808804,51.06848],[3.808654,51.06886]]},"properties":{"bridge":"yes","highway":"motorway","maxspeed":"120","oneway":"yes","vertex1":19775,"vertex2":19769}},{"type":"Feature","geometry":{"type":"LineString","coordinates":[[3.802674,51.06549],[3.802716,51.06536]]},"properties":{"highway":"footway","vertex1":19774,"vertex2":19766}},{"type":"Feature","geometry":{"type":"LineString","coordinates":[[3.802521,51.06534],[3.802716,51.06536]]},"properties":{"highway":"footway","vertex1":19772,"vertex2":19766}},{"type":"Feature","geometry":{"type":"LineString","coordinates":[[3.808654,51.06886],[3.807994,51.07048],[3.807456,51.07163]]},"properties":{"highway":"motorway","maxspeed":"120","oneway":"yes","vertex1":19769,"vertex2":19752}},{"type":"Feature","geometry":{"type":"LineString","coordinates":[[3.806328,51.0681],[3.806375,51.06781],[3.806444,51.06742],[3.806631,51.06638],[3.806686,51.06548],[3.806689,51.06488]]},"properties":{"name":"Petegemstraat","highway":"residential","vertex1":19767,"vertex2":19765}},{"type":"Feature","geometry":{"type":"LineString","coordinates":[[3.806328,51.0681],[3.803953,51.06847],[3.80365,51.06851],[3.801722,51.0685]]},"properties":{"name":"Houtstraat","cyclenetwork":"yes","highway":"residential","cycleway":"lane","vertex1":19767,"vertex2":19764}},{"type":"Feature","geometry":{"type":"LineString","coordinates":[[3.806328,51.0681],[3.806382,51.0681],[3.806407,51.06812],[3.806437,51.06813],[3.80647,51.06814],[3.80648,51.06816],[3.806487,51.06818],[3.806492,51.0682],[3.806511,51.06831],[3.806543,51.06865],[3.806551,51.06898]]},"properties":{"name":"Houtstraat","cyclenetwork":"yes","highway":"residential","cycleway":"lane","vertex1":19767,"vertex2":19763}},{"type":"Feature","geometry":{"type":"LineString","coordinates":[[3.806689,51.06488],[3.80588,51.06488]]},"properties":{"highway":"service","vertex1":19765,"vertex2":19761}},{"type":"Feature","geometry":{"type":"LineString","coordinates":[[3.801722,51.0685],[3.80124,51.06881]]},"properties":{"name":"Houtstraat","highway":"residential","vertex1":19764,"vertex2":19376}},{"type":"Feature","geometry":{"type":"LineString","coordinates":[[3.801722,51.0685],[3.799423,51.06805]]},"properties":{"name":"Verbindingsstraat","cyclenetwork":"yes","highway":"residential","vertex1":19764,"vertex2":19383}},{"type":"Feature","geometry":{"type":"LineString","coordinates":[[3.806551,51.06898],[3.806528,51.06921]]},"properties":{"highway":"residential","vertex1":19763,"vertex2":19773}}]}