{"type":"FeatureCollection","features":[{"type":"Feature","geometry":{"type":"LineString","coordinates":[[3.691406,51.08282],[3.713379,51.08282],[3.713379,51.06902],[3.691406,51.06902],[3.691406,51.08282]]},"properties":{"id":"89776296","zoom":"14"}},{"type":"Feature","geometry":{"type":"LineString","coordinates":[[3.706422,51.06972],[3.707617,51.06934]]},"properties":{"name":"Fuchsiastraat","oneway":"yes","oneway:bicycle":"no","highway":"residential","maxspeed":"30","vertex1":16011,"vertex2":15967}},{"type":"Feature","geometry":{"type":"LineString","coordinates":[[3.706422,51.06972],[3.706203,51.06979],[3.7043,51.07038],[3.704261,51.0704]]},"properties":{"name":"Fuchsiastraat","oneway":"yes","oneway:bicycle":"no","highway":"residential","maxspeed":"30","vertex1":16011,"vertex2":15797}},{"type":"Feature","geometry":{"type":"LineString","coordinates":[[3.706422,51.06972],[3.706013,51.06929]]},"properties":{"name":"Pioenstraat","oneway":"yes","oneway:bicycle":"no","highway":"residential","maxspeed":"30","vertex1":16011,"vertex2":15960}},{"type":"Feature","geometry":{"type":"LineString","coordinates":[[3.703268,51.06917],[3.704049,51.06949],[3.704204,51.06952],[3.704336,51.06951],[3.704448,51.06948],[3.704858,51.06909],[3.704868,51.06904],[3.704859,51.06897],[3.704875,51.06894],[3.705172,51.06865],[3.705195,51.06861],[3.705193,51.06857],[3.705157,51.06852],[3.7051,51.06849],[3.704711,51.06832]]},"properties":{"highway":"service","vertex1":16003,"vertex2":15955}},{"type":"Feature","geometry":{"type":"LineString","coordinates":[[3.703268,51.06917],[3.703193,51.06918],[3.703116,51.06918],[3.70309,51.06916]]},"properties":{"highway":"service","vertex1":16003,"vertex2":15910}},{"type":"Feature","geometry":{"type":"LineString","coordinates":[[3.703268,51.06917],[3.703287,51.06911],[3.703249,51.06905],[3.703169,51.06902],[3.703073,51.06902],[3.702995,51.06906]]},"properties":{"highway":"service","vertex1":16003,"vertex2":15993}},{"type":"Feature","geometry":{"type":"LineString","coordinates":[[3.702995,51.06906],[3.703008,51.06911],[3.703051,51.06915],[3.70309,51.06916]]},"properties":{"highway":"service","vertex1":15993,"vertex2":15910}},{"type":"Feature","geometry":{"type":"LineString","coordinates":[[3.702995,51.06906],[3.702882,51.06902],[3.702742,51.06894],[3.702653,51.06892]]},"properties":{"highway":"service","vertex1":15993,"vertex2":16009}},{"type":"Feature","geometry":{"type":"LineString","coordinates":[[3.702653,51.06892],[3.702614,51.06895],[3.702341,51.06913]]},"properties":{"maxspeed":"30","highway":"service","vertex1":16009,"vertex2":15516}},{"type":"Feature","geometry":{"type":"LineString","coordinates":[[3.710504,51.06918],[3.710863,51.06956],[3.710882,51.06961]]},"properties":{"name":"Roggestraat","highway":"residential","maxspeed":"30","vertex1":15971,"vertex2":15909}},{"type":"Feature","geometry":{"type":"LineString","coordinates":[[3.710504,51.06918],[3.710379,51.06905],[3.710212,51.06889],[3.710047,51.06872],[3.709968,51.06861],[3.70991,51.06849]]},"properties":{"name":"Roggestraat","highway":"residential","maxspeed":"30","vertex1":15971,"vertex2":15973}},{"type":"Feature","geometry":{"type":"LineString","coordinates":[[3.710504,51.06918],[3.711654,51.06878],[3.711662,51.06874],[3.711622,51.06868]]},"properties":{"bicycle":"no","motorcar":"no","foot":"no","highway":"service","vertex1":15971,"vertex2":15963}},{"type":"Feature","geometry":{"type":"LineString","coordinates":[[3.707698,51.06931],[3.707617,51.06934]]},"properties":{"name":"Dahliastraat","highway":"residential","maxspeed":"30","vertex1":15969,"vertex2":15967}},{"type":"Feature","geometry":{"type":"LineString","coordinates":[[3.707698,51.06931],[3.70891,51.06896]]},"properties":{"name":"Fuchsiastraat","oneway":"yes","oneway:bicycle":"no","highway":"residential","maxspeed":"30","vertex1":15969,"vertex2":15954}},{"type":"Feature","geometry":{"type":"LineString","coordinates":[[3.707698,51.06931],[3.70776,51.0694],[3.708611,51.07038]]},"properties":{"name":"Frans van Ryhovelaan","maxspeed":"50","highway":"tertiary","cycleway":"lane","vertex1":15969,"vertex2":15900}},{"type":"Feature","geometry":{"type":"LineString","coordinates":[[3.707698,51.06931],[3.70768,51.06927],[3.707653,51.06918],[3.707636,51.06908],[3.707645,51.06893],[3.707731,51.06863]]},"properties":{"name":"Frans van Ryhovelaan","maxspeed":"50","highway":"tertiary","cycleway":"lane","vertex1":15969,"vertex2":15962}},{"type":"Feature","geometry":{"type":"LineString","coordinates":[[3.70891,51.06896],[3.709944,51.06998]]},"properties":{"name":"Ma√Øsstraat","highway":"residential","maxspeed":"30","vertex1":15954,"vertex2":15872}},{"type":"Feature","geometry":{"type":"LineString","coordinates":[[3.707731,51.06863],[3.70669,51.06904],[3.706013,51.06929]]},"properties":{"name":"Hortensiastraat","oneway":"yes","oneway:bicycle":"no","highway":"residential","maxspeed":"30","vertex1":15962,"vertex2":15960}},{"type":"Feature","geometry":{"type":"LineString","coordinates":[[3.707617,51.06934],[3.707505,51.06948],[3.707325,51.06971],[3.706958,51.07018],[3.706912,51.07026]]},"properties":{"name":"Dahliastraat","highway":"residential","maxspeed":"30","vertex1":15967,"vertex2":15808}},{"type":"Feature","geometry":{"type":"LineString","coordinates":[[3.706013,51.06929],[3.705973,51.06931]]},"properties":{"name":"Hortensiastraat","oneway":"yes","oneway:bicycle":"no","highway":"residential","maxspeed":"30","vertex1":15960,"vertex2":15956}},{"type":"Feature","geometry":{"type":"LineString","coordinates":[[3.705973,51.06931],[3.704666,51.06978],[3.703727,51.07011],[3.703658,51.07015]]},"properties":{"name":"Hortensiastraat","oneway":"yes","oneway:bicycle":"no","highway":"residential","maxspeed":"30","vertex1":15956,"vertex2":15892}},{"type":"Feature","geometry":{"type":"LineString","coordinates":[[3.705973,51.06931],[3.7056,51.06898]]},"properties":{"bicycle":"no","motorcar":"no","foot":"no","highway":"service","vertex1":15956,"vertex2":15980}},{"type":"Feature","geometry":{"type":"LineString","coordinates":[[3.711545,51.06937],[3.710988,51.06959],[3.710882,51.06961]]},"properties":{"highway":"service","vertex1":15948,"vertex2":15909}},{"type":"Feature","geometry":{"type":"LineString","coordinates":[[3.711545,51.06937],[3.711785,51.06927],[3.712193,51.06968],[3.711946,51.06978],[3.711798,51.06963]]},"properties":{"highway":"service","vertex1":15948,"vertex2":15946}},{"type":"Feature","geometry":{"type":"LineString","coordinates":[[3.711545,51.06937],[3.711671,51.0695]]},"properties":{"highway":"service","vertex1":15948,"vertex2":15942}},{"type":"Feature","geometry":{"type":"LineString","coordinates":[[3.711798,51.06963],[3.711671,51.0695]]},"properties":{"highway":"service","vertex1":15946,"vertex2":15942}},{"type":"Feature","geometry":{"type":"LineString","coordinates":[[3.711798,51.06963],[3.711332,51.0698]]},"properties":{"highway":"service","vertex1":15946,"vertex2":15940}},{"type":"Feature","geometry":{"type":"LineString","coordinates":[[3.711671,51.0695],[3.711214,51.06966],[3.711332,51.0698]]},"properties":{"highway":"service","vertex1":15942,"vertex2":15940}},{"type":"Feature","geometry":{"type":"LineString","coordinates":[[3.70309,51.06916],[3.703022,51.06923],[3.702746,51.06939],[3.702341,51.06913]]},"properties":{"highway":"service","vertex1":15910,"vertex2":15516}},{"type":"Feature","geometry":{"type":"LineString","coordinates":[[3.710882,51.06961],[3.710834,51.06964],[3.71006,51.06996],[3.709944,51.06998]]},"properties":{"name":"Roggestraat","highway":"residential","maxspeed":"30","vertex1":15909,"vertex2":15872}},{"type":"Feature","geometry":{"type":"LineString","coordinates":[[3.708817,51.07469],[3.709031,51.07417]]},"properties":{"name":"Poperingestraat","oneway":"yes","oneway:bicycle":"no","highway":"residential","maxspeed":"30","vertex1":15908,"vertex2":15850}},{"type":"Feature","geometry":{"type":"LineString","coordinates":[[3.708817,51.07469],[3.708567,51.07535],[3.708399,51.07573]]},"properties":{"name":"Poperingestraat","oneway":"yes","oneway:bicycle":"no","highway":"residential","maxspeed":"30","vertex1":15908,"vertex2":16869}},{"type":"Feature","geometry":{"type":"LineString","coordinates":[[3.708817,51.07469],[3.708798,51.07467],[3.708721,51.07465],[3.706779,51.0743]]},"properties":{"name":"Geraniumstraat","highway":"residential","maxspeed":"30","vertex1":15908,"vertex2":15827}},{"type":"Feature","geometry":{"type":"LineString","coordinates":[[3.703719,51.07191],[3.704183,51.07161]]},"properties":{"name":"Leliestraat","highway":"residential","maxspeed":"30","vertex1":15907,"vertex2":15888}},{"type":"Feature","geometry":{"type":"LineString","coordinates":[[3.703719,51.07191],[3.703672,51.07195]]},"properties":{"motorcar":"no","highway":"service","vertex1":15907,"vertex2":15903}},{"type":"Feature","geometry":{"type":"LineString","coordinates":[[3.710917,51.07286],[3.712426,51.07228]]},"properties":{"name":"Chrysantstraat","highway":"residential","maxspeed":"30","vertex1":15906,"vertex2":15820}},{"type":"Feature","geometry":{"type":"LineString","coordinates":[[3.710917,51.07286],[3.710589,51.07252]]},"properties":{"name":"Frans van Ryhovelaan","maxspeed":"50","highway":"tertiary","cycleway":"lane","vertex1":15906,"vertex2":15848}},{"type":"Feature","geometry":{"type":"LineString","coordinates":[[3.710917,51.07286],[3.711163,51.07314],[3.711307,51.0733]]},"properties":{"name":"Frans van Ryhovelaan","maxspeed":"50","highway":"tertiary","cycleway":"lane","vertex1":15906,"vertex2":15823}},{"type":"Feature","geometry":{"type":"LineString","coordinates":[[3.704756,51.07274],[3.703672,51.07195]]},"properties":{"highway":"service","vertex1":15905,"vertex2":15903}},{"type":"Feature","geometry":{"type":"LineString","coordinates":[[3.712064,51.07091],[3.7123,51.07133]]},"properties":{"highway":"service","vertex1":15904,"vertex2":15855}},{"type":"Feature","geometry":{"type":"LineString","coordinates":[[3.712064,51.07091],[3.711797,51.07043]]},"properties":{"highway":"service","vertex1":15904,"vertex2":15902}},{"type":"Feature","geometry":{"type":"LineString","coordinates":[[3.712064,51.07091],[3.712266,51.07081]]},"properties":{"highway":"service","vertex1":15904,"vertex2":15896}},{"type":"Feature","geometry":{"type":"LineString","coordinates":[[3.703672,51.07195],[3.703484,51.07207]]},"properties":{"motorcar":"no","highway":"service","vertex1":15903,"vertex2":15815}},{"type":"Feature","geometry":{"type":"LineString","coordinates":[[3.711797,51.07043],[3.711818,51.0704],[3.712016,51.07034],[3.712266,51.07081]]},"properties":{"highway":"service","vertex1":15902,"vertex2":15896}},{"type":"Feature","geometry":{"type":"LineString","coordinates":[[3.703092,51.07227],[3.702716,51.07246]]},"properties":{"motorcar":"no","highway":"service","vertex1":15901,"vertex2":15843}},{"type":"Feature","geometry":{"type":"LineString","coordinates":[[3.703092,51.07227],[3.703484,51.07207]]},"properties":{"motorcar":"no","highway":"service","vertex1":15901,"vertex2":15815}},{"type":"Feature","geometry":{"type":"LineString","coordinates":[[3.703092,51.07227],[3.704235,51.07312]]},"properties":{"highway":"service","vertex1":15901,"vertex2":15845}},{"type":"Feature","geometry":{"type":"LineString","coordinates":[[3.708611,51.07038],[3.70982,51.07],[3.709944,51.06998]]},"properties":{"name":"Lavendelstraat","oneway":"yes","oneway:bicycle":"no","highway":"residential","maxspeed":"30","vertex1":15900,"vertex2":15872}},{"type":"Feature","geometry":{"type":"LineString","coordinates":[[3.708611,51.07038],[3.707466,51.07074]]},"properties":{"name":"Lavendelstraat","oneway":"yes","oneway:bicycle":"no","highway":"residential","maxspeed":"30","vertex1":15900,"vertex2":15877}},{"type":"Feature","geometry":{"type":"LineString","coordinates":[[3.708611,51.07038],[3.709194,51.07101]]},"properties":{"name":"Frans van Ryhovelaan","maxspeed":"50","highway":"tertiary","cycleway":"lane","vertex1":15900,"vertex2":15793}},{"type":"Feature","geometry":{"type":"LineString","coordinates":[[3.702531,51.07256],[3.702044,51.07283]]},"properties":{"highway":"service","vertex1":15899,"vertex2":15758}},{"type":"Feature","geometry":{"type":"LineString","coordinates":[[3.702531,51.07256],[3.702376,51.07307]]},"properties":{"highway":"service","vertex1":15899,"vertex2":15762}},{"type":"Feature","geometry":{"type":"LineString","coordinates":[[3.702531,51.07256],[3.702716,51.07246]]},"properties":{"motorcar":"no","highway":"service","vertex1":15899,"vertex2":15843}},{"type":"Feature","geometry":{"type":"LineString","coordinates":[[3.710359,51.07228],[3.71194,51.07183]]},"properties":{"name":"Klaverstraat","highway":"residential","maxspeed":"30","vertex1":15898,"vertex2":15794}},{"type":"Feature","geometry":{"type":"LineString","coordinates":[[3.710359,51.07228],[3.710288,51.0722]]},"properties":{"name":"Frans van Ryhovelaan","maxspeed":"50","highway":"tertiary","cycleway":"lane","vertex1":15898,"vertex2":15876}},{"type":"Feature","geometry":{"type":"LineString","coordinates":[[3.710359,51.07228],[3.710427,51.07235],[3.710526,51.07245],[3.710589,51.07252]]},"properties":{"name":"Frans van Ryhovelaan","maxspeed":"50","highway":"tertiary","cycleway":"lane","vertex1":15898,"vertex2":15848}},{"type":"Feature","geometry":{"type":"LineString","coordinates":[[3.709452,51.07129],[3.709194,51.07101]]},"properties":{"name":"Frans van Ryhovelaan","maxspeed":"50","highway":"tertiary","cycleway":"lane","vertex1":15897,"vertex2":15793}},{"type":"Feature","geometry":{"type":"LineString","coordinates":[[3.709452,51.07129],[3.710185,51.07208]]},"properties":{"name":"Frans van Ryhovelaan","maxspeed":"50","highway":"tertiary","cycleway":"lane","vertex1":15897,"vertex2":15878}},{"type":"Feature","geometry":{"type":"LineString","coordinates":[[3.709452,51.07129],[3.708752,51.07152]]},"properties":{"highway":"service","vertex1":15897,"vertex2":15837}},{"type":"Feature","geometry":{"type":"LineString","coordinates":[[3.709685,51.07291],[3.709592,51.07288],[3.709569,51.07288],[3.709544,51.07288]]},"properties":{"name":"Edmond Van Beverenplein","maxspeed":"30","highway":"tertiary","vertex1":15895,"vertex2":15860}},{"type":"Feature","geometry":{"type":"LineString","coordinates":[[3.709685,51.07291],[3.709745,51.07283],[3.709858,51.07279]]},"properties":{"name":"Edmond Van Beverenplein","oneway":"yes","maxspeed":"30","highway":"tertiary","vertex1":15895,"vertex2":15842}},{"type":"Feature","geometry":{"type":"LineString","coordinates":[[3.709685,51.07291],[3.70987,51.07298],[3.710463,51.07315]]},"properties":{"name":"Myosotisstraat","highway":"residential","maxspeed":"30","vertex1":15895,"vertex2":15881}},{"type":"Feature","geometry":{"type":"LineString","coordinates":[[3.709569,51.07057],[3.709808,51.0708]]},"properties":{"highway":"service","vertex1":15894,"vertex2":15868}},{"type":"Feature","geometry":{"type":"LineString","coordinates":[[3.706628,51.07019],[3.706842,51.07024],[3.706912,51.07026]]},"properties":{"bicycle":"no","motorcar":"no","foot":"no","highway":"service","vertex1":15893,"vertex2":15808}},{"type":"Feature","geometry":{"type":"LineString","coordinates":[[3.706628,51.07019],[3.706534,51.07018]]},"properties":{"bicycle":"no","motorcar":"no","foot":"no","highway":"service","vertex1":15893,"vertex2":15839}},{"type":"Feature","geometry":{"type":"LineString","coordinates":[[3.706628,51.07019],[3.706513,51.07038],[3.706014,51.07053]]},"properties":{"bicycle":"no","motorcar":"no","foot":"no","highway":"service","vertex1":15893,"vertex2":15799}},{"type":"Feature","geometry":{"type":"LineString","coordinates":[[3.703658,51.07015],[3.703642,51.07016]]},"properties":{"name":"Hortensiastraat","oneway":"yes","oneway:bicycle":"no","highway":"residential","maxspeed":"30","vertex1":15892,"vertex2":15890}},{"type":"Feature","geometry":{"type":"LineString","coordinates":[[3.703658,51.07015],[3.703562,51.07013]]},"properties":{"oneway":"yes","highway":"cycleway","vertex1":15892,"vertex2":15819}},{"type":"Feature","geometry":{"type":"LineString","coordinates":[[3.703658,51.07015],[3.703772,51.07015],[3.704261,51.0704]]},"properties":{"oneway":"yes","highway":"cycleway","vertex1":15892,"vertex2":15797}},{"type":"Feature","geometry":{"type":"LineString","coordinates":[[3.705786,51.07041],[3.706534,51.07018]]},"properties":{"bicycle":"no","motorcar":"no","foot":"no","highway":"service","vertex1":15891,"vertex2":15839}},{"type":"Feature","geometry":{"type":"LineString","coordinates":[[3.703642,51.07016],[3.703562,51.07013]]},"properties":{"name":"Francisco Ferrerlaan","maxspeed":"50","highway":"tertiary","cycleway":"lane","vertex1":15890,"vertex2":15819}},{"type":"Feature","geometry":{"type":"LineString","coordinates":[[3.703642,51.07016],[3.704199,51.07044]]},"properties":{"name":"Francisco Ferrerlaan","maxspeed":"50","highway":"tertiary","vertex1":15890,"vertex2":15873}},{"type":"Feature","geometry":{"type":"LineString","coordinates":[[3.705572,51.0703],[3.706432,51.07003],[3.706534,51.07018]]},"properties":{"bicycle":"no","motorcar":"no","foot":"no","highway":"service","vertex1":15889,"vertex2":15839}},{"type":"Feature","geometry":{"type":"LineString","coordinates":[[3.704183,51.07161],[3.703895,51.07144],[3.704028,51.07132],[3.704038,51.07128]]},"properties":{"highway":"cycleway","vertex1":15888,"vertex2":15874}},{"type":"Feature","geometry":{"type":"LineString","coordinates":[[3.704183,51.07161],[3.704656,51.0713]]},"properties":{"name":"Leliestraat","highway":"residential","maxspeed":"30","vertex1":15888,"vertex2":15847}},{"type":"Feature","geometry":{"type":"LineString","coordinates":[[3.707634,51.07162],[3.707423,51.07192]]},"properties":{"bicycle":"no","motorcar":"no","foot":"no","highway":"service","vertex1":15887,"vertex2":15821}},{"type":"Feature","geometry":{"type":"LineString","coordinates":[[3.707634,51.07162],[3.707489,51.07139]]},"properties":{"bicycle":"no","motorcar":"no","foot":"no","highway":"service","vertex1":15887,"vertex2":15811}},{"type":"Feature","geometry":{"type":"LineString","coordinates":[[3.707634,51.07162],[3.707951,51.07153],[3.707986,51.07158],[3.708081,51.07155],[3.708256,51.07176]]},"properties":{"bicycle":"no","motorcar":"no","foot":"no","highway":"service","vertex1":15887,"vertex2":15885}},{"type":"Feature","geometry":{"type":"LineString","coordinates":[[3.71274,51.07296],[3.712837,51.07317]]},"properties":{"name":"Anjelierstraat","oneway":"yes","oneway:bicycle":"no","highway":"residential","maxspeed":"30","vertex1":15886,"vertex2":15884}},{"type":"Feature","geometry":{"type":"LineString","coordinates":[[3.71274,51.07296],[3.712674,51.07281],[3.712663,51.07274],[3.712684,51.07268],[3.712718,51.07265],[3.712817,51.0726]]},"properties":{"name":"Anjelierstraat","oneway":"yes","oneway:bicycle":"no","highway":"residential","maxspeed":"30","vertex1":15886,"vertex2":15832}},{"type":"Feature","geometry":{"type":"LineString","coordinates":[[3.71274,51.07296],[3.712807,51.07295],[3.712902,51.07292],[3.713002,51.07289],[3.713067,51.07286],[3.713139,51.07281]]},"properties":{"highway":"footway","vertex1":15886,"vertex2":15836}},{"type":"Feature","geometry":{"type":"LineString","coordinates":[[3.712837,51.07317],[3.712854,51.07322],[3.712912,51.07335]]},"properties":{"name":"Anjelierstraat","oneway":"yes","oneway:bicycle":"no","highway":"residential","maxspeed":"30","vertex1":15884,"vertex2":15882}},{"type":"Feature","geometry":{"type":"LineString","coordinates":[[3.712837,51.07317],[3.712885,51.07318],[3.712937,51.07319],[3.713027,51.07319],[3.713115,51.07318],[3.713197,51.07316],[3.713269,51.07313],[3.713327,51.07308],[3.713368,51.07303],[3.713391,51.07298]]},"properties":{"highway":"footway","vertex1":15884,"vertex2":16466}},{"type":"Feature","geometry":{"type":"LineString","coordinates":[[3.713391,51.07298],[3.71358,51.0731]]},"properties":{"name":"Ma√Øsstraat","highway":"residential","maxspeed":"30","vertex1":16466,"vertex2":16416}},{"type":"Feature","geometry":{"type":"LineString","coordinates":[[3.713391,51.07298],[3.713194,51.07285],[3.713139,51.07281]]},"properties":{"name":"Ma√Øsstraat","highway":"residential","maxspeed":"30","vertex1":16466,"vertex2":15836}},{"type":"Feature","geometry":{"type":"LineString","coordinates":[[3.710183,51.07479],[3.710827,51.07432]]},"properties":{"name":"Hoppestraat","highway":"residential","maxspeed":"30","vertex1":15883,"vertex2":15790}},{"type":"Feature","geometry":{"type":"LineString","coordinates":[[3.710183,51.07479],[3.709756,51.07514],[3.709627,51.07541],[3.709478,51.07568],[3.709426,51.07582]]},"properties":{"name":"Hoppestraat","oneway":"yes","oneway:bicycle":"no","highway":"residential","maxspeed":"30","vertex1":15883,"vertex2":16870}},{"type":"Feature","geometry":{"type":"LineString","coordinates":[[3.710183,51.07479],[3.709061,51.07417],[3.709031,51.07417]]},"properties":{"name":"Gambrinusstraat","oneway":"yes","oneway:bicycle":"no","highway":"residential","maxspeed":"30","vertex1":15883,"vertex2":15850}},{"type":"Feature","geometry":{"type":"LineString","coordinates":[[3.712912,51.07335],[3.712976,51.07349]]},"properties":{"name":"Anjelierstraat","oneway":"yes","oneway:bicycle":"no","highway":"residential","maxspeed":"30","vertex1":15882,"vertex2":15880}},{"type":"Feature","geometry":{"type":"LineString","coordinates":[[3.712912,51.07335],[3.71358,51.0731]]},"properties":{"name":"Boekweitstraat","highway":"residential","vertex1":15882,"vertex2":16416}},{"type":"Feature","geometry":{"type":"LineString","coordinates":[[3.710463,51.07315],[3.709435,51.07389],[3.709271,51.07396],[3.709135,51.074],[3.709105,51.074]]},"properties":{"name":"Radijsstraat","oneway":"yes","oneway:bicycle":"no","highway":"residential","maxspeed":"30","vertex1":15881,"vertex2":15858}},{"type":"Feature","geometry":{"type":"LineString","coordinates":[[3.710463,51.07315],[3.71097,51.0733],[3.711198,51.07329],[3.711307,51.0733]]},"properties":{"name":"Myosotisstraat","highway":"residential","maxspeed":"30","vertex1":15881,"vertex2":15823}},{"type":"Feature","geometry":{"type":"LineString","coordinates":[[3.712976,51.07349],[3.713226,51.07405],[3.713396,51.07444]]},"properties":{"name":"Anjelierstraat","oneway":"yes","oneway:bicycle":"no","highway":"residential","maxspeed":"30","vertex1":15880,"vertex2":16462}},{"type":"Feature","geometry":{"type":"LineString","coordinates":[[3.712976,51.07349],[3.71322,51.07346]]},"properties":{"name":"Egelantierstraat","highway":"residential","vertex1":15880,"vertex2":15833}},{"type":"Feature","geometry":{"type":"LineString","coordinates":[[3.713396,51.07444],[3.713414,51.07455]]},"properties":{"name":"Anjelierstraat","oneway":"yes","oneway:bicycle":"no","highway":"residential","vertex1":16462,"vertex2":16464}},{"type":"Feature","geometry":{"type":"LineString","coordinates":[[3.705541,51.0711],[3.705553,51.07109],[3.705867,51.07084],[3.705875,51.07078],[3.705839,51.07074],[3.705429,51.07054],[3.705376,51.07053],[3.705318,51.07055],[3.704987,51.0708],[3.704972,51.07081]]},"properties":{"name":"Jan Lampensstraat","highway":"residential","maxspeed":"30","vertex1":15879,"vertex2":15809}},{"type":"Feature","geometry":{"type":"LineString","coordinates":[[3.705541,51.0711],[3.706126,51.07139],[3.706216,51.07143]]},"properties":{"name":"Francisco Ferrerlaan","maxspeed":"50","highway":"tertiary","cycleway":"lane","vertex1":15879,"vertex2":15812}},{"type":"Feature","geometry":{"type":"LineString","coordinates":[[3.705541,51.0711],[3.705158,51.0709]]},"properties":{"name":"Francisco Ferrerlaan","maxspeed":"50","highway":"tertiary","cycleway":"lane","vertex1":15879,"vertex2":15822}},{"type":"Feature","geometry":{"type":"LineString","coordinates":[[3.710185,51.07208],[3.710216,51.07211],[3.710288,51.0722]]},"properties":{"name":"Frans van Ryhovelaan","maxspeed":"50","highway":"tertiary","cycleway":"lane","vertex1":15878,"vertex2":15876}},{"type":"Feature","geometry":{"type":"LineString","coordinates":[[3.710185,51.07208],[3.709883,51.07219]]},"properties":{"name":"Edmond Van Beverenplein","oneway":"yes","maxspeed":"30","highway":"tertiary","vertex1":15878,"vertex2":15852}},{"type":"Feature","geometry":{"type":"LineString","coordinates":[[3.707466,51.07074],[3.706624,51.07101],[3.706482,51.07098]]},"properties":{"name":"Lavendelstraat","oneway":"yes","oneway:bicycle":"no","highway":"residential","maxspeed":"30","vertex1":15877,"vertex2":15810}},{"type":"Feature","geometry":{"type":"LineString","coordinates":[[3.707466,51.07074],[3.707497,51.07078],[3.707615,51.07094],[3.707875,51.07102],[3.707955,51.07111]]},"properties":{"bicycle":"no","motorcar":"no","foot":"no","highway":"service","vertex1":15877,"vertex2":15835}},{"type":"Feature","geometry":{"type":"LineString","coordinates":[[3.705303,51.07409],[3.70488,51.07447]]},"properties":{"name":"Geraniumstraat","highway":"residential","maxspeed":"30","vertex1":15875,"vertex2":15813}},{"type":"Feature","geometry":{"type":"LineString","coordinates":[[3.705303,51.07409],[3.705522,51.07407],[3.705882,51.07413]]},"properties":{"name":"Geraniumstraat","highway":"residential","maxspeed":"30","vertex1":15875,"vertex2":15829}},{"type":"Feature","geometry":{"type":"LineString","coordinates":[[3.705303,51.07409],[3.70495,51.07334]]},"properties":{"name":"Narcisstraat","highway":"residential","maxspeed":"30","vertex1":15875,"vertex2":15859}},{"type":"Feature","geometry":{"type":"LineString","coordinates":[[3.704038,51.07128],[3.703685,51.07109],[3.703677,51.07103],[3.703574,51.07098],[3.703376,51.07087],[3.703223,51.07078],[3.703221,51.07066],[3.70294,51.07051]]},"properties":{"name":"Hyacintstraat","highway":"residential","maxspeed":"30","vertex1":15874,"vertex2":15803}},{"type":"Feature","geometry":{"type":"LineString","coordinates":[[3.704199,51.07044],[3.704216,51.07043],[3.704261,51.0704]]},"properties":{"name":"Fuchsiastraat","oneway":"yes","oneway:bicycle":"no","highway":"residential","maxspeed":"30","vertex1":15873,"vertex2":15797}},{"type":"Feature","geometry":{"type":"LineString","coordinates":[[3.704199,51.07044],[3.704315,51.0705]]},"properties":{"name":"Francisco Ferrerlaan","maxspeed":"50","highway":"tertiary","vertex1":15873,"vertex2":15851}},{"type":"Feature","geometry":{"type":"LineString","coordinates":[[3.709944,51.06998],[3.710283,51.07029],[3.710618,51.07061]]},"properties":{"name":"Ma√Øsstraat","highway":"residential","maxspeed":"30","vertex1":15872,"vertex2":15870}},{"type":"Feature","geometry":{"type":"LineString","coordinates":[[3.70614,51.07418],[3.705882,51.07413]]},"properties":{"name":"Geraniumstraat","highway":"residential","maxspeed":"30","vertex1":15871,"vertex2":15829}},{"type":"Feature","geometry":{"type":"LineString","coordinates":[[3.70614,51.07418],[3.706186,51.07419]]},"properties":{"name":"Geraniumstraat","highway":"residential","maxspeed":"30","vertex1":15871,"vertex2":15807}},{"type":"Feature","geometry":{"type":"LineString","coordinates":[[3.70614,51.07418],[3.705968,51.07457]]},"properties":{"name":"Geraniumstraat","highway":"footway","vertex1":15871,"vertex2":15867}},{"type":"Feature","geometry":{"type":"LineString","coordinates":[[3.710618,51.07061],[3.710764,51.07075],[3.711239,51.07118],[3.711805,51.07172],[3.71194,51.07183]]},"properties":{"name":"Ma√Øsstraat","highway":"residential","maxspeed":"30","vertex1":15870,"vertex2":15794}},{"type":"Feature","geometry":{"type":"LineString","coordinates":[[3.710618,51.07061],[3.709898,51.07089],[3.709808,51.0708]]},"properties":{"highway":"service","vertex1":15870,"vertex2":15868}},{"type":"Feature","geometry":{"type":"LineString","coordinates":[[3.706446,51.07424],[3.706186,51.07419]]},"properties":{"name":"Geraniumstraat","highway":"residential","maxspeed":"30","vertex1":15869,"vertex2":15807}},{"type":"Feature","geometry":{"type":"LineString","coordinates":[[3.706446,51.07424],[3.706779,51.0743]]},"properties":{"name":"Geraniumstraat","highway":"residential","maxspeed":"30","vertex1":15869,"vertex2":15827}},{"type":"Feature","geometry":{"type":"LineString","coordinates":[[3.706446,51.07424],[3.706299,51.07461]]},"properties":{"name":"Geraniumstraat","highway":"footway","vertex1":15869,"vertex2":15791}},{"type":"Feature","geometry":{"type":"LineString","coordinates":[[3.709808,51.0708],[3.70945,51.07092],[3.709194,51.07101]]},"properties":{"highway":"service","vertex1":15868,"vertex2":15793}},{"type":"Feature","geometry":{"type":"LineString","coordinates":[[3.705931,51.07274],[3.705422,51.07259]]},"properties":{"highway":"service","vertex1":15866,"vertex2":15838}},{"type":"Feature","geometry":{"type":"LineString","coordinates":[[3.706621,51.07466],[3.706779,51.0743]]},"properties":{"name":"Geraniumstraat","highway":"footway","vertex1":15865,"vertex2":15827}},{"type":"Feature","geometry":{"type":"LineString","coordinates":[[3.705789,51.07281],[3.705369,51.07267]]},"properties":{"highway":"service","vertex1":15864,"vertex2":15840}},{"type":"Feature","geometry":{"type":"LineString","coordinates":[[3.702742,51.07396],[3.702563,51.074],[3.702459,51.07404],[3.702258,51.07411],[3.702183,51.07414],[3.70211,51.07418],[3.702046,51.07424],[3.701879,51.07443]]},"properties":{"name":"Mimosastraat","highway":"residential","maxspeed":"30","vertex1":15863,"vertex2":15720}},{"type":"Feature","geometry":{"type":"LineString","coordinates":[[3.702742,51.07396],[3.704149,51.07352]]},"properties":{"name":"Mimosastraat","highway":"residential","maxspeed":"30","vertex1":15863,"vertex2":15805}},{"type":"Feature","geometry":{"type":"LineString","coordinates":[[3.702742,51.07396],[3.702886,51.07405],[3.703835,51.07467]]},"properties":{"name":"Grensstraat","highway":"residential","maxspeed":"30","vertex1":15863,"vertex2":15804}},{"type":"Feature","geometry":{"type":"LineString","coordinates":[[3.713272,51.07461],[3.713276,51.07462],[3.713285,51.07464],[3.7133,51.07465],[3.713318,51.07466],[3.713491,51.07473],[3.713546,51.07476]]},"properties":{"name":"Frans van Ryhovelaan","maxspeed":"50","highway":"tertiary","junction":"roundabout","vertex1":15862,"vertex2":16413}},{"type":"Feature","geometry":{"type":"LineString","coordinates":[[3.713272,51.07461],[3.713275,51.07459],[3.713284,51.07458],[3.713298,51.07456],[3.713317,51.07455],[3.71334,51.07455],[3.713364,51.07454],[3.713389,51.07454],[3.713414,51.07455]]},"properties":{"name":"Frans van Ryhovelaan","maxspeed":"50","highway":"tertiary","junction":"roundabout","vertex1":15862,"vertex2":16464}},{"type":"Feature","geometry":{"type":"LineString","coordinates":[[3.713272,51.07461],[3.712914,51.07444],[3.712741,51.07435],[3.712562,51.07423],[3.712336,51.07408]]},"properties":{"name":"Frans van Ryhovelaan","maxspeed":"50","highway":"tertiary","cycleway":"lane","vertex1":15862,"vertex2":15800}},{"type":"Feature","geometry":{"type":"LineString","coordinates":[[3.713546,51.07476],[3.713524,51.07494]]},"properties":{"name":"Veronicastraat","oneway":"yes","highway":"residential","maxspeed":"30","vertex1":16413,"vertex2":16415}},{"type":"Feature","geometry":{"type":"LineString","coordinates":[[3.71322,51.07346],[3.71322,51.07346]]},"properties":{"name":"Egelantierstraat","highway":"residential","vertex1":15861,"vertex2":15833}},{"type":"Feature","geometry":{"type":"LineString","coordinates":[[3.71322,51.07346],[3.713583,51.07333]]},"properties":{"name":"Egelantierstraat","highway":"residential","vertex1":15861,"vertex2":16437}},{"type":"Feature","geometry":{"type":"LineString","coordinates":[[3.71322,51.07346],[3.713298,51.07365]]},"properties":{"name":"Egelantierstraat","highway":"pedestrian","vertex1":15861,"vertex2":15825}},{"type":"Feature","geometry":{"type":"LineString","coordinates":[[3.713583,51.07333],[3.713583,51.07333]]},"properties":{"name":"Egelantierstraat","highway":"residential","vertex1":16437,"vertex2":16484}},{"type":"Feature","geometry":{"type":"LineString","coordinates":[[3.709544,51.07288],[3.709526,51.07298],[3.709419,51.07325],[3.709105,51.074]]},"properties":{"name":"Poperingestraat","oneway":"yes","oneway:bicycle":"no","highway":"residential","maxspeed":"30","vertex1":15860,"vertex2":15858}},{"type":"Feature","geometry":{"type":"LineString","coordinates":[[3.709544,51.07288],[3.709522,51.07282],[3.709377,51.07266],[3.709232,51.07249],[3.709158,51.07243]]},"properties":{"name":"Edmond Van Beverenplein","maxspeed":"30","highway":"tertiary","vertex1":15860,"vertex2":15806}},{"type":"Feature","geometry":{"type":"LineString","coordinates":[[3.70495,51.07334],[3.704808,51.07335],[3.704512,51.07342],[3.704149,51.07352]]},"properties":{"name":"Mimosastraat","highway":"residential","maxspeed":"30","vertex1":15859,"vertex2":15805}},{"type":"Feature","geometry":{"type":"LineString","coordinates":[[3.70495,51.07334],[3.705756,51.0732]]},"properties":{"name":"Mimosastraat","highway":"residential","maxspeed":"30","vertex1":15859,"vertex2":15834}},{"type":"Feature","geometry":{"type":"LineString","coordinates":[[3.70495,51.07334],[3.704969,51.07325],[3.705267,51.07281],[3.705369,51.07267]]},"properties":{"name":"Dahliastraat","highway":"residential","maxspeed":"30","vertex1":15859,"vertex2":15840}},{"type":"Feature","geometry":{"type":"LineString","coordinates":[[3.709105,51.074],[3.709031,51.07417]]},"properties":{"name":"Poperingestraat","oneway":"yes","oneway:bicycle":"no","highway":"residential","maxspeed":"30","vertex1":15858,"vertex2":15850}},{"type":"Feature","geometry":{"type":"LineString","coordinates":[[3.71229,51.07195],[3.712462,51.07198],[3.712567,51.07206],[3.712617,51.07214],[3.712614,51.07224]]},"properties":{"highway":"service","vertex1":15857,"vertex2":15795}},{"type":"Feature","geometry":{"type":"LineString","coordinates":[[3.71229,51.07195],[3.71226,51.07206],[3.712248,51.07211]]},"properties":{"highway":"service","vertex1":15857,"vertex2":15792}},{"type":"Feature","geometry":{"type":"LineString","coordinates":[[3.71229,51.07195],[3.712277,51.07152],[3.7123,51.07133]]},"properties":{"highway":"service","vertex1":15857,"vertex2":15855}},{"type":"Feature","geometry":{"type":"LineString","coordinates":[[3.709459,51.07234],[3.709387,51.07236],[3.709184,51.07243],[3.709158,51.07243]]},"properties":{"name":"Edmond Van Beverenplein","oneway":"yes","maxspeed":"30","highway":"tertiary","vertex1":15856,"vertex2":15806}},{"type":"Feature","geometry":{"type":"LineString","coordinates":[[3.709459,51.07234],[3.709673,51.07226]]},"properties":{"name":"Edmond Van Beverenplein","oneway":"yes","maxspeed":"30","highway":"tertiary","vertex1":15856,"vertex2":15854}},{"type":"Feature","geometry":{"type":"LineString","coordinates":[[3.709459,51.07234],[3.709858,51.07279]]},"properties":{"highway":"service","vertex1":15856,"vertex2":15842}},{"type":"Feature","geometry":{"type":"LineString","coordinates":[[3.7123,51.07133],[3.71233,51.07107],[3.712373,51.07076],[3.712368,51.0706],[3.712408,51.07055],[3.713465,51.07006],[3.713583,51.07007],[3.714044,51.07016],[3.714302,51.07027],[3.714715,51.07063],[3.715533,51.07137],[3.716056,51.07183],[3.716163,51.07194],[3.716177,51.07201],[3.71616,51.07211],[3.715699,51.07236],[3.71542,51.07262]]},"properties":{"highway":"service","vertex1":15855,"vertex2":16447}},{"type":"Feature","geometry":{"type":"LineString","coordinates":[[3.71542,51.07262],[3.714883,51.07286]]},"properties":{"highway":"service","vertex1":16447,"vertex2":16449}},{"type":"Feature","geometry":{"type":"LineString","coordinates":[[3.709673,51.07226],[3.709883,51.07219]]},"properties":{"name":"Edmond Van Beverenplein","oneway":"yes","maxspeed":"30","highway":"tertiary","vertex1":15854,"vertex2":15852}},{"type":"Feature","geometry":{"type":"LineString","coordinates":[[3.709673,51.07226],[3.710063,51.07271]]},"properties":{"highway":"service","vertex1":15854,"vertex2":15844}},{"type":"Feature","geometry":{"type":"LineString","coordinates":[[3.703486,51.07009],[3.703468,51.0701],[3.703406,51.07015],[3.70294,51.07051]]},"properties":{"name":"Clematisstraat","highway":"residential","maxspeed":"30","vertex1":15853,"vertex2":15803}},{"type":"Feature","geometry":{"type":"LineString","coordinates":[[3.703486,51.07009],[3.703562,51.07013]]},"properties":{"name":"Francisco Ferrerlaan","maxspeed":"50","highway":"tertiary","cycleway":"lane","vertex1":15853,"vertex2":15819}},{"type":"Feature","geometry":{"type":"LineString","coordinates":[[3.703486,51.07009],[3.70325,51.06997],[3.70295,51.06979],[3.70265,51.06961],[3.702389,51.06945],[3.702137,51.06927]]},"properties":{"name":"Francisco Ferrerlaan","maxspeed":"50","highway":"tertiary","cycleway":"lane","vertex1":15853,"vertex2":15524}},{"type":"Feature","geometry":{"type":"LineString","coordinates":[[3.709883,51.07219],[3.710284,51.07263]]},"properties":{"highway":"service","vertex1":15852,"vertex2":15846}},{"type":"Feature","geometry":{"type":"LineString","coordinates":[[3.704315,51.0705],[3.704299,51.07047],[3.704261,51.0704]]},"properties":{"oneway":"yes","highway":"cycleway","vertex1":15851,"vertex2":15797}},{"type":"Feature","geometry":{"type":"LineString","coordinates":[[3.704315,51.0705],[3.704265,51.07049],[3.704176,51.07048],[3.704049,51.07045],[3.703718,51.07029],[3.703653,51.07023],[3.703626,51.07018],[3.703562,51.07013]]},"properties":{"oneway":"yes","highway":"cycleway","vertex1":15851,"vertex2":15819}},{"type":"Feature","geometry":{"type":"LineString","coordinates":[[3.704315,51.0705],[3.704972,51.07081]]},"properties":{"name":"Francisco Ferrerlaan","maxspeed":"50","highway":"tertiary","cycleway":"lane","vertex1":15851,"vertex2":15809}},{"type":"Feature","geometry":{"type":"LineString","coordinates":[[3.704379,51.07099],[3.704802,51.07119]]},"properties":{"name":"Ericastraat","highway":"residential","maxspeed":"30","vertex1":15849,"vertex2":15817}},{"type":"Feature","geometry":{"type":"LineString","coordinates":[[3.710589,51.07252],[3.710469,51.07256],[3.710284,51.07263]]},"properties":{"name":"Edmond Van Beverenplein","oneway":"yes","maxspeed":"30","highway":"tertiary","vertex1":15848,"vertex2":15846}},{"type":"Feature","geometry":{"type":"LineString","coordinates":[[3.704656,51.0713],[3.705479,51.07169]]},"properties":{"name":"Irisstraat","highway":"residential","maxspeed":"30","vertex1":15847,"vertex2":15789}},{"type":"Feature","geometry":{"type":"LineString","coordinates":[[3.704656,51.0713],[3.704698,51.07127],[3.704802,51.07119]]},"properties":{"name":"Crocusstraat","highway":"residential","maxspeed":"30","vertex1":15847,"vertex2":15817}},{"type":"Feature","geometry":{"type":"LineString","coordinates":[[3.710284,51.07263],[3.710063,51.07271]]},"properties":{"name":"Edmond Van Beverenplein","oneway":"yes","maxspeed":"30","highway":"tertiary","vertex1":15846,"vertex2":15844}},{"type":"Feature","geometry":{"type":"LineString","coordinates":[[3.710063,51.07271],[3.709858,51.07279]]},"properties":{"name":"Edmond Van Beverenplein","oneway":"yes","maxspeed":"30","highway":"tertiary","vertex1":15844,"vertex2":15842}},{"type":"Feature","geometry":{"type":"LineString","coordinates":[[3.702716,51.07246],[3.702409,51.07224],[3.702385,51.0722]]},"properties":{"highway":"service","vertex1":15843,"vertex2":15662}},{"type":"Feature","geometry":{"type":"LineString","coordinates":[[3.704392,51.07498],[3.70488,51.07447]]},"properties":{"name":"Geraniumstraat","highway":"residential","maxspeed":"30","vertex1":15841,"vertex2":15813}},{"type":"Feature","geometry":{"type":"LineString","coordinates":[[3.704392,51.07498],[3.703835,51.07467]]},"properties":{"name":"Grensstraat","highway":"residential","maxspeed":"30","vertex1":15841,"vertex2":15804}},{"type":"Feature","geometry":{"type":"LineString","coordinates":[[3.704392,51.07498],[3.704804,51.07516],[3.705346,51.07533],[3.705984,51.07549],[3.706843,51.07562],[3.707374,51.07566]]},"properties":{"name":"Grensstraat","highway":"residential","maxspeed":"30","vertex1":15841,"vertex2":16871}},{"type":"Feature","geometry":{"type":"LineString","coordinates":[[3.705369,51.07267],[3.705422,51.07259]]},"properties":{"name":"Dahliastraat","highway":"residential","maxspeed":"30","vertex1":15840,"vertex2":15838}},{"type":"Feature","geometry":{"type":"LineString","coordinates":[[3.705422,51.07259],[3.705589,51.07235],[3.705828,51.072]]},"properties":{"name":"Dahliastraat","highway":"residential","maxspeed":"30","vertex1":15838,"vertex2":15816}},{"type":"Feature","geometry":{"type":"LineString","coordinates":[[3.713139,51.07281],[3.712817,51.0726]]},"properties":{"name":"Ma√Øsstraat","highway":"residential","maxspeed":"30","vertex1":15836,"vertex2":15832}},{"type":"Feature","geometry":{"type":"LineString","coordinates":[[3.705756,51.0732],[3.706726,51.07302],[3.707942,51.07272]]},"properties":{"name":"Mimosastraat","highway":"residential","maxspeed":"30","vertex1":15834,"vertex2":15830}},{"type":"Feature","geometry":{"type":"LineString","coordinates":[[3.705756,51.0732],[3.706186,51.07419]]},"properties":{"name":"Cyclamenstraat","oneway":"yes","oneway:bicycle":"no","highway":"residential","maxspeed":"30","vertex1":15834,"vertex2":15807}},{"type":"Feature","geometry":{"type":"LineString","coordinates":[[3.71322,51.07346],[3.713583,51.07333]]},"properties":{"name":"Egelantierstraat","highway":"pedestrian","vertex1":15833,"vertex2":16484}},{"type":"Feature","geometry":{"type":"LineString","coordinates":[[3.713583,51.07333],[3.713798,51.07349],[3.713766,51.07351],[3.713641,51.07346],[3.713351,51.07356],[3.713347,51.07365],[3.713298,51.07365]]},"properties":{"name":"Egelantierstraat","highway":"pedestrian","vertex1":16484,"vertex2":15825}},{"type":"Feature","geometry":{"type":"LineString","coordinates":[[3.712817,51.0726],[3.712597,51.07243],[3.712426,51.07228]]},"properties":{"name":"Ma√Øsstraat","highway":"residential","maxspeed":"30","vertex1":15832,"vertex2":15820}},{"type":"Feature","geometry":{"type":"LineString","coordinates":[[3.702738,51.07198],[3.70215,51.07156]]},"properties":{"highway":"service","vertex1":15831,"vertex2":15677}},{"type":"Feature","geometry":{"type":"LineString","coordinates":[[3.702738,51.07198],[3.702403,51.07217],[3.702385,51.0722]]},"properties":{"highway":"service","vertex1":15831,"vertex2":15662}},{"type":"Feature","geometry":{"type":"LineString","coordinates":[[3.702738,51.07198],[3.703063,51.07182],[3.703101,51.07181],[3.703151,51.07183],[3.703484,51.07207]]},"properties":{"highway":"service","vertex1":15831,"vertex2":15815}},{"type":"Feature","geometry":{"type":"LineString","coordinates":[[3.707942,51.07272],[3.708286,51.07264],[3.709029,51.07247],[3.709133,51.07244],[3.709158,51.07243]]},"properties":{"name":"Mimosastraat","highway":"residential","maxspeed":"30","vertex1":15830,"vertex2":15806}},{"type":"Feature","geometry":{"type":"LineString","coordinates":[[3.707942,51.07272],[3.705828,51.072]]},"properties":{"name":"Jasmijnstraat","highway":"residential","maxspeed":"30","vertex1":15830,"vertex2":15816}},{"type":"Feature","geometry":{"type":"LineString","coordinates":[[3.705882,51.07413],[3.705717,51.07454]]},"properties":{"name":"Geraniumstraat","highway":"footway","vertex1":15829,"vertex2":15796}},{"type":"Feature","geometry":{"type":"LineString","coordinates":[[3.71258,51.07273],[3.71242,51.07236],[3.712446,51.07236],[3.712698,51.07257],[3.712708,51.07262],[3.712623,51.07267]]},"properties":{"name":"Anjelierstraat","highway":"pedestrian","vertex1":15828,"vertex2":15826}},{"type":"Feature","geometry":{"type":"LineString","coordinates":[[3.71258,51.07273],[3.712604,51.07272]]},"properties":{"name":"Anjelierstraat","highway":"pedestrian","vertex1":15828,"vertex2":15824}},{"type":"Feature","geometry":{"type":"LineString","coordinates":[[3.712623,51.07267],[3.712604,51.07272]]},"properties":{"name":"Anjelierstraat","highway":"pedestrian","vertex1":15826,"vertex2":15824}},{"type":"Feature","geometry":{"type":"LineString","coordinates":[[3.711307,51.0733],[3.71147,51.07346],[3.711628,51.0736],[3.712225,51.07401],[3.712336,51.07408]]},"properties":{"name":"Frans van Ryhovelaan","maxspeed":"50","highway":"tertiary","cycleway":"lane","vertex1":15823,"vertex2":15800}},{"type":"Feature","geometry":{"type":"LineString","coordinates":[[3.705158,51.0709],[3.705142,51.07092],[3.705062,51.07098],[3.704802,51.07119]]},"properties":{"name":"Crocusstraat","highway":"residential","maxspeed":"30","vertex1":15822,"vertex2":15817}},{"type":"Feature","geometry":{"type":"LineString","coordinates":[[3.705158,51.0709],[3.705082,51.07087],[3.704972,51.07081]]},"properties":{"name":"Francisco Ferrerlaan","maxspeed":"50","highway":"tertiary","cycleway":"lane","vertex1":15822,"vertex2":15809}},{"type":"Feature","geometry":{"type":"LineString","coordinates":[[3.707423,51.07192],[3.708054,51.07212],[3.708287,51.07218],[3.708622,51.07226],[3.708848,51.07231],[3.708995,51.07235],[3.709063,51.07238],[3.709158,51.07243]]},"properties":{"name":"Francisco Ferrerlaan","maxspeed":"50","highway":"tertiary","cycleway":"lane","vertex1":15821,"vertex2":15806}},{"type":"Feature","geometry":{"type":"LineString","coordinates":[[3.707423,51.07192],[3.707237,51.07186],[3.70696,51.07175],[3.706704,51.07165],[3.706294,51.07146],[3.706216,51.07143]]},"properties":{"name":"Francisco Ferrerlaan","maxspeed":"50","highway":"tertiary","cycleway":"lane","vertex1":15821,"vertex2":15812}},{"type":"Feature","geometry":{"type":"LineString","coordinates":[[3.712426,51.07228],[3.71236,51.07222]]},"properties":{"name":"Ma√Øsstraat","highway":"residential","maxspeed":"30","vertex1":15820,"vertex2":15801}},{"type":"Feature","geometry":{"type":"LineString","coordinates":[[3.711911,51.07537],[3.711722,51.07553],[3.711509,51.07571]]},"properties":{"highway":"footway","vertex1":15818,"vertex2":16839}},{"type":"Feature","geometry":{"type":"LineString","coordinates":[[3.711911,51.07537],[3.711528,51.07512],[3.711579,51.07507],[3.711362,51.07497],[3.711237,51.07491]]},"properties":{"highway":"service","vertex1":15818,"vertex2":15798}},{"type":"Feature","geometry":{"type":"LineString","coordinates":[[3.711911,51.07537],[3.712073,51.07548]]},"properties":{"highway":"service","vertex1":15818,"vertex2":16837}},{"type":"Feature","geometry":{"type":"LineString","coordinates":[[3.705828,51.072],[3.706006,51.07175]]},"properties":{"name":"Dahliastraat","highway":"residential","maxspeed":"30","vertex1":15816,"vertex2":15814}},{"type":"Feature","geometry":{"type":"LineString","coordinates":[[3.706006,51.07175],[3.706168,51.07152],[3.706208,51.07145],[3.706216,51.07143]]},"properties":{"name":"Dahliastraat","highway":"residential","maxspeed":"30","vertex1":15814,"vertex2":15812}},{"type":"Feature","geometry":{"type":"LineString","coordinates":[[3.706006,51.07175],[3.705788,51.07169],[3.705642,51.07166],[3.705479,51.07169]]},"properties":{"highway":"cycleway","vertex1":15814,"vertex2":15789}},{"type":"Feature","geometry":{"type":"LineString","coordinates":[[3.70488,51.07447],[3.704149,51.07352]]},"properties":{"name":"Cliviastraat","oneway":"yes","oneway:bicycle":"no","highway":"residential","maxspeed":"30","vertex1":15813,"vertex2":15805}},{"type":"Feature","geometry":{"type":"LineString","coordinates":[[3.706216,51.07143],[3.706223,51.07141],[3.706263,51.07135],[3.706482,51.07098]]},"properties":{"name":"Dahliastraat","highway":"residential","maxspeed":"30","vertex1":15812,"vertex2":15810}},{"type":"Feature","geometry":{"type":"LineString","coordinates":[[3.706482,51.07098],[3.706912,51.07026]]},"properties":{"name":"Dahliastraat","highway":"residential","maxspeed":"30","vertex1":15810,"vertex2":15808}},{"type":"Feature","geometry":{"type":"LineString","coordinates":[[3.703835,51.07467],[3.704277,51.07438]]},"properties":{"name":"Grensstraat","highway":"residential","vertex1":15804,"vertex2":15802}},{"type":"Feature","geometry":{"type":"LineString","coordinates":[[3.71236,51.07222],[3.712248,51.07211]]},"properties":{"name":"Ma√Øsstraat","highway":"residential","maxspeed":"30","vertex1":15801,"vertex2":15792}},{"type":"Feature","geometry":{"type":"LineString","coordinates":[[3.71236,51.07222],[3.712614,51.07224]]},"properties":{"highway":"service","vertex1":15801,"vertex2":15795}},{"type":"Feature","geometry":{"type":"LineString","coordinates":[[3.712336,51.07408],[3.711821,51.07446],[3.711403,51.07476],[3.711237,51.07491]]},"properties":{"name":"Lisbloemstraat","oneway":"yes","oneway:bicycle":"no","highway":"residential","maxspeed":"30","vertex1":15800,"vertex2":15798}},{"type":"Feature","geometry":{"type":"LineString","coordinates":[[3.711237,51.07491],[3.710824,51.07531],[3.710637,51.07551],[3.710129,51.07602]]},"properties":{"name":"Lisbloemstraat","oneway":"yes","oneway:bicycle":"no","highway":"residential","maxspeed":"30","vertex1":15798,"vertex2":16856}},{"type":"Feature","geometry":{"type":"LineString","coordinates":[[3.712614,51.07224],[3.71269,51.07225],[3.713677,51.07303],[3.713961,51.07315],[3.714656,51.07286],[3.714883,51.07286]]},"properties":{"highway":"service","vertex1":15795,"vertex2":16449}},{"type":"Feature","geometry":{"type":"LineString","coordinates":[[3.71194,51.07183],[3.712236,51.07209],[3.712248,51.07211]]},"properties":{"name":"Ma√Øsstraat","highway":"residential","maxspeed":"30","vertex1":15794,"vertex2":15792}},{"type":"Feature","geometry":{"type":"LineString","coordinates":[[3.696987,51.07375],[3.696818,51.07396],[3.696743,51.07402],[3.696678,51.07404],[3.696592,51.07405]]},"properties":{"name":"Kostertiende","highway":"residential","vertex1":15788,"vertex2":15693}},{"type":"Feature","geometry":{"type":"LineString","coordinates":[[3.696987,51.07375],[3.697478,51.07306]]},"properties":{"name":"Kostertiende","highway":"residential","vertex1":15788,"vertex2":15741}},{"type":"Feature","geometry":{"type":"LineString","coordinates":[[3.696987,51.07375],[3.697298,51.07384],[3.698403,51.07417]]},"properties":{"name":"Louis Varlezstraat","highway":"residential","vertex1":15788,"vertex2":15661}},{"type":"Feature","geometry":{"type":"LineString","coordinates":[[3.694928,51.07305],[3.695412,51.0731],[3.69559,51.07314],[3.69574,51.07319],[3.695915,51.07326],[3.696019,51.07333],[3.696382,51.07373],[3.696546,51.07399]]},"properties":{"name":"Molenwalstraat","highway":"residential","vertex1":15787,"vertex2":15715}},{"type":"Feature","geometry":{"type":"LineString","coordinates":[[3.694928,51.07305],[3.694983,51.07244],[3.695089,51.07223]]},"properties":{"name":"Eeklostraat","maxspeed":"30","highway":"tertiary","vertex1":15787,"vertex2":15665}},{"type":"Feature","geometry":{"type":"LineString","coordinates":[[3.694928,51.07305],[3.694851,51.07323],[3.694594,51.07357],[3.69442,51.07375]]},"properties":{"name":"Eeklostraat","maxspeed":"50","highway":"tertiary","vertex1":15787,"vertex2":15744}},{"type":"Feature","geometry":{"type":"LineString","coordinates":[[3.700893,51.07352],[3.701685,51.07391]]},"properties":{"highway":"service","vertex1":15786,"vertex2":15697}},{"type":"Feature","geometry":{"type":"LineString","coordinates":[[3.700893,51.07352],[3.698837,51.07251]]},"properties":{"highway":"service","vertex1":15786,"vertex2":15784}},{"type":"Feature","geometry":{"type":"LineString","coordinates":[[3.700893,51.07352],[3.701394,51.07316],[3.701438,51.07314]]},"properties":{"highway":"service","vertex1":15786,"vertex2":15734}},{"type":"Feature","geometry":{"type":"LineString","coordinates":[[3.701682,51.0704],[3.701769,51.07046]]},"properties":{"highway":"footway","vertex1":15785,"vertex2":15778}},{"type":"Feature","geometry":{"type":"LineString","coordinates":[[3.701682,51.0704],[3.701599,51.07034]]},"properties":{"highway":"footway","vertex1":15785,"vertex2":15719}},{"type":"Feature","geometry":{"type":"LineString","coordinates":[[3.701682,51.0704],[3.701055,51.07073]]},"properties":{"highway":"footway","vertex1":15785,"vertex2":15695}},{"type":"Feature","geometry":{"type":"LineString","coordinates":[[3.698837,51.07251],[3.697803,51.07199]]},"properties":{"highway":"service","vertex1":15784,"vertex2":15724}},{"type":"Feature","geometry":{"type":"LineString","coordinates":[[3.698837,51.07251],[3.69975,51.07191]]},"properties":{"highway":"service","vertex1":15784,"vertex2":15783}},{"type":"Feature","geometry":{"type":"LineString","coordinates":[[3.69975,51.07191],[3.701438,51.07314]]},"properties":{"highway":"service","vertex1":15783,"vertex2":15734}},{"type":"Feature","geometry":{"type":"LineString","coordinates":[[3.69975,51.07191],[3.698517,51.07101]]},"properties":{"highway":"service","vertex1":15783,"vertex2":15716}},{"type":"Feature","geometry":{"type":"LineString","coordinates":[[3.69975,51.07191],[3.701237,51.07113]]},"properties":{"highway":"service","vertex1":15783,"vertex2":15751}},{"type":"Feature","geometry":{"type":"LineString","coordinates":[[3.70125,51.07085],[3.701111,51.07082]]},"properties":{"highway":"service","vertex1":15782,"vertex2":15745}},{"type":"Feature","geometry":{"type":"LineString","coordinates":[[3.70125,51.07085],[3.701394,51.07087]]},"properties":{"highway":"service","vertex1":15782,"vertex2":15761}},{"type":"Feature","geometry":{"type":"LineString","coordinates":[[3.70125,51.07085],[3.701127,51.07091]]},"properties":{"highway":"footway","vertex1":15782,"vertex2":15747}},{"type":"Feature","geometry":{"type":"LineString","coordinates":[[3.70125,51.07085],[3.701855,51.07052]]},"properties":{"highway":"footway","vertex1":15782,"vertex2":15732}},{"type":"Feature","geometry":{"type":"LineString","coordinates":[[3.698919,51.0736],[3.69896,51.07356]]},"properties":{"highway":"cycleway","vertex1":15781,"vertex2":15717}},{"type":"Feature","geometry":{"type":"LineString","coordinates":[[3.698919,51.0736],[3.698862,51.07359],[3.698824,51.07358]]},"properties":{"name":"Hippoliet Van Peenestraat","highway":"residential","vertex1":15781,"vertex2":15771}},{"type":"Feature","geometry":{"type":"LineString","coordinates":[[3.698919,51.0736],[3.698964,51.07362]]},"properties":{"name":"Hippoliet Van Peenestraat","highway":"residential","vertex1":15781,"vertex2":15657}},{"type":"Feature","geometry":{"type":"LineString","coordinates":[[3.692341,51.0701],[3.690934,51.07082]]},"properties":{"cyclenetwork":"yes","foot":"no","highway":"cycleway","vertex1":15780,"vertex2":20666}},{"type":"Feature","geometry":{"type":"LineString","coordinates":[[3.692341,51.0701],[3.692973,51.06979]]},"properties":{"cyclenetwork":"yes","foot":"no","highway":"cycleway","vertex1":15780,"vertex2":15633}},{"type":"Feature","geometry":{"type":"LineString","coordinates":[[3.692341,51.0701],[3.692303,51.07008]]},"properties":{"foot":"no","highway":"cycleway","vertex1":15780,"vertex2":15729}},{"type":"Feature","geometry":{"type":"LineString","coordinates":[[3.690934,51.07082],[3.690906,51.0708]]},"properties":{"foot":"no","highway":"cycleway","vertex1":20666,"vertex2":20574}},{"type":"Feature","geometry":{"type":"LineString","coordinates":[[3.699078,51.07349],[3.69896,51.07356]]},"properties":{"highway":"cycleway","vertex1":15779,"vertex2":15717}},{"type":"Feature","geometry":{"type":"LineString","coordinates":[[3.699078,51.07349],[3.699136,51.07345],[3.69915,51.0734],[3.699148,51.07333]]},"properties":{"highway":"cycleway","vertex1":15779,"vertex2":15685}},{"type":"Feature","geometry":{"type":"LineString","coordinates":[[3.699078,51.07349],[3.699124,51.0736]]},"properties":{"highway":"cycleway","vertex1":15779,"vertex2":15687}},{"type":"Feature","geometry":{"type":"LineString","coordinates":[[3.701769,51.07046],[3.701855,51.07052]]},"properties":{"highway":"footway","vertex1":15778,"vertex2":15732}},{"type":"Feature","geometry":{"type":"LineString","coordinates":[[3.701769,51.07046],[3.701102,51.07082]]},"properties":{"highway":"footway","vertex1":15778,"vertex2":15694}},{"type":"Feature","geometry":{"type":"LineString","coordinates":[[3.693375,51.07471],[3.693449,51.07465]]},"properties":{"highway":"cycleway","vertex1":15777,"vertex2":15772}},{"type":"Feature","geometry":{"type":"LineString","coordinates":[[3.696345,51.07121],[3.696285,51.0712],[3.695701,51.07117]]},"properties":{"name":"Wittelinkstraat","highway":"residential","maxspeed":"30","vertex1":15776,"vertex2":15692}},{"type":"Feature","geometry":{"type":"LineString","coordinates":[[3.696345,51.07121],[3.696321,51.07137]]},"properties":{"name":"Wittelinkstraat","highway":"residential","maxspeed":"30","vertex1":15776,"vertex2":15753}},{"type":"Feature","geometry":{"type":"LineString","coordinates":[[3.696345,51.07121],[3.696809,51.07128]]},"properties":{"name":"Wittelinkstraat","highway":"residential","maxspeed":"30","vertex1":15776,"vertex2":15707}},{"type":"Feature","geometry":{"type":"LineString","coordinates":[[3.696764,51.07436],[3.696782,51.07439]]},"properties":{"name":"Molenwalstraat","highway":"residential","vertex1":15775,"vertex2":15722}},{"type":"Feature","geometry":{"type":"LineString","coordinates":[[3.696764,51.07436],[3.696592,51.07405]]},"properties":{"name":"Molenwalstraat","highway":"residential","vertex1":15775,"vertex2":15693}},{"type":"Feature","geometry":{"type":"LineString","coordinates":[[3.696764,51.07436],[3.696518,51.07454],[3.696085,51.07432]]},"properties":{"highway":"service","vertex1":15775,"vertex2":15679}},{"type":"Feature","geometry":{"type":"LineString","coordinates":[[3.693502,51.07466],[3.693449,51.07465]]},"properties":{"name":"Mazestraat","maxspeed":"50","highway":"residential","vertex1":15774,"vertex2":15772}},{"type":"Feature","geometry":{"type":"LineString","coordinates":[[3.693502,51.07466],[3.693707,51.07447]]},"properties":{"name":"Eeklostraat","maxspeed":"50","highway":"tertiary","vertex1":15774,"vertex2":15757}},{"type":"Feature","geometry":{"type":"LineString","coordinates":[[3.693502,51.07466],[3.692772,51.07529]]},"properties":{"name":"Eeklostraat","maxspeed":"30","highway":"tertiary","vertex1":15774,"vertex2":15742}},{"type":"Feature","geometry":{"type":"LineString","coordinates":[[3.69196,51.07345],[3.691841,51.07366],[3.691538,51.07423]]},"properties":{"name":"Nieuwkolegemlaan","maxspeed":"50","highway":"residential","vertex1":15773,"vertex2":15770}},{"type":"Feature","geometry":{"type":"LineString","coordinates":[[3.69196,51.07345],[3.692038,51.07331],[3.692639,51.07227],[3.692977,51.07174],[3.693343,51.07119]]},"properties":{"name":"Nieuwkolegemlaan","maxspeed":"50","highway":"residential","vertex1":15773,"vertex2":15763}},{"type":"Feature","geometry":{"type":"LineString","coordinates":[[3.69196,51.07345],[3.691601,51.07338],[3.691425,51.07333],[3.691231,51.07325],[3.691049,51.07313],[3.690914,51.07301],[3.690765,51.07289],[3.690596,51.07271],[3.690529,51.07261],[3.690476,51.07248],[3.690674,51.0722],[3.690751,51.07207]]},"properties":{"name":"Gaston Gheldolflaan","maxspeed":"50","highway":"residential","vertex1":15773,"vertex2":20642}},{"type":"Feature","geometry":{"type":"LineString","coordinates":[[3.693449,51.07465],[3.692554,51.07444],[3.691934,51.0743],[3.691538,51.07423]]},"properties":{"name":"Mazestraat","maxspeed":"50","highway":"residential","vertex1":15772,"vertex2":15770}},{"type":"Feature","geometry":{"type":"LineString","coordinates":[[3.698824,51.07358],[3.698699,51.07378],[3.698403,51.07417]]},"properties":{"name":"Petrus De Broestraat","highway":"residential","vertex1":15771,"vertex2":15661}},{"type":"Feature","geometry":{"type":"LineString","coordinates":[[3.698824,51.07358],[3.698387,51.07344],[3.698002,51.07332],[3.697932,51.07328],[3.697837,51.07322],[3.697478,51.07306]]},"properties":{"name":"Hippoliet Van Peenestraat","highway":"residential","vertex1":15771,"vertex2":15741}},{"type":"Feature","geometry":{"type":"LineString","coordinates":[[3.691538,51.07423],[3.691396,51.07422],[3.690913,51.07417]]},"properties":{"name":"Mazestraat","maxspeed":"50","highway":"residential","vertex1":15770,"vertex2":20658}},{"type":"Feature","geometry":{"type":"LineString","coordinates":[[3.701081,51.06995],[3.701427,51.07021]]},"properties":{"highway":"footway","vertex1":15769,"vertex2":15683}},{"type":"Feature","geometry":{"type":"LineString","coordinates":[[3.701081,51.06995],[3.700687,51.06966]]},"properties":{"highway":"footway","vertex1":15769,"vertex2":15470}},{"type":"Feature","geometry":{"type":"LineString","coordinates":[[3.701081,51.06995],[3.701179,51.06989]]},"properties":{"highway":"footway","vertex1":15769,"vertex2":15535}},{"type":"Feature","geometry":{"type":"LineString","coordinates":[[3.701081,51.06995],[3.700805,51.07]]},"properties":{"highway":"footway","vertex1":15769,"vertex2":15704}},{"type":"Feature","geometry":{"type":"LineString","coordinates":[[3.696593,51.07072],[3.696598,51.07077],[3.696561,51.07082],[3.696512,51.07084],[3.695674,51.07088]]},"properties":{"highway":"track","vertex1":15768,"vertex2":15696}},{"type":"Feature","geometry":{"type":"LineString","coordinates":[[3.696593,51.07072],[3.696574,51.07067]]},"properties":{"highway":"track","vertex1":15768,"vertex2":15766}},{"type":"Feature","geometry":{"type":"LineString","coordinates":[[3.696593,51.07072],[3.696638,51.0707]]},"properties":{"highway":"track","vertex1":15768,"vertex2":15764}},{"type":"Feature","geometry":{"type":"LineString","coordinates":[[3.695244,51.07119],[3.69551,51.07137],[3.695672,51.07142]]},"properties":{"highway":"service","vertex1":15767,"vertex2":15690}},{"type":"Feature","geometry":{"type":"LineString","coordinates":[[3.695244,51.07119],[3.695134,51.07113],[3.694935,51.07103],[3.694659,51.07091]]},"properties":{"highway":"track","vertex1":15767,"vertex2":15676}},{"type":"Feature","geometry":{"type":"LineString","coordinates":[[3.696574,51.07067],[3.696558,51.07062],[3.696553,51.07058],[3.696585,51.07055],[3.696638,51.07053],[3.696712,51.07052],[3.696787,51.07054],[3.69684,51.07056],[3.696864,51.0706],[3.696867,51.07064],[3.696842,51.07067],[3.696795,51.07069],[3.696693,51.07069],[3.696638,51.0707]]},"properties":{"highway":"track","vertex1":15766,"vertex2":15764}},{"type":"Feature","geometry":{"type":"LineString","coordinates":[[3.692792,51.071],[3.693166,51.07112]]},"properties":{"name":"Vaartstraat","maxspeed":"50","highway":"residential","vertex1":15765,"vertex2":15709}},{"type":"Feature","geometry":{"type":"LineString","coordinates":[[3.692792,51.071],[3.692536,51.07091]]},"properties":{"name":"Vaartstraat","maxspeed":"50","highway":"residential","vertex1":15765,"vertex2":15731}},{"type":"Feature","geometry":{"type":"LineString","coordinates":[[3.692792,51.071],[3.693387,51.07069],[3.693837,51.07096],[3.694199,51.07119],[3.69412,51.07126],[3.69434,51.07138],[3.694328,51.07141]]},"properties":{"highway":"path","vertex1":15765,"vertex2":15701}},{"type":"Feature","geometry":{"type":"LineString","coordinates":[[3.693343,51.07119],[3.693876,51.0713]]},"properties":{"name":"Vaartstraat","maxspeed":"50","highway":"residential","vertex1":15763,"vertex2":15681}},{"type":"Feature","geometry":{"type":"LineString","coordinates":[[3.693343,51.07119],[3.693166,51.07112]]},"properties":{"name":"Vaartstraat","maxspeed":"50","highway":"residential","vertex1":15763,"vertex2":15709}},{"type":"Feature","geometry":{"type":"LineString","coordinates":[[3.702376,51.07307],[3.702354,51.07318],[3.702718,51.07345],[3.703298,51.07315],[3.703105,51.07299],[3.702044,51.07283]]},"properties":{"highway":"service","vertex1":15762,"vertex2":15758}},{"type":"Feature","geometry":{"type":"LineString","coordinates":[[3.701394,51.07087],[3.701478,51.07088],[3.701546,51.07092],[3.701588,51.07097],[3.701598,51.07103],[3.701574,51.07108],[3.701519,51.07112]]},"properties":{"highway":"service","vertex1":15761,"vertex2":15749}},{"type":"Feature","geometry":{"type":"LineString","coordinates":[[3.700976,51.07055],[3.701507,51.07027]]},"properties":{"highway":"footway","vertex1":15760,"vertex2":15669}},{"type":"Feature","geometry":{"type":"LineString","coordinates":[[3.700976,51.07055],[3.700956,51.07051],[3.700941,51.07047]]},"properties":{"highway":"service","vertex1":15760,"vertex2":15673}},{"type":"Feature","geometry":{"type":"LineString","coordinates":[[3.700976,51.07055],[3.701018,51.07064]]},"properties":{"highway":"service","vertex1":15760,"vertex2":15691}},{"type":"Feature","geometry":{"type":"LineString","coordinates":[[3.694157,51.07137],[3.694168,51.07137]]},"properties":{"name":"Vaartstraat","maxspeed":"50","highway":"residential","vertex1":15759,"vertex2":15667}},{"type":"Feature","geometry":{"type":"LineString","coordinates":[[3.694157,51.07137],[3.693876,51.0713]]},"properties":{"name":"Vaartstraat","maxspeed":"50","highway":"residential","vertex1":15759,"vertex2":15681}},{"type":"Feature","geometry":{"type":"LineString","coordinates":[[3.694157,51.07137],[3.694104,51.07141],[3.694057,51.07145],[3.69408,51.07148],[3.694231,51.07155],[3.694396,51.07158],[3.694929,51.07166],[3.695462,51.07173]]},"properties":{"highway":"service","vertex1":15759,"vertex2":15708}},{"type":"Feature","geometry":{"type":"LineString","coordinates":[[3.702044,51.07283],[3.701438,51.07314]]},"properties":{"highway":"service","vertex1":15758,"vertex2":15734}},{"type":"Feature","geometry":{"type":"LineString","coordinates":[[3.693707,51.07447],[3.694751,51.075]]},"properties":{"highway":"service","vertex1":15757,"vertex2":15725}},{"type":"Feature","geometry":{"type":"LineString","coordinates":[[3.693707,51.07447],[3.694175,51.07399]]},"properties":{"name":"Eeklostraat","maxspeed":"50","highway":"tertiary","vertex1":15757,"vertex2":15746}},{"type":"Feature","geometry":{"type":"LineString","coordinates":[[3.69444,51.0704],[3.694844,51.07055],[3.695015,51.07055]]},"properties":{"highway":"service","vertex1":15756,"vertex2":15738}},{"type":"Feature","geometry":{"type":"LineString","coordinates":[[3.695431,51.07479],[3.695539,51.0747],[3.696085,51.07432]]},"properties":{"highway":"service","vertex1":15755,"vertex2":15679}},{"type":"Feature","geometry":{"type":"LineString","coordinates":[[3.70148,51.07428],[3.701622,51.07434],[3.701838,51.07442],[3.701879,51.07443]]},"properties":{"highway":"path","vertex1":15754,"vertex2":15720}},{"type":"Feature","geometry":{"type":"LineString","coordinates":[[3.70148,51.07428],[3.701411,51.07426],[3.701203,51.07419],[3.701049,51.07412],[3.700277,51.07377],[3.699821,51.07357],[3.699424,51.07345],[3.699148,51.07333]]},"properties":{"highway":"path","vertex1":15754,"vertex2":15685}},{"type":"Feature","geometry":{"type":"LineString","coordinates":[[3.70148,51.07428],[3.701488,51.07427],[3.701506,51.07425],[3.701669,51.07407],[3.701685,51.07391]]},"properties":{"highway":"path","vertex1":15754,"vertex2":15697}},{"type":"Feature","geometry":{"type":"LineString","coordinates":[[3.696321,51.07137],[3.696338,51.0714],[3.696612,51.07156],[3.696645,51.07156],[3.696827,51.07131],[3.696809,51.07128]]},"properties":{"name":"Wittelinkstraat","highway":"residential","maxspeed":"30","vertex1":15753,"vertex2":15707}},{"type":"Feature","geometry":{"type":"LineString","coordinates":[[3.694225,51.07401],[3.694175,51.07399]]},"properties":{"highway":"service","vertex1":15752,"vertex2":15746}},{"type":"Feature","geometry":{"type":"LineString","coordinates":[[3.694225,51.07401],[3.694448,51.0741],[3.694855,51.07425],[3.694976,51.0742],[3.695086,51.07409],[3.694644,51.07385],[3.694458,51.07376],[3.69442,51.07375]]},"properties":{"highway":"service","vertex1":15752,"vertex2":15744}},{"type":"Feature","geometry":{"type":"LineString","coordinates":[[3.701237,51.07113],[3.701271,51.07114],[3.701356,51.07116],[3.701443,51.07115],[3.701519,51.07112]]},"properties":{"highway":"service","vertex1":15751,"vertex2":15749}},{"type":"Feature","geometry":{"type":"LineString","coordinates":[[3.701237,51.07113],[3.701201,51.07111],[3.701157,51.07106],[3.701144,51.071],[3.701127,51.07091]]},"properties":{"highway":"service","vertex1":15751,"vertex2":15747}},{"type":"Feature","geometry":{"type":"LineString","coordinates":[[3.700848,51.07015],[3.700621,51.07011],[3.700566,51.07009],[3.700541,51.07005],[3.700511,51.06996],[3.700414,51.06987],[3.700308,51.06981],[3.70018,51.06976],[3.700105,51.0697],[3.700081,51.06957]]},"properties":{"highway":"footway","vertex1":15750,"vertex2":15630}},{"type":"Feature","geometry":{"type":"LineString","coordinates":[[3.700848,51.07015],[3.700825,51.07006],[3.700805,51.07]]},"properties":{"highway":"service","vertex1":15750,"vertex2":15704}},{"type":"Feature","geometry":{"type":"LineString","coordinates":[[3.700848,51.07015],[3.700882,51.07029],[3.700917,51.07039],[3.700941,51.07047]]},"properties":{"highway":"service","vertex1":15750,"vertex2":15673}},{"type":"Feature","geometry":{"type":"LineString","coordinates":[[3.700848,51.07015],[3.700801,51.07027],[3.700772,51.07033],[3.700725,51.07037],[3.700668,51.07042],[3.700584,51.07046],[3.70043,51.07053],[3.70029,51.07056]]},"properties":{"highway":"service","vertex1":15750,"vertex2":15686}},{"type":"Feature","geometry":{"type":"LineString","coordinates":[[3.701519,51.07112],[3.70215,51.07156]]},"properties":{"highway":"service","vertex1":15749,"vertex2":15677}},{"type":"Feature","geometry":{"type":"LineString","coordinates":[[3.697433,51.07013],[3.697468,51.07007],[3.697121,51.06982],[3.697054,51.06986]]},"properties":{"name":"Antoine Van Hoorebekehof","highway":"living_street","maxspeed":"20","vertex1":15748,"vertex2":15461}},{"type":"Feature","geometry":{"type":"LineString","coordinates":[[3.697433,51.07013],[3.697021,51.07012]]},"properties":{"name":"Antoine Van Hoorebekehof","highway":"living_street","maxspeed":"20","vertex1":15748,"vertex2":15740}},{"type":"Feature","geometry":{"type":"LineString","coordinates":[[3.701127,51.07091],[3.701111,51.07082]]},"properties":{"highway":"service","vertex1":15747,"vertex2":15745}},{"type":"Feature","geometry":{"type":"LineString","coordinates":[[3.701127,51.07091],[3.700531,51.07122]]},"properties":{"highway":"footway","vertex1":15747,"vertex2":15670}},{"type":"Feature","geometry":{"type":"LineString","coordinates":[[3.694175,51.07399],[3.69442,51.07375]]},"properties":{"name":"Eeklostraat","maxspeed":"50","highway":"tertiary","vertex1":15746,"vertex2":15744}},{"type":"Feature","geometry":{"type":"LineString","coordinates":[[3.701111,51.07082],[3.701102,51.07082]]},"properties":{"highway":"service","vertex1":15745,"vertex2":15694}},{"type":"Feature","geometry":{"type":"LineString","coordinates":[[3.697127,51.07292],[3.696699,51.07276],[3.696191,51.07258],[3.69615,51.07257],[3.695089,51.07223]]},"properties":{"highway":"path","vertex1":15743,"vertex2":15665}},{"type":"Feature","geometry":{"type":"LineString","coordinates":[[3.697127,51.07292],[3.697478,51.07306]]},"properties":{"name":"Van Peenestraat","highway":"residential","vertex1":15743,"vertex2":15741}},{"type":"Feature","geometry":{"type":"LineString","coordinates":[[3.692772,51.07529],[3.692444,51.07559],[3.692072,51.07591],[3.691689,51.0763]]},"properties":{"name":"Eeklostraat","maxspeed":"50","highway":"tertiary","vertex1":15742,"vertex2":16952}},{"type":"Feature","geometry":{"type":"LineString","coordinates":[[3.697021,51.07012],[3.696843,51.07022]]},"properties":{"name":"Antoine Van Hoorebekehof","highway":"living_street","maxspeed":"20","vertex1":15740,"vertex2":15736}},{"type":"Feature","geometry":{"type":"LineString","coordinates":[[3.697021,51.07012],[3.697054,51.06986]]},"properties":{"name":"Antoine Van Hoorebekehof","highway":"living_street","maxspeed":"20","vertex1":15740,"vertex2":15461}},{"type":"Feature","geometry":{"type":"LineString","coordinates":[[3.692257,51.07082],[3.692536,51.07091]]},"properties":{"name":"Vaartstraat","maxspeed":"50","highway":"residential","vertex1":15739,"vertex2":15731}},{"type":"Feature","geometry":{"type":"LineString","coordinates":[[3.692257,51.07082],[3.691064,51.0714]]},"properties":{"name":"Brugsevaart","highway":"primary","maxspeed":"70","vertex1":15739,"vertex2":20591}},{"type":"Feature","geometry":{"type":"LineString","coordinates":[[3.692257,51.07082],[3.693093,51.07038]]},"properties":{"name":"Brugsevaart","highway":"primary","maxspeed":"70","vertex1":15739,"vertex2":15710}},{"type":"Feature","geometry":{"type":"LineString","coordinates":[[3.695015,51.07055],[3.694878,51.07051],[3.694574,51.07041],[3.694512,51.07036],[3.694627,51.07007],[3.69517,51.06981],[3.695215,51.06973],[3.69486,51.06946]]},"properties":{"highway":"service","vertex1":15738,"vertex2":15467}},{"type":"Feature","geometry":{"type":"LineString","coordinates":[[3.695015,51.07055],[3.695525,51.07062],[3.695656,51.07063]]},"properties":{"highway":"service","vertex1":15738,"vertex2":15698}},{"type":"Feature","geometry":{"type":"LineString","coordinates":[[3.700281,51.07103],[3.700757,51.07078]]},"properties":{"highway":"footway","vertex1":15737,"vertex2":15675}},{"type":"Feature","geometry":{"type":"LineString","coordinates":[[3.700281,51.07103],[3.700363,51.07109]]},"properties":{"highway":"footway","vertex1":15737,"vertex2":15663}},{"type":"Feature","geometry":{"type":"LineString","coordinates":[[3.700281,51.07103],[3.700189,51.07096]]},"properties":{"highway":"footway","vertex1":15737,"vertex2":15733}},{"type":"Feature","geometry":{"type":"LineString","coordinates":[[3.696843,51.07022],[3.696937,51.07028],[3.697688,51.0703],[3.697847,51.07008],[3.69715,51.06957]]},"properties":{"name":"Antoine Van Hoorebekehof","highway":"living_street","maxspeed":"20","vertex1":15736,"vertex2":15507}},{"type":"Feature","geometry":{"type":"LineString","coordinates":[[3.696843,51.07022],[3.696746,51.07015],[3.696807,51.06969]]},"properties":{"name":"Antoine Van Hoorebekehof","highway":"living_street","maxspeed":"20","vertex1":15736,"vertex2":15503}},{"type":"Feature","geometry":{"type":"LineString","coordinates":[[3.700616,51.07074],[3.700189,51.07096]]},"properties":{"highway":"footway","vertex1":15735,"vertex2":15733}},{"type":"Feature","geometry":{"type":"LineString","coordinates":[[3.700616,51.07074],[3.700696,51.07077],[3.700757,51.07078]]},"properties":{"highway":"service","vertex1":15735,"vertex2":15675}},{"type":"Feature","geometry":{"type":"LineString","coordinates":[[3.700616,51.07074],[3.700572,51.07072],[3.700518,51.07069]]},"properties":{"highway":"service","vertex1":15735,"vertex2":15688}},{"type":"Feature","geometry":{"type":"LineString","coordinates":[[3.700189,51.07096],[3.700109,51.07091]]},"properties":{"highway":"footway","vertex1":15733,"vertex2":15666}},{"type":"Feature","geometry":{"type":"LineString","coordinates":[[3.701855,51.07052],[3.701958,51.07047]]},"properties":{"highway":"footway","vertex1":15732,"vertex2":15668}},{"type":"Feature","geometry":{"type":"LineString","coordinates":[[3.692536,51.07091],[3.69326,51.07052],[3.693192,51.07045],[3.693093,51.07038]]},"properties":{"highway":"service","vertex1":15731,"vertex2":15710}},{"type":"Feature","geometry":{"type":"LineString","coordinates":[[3.693672,51.07008],[3.693396,51.07022]]},"properties":{"name":"Palinghuizen","highway":"primary","maxspeed":"70","vertex1":15730,"vertex2":15672}},{"type":"Feature","geometry":{"type":"LineString","coordinates":[[3.693672,51.07008],[3.694818,51.06948],[3.69486,51.06946]]},"properties":{"name":"Palinghuizen","highway":"primary","maxspeed":"70","vertex1":15730,"vertex2":15467}},{"type":"Feature","geometry":{"type":"LineString","coordinates":[[3.693672,51.07008],[3.693715,51.07013],[3.69385,51.07041]]},"properties":{"highway":"cycleway","vertex1":15730,"vertex2":15674}},{"type":"Feature","geometry":{"type":"LineString","coordinates":[[3.692303,51.07008],[3.692609,51.06991]]},"properties":{"name":"Groendreef","bicycle":"no","maxspeed":"50","highway":"residential","vertex1":15729,"vertex2":15588}},{"type":"Feature","geometry":{"type":"LineString","coordinates":[[3.692303,51.07008],[3.691839,51.0699],[3.691499,51.06984],[3.69117,51.0698],[3.691121,51.0698]]},"properties":{"name":"Weefselstraat","highway":"residential","maxspeed":"30","vertex1":15729,"vertex2":20760}},{"type":"Feature","geometry":{"type":"LineString","coordinates":[[3.692303,51.07008],[3.690906,51.0708]]},"properties":{"name":"Gerard Willemotstraat","bicycle":"no","maxspeed":"50","highway":"residential","vertex1":15729,"vertex2":20574}},{"type":"Feature","geometry":{"type":"LineString","coordinates":[[3.695278,51.07198],[3.695568,51.07208],[3.696411,51.07243]]},"properties":{"name":"Eeklostraat","highway":"residential","vertex1":15728,"vertex2":15726}},{"type":"Feature","geometry":{"type":"LineString","coordinates":[[3.695278,51.07198],[3.695089,51.07223]]},"properties":{"name":"Eeklostraat","maxspeed":"30","highway":"tertiary","vertex1":15728,"vertex2":15665}},{"type":"Feature","geometry":{"type":"LineString","coordinates":[[3.695278,51.07198],[3.695462,51.07173]]},"properties":{"name":"Eeklostraat","maxspeed":"50","highway":"tertiary","vertex1":15728,"vertex2":15708}},{"type":"Feature","geometry":{"type":"LineString","coordinates":[[3.700928,51.0708],[3.700363,51.07109]]},"properties":{"highway":"footway","vertex1":15727,"vertex2":15663}},{"type":"Feature","geometry":{"type":"LineString","coordinates":[[3.700928,51.0708],[3.701089,51.0708]]},"properties":{"highway":"service","vertex1":15727,"vertex2":15702}},{"type":"Feature","geometry":{"type":"LineString","coordinates":[[3.700928,51.0708],[3.700837,51.0708],[3.700757,51.07078]]},"properties":{"highway":"service","vertex1":15727,"vertex2":15675}},{"type":"Feature","geometry":{"type":"LineString","coordinates":[[3.697803,51.07199],[3.698517,51.07101]]},"properties":{"highway":"service","vertex1":15724,"vertex2":15716}},{"type":"Feature","geometry":{"type":"LineString","coordinates":[[3.698242,51.07433],[3.699415,51.07475]]},"properties":{"name":"Hogekouterstraat","highway":"residential","vertex1":15723,"vertex2":15671}},{"type":"Feature","geometry":{"type":"LineString","coordinates":[[3.698242,51.07433],[3.697618,51.07499],[3.697436,51.07507],[3.697132,51.07516]]},"properties":{"name":"Petrus de Broestraat","highway":"residential","vertex1":15723,"vertex2":15689}},{"type":"Feature","geometry":{"type":"LineString","coordinates":[[3.698242,51.07433],[3.698403,51.07417]]},"properties":{"name":"Petrus De Broestraat","highway":"residential","vertex1":15723,"vertex2":15661}},{"type":"Feature","geometry":{"type":"LineString","coordinates":[[3.696782,51.07439],[3.696984,51.07482]]},"properties":{"name":"Molenwalstraat","highway":"residential","vertex1":15722,"vertex2":15713}},{"type":"Feature","geometry":{"type":"LineString","coordinates":[[3.696782,51.07439],[3.696962,51.07436],[3.697144,51.07432],[3.697254,51.07424],[3.697274,51.07422]]},"properties":{"highway":"service","vertex1":15722,"vertex2":15659}},{"type":"Feature","geometry":{"type":"LineString","coordinates":[[3.70046,51.07519],[3.701061,51.07545]]},"properties":{"name":"Hogekouterstraat","highway":"residential","vertex1":15721,"vertex2":16890}},{"type":"Feature","geometry":{"type":"LineString","coordinates":[[3.70046,51.07519],[3.700129,51.07505],[3.699415,51.07475]]},"properties":{"name":"Hogekouterstraat","highway":"residential","vertex1":15721,"vertex2":15671}},{"type":"Feature","geometry":{"type":"LineString","coordinates":[[3.70046,51.07519],[3.700072,51.07561],[3.699873,51.07584]]},"properties":{"name":"Lusthoflaan","highway":"residential","vertex1":15721,"vertex2":16911}},{"type":"Feature","geometry":{"type":"LineString","coordinates":[[3.701879,51.07443],[3.701828,51.07449]]},"properties":{"name":"Mimosastraat","highway":"residential","maxspeed":"30","vertex1":15720,"vertex2":15718}},{"type":"Feature","geometry":{"type":"LineString","coordinates":[[3.701599,51.07034],[3.701507,51.07027]]},"properties":{"highway":"footway","vertex1":15719,"vertex2":15669}},{"type":"Feature","geometry":{"type":"LineString","coordinates":[[3.701599,51.07034],[3.701018,51.07064]]},"properties":{"highway":"footway","vertex1":15719,"vertex2":15691}},{"type":"Feature","geometry":{"type":"LineString","coordinates":[[3.701828,51.07449],[3.701647,51.07473]]},"properties":{"name":"Mimosastraat","highway":"residential","maxspeed":"30","vertex1":15718,"vertex2":15706}},{"type":"Feature","geometry":{"type":"LineString","coordinates":[[3.701828,51.07449],[3.702082,51.0746],[3.702483,51.07477],[3.702842,51.07494],[3.703614,51.07528],[3.704301,51.07557],[3.704773,51.07576]]},"properties":{"highway":"track","vertex1":15718,"vertex2":16820}},{"type":"Feature","geometry":{"type":"LineString","coordinates":[[3.69896,51.07356],[3.699035,51.07357],[3.699124,51.0736]]},"properties":{"highway":"cycleway","vertex1":15717,"vertex2":15687}},{"type":"Feature","geometry":{"type":"LineString","coordinates":[[3.698517,51.07101],[3.698968,51.07029],[3.699065,51.07024]]},"properties":{"highway":"service","vertex1":15716,"vertex2":15714}},{"type":"Feature","geometry":{"type":"LineString","coordinates":[[3.696546,51.07399],[3.696592,51.07405]]},"properties":{"name":"Molenwalstraat","highway":"residential","vertex1":15715,"vertex2":15693}},{"type":"Feature","geometry":{"type":"LineString","coordinates":[[3.696546,51.07399],[3.696462,51.07403],[3.696085,51.07432]]},"properties":{"highway":"service","vertex1":15715,"vertex2":15679}},{"type":"Feature","geometry":{"type":"LineString","coordinates":[[3.699065,51.07024],[3.699148,51.07019]]},"properties":{"highway":"service","vertex1":15714,"vertex2":15712}},{"type":"Feature","geometry":{"type":"LineString","coordinates":[[3.699065,51.07024],[3.698426,51.06977]]},"properties":{"highway":"footway","vertex1":15714,"vertex2":15539}},{"type":"Feature","geometry":{"type":"LineString","coordinates":[[3.699065,51.07024],[3.699661,51.07069]]},"properties":{"highway":"footway","vertex1":15714,"vertex2":15700}},{"type":"Feature","geometry":{"type":"LineString","coordinates":[[3.696984,51.07482],[3.69632,51.07531],[3.695755,51.07573],[3.695703,51.07578],[3.69566,51.07584],[3.694978,51.07696]]},"properties":{"name":"Ernest Vanhaevermaetestraat","oneway":"yes","oneway:bicycle":"no","highway":"residential","vertex1":15713,"vertex2":16931}},{"type":"Feature","geometry":{"type":"LineString","coordinates":[[3.696984,51.07482],[3.697132,51.07516]]},"properties":{"name":"Molenwalstraat","highway":"residential","vertex1":15713,"vertex2":15689}},{"type":"Feature","geometry":{"type":"LineString","coordinates":[[3.699148,51.07019],[3.699243,51.07014],[3.699383,51.07013],[3.699484,51.07016]]},"properties":{"highway":"service","vertex1":15712,"vertex2":15658}},{"type":"Feature","geometry":{"type":"LineString","coordinates":[[3.699148,51.07019],[3.699757,51.07064]]},"properties":{"highway":"footway","vertex1":15712,"vertex2":15682}},{"type":"Feature","geometry":{"type":"LineString","coordinates":[[3.699148,51.07019],[3.698515,51.06972]]},"properties":{"highway":"footway","vertex1":15712,"vertex2":15647}},{"type":"Feature","geometry":{"type":"LineString","coordinates":[[3.701592,51.0748],[3.701357,51.0751],[3.701061,51.07545]]},"properties":{"name":"Mimosastraat","highway":"residential","maxspeed":"30","vertex1":15711,"vertex2":16890}},{"type":"Feature","geometry":{"type":"LineString","coordinates":[[3.701592,51.0748],[3.701647,51.07473]]},"properties":{"name":"Mimosastraat","highway":"residential","maxspeed":"30","vertex1":15711,"vertex2":15706}},{"type":"Feature","geometry":{"type":"LineString","coordinates":[[3.701592,51.0748],[3.701458,51.07475],[3.701095,51.07459],[3.699404,51.07383],[3.699138,51.0737],[3.698964,51.07362]]},"properties":{"name":"Hippoliet Van Peenestraat","highway":"residential","vertex1":15711,"vertex2":15657}},{"type":"Feature","geometry":{"type":"LineString","coordinates":[[3.693093,51.07038],[3.693396,51.07022]]},"properties":{"name":"Brugsevaart","highway":"primary","maxspeed":"70","vertex1":15710,"vertex2":15672}},{"type":"Feature","geometry":{"type":"LineString","coordinates":[[3.693166,51.07112],[3.69336,51.07098],[3.6935,51.07093],[3.693594,51.07095],[3.693715,51.07101],[3.693824,51.07108],[3.693964,51.07116],[3.693876,51.0713]]},"properties":{"name":"Vaartstraat","oneway":"yes","maxspeed":"50","highway":"residential","vertex1":15709,"vertex2":15681}},{"type":"Feature","geometry":{"type":"LineString","coordinates":[[3.695462,51.07173],[3.695507,51.07167]]},"properties":{"name":"Eeklostraat","maxspeed":"50","highway":"tertiary","vertex1":15708,"vertex2":15699}},{"type":"Feature","geometry":{"type":"LineString","coordinates":[[3.701647,51.07473],[3.700374,51.07416],[3.699124,51.0736]]},"properties":{"highway":"cycleway","vertex1":15706,"vertex2":15687}},{"type":"Feature","geometry":{"type":"LineString","coordinates":[[3.701647,51.07473],[3.701896,51.07483],[3.702159,51.07493],[3.702632,51.07494],[3.702778,51.07498],[3.702916,51.07504],[3.703823,51.07542],[3.70469,51.07579],[3.706298,51.07647],[3.706475,51.07655],[3.706668,51.0766],[3.70757,51.07684],[3.707658,51.07686],[3.707681,51.07687]]},"properties":{"highway":"cycleway","vertex1":15706,"vertex2":16866}},{"type":"Feature","geometry":{"type":"LineString","coordinates":[[3.697596,51.0744],[3.697274,51.07422]]},"properties":{"highway":"service","vertex1":15705,"vertex2":15659}},{"type":"Feature","geometry":{"type":"LineString","coordinates":[[3.700805,51.07],[3.70078,51.06993],[3.700754,51.06987],[3.700708,51.06981],[3.700624,51.06974],[3.700498,51.06967],[3.700307,51.06961]]},"properties":{"highway":"service","vertex1":15704,"vertex2":15617}},{"type":"Feature","geometry":{"type":"LineString","coordinates":[[3.697163,51.07416],[3.697274,51.07422]]},"properties":{"highway":"service","vertex1":15703,"vertex2":15659}},{"type":"Feature","geometry":{"type":"LineString","coordinates":[[3.701089,51.0708],[3.701055,51.07073]]},"properties":{"highway":"service","vertex1":15702,"vertex2":15695}},{"type":"Feature","geometry":{"type":"LineString","coordinates":[[3.701089,51.0708],[3.701102,51.07082]]},"properties":{"highway":"service","vertex1":15702,"vertex2":15694}},{"type":"Feature","geometry":{"type":"LineString","coordinates":[[3.694328,51.07141],[3.695345,51.07163],[3.69541,51.07165],[3.695507,51.07167]]},"properties":{"name":"Vaartstraat","motorcar":"no","highway":"track","vertex1":15701,"vertex2":15699}},{"type":"Feature","geometry":{"type":"LineString","coordinates":[[3.694328,51.07141],[3.694168,51.07137]]},"properties":{"name":"Vaartstraat","motorcar":"no","highway":"track","vertex1":15701,"vertex2":15667}},{"type":"Feature","geometry":{"type":"LineString","coordinates":[[3.699661,51.07069],[3.700014,51.07096]]},"properties":{"highway":"footway","vertex1":15700,"vertex2":15664}},{"type":"Feature","geometry":{"type":"LineString","coordinates":[[3.699661,51.07069],[3.699757,51.07064]]},"properties":{"highway":"footway","vertex1":15700,"vertex2":15682}},{"type":"Feature","geometry":{"type":"LineString","coordinates":[[3.695507,51.07167],[3.695614,51.07154]]},"properties":{"name":"Eeklostraat","maxspeed":"50","highway":"tertiary","vertex1":15699,"vertex2":15678}},{"type":"Feature","geometry":{"type":"LineString","coordinates":[[3.695656,51.07063],[3.695674,51.07088]]},"properties":{"name":"Staakskenstraat","maxspeed":"50","highway":"tertiary","vertex1":15698,"vertex2":15696}},{"type":"Feature","geometry":{"type":"LineString","coordinates":[[3.695656,51.07063],[3.695649,51.07052],[3.695652,51.07015],[3.695739,51.06984],[3.695982,51.06928]]},"properties":{"name":"Staakskenstraat","maxspeed":"50","highway":"tertiary","vertex1":15698,"vertex2":15449}},{"type":"Feature","geometry":{"type":"LineString","coordinates":[[3.695674,51.07088],[3.695686,51.07106],[3.695701,51.07117]]},"properties":{"name":"Staakskenstraat","maxspeed":"50","highway":"tertiary","vertex1":15696,"vertex2":15692}},{"type":"Feature","geometry":{"type":"LineString","coordinates":[[3.701055,51.07073],[3.701018,51.07064]]},"properties":{"highway":"service","vertex1":15695,"vertex2":15691}},{"type":"Feature","geometry":{"type":"LineString","coordinates":[[3.701102,51.07082],[3.700454,51.07116]]},"properties":{"highway":"footway","vertex1":15694,"vertex2":15660}},{"type":"Feature","geometry":{"type":"LineString","coordinates":[[3.695701,51.07117],[3.695683,51.07138],[3.695672,51.07142]]},"properties":{"name":"Staakskenstraat","maxspeed":"50","highway":"tertiary","vertex1":15692,"vertex2":15690}},{"type":"Feature","geometry":{"type":"LineString","coordinates":[[3.695672,51.07142],[3.695614,51.07154]]},"properties":{"name":"Staakskenstraat","maxspeed":"50","highway":"tertiary","vertex1":15690,"vertex2":15678}},{"type":"Feature","geometry":{"type":"LineString","coordinates":[[3.697132,51.07516],[3.697351,51.07551],[3.698006,51.07628]]},"properties":{"name":"Molenwalstraat","highway":"residential","vertex1":15689,"vertex2":16938}},{"type":"Feature","geometry":{"type":"LineString","coordinates":[[3.700518,51.07069],[3.700441,51.07064],[3.700378,51.0706],[3.70029,51.07056]]},"properties":{"highway":"service","vertex1":15688,"vertex2":15686}},{"type":"Feature","geometry":{"type":"LineString","coordinates":[[3.700518,51.07069],[3.700109,51.07091]]},"properties":{"highway":"footway","vertex1":15688,"vertex2":15666}},{"type":"Feature","geometry":{"type":"LineString","coordinates":[[3.70029,51.07056],[3.700169,51.07056],[3.700033,51.07054],[3.699955,51.07051]]},"properties":{"highway":"service","vertex1":15686,"vertex2":15684}},{"type":"Feature","geometry":{"type":"LineString","coordinates":[[3.699148,51.07333],[3.699109,51.07331],[3.69905,51.07327],[3.697747,51.07258],[3.696985,51.07218],[3.696144,51.07174],[3.695755,51.07159],[3.695614,51.07154]]},"properties":{"highway":"cycleway","vertex1":15685,"vertex2":15678}},{"type":"Feature","geometry":{"type":"LineString","coordinates":[[3.699955,51.07051],[3.699861,51.07048],[3.699787,51.07045],[3.699725,51.07041],[3.699636,51.07036],[3.699566,51.07028],[3.699522,51.07022],[3.699484,51.07016]]},"properties":{"highway":"service","vertex1":15684,"vertex2":15658}},{"type":"Feature","geometry":{"type":"LineString","coordinates":[[3.699955,51.07051],[3.69986,51.07059],[3.699819,51.07062],[3.699757,51.07064]]},"properties":{"highway":"footway","vertex1":15684,"vertex2":15682}},{"type":"Feature","geometry":{"type":"LineString","coordinates":[[3.701427,51.07021],[3.701507,51.07027]]},"properties":{"highway":"footway","vertex1":15683,"vertex2":15669}},{"type":"Feature","geometry":{"type":"LineString","coordinates":[[3.701427,51.07021],[3.700941,51.07047]]},"properties":{"highway":"footway","vertex1":15683,"vertex2":15673}},{"type":"Feature","geometry":{"type":"LineString","coordinates":[[3.699757,51.07064],[3.700109,51.07091]]},"properties":{"highway":"footway","vertex1":15682,"vertex2":15666}},{"type":"Feature","geometry":{"type":"LineString","coordinates":[[3.693402,51.07006],[3.693468,51.0701],[3.693333,51.07016],[3.693396,51.07022]]},"properties":{"highway":"path","vertex1":15680,"vertex2":15672}},{"type":"Feature","geometry":{"type":"LineString","coordinates":[[3.693402,51.07006],[3.693405,51.07006],[3.692994,51.0698]]},"properties":{"name":"Westerringspoorbrug","bridge":"yes","highway":"path","vertex1":15680,"vertex2":15529}},{"type":"Feature","geometry":{"type":"LineString","coordinates":[[3.695614,51.07154],[3.695558,51.07153],[3.695164,51.07139],[3.694956,51.07126],[3.694786,51.07113],[3.694659,51.07091]]},"properties":{"highway":"cycleway","vertex1":15678,"vertex2":15676}},{"type":"Feature","geometry":{"type":"LineString","coordinates":[[3.70215,51.07156],[3.70165,51.07185],[3.701643,51.07192],[3.701949,51.07212],[3.702385,51.0722]]},"properties":{"highway":"service","vertex1":15677,"vertex2":15662}},{"type":"Feature","geometry":{"type":"LineString","coordinates":[[3.694659,51.07091],[3.693969,51.0705],[3.69385,51.07041]]},"properties":{"highway":"cycleway","vertex1":15676,"vertex2":15674}},{"type":"Feature","geometry":{"type":"LineString","coordinates":[[3.69385,51.07041],[3.693533,51.07032],[3.693396,51.07022]]},"properties":{"highway":"cycleway","vertex1":15674,"vertex2":15672}},{"type":"Feature","geometry":{"type":"LineString","coordinates":[[3.699415,51.07475],[3.699176,51.07505],[3.698979,51.07536],[3.698858,51.07556],[3.698701,51.07575],[3.698348,51.07609],[3.698006,51.07628]]},"properties":{"name":"Krommepopulierstraat","highway":"residential","vertex1":15671,"vertex2":16938}},{"type":"Feature","geometry":{"type":"LineString","coordinates":[[3.700531,51.07122],[3.700454,51.07116]]},"properties":{"highway":"footway","vertex1":15670,"vertex2":15660}},{"type":"Feature","geometry":{"type":"LineString","coordinates":[[3.700531,51.07122],[3.700438,51.07127],[3.700014,51.07096]]},"properties":{"highway":"footway","vertex1":15670,"vertex2":15664}},{"type":"Feature","geometry":{"type":"LineString","coordinates":[[3.701958,51.07047],[3.701179,51.06989]]},"properties":{"highway":"footway","vertex1":15668,"vertex2":15535}},{"type":"Feature","geometry":{"type":"LineString","coordinates":[[3.700109,51.07091],[3.700014,51.07096]]},"properties":{"highway":"footway","vertex1":15666,"vertex2":15664}},{"type":"Feature","geometry":{"type":"LineString","coordinates":[[3.700363,51.07109],[3.700454,51.07116]]},"properties":{"highway":"footway","vertex1":15663,"vertex2":15660}},{"type":"Feature","geometry":{"type":"LineString","coordinates":[[3.699484,51.07016],[3.699471,51.07006],[3.699417,51.06996],[3.699368,51.06991],[3.699296,51.06986],[3.69917,51.06981],[3.699053,51.06977],[3.698902,51.06973],[3.698732,51.06971],[3.698585,51.06966]]},"properties":{"highway":"service","vertex1":15658,"vertex2":15631}},{"type":"Feature","geometry":{"type":"LineString","coordinates":[[3.700081,51.06908],[3.69996,51.06912]]},"properties":{"highway":"footway","vertex1":15653,"vertex2":15492}},{"type":"Feature","geometry":{"type":"LineString","coordinates":[[3.700081,51.06908],[3.700791,51.0696]]},"properties":{"highway":"footway","vertex1":15653,"vertex2":15596}},{"type":"Feature","geometry":{"type":"LineString","coordinates":[[3.700081,51.06908],[3.699418,51.06858]]},"properties":{"highway":"footway","vertex1":15653,"vertex2":15635}},{"type":"Feature","geometry":{"type":"LineString","coordinates":[[3.699418,51.06858],[3.699316,51.06864]]},"properties":{"highway":"footway","vertex1":15635,"vertex2":15510}},{"type":"Feature","geometry":{"type":"LineString","coordinates":[[3.699666,51.06916],[3.699853,51.06917]]},"properties":{"highway":"footway","vertex1":15651,"vertex2":15481}},{"type":"Feature","geometry":{"type":"LineString","coordinates":[[3.699666,51.06916],[3.699991,51.0694],[3.700119,51.06942],[3.700162,51.0694]]},"properties":{"highway":"footway","vertex1":15651,"vertex2":15531}},{"type":"Feature","geometry":{"type":"LineString","coordinates":[[3.699666,51.06916],[3.699459,51.06918]]},"properties":{"highway":"footway","vertex1":15651,"vertex2":15517}},{"type":"Feature","geometry":{"type":"LineString","coordinates":[[3.698515,51.06972],[3.698585,51.06966]]},"properties":{"highway":"footway","vertex1":15647,"vertex2":15631}},{"type":"Feature","geometry":{"type":"LineString","coordinates":[[3.698515,51.06972],[3.698426,51.06977]]},"properties":{"highway":"footway","vertex1":15647,"vertex2":15539}},{"type":"Feature","geometry":{"type":"LineString","coordinates":[[3.698515,51.06972],[3.69797,51.06932],[3.697851,51.06923]]},"properties":{"highway":"footway","vertex1":15647,"vertex2":15475}},{"type":"Feature","geometry":{"type":"LineString","coordinates":[[3.692973,51.06979],[3.692994,51.0698]]},"properties":{"highway":"path","vertex1":15633,"vertex2":15529}},{"type":"Feature","geometry":{"type":"LineString","coordinates":[[3.692973,51.06979],[3.693211,51.06967]]},"properties":{"cyclenetwork":"yes","foot":"no","highway":"cycleway","vertex1":15633,"vertex2":15553}},{"type":"Feature","geometry":{"type":"LineString","coordinates":[[3.692973,51.06979],[3.692922,51.06975]]},"properties":{"highway":"cycleway","vertex1":15633,"vertex2":15568}},{"type":"Feature","geometry":{"type":"LineString","coordinates":[[3.697307,51.06919],[3.697574,51.06924],[3.698159,51.06892],[3.697885,51.06872],[3.697856,51.06868],[3.69789,51.06863],[3.698022,51.06855]]},"properties":{"highway":"service","vertex1":15632,"vertex2":15652}},{"type":"Feature","geometry":{"type":"LineString","coordinates":[[3.698585,51.06966],[3.698527,51.06963],[3.698485,51.0696],[3.698433,51.06952],[3.698404,51.06943],[3.698404,51.06933],[3.698431,51.06923],[3.698467,51.06916],[3.698511,51.06908],[3.698618,51.06899]]},"properties":{"highway":"service","vertex1":15631,"vertex2":15599}},{"type":"Feature","geometry":{"type":"LineString","coordinates":[[3.698618,51.06899],[3.698736,51.06895],[3.698838,51.06893]]},"properties":{"highway":"service","vertex1":15599,"vertex2":15513}},{"type":"Feature","geometry":{"type":"LineString","coordinates":[[3.700081,51.06957],[3.699919,51.06954],[3.699787,51.06952],[3.699673,51.06949],[3.69956,51.06944],[3.699485,51.06937],[3.699459,51.06931],[3.699453,51.06925],[3.699459,51.06918]]},"properties":{"highway":"service","vertex1":15630,"vertex2":15517}},{"type":"Feature","geometry":{"type":"LineString","coordinates":[[3.700081,51.06957],[3.700307,51.06961]]},"properties":{"highway":"service","vertex1":15630,"vertex2":15617}},{"type":"Feature","geometry":{"type":"LineString","coordinates":[[3.698235,51.06904],[3.697851,51.06923]]},"properties":{"highway":"footway","vertex1":15623,"vertex2":15475}},{"type":"Feature","geometry":{"type":"LineString","coordinates":[[3.696063,51.06911],[3.695982,51.06928]]},"properties":{"name":"Staakskenstraat","maxspeed":"50","highway":"tertiary","vertex1":15621,"vertex2":15449}},{"type":"Feature","geometry":{"type":"LineString","coordinates":[[3.696063,51.06911],[3.696087,51.06906],[3.69602,51.06886]]},"properties":{"name":"Staakskenstraat","maxspeed":"50","highway":"tertiary","vertex1":15621,"vertex2":15473}},{"type":"Feature","geometry":{"type":"LineString","coordinates":[[3.696063,51.06911],[3.696268,51.06915],[3.696307,51.06909]]},"properties":{"highway":"service","vertex1":15621,"vertex2":15483}},{"type":"Feature","geometry":{"type":"LineString","coordinates":[[3.69602,51.06886],[3.694968,51.0694]]},"properties":{"name":"Palinghuizen","highway":"primary","maxspeed":"70","vertex1":15473,"vertex2":15595}},{"type":"Feature","geometry":{"type":"LineString","coordinates":[[3.700307,51.06961],[3.700317,51.06951]]},"properties":{"highway":"footway","vertex1":15617,"vertex2":15541}},{"type":"Feature","geometry":{"type":"LineString","coordinates":[[3.692048,51.0693],[3.691887,51.06929],[3.69166,51.06915],[3.691672,51.06905],[3.691559,51.06897],[3.691296,51.06879],[3.691148,51.06869]]},"properties":{"highway":"path","vertex1":15597,"vertex2":20719}},{"type":"Feature","geometry":{"type":"LineString","coordinates":[[3.692048,51.0693],[3.69208,51.0693],[3.692295,51.06945],[3.692419,51.06949]]},"properties":{"highway":"path","vertex1":15597,"vertex2":15511}},{"type":"Feature","geometry":{"type":"LineString","coordinates":[[3.692048,51.0693],[3.692084,51.06926]]},"properties":{"highway":"path","vertex1":15597,"vertex2":15464}},{"type":"Feature","geometry":{"type":"LineString","coordinates":[[3.691148,51.06869],[3.691138,51.06868],[3.691186,51.06865]]},"properties":{"highway":"path","vertex1":20719,"vertex2":20682}},{"type":"Feature","geometry":{"type":"LineString","coordinates":[[3.700791,51.0696],[3.700687,51.06966]]},"properties":{"highway":"footway","vertex1":15596,"vertex2":15470}},{"type":"Feature","geometry":{"type":"LineString","coordinates":[[3.700791,51.0696],[3.701179,51.06989]]},"properties":{"highway":"footway","vertex1":15596,"vertex2":15535}},{"type":"Feature","geometry":{"type":"LineString","coordinates":[[3.694968,51.0694],[3.69486,51.06946]]},"properties":{"name":"Palinghuizen","highway":"primary","maxspeed":"70","vertex1":15595,"vertex2":15467}},{"type":"Feature","geometry":{"type":"LineString","coordinates":[[3.696832,51.06949],[3.695982,51.06928]]},"properties":{"name":"Antoine Van Hoorebekehof","highway":"living_street","maxspeed":"20","vertex1":15591,"vertex2":15449}},{"type":"Feature","geometry":{"type":"LineString","coordinates":[[3.696832,51.06949],[3.69715,51.06957]]},"properties":{"name":"Antoine Van Hoorebekehof","highway":"living_street","maxspeed":"20","vertex1":15591,"vertex2":15507}},{"type":"Feature","geometry":{"type":"LineString","coordinates":[[3.696832,51.06949],[3.696807,51.06969]]},"properties":{"name":"Antoine Van Hoorebekehof","highway":"living_street","maxspeed":"20","vertex1":15591,"vertex2":15503}},{"type":"Feature","geometry":{"type":"LineString","coordinates":[[3.692609,51.06991],[3.692856,51.06979]]},"properties":{"name":"Groendreef","bicycle":"no","maxspeed":"50","highway":"residential","vertex1":15588,"vertex2":15580}},{"type":"Feature","geometry":{"type":"LineString","coordinates":[[3.692609,51.06991],[3.692583,51.06989],[3.692251,51.06969],[3.692228,51.06963],[3.692333,51.06955],[3.692419,51.06949]]},"properties":{"highway":"path","vertex1":15588,"vertex2":15511}},{"type":"Feature","geometry":{"type":"LineString","coordinates":[[3.692856,51.06979],[3.692922,51.06975]]},"properties":{"name":"Groendreef","bicycle":"no","maxspeed":"50","highway":"residential","vertex1":15580,"vertex2":15568}},{"type":"Feature","geometry":{"type":"LineString","coordinates":[[3.692856,51.06979],[3.692419,51.06949]]},"properties":{"highway":"path","vertex1":15580,"vertex2":15511}},{"type":"Feature","geometry":{"type":"LineString","coordinates":[[3.692922,51.06975],[3.693152,51.06964]]},"properties":{"name":"Groendreef","bicycle":"no","maxspeed":"50","highway":"residential","vertex1":15568,"vertex2":15562}},{"type":"Feature","geometry":{"type":"LineString","coordinates":[[3.692922,51.06975],[3.692207,51.0693],[3.692084,51.06926]]},"properties":{"highway":"cycleway","vertex1":15568,"vertex2":15464}},{"type":"Feature","geometry":{"type":"LineString","coordinates":[[3.693152,51.06964],[3.694227,51.06911]]},"properties":{"name":"Groendreef","bicycle":"no","maxspeed":"50","highway":"residential","vertex1":15562,"vertex2":15544}},{"type":"Feature","geometry":{"type":"LineString","coordinates":[[3.693152,51.06964],[3.692006,51.06881],[3.69199,51.06876],[3.692015,51.06871],[3.692101,51.06852]]},"properties":{"name":"Kempstraat","oneway":"yes","oneway:bicycle":"no","highway":"residential","maxspeed":"30","vertex1":15562,"vertex2":15525}},{"type":"Feature","geometry":{"type":"LineString","coordinates":[[3.693152,51.06964],[3.693211,51.06967]]},"properties":{"foot":"no","highway":"cycleway","vertex1":15562,"vertex2":15553}},{"type":"Feature","geometry":{"type":"LineString","coordinates":[[3.696673,51.06918],[3.696759,51.06903],[3.696392,51.06894]]},"properties":{"highway":"service","vertex1":15557,"vertex2":15543}},{"type":"Feature","geometry":{"type":"LineString","coordinates":[[3.696673,51.06918],[3.696307,51.06909]]},"properties":{"highway":"service","vertex1":15557,"vertex2":15483}},{"type":"Feature","geometry":{"type":"LineString","coordinates":[[3.696392,51.06894],[3.696307,51.06909]]},"properties":{"highway":"service","vertex1":15543,"vertex2":15483}},{"type":"Feature","geometry":{"type":"LineString","coordinates":[[3.693211,51.06967],[3.693775,51.06937],[3.694257,51.06913]]},"properties":{"cyclenetwork":"yes","foot":"no","highway":"cycleway","vertex1":15553,"vertex2":15489}},{"type":"Feature","geometry":{"type":"LineString","coordinates":[[3.694227,51.06911],[3.695071,51.06867]]},"properties":{"name":"Groendreef","bicycle":"no","maxspeed":"50","highway":"residential","vertex1":15544,"vertex2":15512}},{"type":"Feature","geometry":{"type":"LineString","coordinates":[[3.694227,51.06911],[3.693789,51.06879]]},"properties":{"name":"Manilastraat","highway":"residential","maxspeed":"30","vertex1":15544,"vertex2":15429}},{"type":"Feature","geometry":{"type":"LineString","coordinates":[[3.694227,51.06911],[3.694257,51.06913]]},"properties":{"foot":"no","highway":"cycleway","vertex1":15544,"vertex2":15489}},{"type":"Feature","geometry":{"type":"LineString","coordinates":[[3.700317,51.06951],[3.700417,51.06946]]},"properties":{"highway":"footway","vertex1":15541,"vertex2":15474}},{"type":"Feature","geometry":{"type":"LineString","coordinates":[[3.700317,51.06951],[3.700162,51.0694]]},"properties":{"highway":"footway","vertex1":15541,"vertex2":15531}},{"type":"Feature","geometry":{"type":"LineString","coordinates":[[3.698426,51.06977],[3.697759,51.06928],[3.697851,51.06923]]},"properties":{"highway":"footway","vertex1":15539,"vertex2":15475}},{"type":"Feature","geometry":{"type":"LineString","coordinates":[[3.700162,51.0694],[3.699853,51.06917]]},"properties":{"highway":"footway","vertex1":15531,"vertex2":15481}},{"type":"Feature","geometry":{"type":"LineString","coordinates":[[3.702137,51.06927],[3.702152,51.06927],[3.702341,51.06913]]},"properties":{"maxspeed":"30","highway":"service","vertex1":15524,"vertex2":15516}},{"type":"Feature","geometry":{"type":"LineString","coordinates":[[3.702137,51.06927],[3.701815,51.06904],[3.701641,51.0689],[3.701478,51.06876]]},"properties":{"name":"Francisco Ferrerlaan","maxspeed":"50","highway":"tertiary","cycleway":"lane","vertex1":15524,"vertex2":15448}},{"type":"Feature","geometry":{"type":"LineString","coordinates":[[3.699459,51.06918],[3.699428,51.06912],[3.699384,51.06908],[3.699325,51.06903],[3.69926,51.069],[3.699141,51.06895],[3.699038,51.06893],[3.698928,51.06892],[3.698838,51.06893]]},"properties":{"highway":"service","vertex1":15517,"vertex2":15513}},{"type":"Feature","geometry":{"type":"LineString","coordinates":[[3.69715,51.06957],[3.696807,51.06969]]},"properties":{"highway":"living_street","maxspeed":"20","vertex1":15507,"vertex2":15503}},{"type":"Feature","geometry":{"type":"LineString","coordinates":[[3.69996,51.06912],[3.700417,51.06946]]},"properties":{"highway":"footway","vertex1":15492,"vertex2":15474}},{"type":"Feature","geometry":{"type":"LineString","coordinates":[[3.69996,51.06912],[3.699316,51.06864]]},"properties":{"highway":"footway","vertex1":15492,"vertex2":15510}},{"type":"Feature","geometry":{"type":"LineString","coordinates":[[3.69996,51.06912],[3.699853,51.06917]]},"properties":{"highway":"footway","vertex1":15492,"vertex2":15481}},{"type":"Feature","geometry":{"type":"LineString","coordinates":[[3.694257,51.06913],[3.695162,51.06867],[3.695992,51.06823]]},"properties":{"cyclenetwork":"yes","foot":"no","highway":"cycleway","vertex1":15489,"vertex2":15585}},{"type":"Feature","geometry":{"type":"LineString","coordinates":[[3.699853,51.06917],[3.699433,51.06886]]},"properties":{"highway":"footway","vertex1":15481,"vertex2":15645}},{"type":"Feature","geometry":{"type":"LineString","coordinates":[[3.700417,51.06946],[3.700687,51.06966]]},"properties":{"highway":"footway","vertex1":15474,"vertex2":15470}},{"type":"Feature","geometry":{"type":"LineString","coordinates":[[3.692084,51.06926],[3.691849,51.06912],[3.691758,51.06901],[3.691626,51.06891],[3.691492,51.06886],[3.691186,51.06865]]},"properties":{"highway":"cycleway","vertex1":15464,"vertex2":20682}},{"type":"Feature","geometry":{"type":"LineString","coordinates":[[3.692059,51.08184],[3.692224,51.08188],[3.692568,51.08193]]},"properties":{"name":"Heizen","highway":"residential","vertex1":17024,"vertex2":16961}},{"type":"Feature","geometry":{"type":"LineString","coordinates":[[3.692059,51.08184],[3.691638,51.08252]]},"properties":{"name":"Heizen","highway":"residential","vertex1":17024,"vertex2":16993}},{"type":"Feature","geometry":{"type":"LineString","coordinates":[[3.692059,51.08184],[3.691914,51.08177],[3.691832,51.08168],[3.691816,51.08155],[3.691883,51.08141],[3.692225,51.08087],[3.692475,51.08048]]},"properties":{"name":"Heizen","highway":"residential","vertex1":17024,"vertex2":16916}},{"type":"Feature","geometry":{"type":"LineString","coordinates":[[3.696717,51.08119],[3.696666,51.08126]]},"properties":{"bridge":"yes","highway":"footway","vertex1":17023,"vertex2":17020}},{"type":"Feature","geometry":{"type":"LineString","coordinates":[[3.696717,51.08119],[3.696733,51.08116]]},"properties":{"highway":"footway","vertex1":17023,"vertex2":16987}},{"type":"Feature","geometry":{"type":"LineString","coordinates":[[3.696239,51.082],[3.696285,51.08193],[3.696379,51.08185],[3.696493,51.08178],[3.696558,51.08174],[3.696572,51.08167],[3.696587,51.08152],[3.696584,51.08143],[3.696584,51.0814],[3.696619,51.08134],[3.696666,51.08126]]},"properties":{"highway":"footway","vertex1":17022,"vertex2":17020}},{"type":"Feature","geometry":{"type":"LineString","coordinates":[[3.697786,51.08105],[3.697793,51.08104],[3.698412,51.08013]]},"properties":{"name":"Klimoplaan","highway":"residential","vertex1":17021,"vertex2":16942}},{"type":"Feature","geometry":{"type":"LineString","coordinates":[[3.697786,51.08105],[3.697554,51.0814]]},"properties":{"name":"Klimoplaan","highway":"residential","vertex1":17021,"vertex2":16985}},{"type":"Feature","geometry":{"type":"LineString","coordinates":[[3.697786,51.08105],[3.697674,51.08102],[3.697639,51.08101]]},"properties":{"bicycle":"no","motorcar":"no","foot":"no","highway":"track","vertex1":17021,"vertex2":17009}},{"type":"Feature","geometry":{"type":"LineString","coordinates":[[3.697533,51.08143],[3.697554,51.0814]]},"properties":{"name":"Klimoplaan","highway":"residential","vertex1":17019,"vertex2":16985}},{"type":"Feature","geometry":{"type":"LineString","coordinates":[[3.697533,51.08143],[3.697327,51.08178],[3.697201,51.08189],[3.697013,51.082],[3.696807,51.08213],[3.69658,51.08228],[3.696369,51.08243],[3.696123,51.08259],[3.696024,51.08266]]},"properties":{"bicycle":"yes","highway":"footway","vertex1":17019,"vertex2":17006}},{"type":"Feature","geometry":{"type":"LineString","coordinates":[[3.693013,51.08151],[3.693998,51.08049]]},"properties":{"name":"Olmstraat","highway":"residential","vertex1":17010,"vertex2":16948}},{"type":"Feature","geometry":{"type":"LineString","coordinates":[[3.697639,51.08101],[3.697497,51.08096],[3.697218,51.08088],[3.696889,51.08078],[3.696531,51.08068],[3.696194,51.08059],[3.695861,51.08049],[3.695588,51.08042]]},"properties":{"bicycle":"no","motorcar":"no","foot":"no","highway":"track","vertex1":17009,"vertex2":16933}},{"type":"Feature","geometry":{"type":"LineString","coordinates":[[3.697639,51.08101],[3.697585,51.08103],[3.697407,51.08129],[3.697392,51.08134]]},"properties":{"bicycle":"no","motorcar":"no","foot":"no","highway":"track","vertex1":17009,"vertex2":16969}},{"type":"Feature","geometry":{"type":"LineString","coordinates":[[3.696024,51.08266],[3.695768,51.08287],[3.69521,51.08339],[3.694893,51.08365]]},"properties":{"bicycle":"yes","highway":"footway","vertex1":17006,"vertex2":16997}},{"type":"Feature","geometry":{"type":"LineString","coordinates":[[3.696024,51.08266],[3.695805,51.08255]]},"properties":{"highway":"service","vertex1":17006,"vertex2":17005}},{"type":"Feature","geometry":{"type":"LineString","coordinates":[[3.695805,51.08255],[3.695702,51.08254],[3.695577,51.08254],[3.695449,51.08251]]},"properties":{"highway":"service","vertex1":17005,"vertex2":16977}},{"type":"Feature","geometry":{"type":"LineString","coordinates":[[3.695805,51.08255],[3.695809,51.08248],[3.695783,51.08242],[3.69569,51.08237]]},"properties":{"highway":"service","vertex1":17005,"vertex2":16995}},{"type":"Feature","geometry":{"type":"LineString","coordinates":[[3.695702,51.08228],[3.69547,51.08219],[3.695369,51.08217],[3.695258,51.0822],[3.695174,51.08223],[3.695148,51.08231],[3.695151,51.08239],[3.695234,51.08246],[3.695345,51.08249],[3.695449,51.08251]]},"properties":{"highway":"service","vertex1":17003,"vertex2":16977}},{"type":"Feature","geometry":{"type":"LineString","coordinates":[[3.695702,51.08228],[3.69569,51.08237]]},"properties":{"highway":"service","vertex1":17003,"vertex2":16995}},{"type":"Feature","geometry":{"type":"LineString","coordinates":[[3.695702,51.08228],[3.695896,51.08208],[3.695985,51.08203],[3.696112,51.082],[3.696207,51.08199]]},"properties":{"highway":"service","vertex1":17003,"vertex2":16971}},{"type":"Feature","geometry":{"type":"LineString","coordinates":[[3.697871,51.08257],[3.69828,51.08203]]},"properties":{"name":"Aalbessenlaan","highway":"residential","vertex1":17000,"vertex2":16974}},{"type":"Feature","geometry":{"type":"LineString","coordinates":[[3.697871,51.08257],[3.697714,51.08257],[3.697506,51.08262],[3.69729,51.08274],[3.697149,51.08288],[3.696915,51.08302],[3.696788,51.08312],[3.696656,51.08324],[3.696514,51.08338]]},"properties":{"name":"Ruienhovestraat","highway":"residential","vertex1":17000,"vertex2":17002}},{"type":"Feature","geometry":{"type":"LineString","coordinates":[[3.697871,51.08257],[3.698238,51.08268],[3.698537,51.08277],[3.698742,51.08286],[3.699429,51.08303],[3.699488,51.08308],[3.699528,51.08312],[3.699536,51.08316]]},"properties":{"name":"Ruienhovestraat","highway":"residential","vertex1":17000,"vertex2":17004}},{"type":"Feature","geometry":{"type":"LineString","coordinates":[[3.699536,51.08316],[3.699596,51.08316],[3.699657,51.08315],[3.699703,51.08316],[3.699766,51.08318],[3.699815,51.08318],[3.699885,51.08317],[3.699946,51.08316],[3.700006,51.08315],[3.700099,51.08315],[3.700169,51.08315],[3.700251,51.08316],[3.700351,51.08316],[3.700387,51.08318],[3.700455,51.08319],[3.700507,51.0832]]},"properties":{"highway":"footway","vertex1":17004,"vertex2":16958}},{"type":"Feature","geometry":{"type":"LineString","coordinates":[[3.700381,51.08135],[3.701261,51.08153]]},"properties":{"name":"Dennenlaan","highway":"residential","vertex1":16998,"vertex2":16966}},{"type":"Feature","geometry":{"type":"LineString","coordinates":[[3.699641,51.08181],[3.699764,51.08183]]},"properties":{"name":"Sparappellaan","highway":"residential","vertex1":16996,"vertex2":16994}},{"type":"Feature","geometry":{"type":"LineString","coordinates":[[3.699641,51.08181],[3.699536,51.08176],[3.699407,51.08169],[3.699294,51.0816],[3.699165,51.08144]]},"properties":{"name":"Sparappellaan","highway":"residential","vertex1":16996,"vertex2":16992}},{"type":"Feature","geometry":{"type":"LineString","coordinates":[[3.69569,51.08237],[3.695598,51.08237],[3.695527,51.08242],[3.695449,51.08251]]},"properties":{"highway":"service","vertex1":16995,"vertex2":16977}},{"type":"Feature","geometry":{"type":"LineString","coordinates":[[3.699764,51.08183],[3.699804,51.08175],[3.69983,51.08167],[3.699823,51.08162],[3.699753,51.08159],[3.699598,51.08155],[3.699165,51.08144]]},"properties":{"name":"Sparappellaan","highway":"residential","vertex1":16994,"vertex2":16992}},{"type":"Feature","geometry":{"type":"LineString","coordinates":[[3.699764,51.08183],[3.700135,51.08191],[3.700639,51.08201],[3.701004,51.0821]]},"properties":{"name":"Sparappellaan","highway":"residential","vertex1":16994,"vertex2":16959}},{"type":"Feature","geometry":{"type":"LineString","coordinates":[[3.691638,51.08252],[3.691071,51.08237]]},"properties":{"name":"Groenestaakstraat","maxspeed":"50","highway":"tertiary","cycleway":"lane","vertex1":16993,"vertex2":20323}},{"type":"Feature","geometry":{"type":"LineString","coordinates":[[3.691638,51.08252],[3.692747,51.08283],[3.693057,51.08292]]},"properties":{"name":"Groenestaakstraat","maxspeed":"50","highway":"tertiary","cycleway":"lane","vertex1":16993,"vertex2":16955}},{"type":"Feature","geometry":{"type":"LineString","coordinates":[[3.693057,51.08292],[3.693476,51.08244],[3.693794,51.08207],[3.694124,51.0817],[3.694912,51.08081]]},"properties":{"name":"Lusthoflaan","oneway":"yes","oneway:bicycle":"no","highway":"residential","vertex1":16955,"vertex2":16944}},{"type":"Feature","geometry":{"type":"LineString","coordinates":[[3.699165,51.08144],[3.698699,51.08134]]},"properties":{"name":"Sparappellaan","highway":"residential","vertex1":16992,"vertex2":16990}},{"type":"Feature","geometry":{"type":"LineString","coordinates":[[3.698699,51.08134],[3.698729,51.0813],[3.699304,51.08036]]},"properties":{"name":"Aalbessenlaan","highway":"residential","vertex1":16990,"vertex2":16925}},{"type":"Feature","geometry":{"type":"LineString","coordinates":[[3.698699,51.08134],[3.698275,51.08198],[3.69828,51.08203]]},"properties":{"name":"Aalbessenlaan","highway":"residential","vertex1":16990,"vertex2":16974}},{"type":"Feature","geometry":{"type":"LineString","coordinates":[[3.696733,51.08116],[3.697177,51.08129],[3.697392,51.08134]]},"properties":{"highway":"footway","vertex1":16987,"vertex2":16969}},{"type":"Feature","geometry":{"type":"LineString","coordinates":[[3.696733,51.08116],[3.696349,51.08105],[3.69614,51.08099],[3.69598,51.08094],[3.695926,51.08086],[3.695898,51.08081],[3.69592,51.08077],[3.695482,51.08065],[3.695415,51.08063]]},"properties":{"highway":"footway","vertex1":16987,"vertex2":16900}},{"type":"Feature","geometry":{"type":"LineString","coordinates":[[3.697554,51.0814],[3.697507,51.08139],[3.69741,51.08136],[3.697392,51.08134]]},"properties":{"bicycle":"no","motorcar":"no","foot":"no","highway":"track","vertex1":16985,"vertex2":16969}},{"type":"Feature","geometry":{"type":"LineString","coordinates":[[3.699339,51.0824],[3.699422,51.08243],[3.699494,51.08244],[3.699546,51.08239],[3.699567,51.08234],[3.699484,51.08231],[3.699391,51.0823]]},"properties":{"name":"May Sartonstraat","highway":"residential","vertex1":16984,"vertex2":16982}},{"type":"Feature","geometry":{"type":"LineString","coordinates":[[3.699339,51.0824],[3.699314,51.08233]]},"properties":{"name":"May Sartonstraat","highway":"residential","vertex1":16984,"vertex2":16976}},{"type":"Feature","geometry":{"type":"LineString","coordinates":[[3.699391,51.0823],[3.699314,51.08233]]},"properties":{"name":"May Sartonstraat","highway":"residential","vertex1":16982,"vertex2":16976}},{"type":"Feature","geometry":{"type":"LineString","coordinates":[[3.701884,51.08278],[3.701937,51.08291],[3.702004,51.08297],[3.702096,51.08301],[3.702192,51.08303],[3.703329,51.08327]]},"properties":{"name":"Dasstraat","highway":"residential","vertex1":16980,"vertex2":16743}},{"type":"Feature","geometry":{"type":"LineString","coordinates":[[3.701884,51.08278],[3.701777,51.0829]]},"properties":{"name":"Kweepeerstraat","highway":"residential","vertex1":16980,"vertex2":16988}},{"type":"Feature","geometry":{"type":"LineString","coordinates":[[3.701884,51.08278],[3.701963,51.08263]]},"properties":{"name":"Kweepeerstraat","highway":"residential","vertex1":16980,"vertex2":16978}},{"type":"Feature","geometry":{"type":"LineString","coordinates":[[3.703329,51.08327],[3.703443,51.08272],[3.703439,51.08249],[3.703398,51.08217],[3.703377,51.08208]]},"properties":{"name":"Pieter Cieterslaan","highway":"residential","vertex1":16743,"vertex2":16718}},{"type":"Feature","geometry":{"type":"LineString","coordinates":[[3.701963,51.08263],[3.702163,51.08225],[3.702633,51.08136],[3.702786,51.08105]]},"properties":{"name":"Kweepeerstraat","highway":"residential","vertex1":16978,"vertex2":16745}},{"type":"Feature","geometry":{"type":"LineString","coordinates":[[3.701963,51.08263],[3.700884,51.08242]]},"properties":{"bicycle":"yes","highway":"footway","vertex1":16978,"vertex2":16956}},{"type":"Feature","geometry":{"type":"LineString","coordinates":[[3.699314,51.08233],[3.69828,51.08203]]},"properties":{"name":"May Sartonstraat","highway":"residential","vertex1":16976,"vertex2":16974}},{"type":"Feature","geometry":{"type":"LineString","coordinates":[[3.701261,51.08153],[3.701176,51.08176],[3.701004,51.0821]]},"properties":{"name":"Zilverberklaan","highway":"residential","vertex1":16966,"vertex2":16959}},{"type":"Feature","geometry":{"type":"LineString","coordinates":[[3.701261,51.08153],[3.701383,51.08123],[3.701507,51.08086]]},"properties":{"name":"Zilverberklaan","highway":"residential","vertex1":16966,"vertex2":16949}},{"type":"Feature","geometry":{"type":"LineString","coordinates":[[3.701004,51.0821],[3.70095,51.08228],[3.700884,51.08242]]},"properties":{"name":"Zilverberklaan","highway":"residential","vertex1":16959,"vertex2":16956}},{"type":"Feature","geometry":{"type":"LineString","coordinates":[[3.700884,51.08242],[3.700649,51.0829],[3.700507,51.0832]]},"properties":{"name":"Zilverberklaan","highway":"residential","vertex1":16956,"vertex2":16958}},{"type":"Feature","geometry":{"type":"LineString","coordinates":[[3.691689,51.0763],[3.691748,51.07631],[3.692064,51.0764],[3.692274,51.07644],[3.692488,51.07645],[3.69288,51.07645],[3.693138,51.07646],[3.693308,51.07648],[3.693469,51.07651],[3.693624,51.07655],[3.69446,51.07682]]},"properties":{"name":"Damstraat","maxspeed":"50","highway":"residential","vertex1":16952,"vertex2":16940}},{"type":"Feature","geometry":{"type":"LineString","coordinates":[[3.691689,51.0763],[3.691523,51.07654],[3.691452,51.07664]]},"properties":{"name":"Eeklostraat","maxspeed":"50","highway":"tertiary","vertex1":16952,"vertex2":16936}},{"type":"Feature","geometry":{"type":"LineString","coordinates":[[3.693291,51.07717],[3.694193,51.07735],[3.694364,51.07705],[3.69446,51.07682]]},"properties":{"name":"Aan de Linde","maxspeed":"50","highway":"residential","vertex1":16951,"vertex2":16940}},{"type":"Feature","geometry":{"type":"LineString","coordinates":[[3.693265,51.07892],[3.69307,51.07929],[3.692881,51.07963]]},"properties":{"name":"Losweg","highway":"residential","vertex1":16950,"vertex2":16946}},{"type":"Feature","geometry":{"type":"LineString","coordinates":[[3.693265,51.07892],[3.692388,51.07876],[3.690624,51.0784],[3.690563,51.07839]]},"properties":{"name":"Losweg","highway":"residential","vertex1":16950,"vertex2":20565}},{"type":"Feature","geometry":{"type":"LineString","coordinates":[[3.693265,51.07892],[3.693995,51.07897]]},"properties":{"name":"Losweg","highway":"residential","vertex1":16950,"vertex2":16904}},{"type":"Feature","geometry":{"type":"LineString","coordinates":[[3.690563,51.07839],[3.691452,51.07664]]},"properties":{"name":"Eeklostraat","maxspeed":"50","highway":"tertiary","vertex1":20565,"vertex2":16936}},{"type":"Feature","geometry":{"type":"LineString","coordinates":[[3.701507,51.08086],[3.701782,51.08091]]},"properties":{"name":"Moerbezielaan","highway":"residential","vertex1":16949,"vertex2":16905}},{"type":"Feature","geometry":{"type":"LineString","coordinates":[[3.701507,51.08086],[3.700761,51.08072]]},"properties":{"name":"Moerbezielaan","highway":"residential","vertex1":16949,"vertex2":16919}},{"type":"Feature","geometry":{"type":"LineString","coordinates":[[3.693998,51.08049],[3.694912,51.08081]]},"properties":{"name":"Olmstraat","highway":"residential","vertex1":16948,"vertex2":16944}},{"type":"Feature","geometry":{"type":"LineString","coordinates":[[3.693998,51.08049],[3.69421,51.08028]]},"properties":{"name":"Olmstraat","highway":"residential","vertex1":16948,"vertex2":16920}},{"type":"Feature","geometry":{"type":"LineString","coordinates":[[3.700204,51.07886],[3.701122,51.07925],[3.701546,51.0795]]},"properties":{"name":"Meikeverlaan","highway":"residential","vertex1":16947,"vertex2":16887}},{"type":"Feature","geometry":{"type":"LineString","coordinates":[[3.700204,51.07886],[3.700118,51.07882],[3.699692,51.07866]]},"properties":{"name":"Meikeverlaan","highway":"residential","vertex1":16947,"vertex2":16889}},{"type":"Feature","geometry":{"type":"LineString","coordinates":[[3.700204,51.07886],[3.699878,51.07922]]},"properties":{"highway":"track","vertex1":16947,"vertex2":16913}},{"type":"Feature","geometry":{"type":"LineString","coordinates":[[3.692881,51.07963],[3.692845,51.07965],[3.692748,51.07982],[3.692717,51.07993],[3.692647,51.08007],[3.692583,51.08019]]},"properties":{"bicycle":"yes","highway":"footway","vertex1":16946,"vertex2":16910}},{"type":"Feature","geometry":{"type":"LineString","coordinates":[[3.699536,51.07956],[3.698928,51.0794]]},"properties":{"name":"Galnootlaan","highway":"residential","vertex1":16945,"vertex2":16903}},{"type":"Feature","geometry":{"type":"LineString","coordinates":[[3.699536,51.07956],[3.700135,51.07975],[3.701102,51.08004]]},"properties":{"name":"Galnootlaan","highway":"residential","vertex1":16945,"vertex2":16899}},{"type":"Feature","geometry":{"type":"LineString","coordinates":[[3.699536,51.07956],[3.699878,51.07922]]},"properties":{"highway":"track","vertex1":16945,"vertex2":16913}},{"type":"Feature","geometry":{"type":"LineString","coordinates":[[3.699536,51.07956],[3.699445,51.07967],[3.699304,51.07986],[3.699213,51.07992],[3.699122,51.08006],[3.698978,51.08028]]},"properties":{"highway":"track","vertex1":16945,"vertex2":16908}},{"type":"Feature","geometry":{"type":"LineString","coordinates":[[3.694912,51.08081],[3.694975,51.08074]]},"properties":{"name":"Lusthoflaan","highway":"residential","vertex1":16944,"vertex2":16888}},{"type":"Feature","geometry":{"type":"LineString","coordinates":[[3.695035,51.07697],[3.69643,51.07724],[3.69676,51.07729],[3.697118,51.07731],[3.69781,51.07737],[3.698182,51.0774]]},"properties":{"name":"Damstraat","maxspeed":"50","highway":"residential","vertex1":16943,"vertex2":16915}},{"type":"Feature","geometry":{"type":"LineString","coordinates":[[3.695035,51.07697],[3.694978,51.07696]]},"properties":{"name":"Damstraat","maxspeed":"50","highway":"residential","vertex1":16943,"vertex2":16931}},{"type":"Feature","geometry":{"type":"LineString","coordinates":[[3.695035,51.07697],[3.693995,51.07897]]},"properties":{"name":"Hendrik Haagenstraat","highway":"residential","vertex1":16943,"vertex2":16904}},{"type":"Feature","geometry":{"type":"LineString","coordinates":[[3.698412,51.08013],[3.698474,51.08001],[3.698526,51.07992],[3.698545,51.07985]]},"properties":{"name":"Klimoplaan","highway":"residential","vertex1":16942,"vertex2":16901}},{"type":"Feature","geometry":{"type":"LineString","coordinates":[[3.698412,51.08013],[3.698978,51.08028]]},"properties":{"name":"Moerbezielaan","highway":"residential","vertex1":16942,"vertex2":16908}},{"type":"Feature","geometry":{"type":"LineString","coordinates":[[3.698627,51.07703],[3.69917,51.07655]]},"properties":{"name":"Lusthoflaan","highway":"residential","vertex1":16941,"vertex2":16939}},{"type":"Feature","geometry":{"type":"LineString","coordinates":[[3.698627,51.07703],[3.698448,51.0768],[3.698132,51.07644]]},"properties":{"name":"Molenwalstraat","highway":"residential","vertex1":16941,"vertex2":16923}},{"type":"Feature","geometry":{"type":"LineString","coordinates":[[3.698627,51.07703],[3.698601,51.07705]]},"properties":{"name":"Lusthoflaan","highway":"residential","vertex1":16941,"vertex2":16927}},{"type":"Feature","geometry":{"type":"LineString","coordinates":[[3.69446,51.07682],[3.694732,51.0769],[3.694978,51.07696]]},"properties":{"name":"Damstraat","maxspeed":"50","highway":"residential","vertex1":16940,"vertex2":16931}},{"type":"Feature","geometry":{"type":"LineString","coordinates":[[3.69917,51.07655],[3.699513,51.07623],[3.699873,51.07584]]},"properties":{"name":"Lusthoflaan","highway":"residential","vertex1":16939,"vertex2":16911}},{"type":"Feature","geometry":{"type":"LineString","coordinates":[[3.69917,51.07655],[3.700042,51.07695],[3.700859,51.07741],[3.701181,51.07758]]},"properties":{"name":"Lindekouterstraat","highway":"residential","vertex1":16939,"vertex2":16934}},{"type":"Feature","geometry":{"type":"LineString","coordinates":[[3.698006,51.07628],[3.698132,51.07644]]},"properties":{"name":"Molenwalstraat","highway":"residential","vertex1":16938,"vertex2":16923}},{"type":"Feature","geometry":{"type":"LineString","coordinates":[[3.697644,51.07961],[3.697351,51.07952],[3.696417,51.07917]]},"properties":{"name":"Ruiterlaan","highway":"residential","vertex1":16937,"vertex2":16902}},{"type":"Feature","geometry":{"type":"LineString","coordinates":[[3.697644,51.07961],[3.6979,51.07967],[3.698545,51.07985]]},"properties":{"name":"Ruiterlaan","highway":"residential","vertex1":16937,"vertex2":16901}},{"type":"Feature","geometry":{"type":"LineString","coordinates":[[3.697644,51.07961],[3.69772,51.07948],[3.697955,51.07916]]},"properties":{"name":"Sprinkhaanlaan","highway":"residential","vertex1":16937,"vertex2":16935}},{"type":"Feature","geometry":{"type":"LineString","coordinates":[[3.691452,51.07664],[3.691382,51.07664],[3.690349,51.07652],[3.689655,51.07641]]},"properties":{"name":"Guldenroedestraat","oneway":"yes","oneway:bicycle":"no","maxspeed":"50","highway":"residential","vertex1":16936,"vertex2":20551}},{"type":"Feature","geometry":{"type":"LineString","coordinates":[[3.697955,51.07916],[3.697549,51.07904],[3.69746,51.07899]]},"properties":{"name":"Sprinkhaanlaan","highway":"residential","vertex1":16935,"vertex2":16909}},{"type":"Feature","geometry":{"type":"LineString","coordinates":[[3.697955,51.07916],[3.698141,51.07891],[3.698405,51.07864]]},"properties":{"name":"Poortbilk","highway":"residential","vertex1":16935,"vertex2":16907}},{"type":"Feature","geometry":{"type":"LineString","coordinates":[[3.701181,51.07758],[3.702185,51.07802]]},"properties":{"name":"Lindekouterstraat","highway":"residential","vertex1":16934,"vertex2":16897}},{"type":"Feature","geometry":{"type":"LineString","coordinates":[[3.701181,51.07758],[3.70187,51.07684]]},"properties":{"name":"Steengoedstraat","highway":"residential","vertex1":16934,"vertex2":16922}},{"type":"Feature","geometry":{"type":"LineString","coordinates":[[3.695588,51.08042],[3.695573,51.08047],[3.695485,51.08055],[3.695415,51.08063]]},"properties":{"highway":"service","vertex1":16933,"vertex2":16900}},{"type":"Feature","geometry":{"type":"LineString","coordinates":[[3.695588,51.08042],[3.695496,51.08039],[3.695341,51.08033]]},"properties":{"highway":"service","vertex1":16933,"vertex2":16896}},{"type":"Feature","geometry":{"type":"LineString","coordinates":[[3.70237,51.07902],[3.703055,51.07893]]},"properties":{"name":"Hogekouterstraat","highway":"residential","vertex1":16932,"vertex2":16850}},{"type":"Feature","geometry":{"type":"LineString","coordinates":[[3.70237,51.07902],[3.701726,51.07864]]},"properties":{"name":"Molenwalstraat","highway":"residential","vertex1":16932,"vertex2":16894}},{"type":"Feature","geometry":{"type":"LineString","coordinates":[[3.70237,51.07902],[3.702745,51.07925]]},"properties":{"name":"Molenwalstraat","highway":"residential","vertex1":16932,"vertex2":16812}},{"type":"Feature","geometry":{"type":"LineString","coordinates":[[3.696306,51.07928],[3.695588,51.07909],[3.695316,51.07904]]},"properties":{"name":"Losweg","highway":"residential","vertex1":16930,"vertex2":16928}},{"type":"Feature","geometry":{"type":"LineString","coordinates":[[3.696306,51.07928],[3.696417,51.07917]]},"properties":{"name":"Lusthoflaan","highway":"residential","vertex1":16930,"vertex2":16902}},{"type":"Feature","geometry":{"type":"LineString","coordinates":[[3.696306,51.07928],[3.695885,51.07974],[3.695459,51.0802]]},"properties":{"name":"Lusthoflaan","highway":"residential","vertex1":16930,"vertex2":16906}},{"type":"Feature","geometry":{"type":"LineString","coordinates":[[3.698021,51.07848],[3.698405,51.07864]]},"properties":{"name":"Poortbilk","highway":"residential","vertex1":16929,"vertex2":16907}},{"type":"Feature","geometry":{"type":"LineString","coordinates":[[3.695316,51.07904],[3.695197,51.07903],[3.694801,51.079],[3.693995,51.07897]]},"properties":{"name":"Losweg","highway":"residential","vertex1":16928,"vertex2":16904}},{"type":"Feature","geometry":{"type":"LineString","coordinates":[[3.695316,51.07904],[3.694564,51.07988],[3.695459,51.0802]]},"properties":{"name":"Amandelboomlaan","highway":"residential","vertex1":16928,"vertex2":16906}},{"type":"Feature","geometry":{"type":"LineString","coordinates":[[3.698601,51.07705],[3.698869,51.07737],[3.69898,51.07745],[3.700373,51.07805]]},"properties":{"name":"Molenwalstraat","highway":"residential","vertex1":16927,"vertex2":16895}},{"type":"Feature","geometry":{"type":"LineString","coordinates":[[3.698601,51.07705],[3.698182,51.0774]]},"properties":{"name":"Lusthoflaan","highway":"residential","vertex1":16927,"vertex2":16915}},{"type":"Feature","geometry":{"type":"LineString","coordinates":[[3.700297,51.076],[3.699873,51.07584]]},"properties":{"name":"Treurwilgenstraat","oneway":"yes","highway":"residential","vertex1":16926,"vertex2":16911}},{"type":"Feature","geometry":{"type":"LineString","coordinates":[[3.700297,51.076],[3.701061,51.07545]]},"properties":{"name":"Mimosastraat","oneway":"yes","highway":"residential","vertex1":16926,"vertex2":16890}},{"type":"Feature","geometry":{"type":"LineString","coordinates":[[3.700297,51.076],[3.700808,51.07629],[3.701361,51.07665]]},"properties":{"name":"Treurwilgenstraat","highway":"residential","vertex1":16926,"vertex2":16924}},{"type":"Feature","geometry":{"type":"LineString","coordinates":[[3.699304,51.08036],[3.699827,51.08051],[3.700299,51.08063],[3.700761,51.08072]]},"properties":{"name":"Moerbezielaan","highway":"residential","vertex1":16925,"vertex2":16919}},{"type":"Feature","geometry":{"type":"LineString","coordinates":[[3.699304,51.08036],[3.698978,51.08028]]},"properties":{"name":"Moerbezielaan","highway":"residential","vertex1":16925,"vertex2":16908}},{"type":"Feature","geometry":{"type":"LineString","coordinates":[[3.701361,51.07665],[3.70187,51.07684]]},"properties":{"highway":"cycleway","vertex1":16924,"vertex2":16922}},{"type":"Feature","geometry":{"type":"LineString","coordinates":[[3.698132,51.07644],[3.69757,51.07684],[3.697487,51.07686],[3.69739,51.07686],[3.697079,51.07671]]},"properties":{"highway":"service","vertex1":16923,"vertex2":16921}},{"type":"Feature","geometry":{"type":"LineString","coordinates":[[3.70187,51.07684],[3.701918,51.07679],[3.702257,51.07639]]},"properties":{"name":"Steengoedstraat","highway":"residential","vertex1":16922,"vertex2":16898}},{"type":"Feature","geometry":{"type":"LineString","coordinates":[[3.700761,51.08072],[3.701102,51.08004]]},"properties":{"name":"Hazenlaan","highway":"residential","vertex1":16919,"vertex2":16899}},{"type":"Feature","geometry":{"type":"LineString","coordinates":[[3.696812,51.07875],[3.697384,51.07816],[3.698182,51.0774]]},"properties":{"name":"Lusthoflaan","highway":"residential","vertex1":16918,"vertex2":16915}},{"type":"Feature","geometry":{"type":"LineString","coordinates":[[3.696812,51.07875],[3.696574,51.07899],[3.696417,51.07917]]},"properties":{"name":"Lusthoflaan","highway":"residential","vertex1":16918,"vertex2":16902}},{"type":"Feature","geometry":{"type":"LineString","coordinates":[[3.696812,51.07875],[3.696992,51.07882],[3.697228,51.0789],[3.697385,51.07895],[3.69746,51.07899]]},"properties":{"bicycle":"yes","highway":"footway","vertex1":16918,"vertex2":16909}},{"type":"Feature","geometry":{"type":"LineString","coordinates":[[3.701572,51.07857],[3.702185,51.07802]]},"properties":{"name":"Kolegemkouter","highway":"residential","vertex1":16917,"vertex2":16897}},{"type":"Feature","geometry":{"type":"LineString","coordinates":[[3.701572,51.07857],[3.701726,51.07864]]},"properties":{"name":"Molenwalstraat","highway":"residential","vertex1":16917,"vertex2":16894}},{"type":"Feature","geometry":{"type":"LineString","coordinates":[[3.701572,51.07857],[3.700373,51.07805]]},"properties":{"name":"Molenwalstraat","highway":"residential","vertex1":16917,"vertex2":16895}},{"type":"Feature","geometry":{"type":"LineString","coordinates":[[3.692475,51.08048],[3.692535,51.08036]]},"properties":{"name":"Heizen","highway":"residential","vertex1":16916,"vertex2":16914}},{"type":"Feature","geometry":{"type":"LineString","coordinates":[[3.692475,51.08048],[3.692563,51.08047]]},"properties":{"name":"Heizen","highway":"residential","vertex1":16916,"vertex2":16912}},{"type":"Feature","geometry":{"type":"LineString","coordinates":[[3.692535,51.08036],[3.692593,51.08027],[3.692665,51.08023],[3.692725,51.08023],[3.692798,51.08025],[3.69282,51.0803],[3.692802,51.08035],[3.69275,51.08041],[3.692682,51.08044],[3.692563,51.08047]]},"properties":{"name":"Heizen","highway":"residential","vertex1":16914,"vertex2":16912}},{"type":"Feature","geometry":{"type":"LineString","coordinates":[[3.699878,51.07922],[3.70079,51.07954],[3.701346,51.07975]]},"properties":{"highway":"track","vertex1":16913,"vertex2":16891}},{"type":"Feature","geometry":{"type":"LineString","coordinates":[[3.698405,51.07864],[3.698604,51.07872]]},"properties":{"name":"Poortbilk","highway":"residential","vertex1":16907,"vertex2":16893}},{"type":"Feature","geometry":{"type":"LineString","coordinates":[[3.695459,51.0802],[3.695341,51.08033]]},"properties":{"name":"Lusthoflaan","highway":"residential","vertex1":16906,"vertex2":16896}},{"type":"Feature","geometry":{"type":"LineString","coordinates":[[3.701782,51.08091],[3.701955,51.0806],[3.70207,51.08043],[3.70215,51.08033],[3.70226,51.08023],[3.702373,51.08012],[3.702538,51.08006]]},"properties":{"name":"Braambezielaan","highway":"residential","vertex1":16905,"vertex2":16867}},{"type":"Feature","geometry":{"type":"LineString","coordinates":[[3.701782,51.08091],[3.702268,51.08101],[3.702595,51.08104],[3.702786,51.08105]]},"properties":{"name":"Moerbezielaan","highway":"residential","vertex1":16905,"vertex2":16745}},{"type":"Feature","geometry":{"type":"LineString","coordinates":[[3.698928,51.0794],[3.699427,51.07891],[3.699692,51.07866]]},"properties":{"name":"Klimoplaan","highway":"residential","vertex1":16903,"vertex2":16889}},{"type":"Feature","geometry":{"type":"LineString","coordinates":[[3.698928,51.0794],[3.698678,51.07962],[3.698545,51.07985]]},"properties":{"name":"Klimoplaan","highway":"residential","vertex1":16903,"vertex2":16901}},{"type":"Feature","geometry":{"type":"LineString","coordinates":[[3.695415,51.08063],[3.695357,51.08068],[3.695243,51.08078],[3.695192,51.08078],[3.695104,51.08076],[3.694975,51.08074]]},"properties":{"highway":"service","vertex1":16900,"vertex2":16888}},{"type":"Feature","geometry":{"type":"LineString","coordinates":[[3.701102,51.08004],[3.701346,51.07975]]},"properties":{"name":"Hazenlaan","highway":"residential","vertex1":16899,"vertex2":16891}},{"type":"Feature","geometry":{"type":"LineString","coordinates":[[3.702257,51.07639],[3.702367,51.07627]]},"properties":{"name":"Steengoedstraat","highway":"residential","vertex1":16898,"vertex2":16892}},{"type":"Feature","geometry":{"type":"LineString","coordinates":[[3.702257,51.07639],[3.702627,51.07652]]},"properties":{"name":"Hogekouterstraat","highway":"residential","vertex1":16898,"vertex2":16834}},{"type":"Feature","geometry":{"type":"LineString","coordinates":[[3.702185,51.07802],[3.702678,51.07755]]},"properties":{"name":"Kolegemkouter","highway":"residential","vertex1":16897,"vertex2":16845}},{"type":"Feature","geometry":{"type":"LineString","coordinates":[[3.695341,51.08033],[3.694975,51.08074]]},"properties":{"name":"Lusthoflaan","highway":"residential","vertex1":16896,"vertex2":16888}},{"type":"Feature","geometry":{"type":"LineString","coordinates":[[3.700373,51.07805],[3.699813,51.07854],[3.699692,51.07866]]},"properties":{"name":"Klimoplaan","highway":"residential","vertex1":16895,"vertex2":16889}},{"type":"Feature","geometry":{"type":"LineString","coordinates":[[3.702367,51.07627],[3.702627,51.07652]]},"properties":{"name":"Hogekouterstraat","highway":"residential","vertex1":16892,"vertex2":16834}},{"type":"Feature","geometry":{"type":"LineString","coordinates":[[3.702367,51.07627],[3.702079,51.07606],[3.701061,51.07545]]},"properties":{"name":"Hogekouterstraat","highway":"residential","vertex1":16892,"vertex2":16890}},{"type":"Feature","geometry":{"type":"LineString","coordinates":[[3.701346,51.07975],[3.701546,51.0795]]},"properties":{"name":"Hazenlaan","highway":"residential","vertex1":16891,"vertex2":16887}},{"type":"Feature","geometry":{"type":"LineString","coordinates":[[3.70952,51.07722],[3.70966,51.07722],[3.70991,51.07725],[3.710207,51.07727],[3.710763,51.0773],[3.71131,51.0773],[3.711822,51.07726],[3.712286,51.07723]]},"properties":{"highway":"cycleway","vertex1":16886,"vertex2":16818}},{"type":"Feature","geometry":{"type":"LineString","coordinates":[[3.70952,51.07722],[3.709433,51.07722],[3.709253,51.07724]]},"properties":{"highway":"cycleway","vertex1":16886,"vertex2":16830}},{"type":"Feature","geometry":{"type":"LineString","coordinates":[[3.70952,51.07722],[3.70944,51.07719],[3.70921,51.07716],[3.708965,51.07712],[3.708884,51.07712]]},"properties":{"highway":"path","vertex1":16886,"vertex2":16808}},{"type":"Feature","geometry":{"type":"LineString","coordinates":[[3.712612,51.07871],[3.711753,51.07842]]},"properties":{"name":"Sint-Godelievestraat","highway":"residential","vertex1":16885,"vertex2":16860}},{"type":"Feature","geometry":{"type":"LineString","coordinates":[[3.712612,51.07871],[3.71334,51.07897],[3.713737,51.07904]]},"properties":{"name":"Sint-Godelievestraat","highway":"residential","vertex1":16885,"vertex2":16511}},{"type":"Feature","geometry":{"type":"LineString","coordinates":[[3.712612,51.07871],[3.712766,51.07837]]},"properties":{"name":"Sint-Godelievestraat","highway":"residential","vertex1":16885,"vertex2":16861}},{"type":"Feature","geometry":{"type":"LineString","coordinates":[[3.713737,51.07904],[3.713487,51.07912],[3.713369,51.07915]]},"properties":{"name":"Spoorwegstraat","highway":"residential","vertex1":16511,"vertex2":16882}},{"type":"Feature","geometry":{"type":"LineString","coordinates":[[3.706395,51.07868],[3.706395,51.0787],[3.706292,51.07895],[3.706189,51.07946],[3.706071,51.08011],[3.705984,51.08142]]},"properties":{"name":"Dikkelindestraat","highway":"residential","vertex1":16884,"vertex2":16750}},{"type":"Feature","geometry":{"type":"LineString","coordinates":[[3.706395,51.07868],[3.706385,51.07867]]},"properties":{"name":"Dikkelindestraat","highway":"residential","vertex1":16884,"vertex2":16805}},{"type":"Feature","geometry":{"type":"LineString","coordinates":[[3.706395,51.07868],[3.706594,51.07871],[3.707518,51.07877]]},"properties":{"name":"Kolegemstraat","highway":"residential","vertex1":16884,"vertex2":16831}},{"type":"Feature","geometry":{"type":"LineString","coordinates":[[3.703837,51.07988],[3.702973,51.07938],[3.702791,51.07927]]},"properties":{"name":"Molenwalstraat","highway":"residential","vertex1":16883,"vertex2":16838}},{"type":"Feature","geometry":{"type":"LineString","coordinates":[[3.703837,51.07988],[3.70392,51.07986],[3.704006,51.07989],[3.704023,51.07994]]},"properties":{"name":"Molenwalstraat","highway":"residential","vertex1":16883,"vertex2":16881}},{"type":"Feature","geometry":{"type":"LineString","coordinates":[[3.703837,51.07988],[3.703806,51.07994],[3.703871,51.07999],[3.70392,51.07999]]},"properties":{"name":"Molenwalstraat","highway":"residential","vertex1":16883,"vertex2":16879}},{"type":"Feature","geometry":{"type":"LineString","coordinates":[[3.713369,51.07915],[3.713524,51.07927]]},"properties":{"name":"Spoorwegstraat","highway":"residential","vertex1":16882,"vertex2":16492}},{"type":"Feature","geometry":{"type":"LineString","coordinates":[[3.713369,51.07915],[3.712808,51.07922],[3.71266,51.07924]]},"properties":{"name":"Spoorwegstraat","highway":"residential","vertex1":16882,"vertex2":16840}},{"type":"Feature","geometry":{"type":"LineString","coordinates":[[3.704023,51.07994],[3.703962,51.07999],[3.70392,51.07999]]},"properties":{"name":"Molenwalstraat","highway":"residential","vertex1":16881,"vertex2":16879}},{"type":"Feature","geometry":{"type":"LineString","coordinates":[[3.704023,51.07994],[3.704076,51.07998]]},"properties":{"highway":"footway","vertex1":16881,"vertex2":16877}},{"type":"Feature","geometry":{"type":"LineString","coordinates":[[3.705163,51.07869],[3.70491,51.07861],[3.704885,51.0786]]},"properties":{"name":"Kolegemstraat","highway":"residential","vertex1":16880,"vertex2":16809}},{"type":"Feature","geometry":{"type":"LineString","coordinates":[[3.705163,51.07869],[3.705353,51.07875]]},"properties":{"name":"Kolegemstraat","highway":"residential","vertex1":16880,"vertex2":16810}},{"type":"Feature","geometry":{"type":"LineString","coordinates":[[3.70392,51.07999],[3.703935,51.08007]]},"properties":{"highway":"service","vertex1":16879,"vertex2":16864}},{"type":"Feature","geometry":{"type":"LineString","coordinates":[[3.705386,51.07798],[3.705242,51.07816],[3.705144,51.07829],[3.704885,51.0786]]},"properties":{"highway":"service","vertex1":16878,"vertex2":16809}},{"type":"Feature","geometry":{"type":"LineString","coordinates":[[3.704076,51.07998],[3.703935,51.08007]]},"properties":{"highway":"footway","vertex1":16877,"vertex2":16864}},{"type":"Feature","geometry":{"type":"LineString","coordinates":[[3.704076,51.07998],[3.704292,51.07983]]},"properties":{"highway":"footway","vertex1":16877,"vertex2":16848}},{"type":"Feature","geometry":{"type":"LineString","coordinates":[[3.712323,51.07723],[3.712725,51.0772],[3.71332,51.07709],[3.713695,51.077],[3.714137,51.07688],[3.714616,51.07671],[3.715032,51.0765],[3.715292,51.07637]]},"properties":{"highway":"cycleway","vertex1":16876,"vertex2":16506}},{"type":"Feature","geometry":{"type":"LineString","coordinates":[[3.712323,51.07723],[3.712286,51.07723]]},"properties":{"highway":"cycleway","vertex1":16876,"vertex2":16818}},{"type":"Feature","geometry":{"type":"LineString","coordinates":[[3.712323,51.07723],[3.712339,51.07727],[3.712375,51.07731],[3.712483,51.07737],[3.712674,51.07746]]},"properties":{"highway":"footway","vertex1":16876,"vertex2":16873}},{"type":"Feature","geometry":{"type":"LineString","coordinates":[[3.712185,51.0775],[3.712649,51.07746],[3.712674,51.07746]]},"properties":{"bicycle":"yes","highway":"footway","vertex1":16875,"vertex2":16873}},{"type":"Feature","geometry":{"type":"LineString","coordinates":[[3.712185,51.0775],[3.712286,51.07723]]},"properties":{"name":"Westergemstraat","highway":"residential","vertex1":16875,"vertex2":16818}},{"type":"Feature","geometry":{"type":"LineString","coordinates":[[3.712185,51.0775],[3.711841,51.07824],[3.711753,51.07842]]},"properties":{"name":"Westergemstraat","highway":"residential","vertex1":16875,"vertex2":16860}},{"type":"Feature","geometry":{"type":"LineString","coordinates":[[3.708659,51.07884],[3.709031,51.07939],[3.709347,51.07981]]},"properties":{"name":"Gentseaardeweg","highway":"residential","vertex1":16874,"vertex2":16827}},{"type":"Feature","geometry":{"type":"LineString","coordinates":[[3.708659,51.07884],[3.70839,51.07847],[3.708023,51.07775],[3.707972,51.07764]]},"properties":{"name":"Gentseaardeweg","highway":"residential","vertex1":16874,"vertex2":16841}},{"type":"Feature","geometry":{"type":"LineString","coordinates":[[3.708659,51.07884],[3.707518,51.07877]]},"properties":{"name":"Kolegemstraat","highway":"residential","vertex1":16874,"vertex2":16831}},{"type":"Feature","geometry":{"type":"LineString","coordinates":[[3.708659,51.07884],[3.708844,51.07887],[3.709567,51.07892],[3.710895,51.07904]]},"properties":{"name":"Kolegemstraat","highway":"residential","vertex1":16874,"vertex2":16804}},{"type":"Feature","geometry":{"type":"LineString","coordinates":[[3.712674,51.07746],[3.71282,51.07745],[3.712967,51.07749],[3.713105,51.07757],[3.713112,51.07764]]},"properties":{"bicycle":"yes","highway":"footway","vertex1":16873,"vertex2":16855}},{"type":"Feature","geometry":{"type":"LineString","coordinates":[[3.710437,51.07941],[3.710618,51.07943]]},"properties":{"highway":"service","vertex1":16872,"vertex2":16858}},{"type":"Feature","geometry":{"type":"LineString","coordinates":[[3.707374,51.07566],[3.707704,51.0757],[3.708022,51.07572],[3.708211,51.07572],[3.708367,51.07573],[3.708399,51.07573]]},"properties":{"name":"Grensstraat","highway":"residential","maxspeed":"30","vertex1":16871,"vertex2":16869}},{"type":"Feature","geometry":{"type":"LineString","coordinates":[[3.709426,51.07582],[3.708537,51.07574],[3.708421,51.07573],[3.708399,51.07573]]},"properties":{"name":"Grensstraat","highway":"residential","maxspeed":"30","vertex1":16870,"vertex2":16869}},{"type":"Feature","geometry":{"type":"LineString","coordinates":[[3.709426,51.07582],[3.709773,51.0759]]},"properties":{"name":"Grensstraat","highway":"residential","maxspeed":"30","vertex1":16870,"vertex2":16844}},{"type":"Feature","geometry":{"type":"LineString","coordinates":[[3.708399,51.07573],[3.70834,51.07585],[3.707733,51.07679]]},"properties":{"name":"Dikkelindestraat","highway":"residential","maxspeed":"30","vertex1":16869,"vertex2":16821}},{"type":"Feature","geometry":{"type":"LineString","coordinates":[[3.71231,51.07718],[3.712645,51.07718],[3.712909,51.07713],[3.713225,51.07707],[3.713675,51.07696],[3.714013,51.07686],[3.714346,51.07674],[3.714327,51.07663]]},"properties":{"highway":"track","vertex1":16868,"vertex2":16513}},{"type":"Feature","geometry":{"type":"LineString","coordinates":[[3.71231,51.07718],[3.711832,51.0772],[3.710939,51.07723],[3.71023,51.07722],[3.709518,51.07716],[3.708831,51.07705],[3.70828,51.07693],[3.707756,51.0768],[3.707733,51.07679]]},"properties":{"name":"Zandstraat","highway":"residential","maxspeed":"30","vertex1":16868,"vertex2":16821}},{"type":"Feature","geometry":{"type":"LineString","coordinates":[[3.71231,51.07718],[3.712536,51.07666],[3.71258,51.07658]]},"properties":{"name":"Veronicastraat","highway":"residential","maxspeed":"30","vertex1":16868,"vertex2":16832}},{"type":"Feature","geometry":{"type":"LineString","coordinates":[[3.71231,51.07718],[3.712286,51.07723]]},"properties":{"name":"Veronicastraat","highway":"residential","maxspeed":"30","vertex1":16868,"vertex2":16818}},{"type":"Feature","geometry":{"type":"LineString","coordinates":[[3.714327,51.07663],[3.714092,51.07666],[3.713874,51.07667],[3.712734,51.07661],[3.71258,51.07658]]},"properties":{"name":"Grensstraat","highway":"residential","maxspeed":"30","vertex1":16513,"vertex2":16832}},{"type":"Feature","geometry":{"type":"LineString","coordinates":[[3.702538,51.08006],[3.702538,51.08],[3.702601,51.07985],[3.702641,51.0797],[3.702697,51.07949],[3.702791,51.07927]]},"properties":{"name":"Braambezielaan","highway":"residential","vertex1":16867,"vertex2":16838}},{"type":"Feature","geometry":{"type":"LineString","coordinates":[[3.702538,51.08006],[3.703063,51.08059]]},"properties":{"name":"Willy Maststraat","highway":"residential","vertex1":16867,"vertex2":16863}},{"type":"Feature","geometry":{"type":"LineString","coordinates":[[3.707681,51.07687],[3.707704,51.07687],[3.708207,51.07697],[3.708807,51.0771],[3.708884,51.07712]]},"properties":{"highway":"cycleway","vertex1":16866,"vertex2":16808}},{"type":"Feature","geometry":{"type":"LineString","coordinates":[[3.707681,51.07687],[3.707595,51.077]]},"properties":{"name":"Dikkelindestraat","highway":"residential","maxspeed":"30","vertex1":16866,"vertex2":16819}},{"type":"Feature","geometry":{"type":"LineString","coordinates":[[3.707681,51.07687],[3.707733,51.07679]]},"properties":{"name":"Dikkelindestraat","highway":"residential","maxspeed":"30","vertex1":16866,"vertex2":16821}},{"type":"Feature","geometry":{"type":"LineString","coordinates":[[3.704225,51.08047],[3.703806,51.08022],[3.703796,51.08017],[3.703935,51.08007]]},"properties":{"highway":"service","vertex1":16865,"vertex2":16864}},{"type":"Feature","geometry":{"type":"LineString","coordinates":[[3.703063,51.08059],[3.703963,51.0811]]},"properties":{"name":"Willy Maststraat","highway":"residential","vertex1":16863,"vertex2":16800}},{"type":"Feature","geometry":{"type":"LineString","coordinates":[[3.703063,51.08059],[3.702786,51.08105]]},"properties":{"name":"Kweepeerstraat","highway":"residential","vertex1":16863,"vertex2":16745}},{"type":"Feature","geometry":{"type":"LineString","coordinates":[[3.709019,51.07826],[3.709118,51.07809]]},"properties":{"bicycle":"no","motorcar":"no","foot":"no","highway":"service","vertex1":16862,"vertex2":16828}},{"type":"Feature","geometry":{"type":"LineString","coordinates":[[3.712766,51.07837],[3.712866,51.07814]]},"properties":{"highway":"footway","vertex1":16861,"vertex2":16857}},{"type":"Feature","geometry":{"type":"LineString","coordinates":[[3.711753,51.07842],[3.710247,51.07787]]},"properties":{"name":"Sint-Godelievestraat","highway":"residential","vertex1":16860,"vertex2":16826}},{"type":"Feature","geometry":{"type":"LineString","coordinates":[[3.711753,51.07842],[3.711626,51.07873]]},"properties":{"name":"Westergemstraat","highway":"residential","vertex1":16860,"vertex2":16852}},{"type":"Feature","geometry":{"type":"LineString","coordinates":[[3.712862,51.07615],[3.713046,51.07584],[3.713169,51.07562],[3.713341,51.07531],[3.713524,51.07494]]},"properties":{"name":"Veronicastraat","highway":"residential","maxspeed":"30","vertex1":16859,"vertex2":16415}},{"type":"Feature","geometry":{"type":"LineString","coordinates":[[3.712862,51.07615],[3.712625,51.0765],[3.71258,51.07658]]},"properties":{"name":"Veronicastraat","highway":"residential","maxspeed":"30","vertex1":16859,"vertex2":16832}},{"type":"Feature","geometry":{"type":"LineString","coordinates":[[3.712862,51.07615],[3.712475,51.07603],[3.71241,51.07611],[3.71196,51.07593]]},"properties":{"bicycle":"no","motorcar":"no","foot":"no","highway":"service","vertex1":16859,"vertex2":16833}},{"type":"Feature","geometry":{"type":"LineString","coordinates":[[3.710618,51.07943],[3.710536,51.07961]]},"properties":{"highway":"service","vertex1":16858,"vertex2":16846}},{"type":"Feature","geometry":{"type":"LineString","coordinates":[[3.710618,51.07943],[3.710696,51.07941],[3.710803,51.07924],[3.710895,51.07904]]},"properties":{"highway":"service","vertex1":16858,"vertex2":16804}},{"type":"Feature","geometry":{"type":"LineString","coordinates":[[3.712866,51.07814],[3.713014,51.07784],[3.713112,51.07764]]},"properties":{"name":"Spurriestraat","highway":"residential","vertex1":16857,"vertex2":16855}},{"type":"Feature","geometry":{"type":"LineString","coordinates":[[3.710129,51.07602],[3.709773,51.0759]]},"properties":{"name":"Grensstraat","highway":"residential","maxspeed":"30","vertex1":16856,"vertex2":16844}},{"type":"Feature","geometry":{"type":"LineString","coordinates":[[3.710129,51.07602],[3.710683,51.07622],[3.711002,51.07632],[3.71184,51.07649],[3.712451,51.07657],[3.71258,51.07658]]},"properties":{"name":"Grensstraat","highway":"residential","maxspeed":"30","vertex1":16856,"vertex2":16832}},{"type":"Feature","geometry":{"type":"LineString","coordinates":[[3.713112,51.07764],[3.7137,51.07751],[3.714247,51.07742],[3.71455,51.07741]]},"properties":{"name":"Spurriestraat","highway":"residential","vertex1":16855,"vertex2":16509}},{"type":"Feature","geometry":{"type":"LineString","coordinates":[[3.705949,51.07671],[3.706008,51.07666],[3.70611,51.07664],[3.706212,51.07666],[3.706519,51.07677],[3.707194,51.07703],[3.707445,51.07714],[3.707494,51.07716]]},"properties":{"highway":"track","vertex1":16854,"vertex2":16817}},{"type":"Feature","geometry":{"type":"LineString","coordinates":[[3.703273,51.07757],[3.703094,51.07721],[3.703039,51.07714]]},"properties":{"name":"Hogekouterstraat","highway":"residential","vertex1":16853,"vertex2":16802}},{"type":"Feature","geometry":{"type":"LineString","coordinates":[[3.703273,51.07757],[3.703427,51.07784],[3.703416,51.07792]]},"properties":{"name":"Hogekouterstraat","highway":"residential","vertex1":16853,"vertex2":16825}},{"type":"Feature","geometry":{"type":"LineString","coordinates":[[3.711626,51.07873],[3.711541,51.07893],[3.711471,51.07909]]},"properties":{"name":"Westergemstraat","highway":"residential","vertex1":16852,"vertex2":16806}},{"type":"Feature","geometry":{"type":"LineString","coordinates":[[3.711626,51.07873],[3.711271,51.07866]]},"properties":{"highway":"service","vertex1":16852,"vertex2":16822}},{"type":"Feature","geometry":{"type":"LineString","coordinates":[[3.707328,51.07987],[3.70712,51.08163]]},"properties":{"name":"Bosuilstraat","highway":"residential","vertex1":16851,"vertex2":16747}},{"type":"Feature","geometry":{"type":"LineString","coordinates":[[3.707328,51.07987],[3.707456,51.07924]]},"properties":{"name":"Bosuilstraat","highway":"residential","vertex1":16851,"vertex2":16835}},{"type":"Feature","geometry":{"type":"LineString","coordinates":[[3.707328,51.07987],[3.707939,51.07985]]},"properties":{"name":"Groenplein","highway":"residential","vertex1":16851,"vertex2":16849}},{"type":"Feature","geometry":{"type":"LineString","coordinates":[[3.703055,51.07893],[3.703248,51.07878],[3.703415,51.07865],[3.703514,51.07851],[3.703514,51.07831],[3.703416,51.07792]]},"properties":{"name":"Hogekouterstraat","highway":"residential","vertex1":16850,"vertex2":16825}},{"type":"Feature","geometry":{"type":"LineString","coordinates":[[3.703055,51.07893],[3.702881,51.07909],[3.702745,51.07925]]},"properties":{"name":"Hogekouterstraat","highway":"residential","vertex1":16850,"vertex2":16812}},{"type":"Feature","geometry":{"type":"LineString","coordinates":[[3.707939,51.07985],[3.708122,51.0801],[3.708411,51.08055],[3.708563,51.08079],[3.708536,51.081],[3.708502,51.08114]]},"properties":{"name":"Wezelstraat","highway":"residential","vertex1":16849,"vertex2":16713}},{"type":"Feature","geometry":{"type":"LineString","coordinates":[[3.707939,51.07985],[3.707456,51.07924]]},"properties":{"name":"Groenplein","highway":"residential","vertex1":16849,"vertex2":16835}},{"type":"Feature","geometry":{"type":"LineString","coordinates":[[3.707835,51.07733],[3.707913,51.07751],[3.707972,51.07764]]},"properties":{"name":"Gentseaardeweg","highway":"residential","vertex1":16847,"vertex2":16841}},{"type":"Feature","geometry":{"type":"LineString","coordinates":[[3.707835,51.07733],[3.707718,51.07711],[3.707669,51.07702],[3.707618,51.07701],[3.707595,51.077]]},"properties":{"name":"Gentseaardeweg","highway":"residential","vertex1":16847,"vertex2":16819}},{"type":"Feature","geometry":{"type":"LineString","coordinates":[[3.707835,51.07733],[3.70772,51.07729],[3.707562,51.07729],[3.707454,51.07728],[3.707427,51.07727]]},"properties":{"bicycle":"no","motorcar":"no","highway":"track","vertex1":16847,"vertex2":16815}},{"type":"Feature","geometry":{"type":"LineString","coordinates":[[3.702678,51.07755],[3.702993,51.07721],[3.703039,51.07714]]},"properties":{"name":"Kolegemkouter","highway":"residential","vertex1":16845,"vertex2":16802}},{"type":"Feature","geometry":{"type":"LineString","coordinates":[[3.702678,51.07755],[3.703308,51.07789],[3.703416,51.07792]]},"properties":{"name":"Hogekouterstraat","highway":"residential","vertex1":16845,"vertex2":16825}},{"type":"Feature","geometry":{"type":"LineString","coordinates":[[3.7063,51.07792],[3.706122,51.07787],[3.705778,51.07833],[3.705796,51.0784],[3.706172,51.0785],[3.706237,51.07855],[3.706381,51.07859],[3.706455,51.07863]]},"properties":{"bicycle":"no","motorcar":"no","foot":"no","highway":"service","vertex1":16843,"vertex2":16807}},{"type":"Feature","geometry":{"type":"LineString","coordinates":[[3.703306,51.07649],[3.703502,51.07685]]},"properties":{"highway":"footway","vertex1":16842,"vertex2":16824}},{"type":"Feature","geometry":{"type":"LineString","coordinates":[[3.707972,51.07764],[3.708156,51.07762],[3.709256,51.07784],[3.709118,51.07809]]},"properties":{"bicycle":"no","motorcar":"no","foot":"no","highway":"service","vertex1":16841,"vertex2":16828}},{"type":"Feature","geometry":{"type":"LineString","coordinates":[[3.71266,51.07924],[3.712468,51.07967],[3.712271,51.0801],[3.71196,51.08079],[3.711705,51.08126],[3.711444,51.08183]]},"properties":{"name":"Korenveldstraat","highway":"residential","vertex1":16840,"vertex2":16793}},{"type":"Feature","geometry":{"type":"LineString","coordinates":[[3.71266,51.07924],[3.712501,51.07925],[3.711471,51.07909]]},"properties":{"name":"Spoorwegstraat","highway":"residential","vertex1":16840,"vertex2":16806}},{"type":"Feature","geometry":{"type":"LineString","coordinates":[[3.702791,51.07927],[3.702745,51.07925]]},"properties":{"name":"Molenwalstraat","highway":"residential","vertex1":16838,"vertex2":16812}},{"type":"Feature","geometry":{"type":"LineString","coordinates":[[3.709366,51.08051],[3.709222,51.08047],[3.709016,51.08019],[3.709513,51.08006]]},"properties":{"highway":"service","vertex1":16836,"vertex2":16829}},{"type":"Feature","geometry":{"type":"LineString","coordinates":[[3.707456,51.07924],[3.707518,51.07877]]},"properties":{"name":"Bosuilstraat","highway":"residential","vertex1":16835,"vertex2":16831}},{"type":"Feature","geometry":{"type":"LineString","coordinates":[[3.702627,51.07652],[3.702658,51.07655],[3.702942,51.07699]]},"properties":{"name":"Hogekouterstraat","highway":"residential","vertex1":16834,"vertex2":16816}},{"type":"Feature","geometry":{"type":"LineString","coordinates":[[3.709253,51.07724],[3.709321,51.07737],[3.709425,51.07749],[3.709555,51.07761],[3.709867,51.07774],[3.710144,51.07784],[3.710247,51.07787]]},"properties":{"motorcar":"no","highway":"track","vertex1":16830,"vertex2":16826}},{"type":"Feature","geometry":{"type":"LineString","coordinates":[[3.709253,51.07724],[3.709186,51.07724],[3.709048,51.07721],[3.708884,51.07712]]},"properties":{"highway":"cycleway","vertex1":16830,"vertex2":16808}},{"type":"Feature","geometry":{"type":"LineString","coordinates":[[3.709513,51.08006],[3.710106,51.08084],[3.71043,51.08133]]},"properties":{"name":"Gentseaardeweg","highway":"residential","vertex1":16829,"vertex2":16779}},{"type":"Feature","geometry":{"type":"LineString","coordinates":[[3.709513,51.08006],[3.709347,51.07981]]},"properties":{"name":"Gentseaardeweg","highway":"residential","vertex1":16829,"vertex2":16827}},{"type":"Feature","geometry":{"type":"LineString","coordinates":[[3.709118,51.07809],[3.709573,51.07821],[3.70975,51.07837]]},"properties":{"bicycle":"no","motorcar":"no","foot":"no","highway":"service","vertex1":16828,"vertex2":16814}},{"type":"Feature","geometry":{"type":"LineString","coordinates":[[3.709347,51.07981],[3.709892,51.07967],[3.709984,51.07951],[3.709654,51.07943]]},"properties":{"highway":"service","vertex1":16827,"vertex2":16803}},{"type":"Feature","geometry":{"type":"LineString","coordinates":[[3.703416,51.07792],[3.703523,51.07787],[3.703726,51.07785],[3.704007,51.07789],[3.704284,51.07792],[3.704415,51.07795]]},"properties":{"name":"Hogekouterhof","highway":"residential","vertex1":16825,"vertex2":16823}},{"type":"Feature","geometry":{"type":"LineString","coordinates":[[3.703502,51.07685],[3.704523,51.07663],[3.704898,51.07656],[3.705006,51.07658],[3.705184,51.07689],[3.705256,51.07706],[3.70524,51.07714],[3.705065,51.07732],[3.704415,51.07795]]},"properties":{"name":"Hogekouterhof","highway":"residential","vertex1":16824,"vertex2":16823}},{"type":"Feature","geometry":{"type":"LineString","coordinates":[[3.703502,51.07685],[3.702942,51.07699]]},"properties":{"name":"Hogekouterhof","highway":"residential","vertex1":16824,"vertex2":16816}},{"type":"Feature","geometry":{"type":"LineString","coordinates":[[3.704415,51.07795],[3.704463,51.07819],[3.704496,51.07837],[3.704524,51.07851]]},"properties":{"name":"Hogekouterhof","highway":"residential","vertex1":16823,"vertex2":16813}},{"type":"Feature","geometry":{"type":"LineString","coordinates":[[3.707733,51.07679],[3.70771,51.07679],[3.707254,51.07672],[3.706733,51.07655],[3.706557,51.07649],[3.706031,51.07629],[3.704773,51.07576]]},"properties":{"bicycle":"no","motorcar":"no","foot":"no","highway":"track","vertex1":16821,"vertex2":16820}},{"type":"Feature","geometry":{"type":"LineString","coordinates":[[3.707595,51.077],[3.707494,51.07716]]},"properties":{"name":"Dikkelindestraat","highway":"residential","maxspeed":"30","vertex1":16819,"vertex2":16817}},{"type":"Feature","geometry":{"type":"LineString","coordinates":[[3.707494,51.07716],[3.707427,51.07727]]},"properties":{"name":"Dikkelindestraat","highway":"residential","maxspeed":"30","vertex1":16817,"vertex2":16815}},{"type":"Feature","geometry":{"type":"LineString","coordinates":[[3.702942,51.07699],[3.703039,51.07714]]},"properties":{"name":"Hogekouterstraat","highway":"residential","vertex1":16816,"vertex2":16802}},{"type":"Feature","geometry":{"type":"LineString","coordinates":[[3.707427,51.07727],[3.707278,51.0775],[3.706913,51.07801],[3.706501,51.0786],[3.706455,51.07863]]},"properties":{"name":"Dikkelindestraat","highway":"residential","maxspeed":"30","vertex1":16815,"vertex2":16807}},{"type":"Feature","geometry":{"type":"LineString","coordinates":[[3.704524,51.07851],[3.704587,51.07894],[3.704574,51.07926],[3.70449,51.07935]]},"properties":{"name":"Hogekouterhof","highway":"residential","vertex1":16813,"vertex2":16811}},{"type":"Feature","geometry":{"type":"LineString","coordinates":[[3.704524,51.07851],[3.704687,51.07854],[3.704885,51.0786]]},"properties":{"name":"Kolegemstraat","highway":"residential","vertex1":16813,"vertex2":16809}},{"type":"Feature","geometry":{"type":"LineString","coordinates":[[3.705353,51.07875],[3.706042,51.07873],[3.706116,51.07873],[3.706271,51.07871],[3.706385,51.07867]]},"properties":{"name":"Kolegemstraat","highway":"residential","vertex1":16810,"vertex2":16805}},{"type":"Feature","geometry":{"type":"LineString","coordinates":[[3.706455,51.07863],[3.706439,51.07864],[3.706385,51.07867]]},"properties":{"name":"Dikkelindestraat","highway":"residential","maxspeed":"30","vertex1":16807,"vertex2":16805}},{"type":"Feature","geometry":{"type":"LineString","coordinates":[[3.711471,51.07909],[3.711395,51.07926],[3.711094,51.0801],[3.710948,51.08052],[3.710794,51.08112],[3.710725,51.08136]]},"properties":{"name":"Westergemstraat","highway":"residential","vertex1":16806,"vertex2":16734}},{"type":"Feature","geometry":{"type":"LineString","coordinates":[[3.711471,51.07909],[3.711163,51.07906],[3.710895,51.07904]]},"properties":{"name":"Kolegemstraat","highway":"residential","vertex1":16806,"vertex2":16804}},{"type":"Feature","geometry":{"type":"LineString","coordinates":[[3.709089,51.08197],[3.70858,51.08189]]},"properties":{"name":"Roodborstjesstraat","highway":"residential","vertex1":16801,"vertex2":16754}},{"type":"Feature","geometry":{"type":"LineString","coordinates":[[3.709089,51.08197],[3.709713,51.08207]]},"properties":{"name":"Roodborstjesstraat","highway":"residential","vertex1":16801,"vertex2":16707}},{"type":"Feature","geometry":{"type":"LineString","coordinates":[[3.709089,51.08197],[3.709107,51.08191],[3.709153,51.08174],[3.709236,51.08169],[3.710114,51.08178],[3.710151,51.08207]]},"properties":{"highway":"service","vertex1":16801,"vertex2":16717}},{"type":"Feature","geometry":{"type":"LineString","coordinates":[[3.703963,51.0811],[3.704051,51.08116]]},"properties":{"name":"Willy Maststraat","oneway":"yes","highway":"residential","vertex1":16800,"vertex2":16709}},{"type":"Feature","geometry":{"type":"LineString","coordinates":[[3.703963,51.0811],[3.704093,51.08111],[3.704495,51.08117]]},"properties":{"name":"Moerbezielaan","highway":"residential","oneway":"-1","vertex1":16800,"vertex2":16758}},{"type":"Feature","geometry":{"type":"LineString","coordinates":[[3.703963,51.0811],[3.703823,51.08111],[3.703496,51.08109],[3.703337,51.08108]]},"properties":{"name":"Moerbezielaan","highway":"residential","vertex1":16800,"vertex2":16751}},{"type":"Feature","geometry":{"type":"LineString","coordinates":[[3.704332,51.08142],[3.70445,51.08226],[3.704515,51.08309],[3.704572,51.08368]]},"properties":{"name":"Willy Maststraat","highway":"residential","vertex1":16798,"vertex2":16741}},{"type":"Feature","geometry":{"type":"LineString","coordinates":[[3.704332,51.08142],[3.704051,51.08116]]},"properties":{"name":"Willy Maststraat","oneway":"yes","highway":"residential","vertex1":16798,"vertex2":16709}},{"type":"Feature","geometry":{"type":"LineString","coordinates":[[3.704332,51.08142],[3.704332,51.08133],[3.704432,51.08123]]},"properties":{"name":"Willy Maststraat","oneway":"yes","highway":"residential","vertex1":16798,"vertex2":16719}},{"type":"Feature","geometry":{"type":"LineString","coordinates":[[3.705997,51.0818],[3.707055,51.08182]]},"properties":{"name":"Spechtstraat","highway":"residential","vertex1":16797,"vertex2":16795}},{"type":"Feature","geometry":{"type":"LineString","coordinates":[[3.705997,51.0818],[3.705979,51.08206]]},"properties":{"name":"Blauwstraat","highway":"residential","vertex1":16797,"vertex2":16788}},{"type":"Feature","geometry":{"type":"LineString","coordinates":[[3.705997,51.0818],[3.705986,51.08148]]},"properties":{"name":"Blauwstraat","highway":"residential","vertex1":16797,"vertex2":16784}},{"type":"Feature","geometry":{"type":"LineString","coordinates":[[3.704924,51.08098],[3.704949,51.08124]]},"properties":{"highway":"footway","vertex1":16796,"vertex2":16728}},{"type":"Feature","geometry":{"type":"LineString","coordinates":[[3.707055,51.08182],[3.707055,51.08205]]},"properties":{"name":"Kanariestraat","highway":"residential","vertex1":16795,"vertex2":16759}},{"type":"Feature","geometry":{"type":"LineString","coordinates":[[3.707055,51.08182],[3.70712,51.08163]]},"properties":{"name":"Kanariestraat","highway":"residential","vertex1":16795,"vertex2":16747}},{"type":"Feature","geometry":{"type":"LineString","coordinates":[[3.711444,51.08183],[3.711425,51.08187]]},"properties":{"name":"Korenveldstraat","highway":"residential","vertex1":16793,"vertex2":16791}},{"type":"Feature","geometry":{"type":"LineString","coordinates":[[3.711444,51.08183],[3.711125,51.08178],[3.710662,51.08179]]},"properties":{"highway":"cycleway","vertex1":16793,"vertex2":16780}},{"type":"Feature","geometry":{"type":"LineString","coordinates":[[3.711425,51.08187],[3.71156,51.08268]]},"properties":{"name":"Korenveldstraat","highway":"residential","vertex1":16791,"vertex2":16765}},{"type":"Feature","geometry":{"type":"LineString","coordinates":[[3.711425,51.08187],[3.71249,51.08195]]},"properties":{"highway":"cycleway","vertex1":16791,"vertex2":16782}},{"type":"Feature","geometry":{"type":"LineString","coordinates":[[3.705979,51.08206],[3.705974,51.08213],[3.706117,51.08327]]},"properties":{"name":"Blauwstraat","highway":"residential","vertex1":16788,"vertex2":16746}},{"type":"Feature","geometry":{"type":"LineString","coordinates":[[3.705979,51.08206],[3.707055,51.08205]]},"properties":{"highway":"service","vertex1":16788,"vertex2":16759}},{"type":"Feature","geometry":{"type":"LineString","coordinates":[[3.711578,51.08273],[3.711895,51.0827]]},"properties":{"name":"Biesbilkpad","highway":"cycleway","vertex1":16786,"vertex2":16783}},{"type":"Feature","geometry":{"type":"LineString","coordinates":[[3.711578,51.08273],[3.711024,51.08278],[3.710954,51.08278]]},"properties":{"name":"Biesbilkpad","highway":"cycleway","vertex1":16786,"vertex2":16744}},{"type":"Feature","geometry":{"type":"LineString","coordinates":[[3.711578,51.08273],[3.71156,51.08268]]},"properties":{"highway":"cycleway","vertex1":16786,"vertex2":16765}},{"type":"Feature","geometry":{"type":"LineString","coordinates":[[3.705986,51.08148],[3.705985,51.08145]]},"properties":{"name":"Blauwstraat","highway":"residential","vertex1":16784,"vertex2":16708}},{"type":"Feature","geometry":{"type":"LineString","coordinates":[[3.705986,51.08148],[3.70585,51.08146],[3.705435,51.08139],[3.70517,51.08134],[3.705122,51.08133]]},"properties":{"name":"Roodborstjesstraat","highway":"residential","oneway":"-1","vertex1":16784,"vertex2":16715}},{"type":"Feature","geometry":{"type":"LineString","coordinates":[[3.711895,51.0827],[3.712213,51.08302],[3.712603,51.08337],[3.712698,51.08347]]},"properties":{"name":"Meulenbilkpad","highway":"residential","vertex1":16783,"vertex2":16785}},{"type":"Feature","geometry":{"type":"LineString","coordinates":[[3.711895,51.0827],[3.711838,51.08265]]},"properties":{"name":"Meulenbilkpad","highway":"residential","vertex1":16783,"vertex2":16781}},{"type":"Feature","geometry":{"type":"LineString","coordinates":[[3.711895,51.0827],[3.712604,51.08264]]},"properties":{"name":"Biesbilkpad","highway":"cycleway","vertex1":16783,"vertex2":16724}},{"type":"Feature","geometry":{"type":"LineString","coordinates":[[3.71249,51.08195],[3.712493,51.08207],[3.71252,51.08228],[3.712588,51.08258]]},"properties":{"name":"Holmerestraat","highway":"residential","vertex1":16782,"vertex2":16737}},{"type":"Feature","geometry":{"type":"LineString","coordinates":[[3.71249,51.08195],[3.712545,51.0818],[3.712703,51.08144],[3.712785,51.08126],[3.712878,51.0811],[3.713462,51.0809]]},"properties":{"name":"Holmerestraat","highway":"residential","vertex1":16782,"vertex2":16510}},{"type":"Feature","geometry":{"type":"LineString","coordinates":[[3.713462,51.0809],[3.71354,51.08101],[3.713615,51.0811],[3.713775,51.08132]]},"properties":{"name":"Liefbilkstraat","highway":"residential","vertex1":16510,"vertex2":16676}},{"type":"Feature","geometry":{"type":"LineString","coordinates":[[3.711838,51.08265],[3.712355,51.08261],[3.712588,51.08258]]},"properties":{"name":"Biesbilkstraat","highway":"residential","vertex1":16781,"vertex2":16737}},{"type":"Feature","geometry":{"type":"LineString","coordinates":[[3.711838,51.08265],[3.71156,51.08268]]},"properties":{"name":"Biesbilkstraat","highway":"residential","vertex1":16781,"vertex2":16765}},{"type":"Feature","geometry":{"type":"LineString","coordinates":[[3.710662,51.08179],[3.710653,51.08173]]},"properties":{"name":"Westergemstraat","highway":"residential","vertex1":16780,"vertex2":16740}},{"type":"Feature","geometry":{"type":"LineString","coordinates":[[3.710662,51.08179],[3.710667,51.08184],[3.710708,51.08208]]},"properties":{"name":"Westergemstraat","highway":"residential","vertex1":16780,"vertex2":16742}},{"type":"Feature","geometry":{"type":"LineString","coordinates":[[3.71043,51.08133],[3.710537,51.0815],[3.710653,51.08173]]},"properties":{"name":"Gentseaardeweg","highway":"residential","vertex1":16779,"vertex2":16740}},{"type":"Feature","geometry":{"type":"LineString","coordinates":[[3.71043,51.08133],[3.710725,51.08136]]},"properties":{"name":"Meesjesstraat","highway":"residential","vertex1":16779,"vertex2":16734}},{"type":"Feature","geometry":{"type":"LineString","coordinates":[[3.71043,51.08133],[3.709987,51.0813],[3.709217,51.08121],[3.708635,51.08116],[3.708502,51.08114]]},"properties":{"name":"Meesjesstraat","highway":"residential","vertex1":16779,"vertex2":16713}},{"type":"Feature","geometry":{"type":"LineString","coordinates":[[3.713308,51.082],[3.713403,51.08252]]},"properties":{"name":"Bloembilkstraat","highway":"residential","vertex1":16778,"vertex2":16703}},{"type":"Feature","geometry":{"type":"LineString","coordinates":[[3.713308,51.082],[3.7134,51.08173],[3.713518,51.08148],[3.713775,51.08132]]},"properties":{"name":"Bloembilkstraat","highway":"residential","vertex1":16778,"vertex2":16676}},{"type":"Feature","geometry":{"type":"LineString","coordinates":[[3.713308,51.082],[3.714067,51.08202]]},"properties":{"name":"Krommebunderstraat","highway":"residential","vertex1":16778,"vertex2":16701}},{"type":"Feature","geometry":{"type":"LineString","coordinates":[[3.713403,51.08252],[3.712588,51.08258]]},"properties":{"name":"Biesbilkstraat","highway":"residential","vertex1":16703,"vertex2":16737}},{"type":"Feature","geometry":{"type":"LineString","coordinates":[[3.713403,51.08252],[3.7134,51.08258]]},"properties":{"highway":"cycleway","vertex1":16703,"vertex2":16670}},{"type":"Feature","geometry":{"type":"LineString","coordinates":[[3.710944,51.08273],[3.71156,51.08268]]},"properties":{"name":"Biesbilkstraat","highway":"residential","vertex1":16767,"vertex2":16765}},{"type":"Feature","geometry":{"type":"LineString","coordinates":[[3.710944,51.08273],[3.710884,51.08273],[3.710701,51.08274]]},"properties":{"name":"Biesbilkstraat","highway":"residential","vertex1":16767,"vertex2":16748}},{"type":"Feature","geometry":{"type":"LineString","coordinates":[[3.710944,51.08273],[3.710954,51.08278]]},"properties":{"name":"Biesbilkpad","highway":"cycleway","vertex1":16767,"vertex2":16744}},{"type":"Feature","geometry":{"type":"LineString","coordinates":[[3.710829,51.08282],[3.710893,51.08286],[3.711427,51.08337],[3.71178,51.08371]]},"properties":{"name":"Molenstraat","highway":"residential","vertex1":16766,"vertex2":16706}},{"type":"Feature","geometry":{"type":"LineString","coordinates":[[3.710829,51.08282],[3.710701,51.08274]]},"properties":{"name":"Molenstraat","highway":"residential","vertex1":16766,"vertex2":16748}},{"type":"Feature","geometry":{"type":"LineString","coordinates":[[3.710829,51.08282],[3.710954,51.08278]]},"properties":{"highway":"cycleway","vertex1":16766,"vertex2":16744}},{"type":"Feature","geometry":{"type":"LineString","coordinates":[[3.703418,51.08184],[3.703357,51.08183]]},"properties":{"name":"Pieter Cieterslaan","highway":"residential","vertex1":16764,"vertex2":16749}},{"type":"Feature","geometry":{"type":"LineString","coordinates":[[3.703418,51.08184],[3.703465,51.08186],[3.703487,51.08194],[3.703465,51.082],[3.703377,51.08208]]},"properties":{"name":"Pieter Cieterslaan","highway":"residential","vertex1":16764,"vertex2":16718}},{"type":"Feature","geometry":{"type":"LineString","coordinates":[[3.707055,51.08205],[3.707098,51.08297]]},"properties":{"name":"Kanariestraat","highway":"residential","vertex1":16759,"vertex2":16761}},{"type":"Feature","geometry":{"type":"LineString","coordinates":[[3.707098,51.08297],[3.707924,51.08317]]},"properties":{"name":"IJsvogelstraat","highway":"residential","vertex1":16761,"vertex2":16756}},{"type":"Feature","geometry":{"type":"LineString","coordinates":[[3.704495,51.08117],[3.704949,51.08124]]},"properties":{"name":"Roodborstjesstraat","oneway":"yes","highway":"residential","vertex1":16758,"vertex2":16728}},{"type":"Feature","geometry":{"type":"LineString","coordinates":[[3.704495,51.08117],[3.704432,51.08123]]},"properties":{"name":"Willy Maststraat","highway":"residential","vertex1":16758,"vertex2":16719}},{"type":"Feature","geometry":{"type":"LineString","coordinates":[[3.70858,51.08189],[3.708452,51.08218],[3.708143,51.08274],[3.707924,51.08317]]},"properties":{"name":"Ravenstraat","highway":"residential","vertex1":16754,"vertex2":16756}},{"type":"Feature","geometry":{"type":"LineString","coordinates":[[3.70858,51.08189],[3.708289,51.08183]]},"properties":{"name":"Roodborstjesstraat","highway":"residential","vertex1":16754,"vertex2":16711}},{"type":"Feature","geometry":{"type":"LineString","coordinates":[[3.707924,51.08317],[3.708529,51.08331],[3.708862,51.08339]]},"properties":{"name":"IJsvogelstraat","highway":"residential","vertex1":16756,"vertex2":16716}},{"type":"Feature","geometry":{"type":"LineString","coordinates":[[3.703337,51.08108],[3.703267,51.08141],[3.703357,51.08183]]},"properties":{"bicycle":"yes","highway":"footway","vertex1":16751,"vertex2":16749}},{"type":"Feature","geometry":{"type":"LineString","coordinates":[[3.703337,51.08108],[3.702786,51.08105]]},"properties":{"name":"Moerbezielaan","highway":"residential","vertex1":16751,"vertex2":16745}},{"type":"Feature","geometry":{"type":"LineString","coordinates":[[3.705984,51.08142],[3.705434,51.08133],[3.705037,51.08125],[3.704988,51.08125],[3.704949,51.08124]]},"properties":{"name":"Roodborstjesstraat","oneway":"yes","highway":"residential","vertex1":16750,"vertex2":16728}},{"type":"Feature","geometry":{"type":"LineString","coordinates":[[3.705984,51.08142],[3.705985,51.08145]]},"properties":{"name":"Blauwstraat","highway":"residential","vertex1":16750,"vertex2":16708}},{"type":"Feature","geometry":{"type":"LineString","coordinates":[[3.703357,51.08183],[3.703302,51.08186],[3.703288,51.08191],[3.703292,51.08195],[3.703301,51.08199],[3.703319,51.08202],[3.703377,51.08208]]},"properties":{"name":"Pieter Cieterslaan","highway":"residential","vertex1":16749,"vertex2":16718}},{"type":"Feature","geometry":{"type":"LineString","coordinates":[[3.710701,51.08274],[3.710733,51.0826],[3.710725,51.08221],[3.710708,51.08208]]},"properties":{"name":"Westergemstraat","highway":"residential","vertex1":16748,"vertex2":16742}},{"type":"Feature","geometry":{"type":"LineString","coordinates":[[3.710701,51.08274],[3.710486,51.0829],[3.710118,51.08318],[3.709409,51.08371],[3.709216,51.08395],[3.709133,51.08412]]},"properties":{"name":"Westergemstraat","highway":"residential","vertex1":16748,"vertex2":16794}},{"type":"Feature","geometry":{"type":"LineString","coordinates":[[3.70712,51.08163],[3.706642,51.08155]]},"properties":{"name":"Roodborstjesstraat","highway":"residential","vertex1":16747,"vertex2":16721}},{"type":"Feature","geometry":{"type":"LineString","coordinates":[[3.70712,51.08163],[3.708289,51.08183]]},"properties":{"name":"Roodborstjesstraat","highway":"residential","vertex1":16747,"vertex2":16711}},{"type":"Feature","geometry":{"type":"LineString","coordinates":[[3.710708,51.08208],[3.710151,51.08207]]},"properties":{"name":"Roodborstjesstraat","highway":"residential","vertex1":16742,"vertex2":16717}},{"type":"Feature","geometry":{"type":"LineString","coordinates":[[3.710653,51.08173],[3.710675,51.08153],[3.710725,51.08136]]},"properties":{"name":"Westergemstraat","highway":"residential","vertex1":16740,"vertex2":16734}},{"type":"Feature","geometry":{"type":"LineString","coordinates":[[3.70661,51.08161],[3.706642,51.08155]]},"properties":{"highway":"path","vertex1":16739,"vertex2":16721}},{"type":"Feature","geometry":{"type":"LineString","coordinates":[[3.712588,51.08258],[3.712604,51.08264]]},"properties":{"highway":"cycleway","vertex1":16737,"vertex2":16724}},{"type":"Feature","geometry":{"type":"LineString","coordinates":[[3.70522,51.08166],[3.705172,51.08152],[3.705122,51.08133]]},"properties":{"highway":"footway","vertex1":16725,"vertex2":16715}},{"type":"Feature","geometry":{"type":"LineString","coordinates":[[3.712604,51.08264],[3.713106,51.0826],[3.7134,51.08258]]},"properties":{"name":"Biesbilkpad","highway":"cycleway","vertex1":16724,"vertex2":16670}},{"type":"Feature","geometry":{"type":"LineString","coordinates":[[3.706642,51.08155],[3.706518,51.08153],[3.706147,51.08147],[3.705985,51.08145]]},"properties":{"name":"Roodborstjesstraat","highway":"residential","vertex1":16721,"vertex2":16708}},{"type":"Feature","geometry":{"type":"LineString","coordinates":[[3.704432,51.08123],[3.704051,51.08116]]},"properties":{"name":"Roodborstjesstraat","highway":"residential","oneway":"-1","vertex1":16719,"vertex2":16709}},{"type":"Feature","geometry":{"type":"LineString","coordinates":[[3.704432,51.08123],[3.704624,51.08125],[3.705122,51.08133]]},"properties":{"name":"Roodborstjesstraat","highway":"residential","oneway":"-1","vertex1":16719,"vertex2":16715}},{"type":"Feature","geometry":{"type":"LineString","coordinates":[[3.710151,51.08207],[3.709713,51.08207]]},"properties":{"name":"Roodborstjesstraat","highway":"residential","vertex1":16717,"vertex2":16707}},{"type":"Feature","geometry":{"type":"LineString","coordinates":[[3.708502,51.08114],[3.708396,51.08158],[3.708289,51.08183]]},"properties":{"name":"Wezelstraat","highway":"residential","vertex1":16713,"vertex2":16711}},{"type":"Feature","geometry":{"type":"LineString","coordinates":[[3.709713,51.08207],[3.709559,51.08234],[3.709108,51.08302],[3.708862,51.08339]]},"properties":{"name":"Eksterstraat","highway":"residential","vertex1":16707,"vertex2":16716}}]}