{"type":"FeatureCollection","features":[{"type":"Feature","geometry":{"type":"LineString","coordinates":[[3.691406,51.01376],[3.713379,51.01376],[3.713379,50.99993],[3.691406,50.99993],[3.691406,51.01376]]},"properties":{"id":"89858216","zoom":"14"}},{"type":"Feature","geometry":{"type":"LineString","coordinates":[[3.704109,51.00974],[3.704081,51.00975]]},"properties":{"name":"Tramstraat","highway":"secondary","vertex1":2187,"vertex2":2144}},{"type":"Feature","geometry":{"type":"LineString","coordinates":[[3.704109,51.00974],[3.704336,51.00964]]},"properties":{"name":"Tramstraat","highway":"secondary","vertex1":2187,"vertex2":2058}},{"type":"Feature","geometry":{"type":"LineString","coordinates":[[3.710923,51.01223],[3.710541,51.01223],[3.710381,51.0123],[3.710385,51.01284]]},"properties":{"maxspeed":"30","highway":"service","vertex1":2186,"vertex2":2027}},{"type":"Feature","geometry":{"type":"LineString","coordinates":[[3.706843,51.01069],[3.706842,51.01085],[3.706812,51.01089],[3.706725,51.01094]]},"properties":{"highway":"service","oneway":"-1","vertex1":2184,"vertex2":2163}},{"type":"Feature","geometry":{"type":"LineString","coordinates":[[3.706843,51.01069],[3.706844,51.01015]]},"properties":{"highway":"service","oneway":"-1","vertex1":2184,"vertex2":2100}},{"type":"Feature","geometry":{"type":"LineString","coordinates":[[3.706843,51.01069],[3.706293,51.01069]]},"properties":{"highway":"service","vertex1":2184,"vertex2":1995}},{"type":"Feature","geometry":{"type":"LineString","coordinates":[[3.70821,51.01104],[3.708316,51.01101],[3.708514,51.01099],[3.708728,51.01098],[3.708929,51.01092],[3.709107,51.01083],[3.709292,51.01073],[3.709421,51.01062],[3.709538,51.01056],[3.709744,51.01047]]},"properties":{"highway":"footway","vertex1":2182,"vertex2":2024}},{"type":"Feature","geometry":{"type":"LineString","coordinates":[[3.70821,51.01104],[3.708352,51.01115],[3.70842,51.01126],[3.708408,51.01153],[3.708408,51.01156]]},"properties":{"maxspeed":"30","highway":"service","vertex1":2182,"vertex2":2053}},{"type":"Feature","geometry":{"type":"LineString","coordinates":[[3.70821,51.01104],[3.708052,51.01094]]},"properties":{"maxspeed":"30","highway":"service","vertex1":2182,"vertex2":2154}},{"type":"Feature","geometry":{"type":"LineString","coordinates":[[3.707656,51.01049],[3.707738,51.01056],[3.707775,51.01061]]},"properties":{"maxspeed":"30","highway":"service","vertex1":2180,"vertex2":1984}},{"type":"Feature","geometry":{"type":"LineString","coordinates":[[3.707656,51.01049],[3.707206,51.01049]]},"properties":{"maxspeed":"30","highway":"service","vertex1":2180,"vertex2":2076}},{"type":"Feature","geometry":{"type":"LineString","coordinates":[[3.707656,51.01049],[3.707659,51.01025]]},"properties":{"maxspeed":"30","highway":"service","vertex1":2180,"vertex2":2102}},{"type":"Feature","geometry":{"type":"LineString","coordinates":[[3.704768,51.0123],[3.704308,51.01246]]},"properties":{"highway":"footway","vertex1":2178,"vertex2":2086}},{"type":"Feature","geometry":{"type":"LineString","coordinates":[[3.704768,51.0123],[3.704832,51.01228],[3.704899,51.01226]]},"properties":{"highway":"footway","vertex1":2178,"vertex2":2148}},{"type":"Feature","geometry":{"type":"LineString","coordinates":[[3.704768,51.0123],[3.70445,51.01195]]},"properties":{"name":"Grotesteenweg-Noord","oneway":"yes","highway":"primary","bicycle":"no","maxspeed":"50","junction":"roundabout","vertex1":2178,"vertex2":2048}},{"type":"Feature","geometry":{"type":"LineString","coordinates":[[3.704768,51.0123],[3.704794,51.01233]]},"properties":{"name":"Grotesteenweg-Noord","oneway":"yes","highway":"primary","bicycle":"no","maxspeed":"50","junction":"roundabout","vertex1":2178,"vertex2":2134}},{"type":"Feature","geometry":{"type":"LineString","coordinates":[[3.707113,51.01186],[3.707379,51.01202],[3.707649,51.01219]]},"properties":{"highway":"cycleway","vertex1":2177,"vertex2":2115}},{"type":"Feature","geometry":{"type":"LineString","coordinates":[[3.707113,51.01186],[3.706864,51.0117],[3.706685,51.01162],[3.706542,51.01159],[3.706354,51.01156]]},"properties":{"highway":"cycleway","vertex1":2177,"vertex2":1986}},{"type":"Feature","geometry":{"type":"LineString","coordinates":[[3.707113,51.01186],[3.706983,51.01194],[3.706705,51.01181],[3.706147,51.01181],[3.706151,51.01229]]},"properties":{"maxspeed":"30","highway":"service","vertex1":2177,"vertex2":2005}},{"type":"Feature","geometry":{"type":"LineString","coordinates":[[3.707113,51.01186],[3.707214,51.01181]]},"properties":{"maxspeed":"30","highway":"service","vertex1":2177,"vertex2":2003}},{"type":"Feature","geometry":{"type":"LineString","coordinates":[[3.707862,51.01071],[3.707775,51.01061]]},"properties":{"maxspeed":"30","highway":"service","vertex1":2176,"vertex2":1984}},{"type":"Feature","geometry":{"type":"LineString","coordinates":[[3.707862,51.01071],[3.707048,51.01099]]},"properties":{"name":"Technologiepark-Zwijnaarde","oneway":"yes","cyclenetwork":"yes","oneway:bicycle":"no","maxspeed":"30","highway":"unclassified","vertex1":2176,"vertex2":2103}},{"type":"Feature","geometry":{"type":"LineString","coordinates":[[3.707862,51.01071],[3.708661,51.01042],[3.708862,51.01035]]},"properties":{"name":"Technologiepark-Zwijnaarde","oneway":"yes","cyclenetwork":"yes","oneway:bicycle":"no","maxspeed":"30","highway":"unclassified","vertex1":2176,"vertex2":2055}},{"type":"Feature","geometry":{"type":"LineString","coordinates":[[3.707862,51.01071],[3.707972,51.01085]]},"properties":{"name":"Technologiepark-Zwijnaarde","maxspeed":"30","highway":"unclassified","vertex1":2176,"vertex2":2021}},{"type":"Feature","geometry":{"type":"LineString","coordinates":[[3.712024,51.01291],[3.712128,51.01281],[3.713041,51.01237],[3.713101,51.01232],[3.7131,51.01183]]},"properties":{"maxspeed":"30","highway":"service","vertex1":2174,"vertex2":2072}},{"type":"Feature","geometry":{"type":"LineString","coordinates":[[3.712024,51.01291],[3.712433,51.0128],[3.712676,51.0127],[3.71296,51.01252],[3.713098,51.01247],[3.713328,51.01241]]},"properties":{"name":"Technologiepark-Zwijnaarde","oneway":"yes","oneway:bicycle":"no","maxspeed":"30","highway":"unclassified","vertex1":2174,"vertex2":2145}},{"type":"Feature","geometry":{"type":"LineString","coordinates":[[3.712024,51.01291],[3.711898,51.01293],[3.711632,51.01295],[3.711183,51.01296]]},"properties":{"name":"Technologiepark-Zwijnaarde","oneway":"yes","oneway:bicycle":"no","maxspeed":"30","highway":"unclassified","vertex1":2174,"vertex2":2061}},{"type":"Feature","geometry":{"type":"LineString","coordinates":[[3.712024,51.01291],[3.712024,51.01279]]},"properties":{"maxspeed":"30","highway":"service","vertex1":2174,"vertex2":2095}},{"type":"Feature","geometry":{"type":"LineString","coordinates":[[3.713332,51.00959],[3.713332,51.00947]]},"properties":{"name":"Technologiepark-Zwijnaarde","oneway":"yes","oneway:bicycle":"no","maxspeed":"30","highway":"unclassified","vertex1":2173,"vertex2":1653}},{"type":"Feature","geometry":{"type":"LineString","coordinates":[[3.713332,51.00959],[3.713332,51.00972]]},"properties":{"name":"Technologiepark-Zwijnaarde","oneway":"yes","oneway:bicycle":"no","maxspeed":"30","highway":"unclassified","vertex1":2173,"vertex2":2161}},{"type":"Feature","geometry":{"type":"LineString","coordinates":[[3.713332,51.00959],[3.713129,51.00959]]},"properties":{"highway":"service","vertex1":2173,"vertex2":2007}},{"type":"Feature","geometry":{"type":"LineString","coordinates":[[3.710104,51.01205],[3.710507,51.01205],[3.710598,51.01202],[3.711185,51.01202]]},"properties":{"maxspeed":"30","highway":"service","vertex1":2172,"vertex2":2065}},{"type":"Feature","geometry":{"type":"LineString","coordinates":[[3.708782,51.01053],[3.708052,51.01094]]},"properties":{"highway":"footway","vertex1":2170,"vertex2":2154}},{"type":"Feature","geometry":{"type":"LineString","coordinates":[[3.70642,51.01107],[3.706429,51.01112],[3.706433,51.01115],[3.706425,51.01119],[3.706402,51.01123],[3.706364,51.01126]]},"properties":{"oneway":"yes","maxspeed":"30","highway":"service","vertex1":2168,"vertex2":2068}},{"type":"Feature","geometry":{"type":"LineString","coordinates":[[3.70642,51.01107],[3.706353,51.01086],[3.70632,51.01082],[3.706282,51.0108],[3.706234,51.01077]]},"properties":{"oneway":"yes","maxspeed":"30","highway":"service","vertex1":2168,"vertex2":1998}},{"type":"Feature","geometry":{"type":"LineString","coordinates":[[3.70642,51.01107],[3.706337,51.01114],[3.706239,51.01121],[3.706079,51.01125],[3.705928,51.01126],[3.705228,51.01126]]},"properties":{"highway":"footway","vertex1":2168,"vertex2":2074}},{"type":"Feature","geometry":{"type":"LineString","coordinates":[[3.70642,51.01107],[3.706501,51.01102],[3.706648,51.01097],[3.706755,51.01095]]},"properties":{"highway":"footway","vertex1":2168,"vertex2":2097}},{"type":"Feature","geometry":{"type":"LineString","coordinates":[[3.707615,51.00975],[3.707063,51.00975],[3.707063,51.00983]]},"properties":{"highway":"service","vertex1":2167,"vertex2":2083}},{"type":"Feature","geometry":{"type":"LineString","coordinates":[[3.704339,51.00957],[3.704104,51.00968]]},"properties":{"oneway":"yes","highway":"cycleway","vertex1":2166,"vertex2":2164}},{"type":"Feature","geometry":{"type":"LineString","coordinates":[[3.704339,51.00957],[3.70449,51.00957]]},"properties":{"oneway":"yes","highway":"cycleway","vertex1":2166,"vertex2":2014}},{"type":"Feature","geometry":{"type":"LineString","coordinates":[[3.704339,51.00957],[3.704349,51.00959]]},"properties":{"highway":"footway","vertex1":2166,"vertex2":2091}},{"type":"Feature","geometry":{"type":"LineString","coordinates":[[3.704339,51.00957],[3.704328,51.00956]]},"properties":{"highway":"footway","vertex1":2166,"vertex2":2093}},{"type":"Feature","geometry":{"type":"LineString","coordinates":[[3.706292,51.01077],[3.706234,51.01077]]},"properties":{"oneway":"yes","maxspeed":"30","highway":"service","vertex1":2165,"vertex2":1998}},{"type":"Feature","geometry":{"type":"LineString","coordinates":[[3.706292,51.01077],[3.70631,51.01077],[3.706378,51.01078],[3.706458,51.0108],[3.706725,51.01094]]},"properties":{"oneway":"yes","maxspeed":"30","highway":"service","vertex1":2165,"vertex2":2163}},{"type":"Feature","geometry":{"type":"LineString","coordinates":[[3.706292,51.01077],[3.706293,51.01069]]},"properties":{"oneway":"yes","highway":"service","vertex1":2165,"vertex2":1995}},{"type":"Feature","geometry":{"type":"LineString","coordinates":[[3.704104,51.00968],[3.704039,51.00972],[3.703499,51.00997]]},"properties":{"oneway":"yes","highway":"cycleway","vertex1":2164,"vertex2":1975}},{"type":"Feature","geometry":{"type":"LineString","coordinates":[[3.704104,51.00968],[3.704117,51.00969]]},"properties":{"highway":"footway","vertex1":2164,"vertex2":2107}},{"type":"Feature","geometry":{"type":"LineString","coordinates":[[3.704104,51.00968],[3.704089,51.00966]]},"properties":{"highway":"footway","vertex1":2164,"vertex2":2109}},{"type":"Feature","geometry":{"type":"LineString","coordinates":[[3.706725,51.01094],[3.706755,51.01095]]},"properties":{"oneway":"yes","maxspeed":"30","highway":"service","vertex1":2163,"vertex2":2097}},{"type":"Feature","geometry":{"type":"LineString","coordinates":[[3.711188,51.01334],[3.711185,51.01306]]},"properties":{"maxspeed":"30","highway":"service","vertex1":2162,"vertex2":2077}},{"type":"Feature","geometry":{"type":"LineString","coordinates":[[3.713332,51.00972],[3.713331,51.01019]]},"properties":{"name":"Technologiepark-Zwijnaarde","oneway":"yes","oneway:bicycle":"no","maxspeed":"30","highway":"unclassified","vertex1":2161,"vertex2":2159}},{"type":"Feature","geometry":{"type":"LineString","coordinates":[[3.713332,51.00972],[3.713717,51.00972],[3.713714,51.01039]]},"properties":{"highway":"service","vertex1":2161,"vertex2":2231}},{"type":"Feature","geometry":{"type":"LineString","coordinates":[[3.713714,51.01039],[3.713331,51.01039]]},"properties":{"maxspeed":"30","highway":"service","vertex1":2231,"vertex2":2153}},{"type":"Feature","geometry":{"type":"LineString","coordinates":[[3.703056,51.01016],[3.703091,51.01019]]},"properties":{"highway":"cycleway","vertex1":2160,"vertex2":2146}},{"type":"Feature","geometry":{"type":"LineString","coordinates":[[3.703056,51.01016],[3.703499,51.00997]]},"properties":{"oneway":"yes","highway":"cycleway","vertex1":2160,"vertex2":1975}},{"type":"Feature","geometry":{"type":"LineString","coordinates":[[3.713331,51.01019],[3.713331,51.01036]]},"properties":{"name":"Technologiepark-Zwijnaarde","oneway":"yes","oneway:bicycle":"no","maxspeed":"30","highway":"unclassified","vertex1":2159,"vertex2":2155}},{"type":"Feature","geometry":{"type":"LineString","coordinates":[[3.713331,51.01019],[3.713133,51.01019]]},"properties":{"maxspeed":"30","highway":"service","vertex1":2159,"vertex2":2009}},{"type":"Feature","geometry":{"type":"LineString","coordinates":[[3.704253,51.01154],[3.704209,51.01158],[3.704166,51.01164]]},"properties":{"name":"Technologiepark-Zwijnaarde","oneway":"yes","highway":"residential","vertex1":2158,"vertex2":2156}},{"type":"Feature","geometry":{"type":"LineString","coordinates":[[3.704253,51.01154],[3.704165,51.01144]]},"properties":{"cyclenetwork":"yes","highway":"cycleway","vertex1":2158,"vertex2":2073}},{"type":"Feature","geometry":{"type":"LineString","coordinates":[[3.704253,51.01154],[3.704317,51.0116]]},"properties":{"cyclenetwork":"yes","highway":"cycleway","vertex1":2158,"vertex2":2032}},{"type":"Feature","geometry":{"type":"LineString","coordinates":[[3.704253,51.01154],[3.70446,51.01146],[3.704584,51.01144]]},"properties":{"name":"Technologiepark-Zwijnaarde","oneway":"yes","cyclenetwork":"yes","maxspeed":"30","highway":"unclassified","vertex1":2158,"vertex2":2111}},{"type":"Feature","geometry":{"type":"LineString","coordinates":[[3.703167,51.01024],[3.703542,51.01]]},"properties":{"name":"Tramstraat","oneway":"yes","highway":"secondary","vertex1":2157,"vertex2":1978}},{"type":"Feature","geometry":{"type":"LineString","coordinates":[[3.703167,51.01024],[3.70311,51.01028],[3.703075,51.01031],[3.703045,51.01035]]},"properties":{"name":"Tramstraat","oneway":"yes","highway":"secondary","vertex1":2157,"vertex2":2137}},{"type":"Feature","geometry":{"type":"LineString","coordinates":[[3.703167,51.01024],[3.703091,51.01019]]},"properties":{"highway":"cycleway","vertex1":2157,"vertex2":2146}},{"type":"Feature","geometry":{"type":"LineString","coordinates":[[3.703167,51.01024],[3.703225,51.01029]]},"properties":{"highway":"cycleway","vertex1":2157,"vertex2":2152}},{"type":"Feature","geometry":{"type":"LineString","coordinates":[[3.704166,51.01164],[3.703988,51.01143]]},"properties":{"name":"Grotesteenweg-Noord","oneway":"yes","highway":"primary","bicycle":"no","maxspeed":"50","junction":"roundabout","vertex1":2156,"vertex2":2071}},{"type":"Feature","geometry":{"type":"LineString","coordinates":[[3.704166,51.01164],[3.70445,51.01195]]},"properties":{"name":"Grotesteenweg-Noord","oneway":"yes","highway":"primary","bicycle":"no","maxspeed":"50","junction":"roundabout","vertex1":2156,"vertex2":2048}},{"type":"Feature","geometry":{"type":"LineString","coordinates":[[3.713331,51.01036],[3.713331,51.01039]]},"properties":{"name":"Technologiepark-Zwijnaarde","oneway":"yes","oneway:bicycle":"no","maxspeed":"30","highway":"unclassified","vertex1":2155,"vertex2":2153}},{"type":"Feature","geometry":{"type":"LineString","coordinates":[[3.713331,51.01036],[3.713134,51.01036]]},"properties":{"maxspeed":"30","highway":"service","vertex1":2155,"vertex2":2011}},{"type":"Feature","geometry":{"type":"LineString","coordinates":[[3.708052,51.01094],[3.707895,51.01103]]},"properties":{"highway":"footway","vertex1":2154,"vertex2":2085}},{"type":"Feature","geometry":{"type":"LineString","coordinates":[[3.708052,51.01094],[3.707972,51.01085]]},"properties":{"maxspeed":"30","highway":"service","vertex1":2154,"vertex2":2021}},{"type":"Feature","geometry":{"type":"LineString","coordinates":[[3.713331,51.01039],[3.71333,51.0108]]},"properties":{"name":"Technologiepark-Zwijnaarde","oneway":"yes","oneway:bicycle":"no","maxspeed":"30","highway":"unclassified","vertex1":2153,"vertex2":2151}},{"type":"Feature","geometry":{"type":"LineString","coordinates":[[3.703225,51.01029],[3.703457,51.01014],[3.703553,51.01008],[3.703652,51.01002],[3.703941,51.00988]]},"properties":{"oneway":"yes","highway":"cycleway","vertex1":2152,"vertex2":2016}},{"type":"Feature","geometry":{"type":"LineString","coordinates":[[3.703225,51.01029],[3.703216,51.01032],[3.703228,51.01036],[3.704022,51.01126]]},"properties":{"oneway":"yes","highway":"cycleway","vertex1":2152,"vertex2":2062}},{"type":"Feature","geometry":{"type":"LineString","coordinates":[[3.71333,51.0108],[3.713326,51.01111],[3.713329,51.0114]]},"properties":{"name":"Technologiepark-Zwijnaarde","oneway":"yes","oneway:bicycle":"no","maxspeed":"30","highway":"unclassified","vertex1":2151,"vertex2":2149}},{"type":"Feature","geometry":{"type":"LineString","coordinates":[[3.71333,51.0108],[3.713137,51.0108]]},"properties":{"maxspeed":"30","highway":"service","vertex1":2151,"vertex2":2013}},{"type":"Feature","geometry":{"type":"LineString","coordinates":[[3.70686,51.01106],[3.706814,51.01105],[3.706729,51.01106],[3.70665,51.01108],[3.706585,51.01112],[3.706536,51.01116],[3.70651,51.01121]]},"properties":{"name":"Technologiepark-Zwijnaarde","cyclenetwork":"yes","maxspeed":"30","junction":"roundabout","highway":"unclassified","vertex1":2150,"vertex2":2018}},{"type":"Feature","geometry":{"type":"LineString","coordinates":[[3.70686,51.01106],[3.706898,51.01106]]},"properties":{"name":"Technologiepark-Zwijnaarde","cyclenetwork":"yes","maxspeed":"30","junction":"roundabout","highway":"unclassified","vertex1":2150,"vertex2":2060}},{"type":"Feature","geometry":{"type":"LineString","coordinates":[[3.70686,51.01106],[3.70685,51.01104],[3.706825,51.01099],[3.706755,51.01095]]},"properties":{"oneway":"yes","maxspeed":"30","highway":"service","vertex1":2150,"vertex2":2097}},{"type":"Feature","geometry":{"type":"LineString","coordinates":[[3.713329,51.0114],[3.713328,51.01183]]},"properties":{"name":"Technologiepark-Zwijnaarde","oneway":"yes","oneway:bicycle":"no","maxspeed":"30","highway":"unclassified","vertex1":2149,"vertex2":2147}},{"type":"Feature","geometry":{"type":"LineString","coordinates":[[3.713329,51.0114],[3.713453,51.01138],[3.713815,51.01123],[3.714228,51.01094],[3.714327,51.0109],[3.715036,51.01043]]},"properties":{"maxspeed":"30","highway":"service","vertex1":2149,"vertex2":2236}},{"type":"Feature","geometry":{"type":"LineString","coordinates":[[3.704899,51.01226],[3.704317,51.0116]]},"properties":{"cyclenetwork":"yes","highway":"cycleway","vertex1":2148,"vertex2":2032}},{"type":"Feature","geometry":{"type":"LineString","coordinates":[[3.704899,51.01226],[3.704924,51.01229]]},"properties":{"cyclenetwork":"yes","highway":"cycleway","vertex1":2148,"vertex2":2012}},{"type":"Feature","geometry":{"type":"LineString","coordinates":[[3.713328,51.01183],[3.713328,51.01241]]},"properties":{"name":"Technologiepark-Zwijnaarde","oneway":"yes","oneway:bicycle":"no","maxspeed":"30","highway":"unclassified","vertex1":2147,"vertex2":2145}},{"type":"Feature","geometry":{"type":"LineString","coordinates":[[3.713328,51.01183],[3.7131,51.01183]]},"properties":{"maxspeed":"30","highway":"service","vertex1":2147,"vertex2":2072}},{"type":"Feature","geometry":{"type":"LineString","coordinates":[[3.703091,51.01019],[3.70302,51.01022],[3.702922,51.01025]]},"properties":{"name":"Tramstraat","oneway":"yes","highway":"secondary","vertex1":2146,"vertex2":2099}},{"type":"Feature","geometry":{"type":"LineString","coordinates":[[3.703091,51.01019],[3.703542,51.01]]},"properties":{"name":"Tramstraat","oneway":"yes","highway":"secondary","vertex1":2146,"vertex2":1978}},{"type":"Feature","geometry":{"type":"LineString","coordinates":[[3.713328,51.01241],[3.713611,51.01242],[3.715225,51.01268]]},"properties":{"maxspeed":"30","highway":"service","vertex1":2145,"vertex2":2261}},{"type":"Feature","geometry":{"type":"LineString","coordinates":[[3.715225,51.01268],[3.715211,51.01273]]},"properties":{"highway":"path","vertex1":2261,"vertex2":2224}},{"type":"Feature","geometry":{"type":"LineString","coordinates":[[3.704081,51.00975],[3.703681,51.00993],[3.703542,51.01]]},"properties":{"name":"Tramstraat","highway":"secondary","vertex1":2144,"vertex2":1978}},{"type":"Feature","geometry":{"type":"LineString","coordinates":[[3.708048,51.0123],[3.707902,51.01216]]},"properties":{"name":"Technologiepark-Zwijnaarde","oneway":"yes","oneway:bicycle":"no","maxspeed":"30","highway":"unclassified","vertex1":2143,"vertex2":2131}},{"type":"Feature","geometry":{"type":"LineString","coordinates":[[3.708048,51.0123],[3.707214,51.01181]]},"properties":{"oneway":"yes","bicycle":"no","motorcar":"no","foot":"no","maxspeed":"30","highway":"service","vertex1":2143,"vertex2":2003}},{"type":"Feature","geometry":{"type":"LineString","coordinates":[[3.708048,51.0123],[3.708208,51.01239]]},"properties":{"name":"Technologiepark-Zwijnaarde","oneway":"yes","oneway:bicycle":"no","maxspeed":"30","highway":"unclassified","vertex1":2143,"vertex2":2031}},{"type":"Feature","geometry":{"type":"LineString","coordinates":[[3.704534,51.0126],[3.704458,51.0127]]},"properties":{"name":"Bollebergen","oneway":"yes","highway":"residential","vertex1":2142,"vertex2":1992}},{"type":"Feature","geometry":{"type":"LineString","coordinates":[[3.704534,51.0126],[3.704449,51.01257],[3.704388,51.01255],[3.704334,51.01249]]},"properties":{"name":"Grotesteenweg-Noord","oneway":"yes","highway":"primary","bicycle":"no","maxspeed":"50","junction":"roundabout","vertex1":2142,"vertex2":2052}},{"type":"Feature","geometry":{"type":"LineString","coordinates":[[3.704534,51.0126],[3.704618,51.0126],[3.704701,51.01259]]},"properties":{"name":"Grotesteenweg-Noord","oneway":"yes","highway":"primary","bicycle":"no","maxspeed":"50","junction":"roundabout","vertex1":2142,"vertex2":2124}},{"type":"Feature","geometry":{"type":"LineString","coordinates":[[3.706744,51.01015],[3.706744,51.01049]]},"properties":{"highway":"service","vertex1":2141,"vertex2":2094}},{"type":"Feature","geometry":{"type":"LineString","coordinates":[[3.706744,51.01015],[3.706435,51.01015]]},"properties":{"highway":"service","vertex1":2141,"vertex2":1974}},{"type":"Feature","geometry":{"type":"LineString","coordinates":[[3.706744,51.01015],[3.706844,51.01015]]},"properties":{"highway":"service","vertex1":2141,"vertex2":2100}},{"type":"Feature","geometry":{"type":"LineString","coordinates":[[3.704541,51.01271],[3.704582,51.01269],[3.704637,51.01268],[3.704688,51.01268],[3.704857,51.01277],[3.705922,51.0134],[3.706397,51.01376],[3.706557,51.01392]]},"properties":{"oneway":"yes","cyclenetwork":"yes","highway":"cycleway","vertex1":2140,"vertex2":2010}},{"type":"Feature","geometry":{"type":"LineString","coordinates":[[3.704541,51.01271],[3.704516,51.01283]]},"properties":{"oneway":"yes","highway":"cycleway","vertex1":2140,"vertex2":2054}},{"type":"Feature","geometry":{"type":"LineString","coordinates":[[3.704541,51.01271],[3.704458,51.0127]]},"properties":{"cyclenetwork":"yes","highway":"cycleway","vertex1":2140,"vertex2":1992}},{"type":"Feature","geometry":{"type":"LineString","coordinates":[[3.706557,51.01392],[3.70652,51.01373]]},"properties":{"name":"Bollebergen","oneway":"yes","highway":"residential","vertex1":2010,"vertex2":2126}},{"type":"Feature","geometry":{"type":"LineString","coordinates":[[3.706144,51.01112],[3.706142,51.01077]]},"properties":{"highway":"service","vertex1":2139,"vertex2":2080}},{"type":"Feature","geometry":{"type":"LineString","coordinates":[[3.703045,51.01035],[3.703988,51.01143]]},"properties":{"name":"Grotesteenweg-Noord","oneway":"yes","highway":"primary","bicycle":"no","maxspeed":"50","junction":"roundabout","vertex1":2137,"vertex2":2071}},{"type":"Feature","geometry":{"type":"LineString","coordinates":[[3.703045,51.01035],[3.703009,51.01031],[3.702986,51.01028],[3.702922,51.01025]]},"properties":{"name":"Grotesteenweg-Noord","oneway":"yes","highway":"primary","bicycle":"no","maxspeed":"50","junction":"roundabout","vertex1":2137,"vertex2":2099}},{"type":"Feature","geometry":{"type":"LineString","coordinates":[[3.708925,51.01033],[3.708871,51.01027],[3.708863,51.01023]]},"properties":{"maxspeed":"30","highway":"service","vertex1":2135,"vertex2":2123}},{"type":"Feature","geometry":{"type":"LineString","coordinates":[[3.708925,51.01033],[3.708862,51.01035]]},"properties":{"name":"Technologiepark-Zwijnaarde","oneway":"yes","cyclenetwork":"yes","oneway:bicycle":"no","maxspeed":"30","highway":"unclassified","vertex1":2135,"vertex2":2055}},{"type":"Feature","geometry":{"type":"LineString","coordinates":[[3.708925,51.01033],[3.709468,51.01013],[3.709717,51.01004]]},"properties":{"name":"Technologiepark-Zwijnaarde","oneway":"yes","cyclenetwork":"yes","oneway:bicycle":"no","maxspeed":"30","highway":"unclassified","vertex1":2135,"vertex2":2133}},{"type":"Feature","geometry":{"type":"LineString","coordinates":[[3.704794,51.01233],[3.704334,51.01249]]},"properties":{"cyclenetwork":"yes","highway":"cycleway","vertex1":2134,"vertex2":2052}},{"type":"Feature","geometry":{"type":"LineString","coordinates":[[3.704794,51.01233],[3.704924,51.01229]]},"properties":{"cyclenetwork":"yes","highway":"cycleway","vertex1":2134,"vertex2":2012}},{"type":"Feature","geometry":{"type":"LineString","coordinates":[[3.704794,51.01233],[3.704829,51.0124],[3.704841,51.01244],[3.704831,51.01249]]},"properties":{"name":"Grotesteenweg-Noord","oneway":"yes","highway":"primary","bicycle":"no","maxspeed":"50","junction":"roundabout","vertex1":2134,"vertex2":2078}},{"type":"Feature","geometry":{"type":"LineString","coordinates":[[3.709717,51.01004],[3.709776,51.01009]]},"properties":{"maxspeed":"30","highway":"service","vertex1":2133,"vertex2":2119}},{"type":"Feature","geometry":{"type":"LineString","coordinates":[[3.709717,51.01004],[3.710572,51.00974]]},"properties":{"name":"Technologiepark-Zwijnaarde","oneway":"yes","cyclenetwork":"yes","oneway:bicycle":"no","maxspeed":"30","highway":"unclassified","vertex1":2133,"vertex2":2047}},{"type":"Feature","geometry":{"type":"LineString","coordinates":[[3.704205,51.01254],[3.704334,51.01249]]},"properties":{"cyclenetwork":"yes","highway":"cycleway","vertex1":2132,"vertex2":2052}},{"type":"Feature","geometry":{"type":"LineString","coordinates":[[3.704205,51.01254],[3.70418,51.0125]]},"properties":{"highway":"cycleway","vertex1":2132,"vertex2":2122}},{"type":"Feature","geometry":{"type":"LineString","coordinates":[[3.704205,51.01254],[3.704283,51.01262],[3.70429,51.01263]]},"properties":{"cyclenetwork":"yes","highway":"cycleway","vertex1":2132,"vertex2":2044}},{"type":"Feature","geometry":{"type":"LineString","coordinates":[[3.707902,51.01216],[3.70747,51.01165]]},"properties":{"name":"Technologiepark-Zwijnaarde","oneway":"yes","oneway:bicycle":"no","maxspeed":"30","highway":"unclassified","vertex1":2131,"vertex2":2129}},{"type":"Feature","geometry":{"type":"LineString","coordinates":[[3.707902,51.01216],[3.707897,51.01196]]},"properties":{"name":"Technologiepark-Zwijnaarde","maxspeed":"30","highway":"unclassified","vertex1":2131,"vertex2":2121}},{"type":"Feature","geometry":{"type":"LineString","coordinates":[[3.70747,51.01165],[3.707268,51.0114]]},"properties":{"name":"Technologiepark-Zwijnaarde","oneway":"yes","oneway:bicycle":"no","maxspeed":"30","highway":"unclassified","vertex1":2129,"vertex2":2127}},{"type":"Feature","geometry":{"type":"LineString","coordinates":[[3.70747,51.01165],[3.707214,51.01181]]},"properties":{"maxspeed":"30","highway":"service","vertex1":2129,"vertex2":2003}},{"type":"Feature","geometry":{"type":"LineString","coordinates":[[3.707268,51.0114],[3.707208,51.01131]]},"properties":{"name":"Technologiepark-Zwijnaarde","oneway":"yes","oneway:bicycle":"no","maxspeed":"30","highway":"unclassified","vertex1":2127,"vertex2":2125}},{"type":"Feature","geometry":{"type":"LineString","coordinates":[[3.707268,51.0114],[3.707389,51.01133]]},"properties":{"highway":"footway","vertex1":2127,"vertex2":2040}},{"type":"Feature","geometry":{"type":"LineString","coordinates":[[3.707268,51.0114],[3.707177,51.01144],[3.707049,51.01151],[3.706891,51.01155],[3.706808,51.01155]]},"properties":{"highway":"footway","vertex1":2127,"vertex2":1980}},{"type":"Feature","geometry":{"type":"LineString","coordinates":[[3.70652,51.01373],[3.706794,51.01399],[3.707005,51.01425],[3.70721,51.01453],[3.707493,51.01497]]},"properties":{"name":"Grotesteenweg-Noord","oneway":"yes","highway":"primary","maxspeed":"70","vertex1":2126,"vertex2":2171}},{"type":"Feature","geometry":{"type":"LineString","coordinates":[[3.70652,51.01373],[3.706335,51.01357],[3.706082,51.01339],[3.705824,51.01323],[3.705283,51.01292]]},"properties":{"name":"Grotesteenweg-Noord","oneway":"yes","highway":"primary","bicycle":"no","maxspeed":"50","vertex1":2126,"vertex2":2098}},{"type":"Feature","geometry":{"type":"LineString","coordinates":[[3.707208,51.01131],[3.707258,51.01126],[3.707313,51.01122]]},"properties":{"cyclenetwork":"yes","highway":"cycleway","vertex1":2125,"vertex2":2105}},{"type":"Feature","geometry":{"type":"LineString","coordinates":[[3.707208,51.01131],[3.707093,51.01131]]},"properties":{"name":"Technologiepark-Zwijnaarde","cyclenetwork":"yes","oneway:bicycle":"no","maxspeed":"30","highway":"unclassified","vertex1":2125,"vertex2":2116}},{"type":"Feature","geometry":{"type":"LineString","coordinates":[[3.704701,51.01259],[3.704775,51.01256],[3.704808,51.01253],[3.704831,51.01249]]},"properties":{"name":"Grotesteenweg-Noord","oneway":"yes","highway":"primary","bicycle":"no","maxspeed":"50","junction":"roundabout","vertex1":2124,"vertex2":2078}},{"type":"Feature","geometry":{"type":"LineString","coordinates":[[3.704701,51.01259],[3.704865,51.01268],[3.705052,51.01279]]},"properties":{"name":"Grotesteenweg-Noord","oneway":"yes","highway":"primary","bicycle":"no","maxspeed":"50","vertex1":2124,"vertex2":2082}},{"type":"Feature","geometry":{"type":"LineString","coordinates":[[3.708863,51.01023],[3.708854,51.00985],[3.70883,51.0098],[3.708774,51.00977],[3.708628,51.00974]]},"properties":{"maxspeed":"30","highway":"service","vertex1":2123,"vertex2":2039}},{"type":"Feature","geometry":{"type":"LineString","coordinates":[[3.708863,51.01023],[3.709471,51.01001],[3.709533,51.01],[3.709606,51.01],[3.709657,51.00999],[3.710521,51.00968]]},"properties":{"highway":"footway","vertex1":2123,"vertex2":2045}},{"type":"Feature","geometry":{"type":"LineString","coordinates":[[3.708863,51.01023],[3.70849,51.01036]]},"properties":{"highway":"footway","vertex1":2123,"vertex2":2087}},{"type":"Feature","geometry":{"type":"LineString","coordinates":[[3.70418,51.0125],[3.703873,51.01216],[3.703802,51.01208],[3.702421,51.0105],[3.702387,51.01043],[3.702381,51.01038],[3.702394,51.01031],[3.702359,51.01027]]},"properties":{"highway":"cycleway","vertex1":2122,"vertex2":1747}},{"type":"Feature","geometry":{"type":"LineString","coordinates":[[3.70418,51.0125],[3.704238,51.01249],[3.704308,51.01246]]},"properties":{"highway":"footway","vertex1":2122,"vertex2":2086}},{"type":"Feature","geometry":{"type":"LineString","coordinates":[[3.707897,51.01196],[3.707895,51.01103]]},"properties":{"name":"Technologiepark-Zwijnaarde","maxspeed":"30","highway":"unclassified","vertex1":2121,"vertex2":2085}},{"type":"Feature","geometry":{"type":"LineString","coordinates":[[3.707897,51.01196],[3.708044,51.0121],[3.70817,51.01222],[3.708327,51.01233]]},"properties":{"highway":"footway","vertex1":2121,"vertex2":2037}},{"type":"Feature","geometry":{"type":"LineString","coordinates":[[3.707897,51.01196],[3.707616,51.0116],[3.707389,51.01133]]},"properties":{"highway":"footway","vertex1":2121,"vertex2":2040}},{"type":"Feature","geometry":{"type":"LineString","coordinates":[[3.709776,51.01009],[3.709801,51.01011],[3.709836,51.01012],[3.709875,51.01013],[3.709912,51.01012],[3.711101,51.0097],[3.711153,51.00969],[3.711209,51.00969]]},"properties":{"maxspeed":"30","highway":"service","vertex1":2119,"vertex2":2067}},{"type":"Feature","geometry":{"type":"LineString","coordinates":[[3.709776,51.01009],[3.709751,51.01015],[3.709744,51.01047]]},"properties":{"highway":"track","vertex1":2119,"vertex2":2024}},{"type":"Feature","geometry":{"type":"LineString","coordinates":[[3.702676,51.01011],[3.702587,51.01015]]},"properties":{"highway":"cycleway","vertex1":2118,"vertex2":1990}},{"type":"Feature","geometry":{"type":"LineString","coordinates":[[3.712013,51.01187],[3.712024,51.01279]]},"properties":{"maxspeed":"30","highway":"service","vertex1":2117,"vertex2":2095}},{"type":"Feature","geometry":{"type":"LineString","coordinates":[[3.707093,51.01131],[3.707047,51.01136],[3.706978,51.0114],[3.706892,51.01143],[3.706798,51.01144],[3.706706,51.01143]]},"properties":{"name":"Technologiepark-Zwijnaarde","cyclenetwork":"yes","maxspeed":"30","junction":"roundabout","highway":"unclassified","vertex1":2116,"vertex2":2114}},{"type":"Feature","geometry":{"type":"LineString","coordinates":[[3.707093,51.01131],[3.707111,51.01125],[3.707097,51.01119],[3.707054,51.01114],[3.706985,51.01109],[3.706898,51.01106]]},"properties":{"name":"Technologiepark-Zwijnaarde","maxspeed":"30","junction":"roundabout","highway":"unclassified","vertex1":2116,"vertex2":2060}},{"type":"Feature","geometry":{"type":"LineString","coordinates":[[3.707649,51.01219],[3.7081,51.01247],[3.708136,51.0125]]},"properties":{"highway":"cycleway","vertex1":2115,"vertex2":2113}},{"type":"Feature","geometry":{"type":"LineString","coordinates":[[3.707649,51.01219],[3.707646,51.0123],[3.707636,51.01275]]},"properties":{"highway":"cycleway","vertex1":2115,"vertex2":2017}},{"type":"Feature","geometry":{"type":"LineString","coordinates":[[3.706706,51.01143],[3.706231,51.01144]]},"properties":{"name":"Technologiepark-Zwijnaarde","oneway":"yes","cyclenetwork":"yes","maxspeed":"30","highway":"unclassified","vertex1":2114,"vertex2":2075}},{"type":"Feature","geometry":{"type":"LineString","coordinates":[[3.706706,51.01143],[3.706614,51.01139],[3.706546,51.01134],[3.70651,51.01128],[3.70651,51.01121]]},"properties":{"name":"Technologiepark-Zwijnaarde","maxspeed":"30","junction":"roundabout","highway":"unclassified","vertex1":2114,"vertex2":2018}},{"type":"Feature","geometry":{"type":"LineString","coordinates":[[3.708136,51.0125],[3.70846,51.01269],[3.708707,51.01281],[3.709053,51.01293],[3.709364,51.013],[3.70968,51.01305],[3.710382,51.01306],[3.711185,51.01306]]},"properties":{"highway":"cycleway","vertex1":2113,"vertex2":2077}},{"type":"Feature","geometry":{"type":"LineString","coordinates":[[3.708136,51.0125],[3.708133,51.01265]]},"properties":{"highway":"pedestrian","vertex1":2113,"vertex2":2019}},{"type":"Feature","geometry":{"type":"LineString","coordinates":[[3.704584,51.01144],[3.705232,51.01144]]},"properties":{"name":"Technologiepark-Zwijnaarde","oneway":"yes","cyclenetwork":"yes","maxspeed":"30","highway":"unclassified","vertex1":2111,"vertex2":2106}},{"type":"Feature","geometry":{"type":"LineString","coordinates":[[3.70382,51.01367],[3.704338,51.0135]]},"properties":{"highway":"service","vertex1":2110,"vertex2":2006}},{"type":"Feature","geometry":{"type":"LineString","coordinates":[[3.70382,51.01367],[3.703945,51.01382]]},"properties":{"highway":"service","vertex1":2110,"vertex2":2112}},{"type":"Feature","geometry":{"type":"LineString","coordinates":[[3.70382,51.01367],[3.70368,51.0135]]},"properties":{"highway":"service","vertex1":2110,"vertex2":2088}},{"type":"Feature","geometry":{"type":"LineString","coordinates":[[3.703945,51.01382],[3.704396,51.01367]]},"properties":{"highway":"service","vertex1":2112,"vertex2":2042}},{"type":"Feature","geometry":{"type":"LineString","coordinates":[[3.703945,51.01382],[3.704153,51.01408],[3.704176,51.0141],[3.704195,51.01411],[3.704223,51.01412],[3.704252,51.01412],[3.704286,51.01411],[3.704394,51.0141],[3.704471,51.01409],[3.704819,51.01407]]},"properties":{"highway":"service","vertex1":2112,"vertex2":2033}},{"type":"Feature","geometry":{"type":"LineString","coordinates":[[3.704089,51.00966],[3.704328,51.00956]]},"properties":{"highway":"footway","vertex1":2109,"vertex2":2093}},{"type":"Feature","geometry":{"type":"LineString","coordinates":[[3.704089,51.00966],[3.704034,51.00971],[3.703552,51.00993],[3.703514,51.00996],[3.703499,51.00997]]},"properties":{"highway":"footway","vertex1":2109,"vertex2":1975}},{"type":"Feature","geometry":{"type":"LineString","coordinates":[[3.702462,51.01021],[3.702518,51.01026],[3.702544,51.01031]]},"properties":{"name":"Grotesteenweg-Noord","oneway":"yes","highway":"primary","bicycle":"no","vertex1":2108,"vertex2":2038}},{"type":"Feature","geometry":{"type":"LineString","coordinates":[[3.702462,51.01021],[3.702587,51.01015]]},"properties":{"highway":"cycleway","vertex1":2108,"vertex2":1990}},{"type":"Feature","geometry":{"type":"LineString","coordinates":[[3.702462,51.01021],[3.702359,51.01027]]},"properties":{"highway":"cycleway","vertex1":2108,"vertex2":1747}},{"type":"Feature","geometry":{"type":"LineString","coordinates":[[3.705232,51.01144],[3.705229,51.01132]]},"properties":{"highway":"footway","vertex1":2106,"vertex2":1988}},{"type":"Feature","geometry":{"type":"LineString","coordinates":[[3.705232,51.01144],[3.705233,51.01156]]},"properties":{"highway":"footway","vertex1":2106,"vertex2":2092}},{"type":"Feature","geometry":{"type":"LineString","coordinates":[[3.705232,51.01144],[3.706231,51.01144]]},"properties":{"name":"Technologiepark-Zwijnaarde","oneway":"yes","cyclenetwork":"yes","maxspeed":"30","highway":"unclassified","vertex1":2106,"vertex2":2075}},{"type":"Feature","geometry":{"type":"LineString","coordinates":[[3.707313,51.01122],[3.70726,51.01115],[3.707176,51.01105],[3.707048,51.01099]]},"properties":{"highway":"footway","vertex1":2105,"vertex2":2103}},{"type":"Feature","geometry":{"type":"LineString","coordinates":[[3.707313,51.01122],[3.707389,51.01133]]},"properties":{"highway":"footway","vertex1":2105,"vertex2":2040}},{"type":"Feature","geometry":{"type":"LineString","coordinates":[[3.707313,51.01122],[3.707871,51.01091]]},"properties":{"cyclenetwork":"yes","highway":"cycleway","vertex1":2105,"vertex2":2057}},{"type":"Feature","geometry":{"type":"LineString","coordinates":[[3.705916,51.01093],[3.705836,51.01096],[3.704993,51.01096],[3.704948,51.01093],[3.704952,51.0108],[3.705006,51.01077],[3.705182,51.01077]]},"properties":{"maxspeed":"30","highway":"service","vertex1":2104,"vertex2":2004}},{"type":"Feature","geometry":{"type":"LineString","coordinates":[[3.705916,51.01093],[3.705925,51.01077]]},"properties":{"maxspeed":"30","highway":"service","vertex1":2104,"vertex2":2002}},{"type":"Feature","geometry":{"type":"LineString","coordinates":[[3.705916,51.01093],[3.705908,51.01111]]},"properties":{"maxspeed":"30","highway":"service","vertex1":2104,"vertex2":2056}},{"type":"Feature","geometry":{"type":"LineString","coordinates":[[3.707048,51.01099],[3.706981,51.01096],[3.706892,51.01094]]},"properties":{"highway":"footway","vertex1":2103,"vertex2":2089}},{"type":"Feature","geometry":{"type":"LineString","coordinates":[[3.707048,51.01099],[3.706898,51.01106]]},"properties":{"oneway":"yes","maxspeed":"30","highway":"unclassified","vertex1":2103,"vertex2":2060}},{"type":"Feature","geometry":{"type":"LineString","coordinates":[[3.707659,51.01025],[3.70766,51.01024]]},"properties":{"highway":"footway","vertex1":2102,"vertex2":2036}},{"type":"Feature","geometry":{"type":"LineString","coordinates":[[3.702971,51.01093],[3.703471,51.01151],[3.7039,51.01198]]},"properties":{"name":"Grotesteenweg-Noord","oneway":"yes","highway":"primary","bicycle":"no","maxspeed":"50","junction":"roundabout","vertex1":2101,"vertex2":2028}},{"type":"Feature","geometry":{"type":"LineString","coordinates":[[3.702971,51.01093],[3.702588,51.0105],[3.702558,51.01046],[3.702534,51.01042],[3.702525,51.01038],[3.702527,51.01036],[3.702544,51.01031]]},"properties":{"name":"Grotesteenweg-Noord","oneway":"yes","highway":"primary","bicycle":"no","maxspeed":"50","junction":"roundabout","vertex1":2101,"vertex2":2038}},{"type":"Feature","geometry":{"type":"LineString","coordinates":[[3.706844,51.01015],[3.707063,51.01015]]},"properties":{"highway":"service","vertex1":2100,"vertex2":2081}},{"type":"Feature","geometry":{"type":"LineString","coordinates":[[3.702922,51.01025],[3.702887,51.01023],[3.702822,51.01022],[3.702746,51.01022],[3.702696,51.01023]]},"properties":{"name":"Grotesteenweg-Noord","oneway":"yes","highway":"primary","bicycle":"no","maxspeed":"50","junction":"roundabout","vertex1":2099,"vertex2":2026}},{"type":"Feature","geometry":{"type":"LineString","coordinates":[[3.705283,51.01292],[3.705052,51.01279]]},"properties":{"name":"Grotesteenweg-Noord","oneway":"yes","highway":"primary","bicycle":"no","maxspeed":"50","vertex1":2098,"vertex2":2082}},{"type":"Feature","geometry":{"type":"LineString","coordinates":[[3.706755,51.01095],[3.706892,51.01094]]},"properties":{"highway":"footway","vertex1":2097,"vertex2":2089}},{"type":"Feature","geometry":{"type":"LineString","coordinates":[[3.705921,51.00964],[3.705907,51.00924]]},"properties":{"highway":"service","vertex1":2096,"vertex2":1735}},{"type":"Feature","geometry":{"type":"LineString","coordinates":[[3.712024,51.01279],[3.711861,51.01282],[3.711618,51.01284],[3.711182,51.01284]]},"properties":{"highway":"footway","vertex1":2095,"vertex2":2063}},{"type":"Feature","geometry":{"type":"LineString","coordinates":[[3.706744,51.01049],[3.707063,51.01049]]},"properties":{"highway":"service","vertex1":2094,"vertex2":2079}},{"type":"Feature","geometry":{"type":"LineString","coordinates":[[3.706744,51.01049],[3.706435,51.01049],[3.706435,51.01015]]},"properties":{"highway":"service","vertex1":2094,"vertex2":1974}},{"type":"Feature","geometry":{"type":"LineString","coordinates":[[3.704328,51.00956],[3.70442,51.00954],[3.705137,51.00924],[3.705886,51.00894]]},"properties":{"highway":"footway","vertex1":2093,"vertex2":1717}},{"type":"Feature","geometry":{"type":"LineString","coordinates":[[3.705233,51.01156],[3.706354,51.01156]]},"properties":{"highway":"cycleway","vertex1":2092,"vertex2":1986}},{"type":"Feature","geometry":{"type":"LineString","coordinates":[[3.705233,51.01156],[3.704591,51.01151],[3.704317,51.0116]]},"properties":{"highway":"cycleway","vertex1":2092,"vertex2":2032}},{"type":"Feature","geometry":{"type":"LineString","coordinates":[[3.70421,51.01334],[3.70368,51.0135]]},"properties":{"highway":"service","vertex1":2090,"vertex2":2088}},{"type":"Feature","geometry":{"type":"LineString","coordinates":[[3.706892,51.01094],[3.707775,51.01061]]},"properties":{"highway":"footway","vertex1":2089,"vertex2":1984}},{"type":"Feature","geometry":{"type":"LineString","coordinates":[[3.70368,51.0135],[3.703624,51.01344],[3.703311,51.01307]]},"properties":{"highway":"service","vertex1":2088,"vertex2":1996}},{"type":"Feature","geometry":{"type":"LineString","coordinates":[[3.70849,51.01036],[3.707775,51.01061]]},"properties":{"highway":"footway","vertex1":2087,"vertex2":1984}},{"type":"Feature","geometry":{"type":"LineString","coordinates":[[3.70849,51.01036],[3.708324,51.0103],[3.707841,51.01025],[3.70766,51.01024]]},"properties":{"highway":"footway","vertex1":2087,"vertex2":2036}},{"type":"Feature","geometry":{"type":"LineString","coordinates":[[3.704308,51.01246],[3.704334,51.01249]]},"properties":{"name":"Grotesteenweg-Noord","oneway":"yes","highway":"primary","bicycle":"no","maxspeed":"50","junction":"roundabout","vertex1":2086,"vertex2":2052}},{"type":"Feature","geometry":{"type":"LineString","coordinates":[[3.704308,51.01246],[3.703944,51.01203],[3.7039,51.01198]]},"properties":{"name":"Grotesteenweg-Noord","oneway":"yes","highway":"primary","bicycle":"no","maxspeed":"50","junction":"roundabout","vertex1":2086,"vertex2":2028}},{"type":"Feature","geometry":{"type":"LineString","coordinates":[[3.707895,51.01103],[3.707895,51.01097],[3.707871,51.01091]]},"properties":{"name":"Technologiepark-Zwijnaarde","maxspeed":"30","highway":"unclassified","vertex1":2085,"vertex2":2057}},{"type":"Feature","geometry":{"type":"LineString","coordinates":[[3.707895,51.01103],[3.707389,51.01133]]},"properties":{"highway":"footway","vertex1":2085,"vertex2":2040}},{"type":"Feature","geometry":{"type":"LineString","coordinates":[[3.706185,51.01015],[3.706258,51.01015],[3.706294,51.01015]]},"properties":{"highway":"service","vertex1":2084,"vertex2":2000}},{"type":"Feature","geometry":{"type":"LineString","coordinates":[[3.707063,51.00983],[3.707063,51.01015]]},"properties":{"highway":"service","vertex1":2083,"vertex2":2081}},{"type":"Feature","geometry":{"type":"LineString","coordinates":[[3.707063,51.01015],[3.707063,51.01049]]},"properties":{"highway":"service","vertex1":2081,"vertex2":2079}},{"type":"Feature","geometry":{"type":"LineString","coordinates":[[3.706142,51.01077],[3.705925,51.01077]]},"properties":{"maxspeed":"30","highway":"service","vertex1":2080,"vertex2":2002}},{"type":"Feature","geometry":{"type":"LineString","coordinates":[[3.706142,51.01077],[3.706234,51.01077]]},"properties":{"maxspeed":"30","highway":"service","vertex1":2080,"vertex2":1998}},{"type":"Feature","geometry":{"type":"LineString","coordinates":[[3.707063,51.01049],[3.707206,51.01049]]},"properties":{"highway":"service","vertex1":2079,"vertex2":2076}},{"type":"Feature","geometry":{"type":"LineString","coordinates":[[3.704831,51.01249],[3.704979,51.01258],[3.705932,51.01311],[3.706436,51.01346],[3.70685,51.01383]]},"properties":{"name":"Grotesteenweg-Noord","oneway":"yes","highway":"primary","maxspeed":"70","bicycle":"no","vertex1":2078,"vertex2":2185}},{"type":"Feature","geometry":{"type":"LineString","coordinates":[[3.711185,51.01306],[3.711645,51.01305],[3.711933,51.01303],[3.712207,51.01298],[3.712514,51.01289],[3.71278,51.01278],[3.713061,51.01261],[3.713174,51.01256],[3.713462,51.01249],[3.713648,51.01249],[3.715211,51.01273]]},"properties":{"highway":"cycleway","vertex1":2077,"vertex2":2224}},{"type":"Feature","geometry":{"type":"LineString","coordinates":[[3.711185,51.01306],[3.711183,51.01296]]},"properties":{"maxspeed":"30","highway":"service","vertex1":2077,"vertex2":2061}},{"type":"Feature","geometry":{"type":"LineString","coordinates":[[3.706231,51.01144],[3.706808,51.01155]]},"properties":{"oneway":"yes","bicycle":"no","motorcar":"no","foot":"no","maxspeed":"30","highway":"service","vertex1":2075,"vertex2":1980}},{"type":"Feature","geometry":{"type":"LineString","coordinates":[[3.705228,51.01126],[3.705229,51.01132]]},"properties":{"highway":"footway","vertex1":2074,"vertex2":1988}},{"type":"Feature","geometry":{"type":"LineString","coordinates":[[3.705228,51.01126],[3.704022,51.01126]]},"properties":{"highway":"footway","vertex1":2074,"vertex2":2062}},{"type":"Feature","geometry":{"type":"LineString","coordinates":[[3.704165,51.01144],[3.704076,51.01144],[3.703988,51.01143]]},"properties":{"name":"Technologiepark-Zwijnaarde","oneway":"yes","highway":"residential","vertex1":2073,"vertex2":2071}},{"type":"Feature","geometry":{"type":"LineString","coordinates":[[3.704165,51.01144],[3.704423,51.01134],[3.704616,51.01132],[3.705229,51.01132]]},"properties":{"name":"Technologiepark-Zwijnaarde","oneway":"yes","cyclenetwork":"yes","maxspeed":"30","highway":"unclassified","vertex1":2073,"vertex2":1988}},{"type":"Feature","geometry":{"type":"LineString","coordinates":[[3.704165,51.01144],[3.704022,51.01126]]},"properties":{"oneway":"yes","highway":"cycleway","vertex1":2073,"vertex2":2062}},{"type":"Feature","geometry":{"type":"LineString","coordinates":[[3.7131,51.01183],[3.712581,51.01182],[3.712497,51.01178],[3.712039,51.01178]]},"properties":{"maxspeed":"30","highway":"service","vertex1":2072,"vertex2":2022}},{"type":"Feature","geometry":{"type":"LineString","coordinates":[[3.703007,51.01336],[3.702993,51.01333],[3.702992,51.01331],[3.702997,51.01328],[3.703007,51.01325],[3.703023,51.01323],[3.703048,51.0132],[3.703311,51.01307]]},"properties":{"bicycle":"yes","motorcar":"yes","highway":"pedestrian","vertex1":2070,"vertex2":1996}},{"type":"Feature","geometry":{"type":"LineString","coordinates":[[3.711176,51.00952],[3.71121,51.00959],[3.711209,51.00969]]},"properties":{"name":"Technologiepark-Zwijnaarde","highway":"residential","maxspeed":"30","vertex1":2069,"vertex2":2067}},{"type":"Feature","geometry":{"type":"LineString","coordinates":[[3.711176,51.00952],[3.710572,51.00974]]},"properties":{"name":"Technologiepark-Zwijnaarde","oneway":"yes","cyclenetwork":"yes","oneway:bicycle":"no","maxspeed":"30","highway":"unclassified","vertex1":2069,"vertex2":2047}},{"type":"Feature","geometry":{"type":"LineString","coordinates":[[3.711176,51.00952],[3.711583,51.00938],[3.711842,51.0093],[3.712081,51.00925]]},"properties":{"name":"Technologiepark-Zwijnaarde","oneway":"yes","cyclenetwork":"yes","oneway:bicycle":"no","maxspeed":"30","highway":"unclassified","vertex1":2069,"vertex2":1707}},{"type":"Feature","geometry":{"type":"LineString","coordinates":[[3.706364,51.01126],[3.706298,51.01128],[3.706093,51.01131],[3.705932,51.01132],[3.705729,51.01132],[3.705229,51.01132]]},"properties":{"name":"Technologiepark-Zwijnaarde","oneway":"yes","cyclenetwork":"yes","maxspeed":"30","highway":"unclassified","vertex1":2068,"vertex2":1988}},{"type":"Feature","geometry":{"type":"LineString","coordinates":[[3.706364,51.01126],[3.70651,51.01121]]},"properties":{"name":"Technologiepark-Zwijnaarde","oneway":"yes","cyclenetwork":"yes","maxspeed":"30","highway":"unclassified","vertex1":2068,"vertex2":2018}},{"type":"Feature","geometry":{"type":"LineString","coordinates":[[3.711209,51.00969],[3.711185,51.01202]]},"properties":{"name":"Technologiepark-Zwijnaarde","highway":"residential","maxspeed":"30","vertex1":2067,"vertex2":2065}},{"type":"Feature","geometry":{"type":"LineString","coordinates":[[3.712075,51.01019],[3.712074,51.01038],[3.711985,51.01044],[3.711984,51.0107],[3.712031,51.01076],[3.71208,51.0108],[3.713137,51.0108]]},"properties":{"maxspeed":"30","highway":"service","vertex1":2066,"vertex2":2013}},{"type":"Feature","geometry":{"type":"LineString","coordinates":[[3.712075,51.01019],[3.713133,51.01019]]},"properties":{"oneway":"yes","maxspeed":"30","highway":"service","vertex1":2066,"vertex2":2009}},{"type":"Feature","geometry":{"type":"LineString","coordinates":[[3.712075,51.01019],[3.712081,51.00925]]},"properties":{"oneway":"yes","maxspeed":"30","highway":"service","vertex1":2066,"vertex2":1707}},{"type":"Feature","geometry":{"type":"LineString","coordinates":[[3.711185,51.01202],[3.711182,51.01255],[3.711182,51.01284]]},"properties":{"name":"Technologiepark-Zwijnaarde","highway":"residential","maxspeed":"30","vertex1":2065,"vertex2":2063}},{"type":"Feature","geometry":{"type":"LineString","coordinates":[[3.711182,51.01284],[3.711183,51.01296]]},"properties":{"name":"Technologiepark-Zwijnaarde","highway":"residential","maxspeed":"30","vertex1":2063,"vertex2":2061}},{"type":"Feature","geometry":{"type":"LineString","coordinates":[[3.711182,51.01284],[3.710385,51.01284]]},"properties":{"highway":"footway","vertex1":2063,"vertex2":2027}},{"type":"Feature","geometry":{"type":"LineString","coordinates":[[3.711183,51.01296],[3.710384,51.01296]]},"properties":{"name":"Technologiepark-Zwijnaarde","oneway":"yes","oneway:bicycle":"no","maxspeed":"30","highway":"unclassified","vertex1":2061,"vertex2":2059}},{"type":"Feature","geometry":{"type":"LineString","coordinates":[[3.710384,51.01296],[3.710385,51.01284]]},"properties":{"maxspeed":"30","highway":"service","vertex1":2059,"vertex2":2027}},{"type":"Feature","geometry":{"type":"LineString","coordinates":[[3.710384,51.01296],[3.709701,51.01295],[3.70941,51.01291],[3.709109,51.01284],[3.708817,51.01273],[3.708527,51.0126],[3.708208,51.01239]]},"properties":{"name":"Technologiepark-Zwijnaarde","oneway":"yes","oneway:bicycle":"no","maxspeed":"30","highway":"unclassified","vertex1":2059,"vertex2":2031}},{"type":"Feature","geometry":{"type":"LineString","coordinates":[[3.704336,51.00964],[3.70449,51.00957]]},"properties":{"name":"Tramstraat","highway":"secondary","vertex1":2058,"vertex2":2014}},{"type":"Feature","geometry":{"type":"LineString","coordinates":[[3.707871,51.01091],[3.707972,51.01085]]},"properties":{"name":"Technologiepark-Zwijnaarde","cyclenetwork":"yes","maxspeed":"30","highway":"unclassified","vertex1":2057,"vertex2":2021}},{"type":"Feature","geometry":{"type":"LineString","coordinates":[[3.708862,51.01035],[3.707972,51.01085]]},"properties":{"cyclenetwork":"yes","highway":"cycleway","vertex1":2055,"vertex2":2021}},{"type":"Feature","geometry":{"type":"LineString","coordinates":[[3.704516,51.01283],[3.704457,51.01276],[3.704458,51.0127]]},"properties":{"name":"Bollebergen","oneway":"yes","highway":"residential","vertex1":2054,"vertex2":1992}},{"type":"Feature","geometry":{"type":"LineString","coordinates":[[3.704516,51.01283],[3.704938,51.01332]]},"properties":{"name":"Bollebergen","oneway":"yes","highway":"residential","vertex1":2054,"vertex2":1976}},{"type":"Feature","geometry":{"type":"LineString","coordinates":[[3.708408,51.01156],[3.708407,51.01158]]},"properties":{"maxspeed":"30","highway":"service","vertex1":2053,"vertex2":2043}},{"type":"Feature","geometry":{"type":"LineString","coordinates":[[3.708408,51.01156],[3.70859,51.01156],[3.708593,51.01173],[3.70841,51.01174]]},"properties":{"highway":"footway","vertex1":2053,"vertex2":1999}},{"type":"Feature","geometry":{"type":"LineString","coordinates":[[3.708233,51.00975],[3.708457,51.00976]]},"properties":{"maxspeed":"30","highway":"service","vertex1":2051,"vertex2":1997}},{"type":"Feature","geometry":{"type":"LineString","coordinates":[[3.708396,51.0101],[3.708395,51.00981],[3.708457,51.00976]]},"properties":{"maxspeed":"30","highway":"service","vertex1":2049,"vertex2":1997}},{"type":"Feature","geometry":{"type":"LineString","coordinates":[[3.710572,51.00974],[3.710521,51.00968]]},"properties":{"maxspeed":"30","highway":"service","vertex1":2047,"vertex2":2045}},{"type":"Feature","geometry":{"type":"LineString","coordinates":[[3.710521,51.00968],[3.71049,51.00963],[3.71048,51.00957],[3.710487,51.00902]]},"properties":{"maxspeed":"30","highway":"service","vertex1":2045,"vertex2":1664}},{"type":"Feature","geometry":{"type":"LineString","coordinates":[[3.710521,51.00968],[3.711119,51.00946],[3.711531,51.00931],[3.711801,51.00924],[3.712049,51.00919],[3.71212,51.00917],[3.712462,51.00914]]},"properties":{"highway":"footway","vertex1":2045,"vertex2":1640}},{"type":"Feature","geometry":{"type":"LineString","coordinates":[[3.70429,51.01263],[3.704313,51.01266],[3.704367,51.01268],[3.704458,51.0127]]},"properties":{"cyclenetwork":"yes","highway":"cycleway","vertex1":2044,"vertex2":1992}},{"type":"Feature","geometry":{"type":"LineString","coordinates":[[3.70429,51.01263],[3.703974,51.01276],[3.703894,51.01279]]},"properties":{"bicycle":"yes","motorcar":"yes","highway":"pedestrian","vertex1":2044,"vertex2":2035}},{"type":"Feature","geometry":{"type":"LineString","coordinates":[[3.709128,51.01233],[3.708934,51.01233],[3.708784,51.01233]]},"properties":{"maxspeed":"30","highway":"service","vertex1":2041,"vertex2":2023}},{"type":"Feature","geometry":{"type":"LineString","coordinates":[[3.708628,51.00974],[3.708568,51.00964],[3.708532,51.00952]]},"properties":{"maxspeed":"30","highway":"service","vertex1":2039,"vertex2":1645}},{"type":"Feature","geometry":{"type":"LineString","coordinates":[[3.708628,51.00974],[3.708457,51.00976]]},"properties":{"maxspeed":"30","highway":"service","vertex1":2039,"vertex2":1997}},{"type":"Feature","geometry":{"type":"LineString","coordinates":[[3.702544,51.01031],[3.702569,51.01029],[3.702589,51.01027],[3.702632,51.01025],[3.702696,51.01023]]},"properties":{"name":"Grotesteenweg-Noord","oneway":"yes","highway":"primary","bicycle":"no","maxspeed":"50","junction":"roundabout","vertex1":2038,"vertex2":2026}},{"type":"Feature","geometry":{"type":"LineString","coordinates":[[3.708327,51.01233],[3.708208,51.01239]]},"properties":{"maxspeed":"30","highway":"service","vertex1":2037,"vertex2":2031}},{"type":"Feature","geometry":{"type":"LineString","coordinates":[[3.708327,51.01233],[3.708396,51.01233]]},"properties":{"maxspeed":"30","highway":"service","vertex1":2037,"vertex2":2001}},{"type":"Feature","geometry":{"type":"LineString","coordinates":[[3.708327,51.01233],[3.708644,51.01251],[3.708916,51.01264],[3.709184,51.01274],[3.70946,51.01279],[3.709724,51.01284],[3.710385,51.01284]]},"properties":{"highway":"footway","vertex1":2037,"vertex2":2027}},{"type":"Feature","geometry":{"type":"LineString","coordinates":[[3.70766,51.01024],[3.707661,51.0102]]},"properties":{"highway":"footway","vertex1":2036,"vertex2":2030}},{"type":"Feature","geometry":{"type":"LineString","coordinates":[[3.703894,51.01279],[3.703913,51.01281],[3.703928,51.01284],[3.704114,51.01309],[3.704309,51.01336],[3.704808,51.01404],[3.704819,51.01407]]},"properties":{"highway":"footway","vertex1":2035,"vertex2":2033}},{"type":"Feature","geometry":{"type":"LineString","coordinates":[[3.703894,51.01279],[3.703408,51.01301],[3.703311,51.01307]]},"properties":{"bicycle":"yes","motorcar":"yes","highway":"pedestrian","vertex1":2035,"vertex2":1996}},{"type":"Feature","geometry":{"type":"LineString","coordinates":[[3.704819,51.01407],[3.704894,51.01406],[3.705355,51.01393]]},"properties":{"highway":"service","vertex1":2033,"vertex2":2130}},{"type":"Feature","geometry":{"type":"LineString","coordinates":[[3.706187,51.00964],[3.70618,51.00914]]},"properties":{"highway":"service","vertex1":2034,"vertex2":1678}},{"type":"Feature","geometry":{"type":"LineString","coordinates":[[3.708794,51.01187],[3.708784,51.01233]]},"properties":{"maxspeed":"30","highway":"service","vertex1":2029,"vertex2":2023}},{"type":"Feature","geometry":{"type":"LineString","coordinates":[[3.702696,51.01023],[3.702657,51.0102],[3.702587,51.01015]]},"properties":{"name":"Grotesteenweg-Noord","oneway":"yes","highway":"primary","bicycle":"no","vertex1":2026,"vertex2":1990}},{"type":"Feature","geometry":{"type":"LineString","coordinates":[[3.709744,51.01047],[3.709746,51.01084],[3.709763,51.01089],[3.709806,51.01093],[3.709888,51.01094],[3.710841,51.01095]]},"properties":{"highway":"track","vertex1":2024,"vertex2":2020}},{"type":"Feature","geometry":{"type":"LineString","coordinates":[[3.708784,51.01233],[3.708396,51.01233]]},"properties":{"maxspeed":"30","highway":"service","vertex1":2023,"vertex2":2001}},{"type":"Feature","geometry":{"type":"LineString","coordinates":[[3.703941,51.00988],[3.704005,51.00983],[3.70448,51.00962],[3.70449,51.00957]]},"properties":{"oneway":"yes","highway":"cycleway","vertex1":2016,"vertex2":2014}},{"type":"Feature","geometry":{"type":"LineString","coordinates":[[3.703941,51.00988],[3.703946,51.00989]]},"properties":{"highway":"footway","vertex1":2016,"vertex2":1994}},{"type":"Feature","geometry":{"type":"LineString","coordinates":[[3.706887,51.00992],[3.707209,51.00992]]},"properties":{"highway":"footway","vertex1":2015,"vertex2":1993}},{"type":"Feature","geometry":{"type":"LineString","coordinates":[[3.70449,51.00957],[3.70487,51.0094],[3.705927,51.00899]]},"properties":{"name":"Tramstraat","highway":"secondary","cycleway":"lane","vertex1":2014,"vertex2":1673}},{"type":"Feature","geometry":{"type":"LineString","coordinates":[[3.713137,51.0108],[3.713134,51.01036]]},"properties":{"maxspeed":"30","highway":"service","vertex1":2013,"vertex2":2011}},{"type":"Feature","geometry":{"type":"LineString","coordinates":[[3.704924,51.01229],[3.704986,51.01236],[3.705026,51.0125],[3.705091,51.01256],[3.706164,51.01319],[3.706512,51.01344],[3.706931,51.01385],[3.707185,51.01412]]},"properties":{"oneway":"yes","cyclenetwork":"yes","highway":"cycleway","vertex1":2012,"vertex2":2181}},{"type":"Feature","geometry":{"type":"LineString","coordinates":[[3.713134,51.01036],[3.713133,51.01019]]},"properties":{"maxspeed":"30","highway":"service","vertex1":2011,"vertex2":2009}},{"type":"Feature","geometry":{"type":"LineString","coordinates":[[3.713133,51.01019],[3.713129,51.00959]]},"properties":{"maxspeed":"30","highway":"service","vertex1":2009,"vertex2":2007}},{"type":"Feature","geometry":{"type":"LineString","coordinates":[[3.713129,51.00959],[3.713128,51.00947]]},"properties":{"maxspeed":"30","highway":"service","vertex1":2007,"vertex2":1691}},{"type":"Feature","geometry":{"type":"LineString","coordinates":[[3.705182,51.01077],[3.70518,51.00957],[3.7052,51.00951],[3.705253,51.00948],[3.705907,51.00924]]},"properties":{"maxspeed":"30","highway":"service","vertex1":2004,"vertex2":1735}},{"type":"Feature","geometry":{"type":"LineString","coordinates":[[3.705182,51.01077],[3.705925,51.01077]]},"properties":{"maxspeed":"30","highway":"service","vertex1":2004,"vertex2":2002}},{"type":"Feature","geometry":{"type":"LineString","coordinates":[[3.707214,51.01181],[3.706808,51.01155]]},"properties":{"oneway":"yes","bicycle":"no","motorcar":"no","foot":"no","maxspeed":"30","highway":"service","vertex1":2003,"vertex2":1980}},{"type":"Feature","geometry":{"type":"LineString","coordinates":[[3.708396,51.01233],[3.708408,51.01183],[3.70841,51.01174]]},"properties":{"maxspeed":"30","highway":"service","vertex1":2001,"vertex2":1999}},{"type":"Feature","geometry":{"type":"LineString","coordinates":[[3.706294,51.01015],[3.706435,51.01015]]},"properties":{"highway":"service","vertex1":2000,"vertex2":1974}},{"type":"Feature","geometry":{"type":"LineString","coordinates":[[3.706294,51.01015],[3.706294,51.01035]]},"properties":{"oneway":"yes","highway":"service","vertex1":2000,"vertex2":1977}},{"type":"Feature","geometry":{"type":"LineString","coordinates":[[3.706293,51.01069],[3.706294,51.01035]]},"properties":{"oneway":"yes","highway":"service","vertex1":1995,"vertex2":1977}},{"type":"Feature","geometry":{"type":"LineString","coordinates":[[3.706883,51.01041],[3.707607,51.01041]]},"properties":{"highway":"footway","vertex1":1991,"vertex2":1989}},{"type":"Feature","geometry":{"type":"LineString","coordinates":[[3.702587,51.01015],[3.702552,51.01012],[3.702217,51.00984],[3.702016,51.00964]]},"properties":{"name":"Grotesteenweg-Noord","oneway":"yes","highway":"primary","bicycle":"no","vertex1":1990,"vertex2":1751}},{"type":"Feature","geometry":{"type":"LineString","coordinates":[[3.706842,51.01051],[3.706295,51.01051]]},"properties":{"highway":"service","vertex1":1987,"vertex2":1985}},{"type":"Feature","geometry":{"type":"LineString","coordinates":[[3.706354,51.01156],[3.706808,51.01155]]},"properties":{"highway":"footway","vertex1":1986,"vertex2":1980}},{"type":"Feature","geometry":{"type":"LineString","coordinates":[[3.706842,51.01035],[3.706294,51.01035]]},"properties":{"highway":"service","vertex1":1983,"vertex2":1977}},{"type":"Feature","geometry":{"type":"LineString","coordinates":[[3.706842,51.01081],[3.70655,51.0108]]},"properties":{"highway":"service","vertex1":1981,"vertex2":1979}},{"type":"Feature","geometry":{"type":"LineString","coordinates":[[3.704938,51.01332],[3.705355,51.01393]]},"properties":{"name":"Bollebergen","oneway":"yes","highway":"residential","vertex1":1976,"vertex2":2130}},{"type":"Feature","geometry":{"type":"LineString","coordinates":[[3.704938,51.01332],[3.705149,51.01319],[3.705302,51.01316],[3.705385,51.01317],[3.70559,51.01328],[3.706076,51.01362],[3.706353,51.01389],[3.705635,51.01433]]},"properties":{"oneway":"yes","highway":"service","vertex1":1976,"vertex2":2050}},{"type":"Feature","geometry":{"type":"LineString","coordinates":[[3.705355,51.01393],[3.705635,51.01433]]},"properties":{"name":"Bollebergen","oneway":"yes","highway":"residential","vertex1":2130,"vertex2":2050}},{"type":"Feature","geometry":{"type":"LineString","coordinates":[[3.699195,51.01363],[3.699597,51.01343],[3.699917,51.01328],[3.699966,51.01323],[3.699984,51.01317],[3.699962,51.01314]]},"properties":{"highway":"track","vertex1":1752,"vertex2":1746}},{"type":"Feature","geometry":{"type":"LineString","coordinates":[[3.69473,51.01285],[3.694656,51.01294],[3.694498,51.01315],[3.694249,51.01364],[3.693596,51.01489],[3.693508,51.01506]]},"properties":{"name":"Rijvisschestraat","highway":"residential","vertex1":1750,"vertex2":1789}},{"type":"Feature","geometry":{"type":"LineString","coordinates":[[3.69473,51.01285],[3.696102,51.01377],[3.696156,51.01395],[3.696083,51.01416],[3.696112,51.01423],[3.696672,51.01442],[3.696737,51.01445]]},"properties":{"highway":"track","vertex1":1750,"vertex2":1748}},{"type":"Feature","geometry":{"type":"LineString","coordinates":[[3.713092,51.00613],[3.712106,51.00672]]},"properties":{"name":"Tramstraat","cyclenetwork":"yes","highway":"secondary","cycleway":"lane","vertex1":1745,"vertex2":1716}},{"type":"Feature","geometry":{"type":"LineString","coordinates":[[3.713092,51.00613],[3.714202,51.00548]]},"properties":{"name":"Tramstraat","cyclenetwork":"yes","highway":"secondary","cycleway":"lane","vertex1":1745,"vertex2":2629}},{"type":"Feature","geometry":{"type":"LineString","coordinates":[[3.713092,51.00613],[3.712803,51.00594],[3.712549,51.00579],[3.71239,51.00569],[3.712294,51.00562],[3.712278,51.00558]]},"properties":{"highway":"path","vertex1":1745,"vertex2":1683}},{"type":"Feature","geometry":{"type":"LineString","coordinates":[[3.706911,51.00863],[3.706406,51.0088]]},"properties":{"name":"Tramstraat","highway":"secondary","cycleway":"lane","vertex1":1744,"vertex2":1663}},{"type":"Feature","geometry":{"type":"LineString","coordinates":[[3.706911,51.00863],[3.707205,51.00852]]},"properties":{"name":"Tramstraat","highway":"secondary","cycleway":"lane","vertex1":1744,"vertex2":1666}},{"type":"Feature","geometry":{"type":"LineString","coordinates":[[3.713331,51.00697],[3.713144,51.00697]]},"properties":{"highway":"footway","vertex1":1743,"vertex2":1696}},{"type":"Feature","geometry":{"type":"LineString","coordinates":[[3.713331,51.00697],[3.713333,51.00698],[3.71334,51.00699],[3.713352,51.007],[3.713367,51.00701],[3.713384,51.00701],[3.713403,51.00702]]},"properties":{"highway":"footway","vertex1":1743,"vertex2":2639}},{"type":"Feature","geometry":{"type":"LineString","coordinates":[[3.713331,51.00697],[3.713333,51.00696],[3.71334,51.00695],[3.713352,51.00694],[3.713367,51.00693],[3.713384,51.00692],[3.713403,51.00692]]},"properties":{"highway":"footway","vertex1":1743,"vertex2":2627}},{"type":"Feature","geometry":{"type":"LineString","coordinates":[[3.713403,51.00702],[3.713403,51.00711]]},"properties":{"highway":"footway","vertex1":2639,"vertex2":2659}},{"type":"Feature","geometry":{"type":"LineString","coordinates":[[3.713403,51.00692],[3.713403,51.00681]]},"properties":{"highway":"footway","vertex1":2627,"vertex2":2694}},{"type":"Feature","geometry":{"type":"LineString","coordinates":[[3.710563,51.00769],[3.710512,51.00772],[3.710488,51.00774],[3.710482,51.00778],[3.710482,51.00789]]},"properties":{"maxspeed":"30","highway":"service","vertex1":1742,"vertex2":1740}},{"type":"Feature","geometry":{"type":"LineString","coordinates":[[3.710563,51.00769],[3.710881,51.00757]]},"properties":{"maxspeed":"30","highway":"service","vertex1":1742,"vertex2":1672}},{"type":"Feature","geometry":{"type":"LineString","coordinates":[[3.710563,51.00769],[3.710652,51.00769],[3.710881,51.00769]]},"properties":{"highway":"footway","vertex1":1742,"vertex2":1720}},{"type":"Feature","geometry":{"type":"LineString","coordinates":[[3.707916,51.00709],[3.708112,51.00734]]},"properties":{"highway":"service","vertex1":1741,"vertex2":1733}},{"type":"Feature","geometry":{"type":"LineString","coordinates":[[3.710482,51.00789],[3.710487,51.00902]]},"properties":{"maxspeed":"30","highway":"service","vertex1":1740,"vertex2":1664}},{"type":"Feature","geometry":{"type":"LineString","coordinates":[[3.710482,51.00789],[3.710699,51.00789]]},"properties":{"maxspeed":"30","highway":"service","vertex1":1740,"vertex2":1713}},{"type":"Feature","geometry":{"type":"LineString","coordinates":[[3.70813,51.00701],[3.708344,51.00726]]},"properties":{"highway":"service","vertex1":1739,"vertex2":1732}},{"type":"Feature","geometry":{"type":"LineString","coordinates":[[3.708807,51.00682],[3.70932,51.00706],[3.709067,51.00708],[3.70879,51.00714]]},"properties":{"highway":"service","vertex1":1738,"vertex2":1709}},{"type":"Feature","geometry":{"type":"LineString","coordinates":[[3.707954,51.00859],[3.707821,51.00856],[3.707728,51.00857],[3.70618,51.00914]]},"properties":{"maxspeed":"30","highway":"service","vertex1":1737,"vertex2":1678}},{"type":"Feature","geometry":{"type":"LineString","coordinates":[[3.707954,51.00859],[3.707968,51.00911]]},"properties":{"maxspeed":"30","highway":"service","vertex1":1737,"vertex2":1662}},{"type":"Feature","geometry":{"type":"LineString","coordinates":[[3.707954,51.00859],[3.70805,51.0085],[3.708266,51.0084]]},"properties":{"maxspeed":"30","highway":"service","vertex1":1737,"vertex2":1643}},{"type":"Feature","geometry":{"type":"LineString","coordinates":[[3.710881,51.00775],[3.710881,51.00769]]},"properties":{"highway":"footway","vertex1":1736,"vertex2":1720}},{"type":"Feature","geometry":{"type":"LineString","coordinates":[[3.705907,51.00924],[3.70618,51.00914]]},"properties":{"maxspeed":"30","highway":"service","vertex1":1735,"vertex2":1678}},{"type":"Feature","geometry":{"type":"LineString","coordinates":[[3.709374,51.00847],[3.709616,51.00848],[3.709694,51.00851],[3.709737,51.00856],[3.70974,51.00864],[3.709588,51.00865]]},"properties":{"maxspeed":"30","highway":"service","vertex1":1734,"vertex2":1705}},{"type":"Feature","geometry":{"type":"LineString","coordinates":[[3.708112,51.00734],[3.707883,51.00741]]},"properties":{"highway":"service","vertex1":1733,"vertex2":1728}},{"type":"Feature","geometry":{"type":"LineString","coordinates":[[3.708112,51.00734],[3.708344,51.00726]]},"properties":{"highway":"service","vertex1":1733,"vertex2":1732}},{"type":"Feature","geometry":{"type":"LineString","coordinates":[[3.708344,51.00726],[3.70857,51.00719]]},"properties":{"highway":"service","vertex1":1732,"vertex2":1711}},{"type":"Feature","geometry":{"type":"LineString","coordinates":[[3.70909,51.00772],[3.708898,51.00768],[3.708136,51.00794]]},"properties":{"oneway":"yes","highway":"service","vertex1":1731,"vertex2":1657}},{"type":"Feature","geometry":{"type":"LineString","coordinates":[[3.70909,51.00772],[3.709186,51.00784]]},"properties":{"oneway":"yes","highway":"service","vertex1":1731,"vertex2":1677}},{"type":"Feature","geometry":{"type":"LineString","coordinates":[[3.70909,51.00772],[3.708631,51.00717]]},"properties":{"oneway":"yes","highway":"service","vertex1":1731,"vertex2":1670}},{"type":"Feature","geometry":{"type":"LineString","coordinates":[[3.707761,51.00724],[3.707883,51.00741]]},"properties":{"highway":"service","vertex1":1730,"vertex2":1728}},{"type":"Feature","geometry":{"type":"LineString","coordinates":[[3.707965,51.00803],[3.708041,51.00812],[3.708112,51.00821]]},"properties":{"highway":"service","vertex1":1729,"vertex2":1723}},{"type":"Feature","geometry":{"type":"LineString","coordinates":[[3.707965,51.00803],[3.707798,51.00789]]},"properties":{"highway":"service","vertex1":1729,"vertex2":1726}},{"type":"Feature","geometry":{"type":"LineString","coordinates":[[3.707965,51.00803],[3.707268,51.00826]]},"properties":{"highway":"service","vertex1":1729,"vertex2":1727}},{"type":"Feature","geometry":{"type":"LineString","coordinates":[[3.707883,51.00741],[3.707726,51.00745]]},"properties":{"highway":"service","vertex1":1728,"vertex2":1685}},{"type":"Feature","geometry":{"type":"LineString","coordinates":[[3.707268,51.00826],[3.707132,51.00831],[3.707083,51.00835],[3.707051,51.00838],[3.707011,51.0084],[3.706948,51.0084],[3.7069,51.0084],[3.706851,51.00839],[3.706812,51.00837],[3.706779,51.00834],[3.706774,51.00829],[3.706766,51.00824],[3.706735,51.00821],[3.706674,51.00819],[3.706615,51.00816],[3.706355,51.00784],[3.70743,51.00749],[3.707798,51.00789]]},"properties":{"highway":"service","vertex1":1727,"vertex2":1726}},{"type":"Feature","geometry":{"type":"LineString","coordinates":[[3.711195,51.00715],[3.710987,51.00723],[3.709186,51.00784]]},"properties":{"name":"Tramstraat","highway":"secondary","cycleway":"lane","vertex1":1725,"vertex2":1677}},{"type":"Feature","geometry":{"type":"LineString","coordinates":[[3.711195,51.00715],[3.711482,51.00703],[3.711766,51.0069]]},"properties":{"name":"Tramstraat","highway":"secondary","cycleway":"lane","vertex1":1725,"vertex2":1660}},{"type":"Feature","geometry":{"type":"LineString","coordinates":[[3.711195,51.00715],[3.711262,51.00729],[3.711257,51.00731],[3.711228,51.00734],[3.711186,51.00735],[3.711182,51.00738],[3.71115,51.0074],[3.711149,51.00743],[3.711112,51.00749]]},"properties":{"highway":"footway","vertex1":1725,"vertex2":1636}},{"type":"Feature","geometry":{"type":"LineString","coordinates":[[3.708372,51.00852],[3.708486,51.00864]]},"properties":{"maxspeed":"30","highway":"service","vertex1":1724,"vertex2":1689}},{"type":"Feature","geometry":{"type":"LineString","coordinates":[[3.708372,51.00852],[3.708266,51.0084]]},"properties":{"maxspeed":"30","highway":"service","vertex1":1724,"vertex2":1643}},{"type":"Feature","geometry":{"type":"LineString","coordinates":[[3.708372,51.00852],[3.708502,51.00846],[3.708742,51.00846]]},"properties":{"maxspeed":"30","highway":"service","vertex1":1724,"vertex2":1718}},{"type":"Feature","geometry":{"type":"LineString","coordinates":[[3.708112,51.00821],[3.708208,51.00833],[3.708266,51.0084]]},"properties":{"maxspeed":"30","highway":"service","vertex1":1723,"vertex2":1643}},{"type":"Feature","geometry":{"type":"LineString","coordinates":[[3.708112,51.00821],[3.707993,51.00825]]},"properties":{"name":"Tramstraat","highway":"secondary","cycleway":"lane","vertex1":1723,"vertex2":1681}},{"type":"Feature","geometry":{"type":"LineString","coordinates":[[3.708112,51.00821],[3.708228,51.00817]]},"properties":{"name":"Tramstraat","highway":"secondary","cycleway":"lane","vertex1":1723,"vertex2":1701}},{"type":"Feature","geometry":{"type":"LineString","coordinates":[[3.713292,51.00709],[3.71322,51.00708],[3.713178,51.00705],[3.713152,51.00701],[3.713144,51.00697]]},"properties":{"highway":"service","vertex1":1722,"vertex2":1696}},{"type":"Feature","geometry":{"type":"LineString","coordinates":[[3.713292,51.00709],[3.713345,51.0071],[3.713403,51.00711]]},"properties":{"highway":"footway","vertex1":1722,"vertex2":2659}},{"type":"Feature","geometry":{"type":"LineString","coordinates":[[3.713403,51.00711],[3.713403,51.00723]]},"properties":{"highway":"footway","vertex1":2659,"vertex2":2650}},{"type":"Feature","geometry":{"type":"LineString","coordinates":[[3.713332,51.00921],[3.713332,51.00947]]},"properties":{"name":"Technologiepark-Zwijnaarde","oneway":"yes","oneway:bicycle":"no","maxspeed":"30","highway":"unclassified","vertex1":1721,"vertex2":1653}},{"type":"Feature","geometry":{"type":"LineString","coordinates":[[3.713332,51.00921],[3.712462,51.00921]]},"properties":{"name":"Technologiepark-Zwijnaarde","oneway":"yes","oneway:bicycle":"no","maxspeed":"30","highway":"unclassified","vertex1":1721,"vertex2":1638}},{"type":"Feature","geometry":{"type":"LineString","coordinates":[[3.713332,51.00921],[3.714189,51.00921]]},"properties":{"name":"Technologiepark-Zwijnaarde","maxspeed":"30","highway":"unclassified","vertex1":1721,"vertex2":2680}},{"type":"Feature","geometry":{"type":"LineString","coordinates":[[3.714189,51.00921],[3.71419,51.00915]]},"properties":{"maxspeed":"30","highway":"service","vertex1":2680,"vertex2":2665}},{"type":"Feature","geometry":{"type":"LineString","coordinates":[[3.710881,51.00769],[3.710881,51.00761],[3.710881,51.00757]]},"properties":{"highway":"footway","vertex1":1720,"vertex2":1672}},{"type":"Feature","geometry":{"type":"LineString","coordinates":[[3.710881,51.00769],[3.711127,51.00769],[3.711183,51.00769]]},"properties":{"highway":"footway","vertex1":1720,"vertex2":1692}},{"type":"Feature","geometry":{"type":"LineString","coordinates":[[3.713044,51.00723],[3.712458,51.00723]]},"properties":{"maxspeed":"30","highway":"service","vertex1":1719,"vertex2":1712}},{"type":"Feature","geometry":{"type":"LineString","coordinates":[[3.713044,51.00723],[3.713403,51.00723]]},"properties":{"maxspeed":"30","highway":"service","vertex1":1719,"vertex2":2650}},{"type":"Feature","geometry":{"type":"LineString","coordinates":[[3.713044,51.00723],[3.712942,51.00714],[3.712888,51.00706]]},"properties":{"highway":"service","vertex1":1719,"vertex2":1682}},{"type":"Feature","geometry":{"type":"LineString","coordinates":[[3.705886,51.00894],[3.705927,51.00899]]},"properties":{"oneway":"yes","highway":"service","vertex1":1717,"vertex2":1673}},{"type":"Feature","geometry":{"type":"LineString","coordinates":[[3.705886,51.00894],[3.705772,51.0088]]},"properties":{"oneway":"yes","highway":"service","vertex1":1717,"vertex2":1671}},{"type":"Feature","geometry":{"type":"LineString","coordinates":[[3.712106,51.00672],[3.712461,51.00697]]},"properties":{"name":"Technologiepark-Zwijnaarde","cyclenetwork":"yes","maxspeed":"30","highway":"unclassified","vertex1":1716,"vertex2":1714}},{"type":"Feature","geometry":{"type":"LineString","coordinates":[[3.712106,51.00672],[3.711948,51.0068]]},"properties":{"name":"Tramstraat","highway":"secondary","cycleway":"lane","vertex1":1716,"vertex2":1668}},{"type":"Feature","geometry":{"type":"LineString","coordinates":[[3.712245,51.00818],[3.712245,51.00852]]},"properties":{"highway":"service","vertex1":1715,"vertex2":1708}},{"type":"Feature","geometry":{"type":"LineString","coordinates":[[3.712245,51.00818],[3.712245,51.00788]]},"properties":{"highway":"service","vertex1":1715,"vertex2":1637}},{"type":"Feature","geometry":{"type":"LineString","coordinates":[[3.712245,51.00818],[3.712456,51.00818]]},"properties":{"highway":"service","vertex1":1715,"vertex2":1648}},{"type":"Feature","geometry":{"type":"LineString","coordinates":[[3.712461,51.00697],[3.712458,51.00723]]},"properties":{"name":"Technologiepark-Zwijnaarde","cyclenetwork":"yes","maxspeed":"30","highway":"unclassified","vertex1":1714,"vertex2":1712}},{"type":"Feature","geometry":{"type":"LineString","coordinates":[[3.712461,51.00697],[3.712756,51.00697],[3.71287,51.00697]]},"properties":{"maxspeed":"30","highway":"service","vertex1":1714,"vertex2":1694}},{"type":"Feature","geometry":{"type":"LineString","coordinates":[[3.712458,51.00723],[3.712458,51.00758]]},"properties":{"name":"Technologiepark-Zwijnaarde","cyclenetwork":"yes","maxspeed":"30","highway":"unclassified","vertex1":1712,"vertex2":1688}},{"type":"Feature","geometry":{"type":"LineString","coordinates":[[3.70857,51.00719],[3.708348,51.00694]]},"properties":{"highway":"service","vertex1":1711,"vertex2":1655}},{"type":"Feature","geometry":{"type":"LineString","coordinates":[[3.70857,51.00719],[3.708631,51.00717]]},"properties":{"highway":"service","vertex1":1711,"vertex2":1670}},{"type":"Feature","geometry":{"type":"LineString","coordinates":[[3.709401,51.00872],[3.709402,51.00865]]},"properties":{"highway":"service","vertex1":1710,"vertex2":1675}},{"type":"Feature","geometry":{"type":"LineString","coordinates":[[3.709401,51.00872],[3.709399,51.00913],[3.709643,51.00914],[3.709644,51.00893],[3.709587,51.00883],[3.709588,51.00872],[3.709588,51.00865]]},"properties":{"highway":"service","vertex1":1710,"vertex2":1705}},{"type":"Feature","geometry":{"type":"LineString","coordinates":[[3.70879,51.00714],[3.708576,51.00689]]},"properties":{"highway":"service","vertex1":1709,"vertex2":1669}},{"type":"Feature","geometry":{"type":"LineString","coordinates":[[3.70879,51.00714],[3.708631,51.00717]]},"properties":{"highway":"service","vertex1":1709,"vertex2":1670}},{"type":"Feature","geometry":{"type":"LineString","coordinates":[[3.712245,51.00852],[3.712456,51.00853]]},"properties":{"maxspeed":"30","highway":"service","vertex1":1708,"vertex2":1646}},{"type":"Feature","geometry":{"type":"LineString","coordinates":[[3.712245,51.00852],[3.711487,51.00853]]},"properties":{"maxspeed":"30","highway":"service","vertex1":1708,"vertex2":1635}},{"type":"Feature","geometry":{"type":"LineString","coordinates":[[3.712081,51.00925],[3.712145,51.00924],[3.712462,51.00921]]},"properties":{"name":"Technologiepark-Zwijnaarde","oneway":"yes","cyclenetwork":"yes","oneway:bicycle":"no","maxspeed":"30","highway":"unclassified","vertex1":1707,"vertex2":1638}},{"type":"Feature","geometry":{"type":"LineString","coordinates":[[3.711874,51.00773],[3.712461,51.00772]]},"properties":{"maxspeed":"30","highway":"service","vertex1":1706,"vertex2":1686}},{"type":"Feature","geometry":{"type":"LineString","coordinates":[[3.711874,51.00773],[3.711874,51.00758],[3.712458,51.00758]]},"properties":{"maxspeed":"30","highway":"service","vertex1":1706,"vertex2":1688}},{"type":"Feature","geometry":{"type":"LineString","coordinates":[[3.709588,51.00865],[3.709402,51.00865]]},"properties":{"maxspeed":"30","highway":"service","vertex1":1705,"vertex2":1675}},{"type":"Feature","geometry":{"type":"LineString","coordinates":[[3.710717,51.00902],[3.710953,51.00902]]},"properties":{"maxspeed":"30","highway":"service","vertex1":1704,"vertex2":1702}},{"type":"Feature","geometry":{"type":"LineString","coordinates":[[3.710717,51.00902],[3.710487,51.00902]]},"properties":{"maxspeed":"30","highway":"service","vertex1":1704,"vertex2":1664}},{"type":"Feature","geometry":{"type":"LineString","coordinates":[[3.710717,51.00902],[3.710717,51.00934]]},"properties":{"highway":"service","vertex1":1704,"vertex2":1679}},{"type":"Feature","geometry":{"type":"LineString","coordinates":[[3.707867,51.00829],[3.707353,51.00847]]},"properties":{"name":"Tramstraat","highway":"secondary","cycleway":"lane","vertex1":1703,"vertex2":1647}},{"type":"Feature","geometry":{"type":"LineString","coordinates":[[3.707867,51.00829],[3.707993,51.00825]]},"properties":{"name":"Tramstraat","highway":"secondary","cycleway":"lane","vertex1":1703,"vertex2":1681}},{"type":"Feature","geometry":{"type":"LineString","coordinates":[[3.707867,51.00829],[3.707578,51.00835]]},"properties":{"oneway":"yes","highway":"service","vertex1":1703,"vertex2":1650}},{"type":"Feature","geometry":{"type":"LineString","coordinates":[[3.710953,51.00902],[3.711017,51.00902],[3.711104,51.009],[3.711163,51.00896],[3.711188,51.00891],[3.71119,51.0083]]},"properties":{"maxspeed":"30","highway":"service","vertex1":1702,"vertex2":1700}},{"type":"Feature","geometry":{"type":"LineString","coordinates":[[3.710953,51.00902],[3.710951,51.00934]]},"properties":{"highway":"service","vertex1":1702,"vertex2":1674}},{"type":"Feature","geometry":{"type":"LineString","coordinates":[[3.708228,51.00817],[3.708115,51.00803],[3.708136,51.00794]]},"properties":{"oneway":"yes","highway":"service","vertex1":1701,"vertex2":1657}},{"type":"Feature","geometry":{"type":"LineString","coordinates":[[3.708228,51.00817],[3.709186,51.00784]]},"properties":{"name":"Tramstraat","highway":"secondary","cycleway":"lane","vertex1":1701,"vertex2":1677}},{"type":"Feature","geometry":{"type":"LineString","coordinates":[[3.71119,51.0083],[3.711186,51.0079]]},"properties":{"maxspeed":"30","highway":"service","vertex1":1700,"vertex2":1698}},{"type":"Feature","geometry":{"type":"LineString","coordinates":[[3.71119,51.0083],[3.710942,51.0083]]},"properties":{"maxspeed":"30","highway":"service","vertex1":1700,"vertex2":1651}},{"type":"Feature","geometry":{"type":"LineString","coordinates":[[3.706312,51.00854],[3.706175,51.00838],[3.705994,51.00845],[3.706127,51.0086]]},"properties":{"tunnel":"yes","oneway":"yes","highway":"service","vertex1":1699,"vertex2":1641}},{"type":"Feature","geometry":{"type":"LineString","coordinates":[[3.706312,51.00854],[3.706349,51.00855],[3.706384,51.00854],[3.706639,51.00846],[3.706772,51.00847]]},"properties":{"oneway":"yes","highway":"service","vertex1":1699,"vertex2":1687}},{"type":"Feature","geometry":{"type":"LineString","coordinates":[[3.711186,51.0079],[3.711183,51.00769]]},"properties":{"maxspeed":"30","highway":"service","vertex1":1698,"vertex2":1692}},{"type":"Feature","geometry":{"type":"LineString","coordinates":[[3.711186,51.0079],[3.711063,51.0079]]},"properties":{"maxspeed":"30","highway":"service","vertex1":1698,"vertex2":1676}},{"type":"Feature","geometry":{"type":"LineString","coordinates":[[3.711964,51.00685],[3.711989,51.00683],[3.711948,51.0068]]},"properties":{"highway":"footway","vertex1":1697,"vertex2":1668}},{"type":"Feature","geometry":{"type":"LineString","coordinates":[[3.713144,51.00697],[3.713007,51.00697],[3.71287,51.00697]]},"properties":{"maxspeed":"30","highway":"service","vertex1":1696,"vertex2":1694}},{"type":"Feature","geometry":{"type":"LineString","coordinates":[[3.713144,51.00697],[3.713152,51.00693],[3.713178,51.00689],[3.71322,51.00686],[3.713273,51.00683],[3.713336,51.00681],[3.713403,51.00681]]},"properties":{"highway":"service","vertex1":1696,"vertex2":2694}},{"type":"Feature","geometry":{"type":"LineString","coordinates":[[3.713403,51.00681],[3.713403,51.00667],[3.713376,51.00665],[3.713344,51.00664],[3.713265,51.00665],[3.713136,51.00668],[3.713026,51.00673],[3.712942,51.0068],[3.712888,51.00688],[3.71287,51.00697]]},"properties":{"highway":"service","vertex1":2694,"vertex2":1694}},{"type":"Feature","geometry":{"type":"LineString","coordinates":[[3.71167,51.00899],[3.711802,51.00899]]},"properties":{"maxspeed":"30","highway":"service","vertex1":1695,"vertex2":1693}},{"type":"Feature","geometry":{"type":"LineString","coordinates":[[3.711802,51.00899],[3.711797,51.00887]]},"properties":{"highway":"footway","vertex1":1693,"vertex2":1661}},{"type":"Feature","geometry":{"type":"LineString","coordinates":[[3.711802,51.00899],[3.712462,51.00899]]},"properties":{"maxspeed":"30","highway":"service","vertex1":1693,"vertex2":1642}},{"type":"Feature","geometry":{"type":"LineString","coordinates":[[3.711183,51.00769],[3.711175,51.00764],[3.711154,51.0076],[3.711117,51.00757],[3.711072,51.00755]]},"properties":{"maxspeed":"30","highway":"service","vertex1":1692,"vertex2":1690}},{"type":"Feature","geometry":{"type":"LineString","coordinates":[[3.713128,51.00947],[3.713332,51.00947]]},"properties":{"maxspeed":"30","highway":"service","vertex1":1691,"vertex2":1653}},{"type":"Feature","geometry":{"type":"LineString","coordinates":[[3.713128,51.00947],[3.713127,51.00934],[3.712372,51.00935],[3.712297,51.0094]]},"properties":{"maxspeed":"30","highway":"service","vertex1":1691,"vertex2":1639}},{"type":"Feature","geometry":{"type":"LineString","coordinates":[[3.711072,51.00755],[3.711017,51.00754],[3.710947,51.00755],[3.710881,51.00757]]},"properties":{"maxspeed":"30","highway":"service","vertex1":1690,"vertex2":1672}},{"type":"Feature","geometry":{"type":"LineString","coordinates":[[3.711072,51.00755],[3.71109,51.00752],[3.711112,51.00749]]},"properties":{"highway":"service","vertex1":1690,"vertex2":1636}},{"type":"Feature","geometry":{"type":"LineString","coordinates":[[3.708486,51.00864],[3.708524,51.00887],[3.708519,51.00944],[3.708532,51.00952]]},"properties":{"maxspeed":"30","highway":"service","vertex1":1689,"vertex2":1645}},{"type":"Feature","geometry":{"type":"LineString","coordinates":[[3.708486,51.00864],[3.709402,51.00865]]},"properties":{"maxspeed":"30","highway":"service","vertex1":1689,"vertex2":1675}},{"type":"Feature","geometry":{"type":"LineString","coordinates":[[3.712458,51.00758],[3.712461,51.00772]]},"properties":{"name":"Technologiepark-Zwijnaarde","cyclenetwork":"yes","maxspeed":"30","highway":"unclassified","vertex1":1688,"vertex2":1686}},{"type":"Feature","geometry":{"type":"LineString","coordinates":[[3.712461,51.00772],[3.712457,51.00815]]},"properties":{"name":"Technologiepark-Zwijnaarde","cyclenetwork":"yes","maxspeed":"30","highway":"unclassified","vertex1":1686,"vertex2":1654}},{"type":"Feature","geometry":{"type":"LineString","coordinates":[[3.707726,51.00745],[3.708136,51.00794]]},"properties":{"oneway":"yes","highway":"service","vertex1":1685,"vertex2":1657}},{"type":"Feature","geometry":{"type":"LineString","coordinates":[[3.707865,51.00834],[3.707993,51.00825]]},"properties":{"oneway":"yes","highway":"service","vertex1":1684,"vertex2":1681}},{"type":"Feature","geometry":{"type":"LineString","coordinates":[[3.712278,51.00558],[3.712304,51.00558],[3.712626,51.00541]]},"properties":{"name":"Halfbunder","highway":"residential","vertex1":1683,"vertex2":1680}},{"type":"Feature","geometry":{"type":"LineString","coordinates":[[3.705927,51.00899],[3.706406,51.0088]]},"properties":{"name":"Tramstraat","highway":"secondary","cycleway":"lane","vertex1":1673,"vertex2":1663}},{"type":"Feature","geometry":{"type":"LineString","coordinates":[[3.705772,51.0088],[3.705812,51.00875],[3.706094,51.00865],[3.706119,51.00863],[3.706127,51.0086]]},"properties":{"oneway":"yes","highway":"service","vertex1":1671,"vertex2":1641}},{"type":"Feature","geometry":{"type":"LineString","coordinates":[[3.711948,51.0068],[3.711766,51.0069]]},"properties":{"name":"Tramstraat","highway":"secondary","cycleway":"lane","vertex1":1668,"vertex2":1660}},{"type":"Feature","geometry":{"type":"LineString","coordinates":[[3.711948,51.0068],[3.711912,51.00677]]},"properties":{"highway":"footway","vertex1":1668,"vertex2":1665}},{"type":"Feature","geometry":{"type":"LineString","coordinates":[[3.712648,51.00815],[3.712457,51.00815]]},"properties":{"highway":"service","vertex1":1667,"vertex2":1654}},{"type":"Feature","geometry":{"type":"LineString","coordinates":[[3.712648,51.00815],[3.71264,51.00879],[3.71246,51.00879]]},"properties":{"highway":"service","vertex1":1667,"vertex2":1644}},{"type":"Feature","geometry":{"type":"LineString","coordinates":[[3.712648,51.00815],[3.712726,51.00813],[3.713024,51.00813]]},"properties":{"highway":"service","vertex1":1667,"vertex2":1649}},{"type":"Feature","geometry":{"type":"LineString","coordinates":[[3.707205,51.00852],[3.707353,51.00847]]},"properties":{"name":"Tramstraat","highway":"secondary","cycleway":"lane","vertex1":1666,"vertex2":1647}},{"type":"Feature","geometry":{"type":"LineString","coordinates":[[3.707205,51.00852],[3.707348,51.00843]]},"properties":{"oneway":"yes","highway":"service","vertex1":1666,"vertex2":1656}},{"type":"Feature","geometry":{"type":"LineString","coordinates":[[3.706406,51.0088],[3.706192,51.00854]]},"properties":{"highway":"footway","vertex1":1663,"vertex2":1659}},{"type":"Feature","geometry":{"type":"LineString","coordinates":[[3.709351,51.00951],[3.709236,51.00951],[3.708728,51.00952],[3.708532,51.00952]]},"properties":{"maxspeed":"30","highway":"service","vertex1":1658,"vertex2":1645}},{"type":"Feature","geometry":{"type":"LineString","coordinates":[[3.712457,51.00815],[3.712456,51.00818]]},"properties":{"name":"Technologiepark-Zwijnaarde","cyclenetwork":"yes","maxspeed":"30","highway":"unclassified","vertex1":1654,"vertex2":1648}},{"type":"Feature","geometry":{"type":"LineString","coordinates":[[3.707598,51.00843],[3.707353,51.00847]]},"properties":{"oneway":"yes","highway":"service","vertex1":1652,"vertex2":1647}},{"type":"Feature","geometry":{"type":"LineString","coordinates":[[3.712456,51.00818],[3.712456,51.00853]]},"properties":{"name":"Technologiepark-Zwijnaarde","cyclenetwork":"yes","maxspeed":"30","highway":"unclassified","vertex1":1648,"vertex2":1646}},{"type":"Feature","geometry":{"type":"LineString","coordinates":[[3.712456,51.00853],[3.71246,51.00879]]},"properties":{"name":"Technologiepark-Zwijnaarde","cyclenetwork":"yes","maxspeed":"30","highway":"unclassified","vertex1":1646,"vertex2":1644}},{"type":"Feature","geometry":{"type":"LineString","coordinates":[[3.71246,51.00879],[3.712462,51.00899]]},"properties":{"name":"Technologiepark-Zwijnaarde","cyclenetwork":"yes","maxspeed":"30","highway":"unclassified","vertex1":1644,"vertex2":1642}},{"type":"Feature","geometry":{"type":"LineString","coordinates":[[3.712462,51.00899],[3.712462,51.00914]]},"properties":{"name":"Technologiepark-Zwijnaarde","cyclenetwork":"yes","maxspeed":"30","highway":"unclassified","vertex1":1642,"vertex2":1640}},{"type":"Feature","geometry":{"type":"LineString","coordinates":[[3.712462,51.00914],[3.712462,51.00921]]},"properties":{"name":"Technologiepark-Zwijnaarde","cyclenetwork":"yes","maxspeed":"30","highway":"unclassified","vertex1":1640,"vertex2":1638}},{"type":"Feature","geometry":{"type":"LineString","coordinates":[[3.712462,51.00914],[3.713629,51.00915],[3.71419,51.00915]]},"properties":{"highway":"footway","vertex1":1640,"vertex2":2665}}]}