{"type":"FeatureCollection","features":[{"type":"Feature","geometry":{"type":"LineString","coordinates":[[3.713379,51.09662],[3.735352,51.09662],[3.735352,51.08282],[3.713379,51.08282],[3.713379,51.09662]]},"properties":{"id":"89759913","zoom":"14"}},{"type":"Feature","geometry":{"type":"LineString","coordinates":[[3.71643,51.08365],[3.716286,51.08362],[3.716099,51.08377],[3.716015,51.08384],[3.715912,51.08388]]},"properties":{"highway":"footway","vertex1":16704,"vertex2":16698}},{"type":"Feature","geometry":{"type":"LineString","coordinates":[[3.71643,51.08365],[3.716414,51.08284],[3.716402,51.08259]]},"properties":{"name":"Morekstraat","cyclenetwork":"yes","maxspeed":"50","highway":"tertiary","vertex1":16704,"vertex2":16651}},{"type":"Feature","geometry":{"type":"LineString","coordinates":[[3.71643,51.08365],[3.716519,51.08435]]},"properties":{"name":"Morekstraat","cyclenetwork":"yes","maxspeed":"50","highway":"tertiary","vertex1":16704,"vertex2":16679}},{"type":"Feature","geometry":{"type":"LineString","coordinates":[[3.714295,51.08305],[3.714728,51.08327],[3.714932,51.08337]]},"properties":{"name":"Winkelgate","highway":"residential","vertex1":16700,"vertex2":16654}},{"type":"Feature","geometry":{"type":"LineString","coordinates":[[3.714295,51.08305],[3.714577,51.0829],[3.714803,51.08275],[3.714988,51.08256]]},"properties":{"name":"Fabriekstraat","highway":"residential","vertex1":16700,"vertex2":16666}},{"type":"Feature","geometry":{"type":"LineString","coordinates":[[3.714295,51.08305],[3.714195,51.08311],[3.713802,51.08339]]},"properties":{"name":"Fabriekstraat","highway":"residential","vertex1":16700,"vertex2":16684}},{"type":"Feature","geometry":{"type":"LineString","coordinates":[[3.72096,51.08573],[3.720998,51.08574],[3.721105,51.08582],[3.721242,51.08597],[3.721328,51.08605]]},"properties":{"name":"Driemasterstraat","highway":"residential","vertex1":16699,"vertex2":16675}},{"type":"Feature","geometry":{"type":"LineString","coordinates":[[3.72096,51.08573],[3.720907,51.08571],[3.720786,51.08571],[3.720698,51.08573],[3.720564,51.08584],[3.720348,51.08607],[3.720287,51.08613],[3.720237,51.08623],[3.720154,51.08651],[3.720118,51.08667]]},"properties":{"name":"Driemasterstraat","highway":"residential","vertex1":16699,"vertex2":17674}},{"type":"Feature","geometry":{"type":"LineString","coordinates":[[3.72096,51.08573],[3.721029,51.08556],[3.721066,51.08543],[3.720935,51.08533],[3.720611,51.08517],[3.719958,51.08501],[3.719791,51.08501]]},"properties":{"bicycle":"no","motorcar":"no","foot":"no","highway":"service","vertex1":16699,"vertex2":16697}},{"type":"Feature","geometry":{"type":"LineString","coordinates":[[3.715912,51.08388],[3.715575,51.08418]]},"properties":{"name":"Winkelgate","highway":"residential","vertex1":16698,"vertex2":16696}},{"type":"Feature","geometry":{"type":"LineString","coordinates":[[3.715912,51.08388],[3.715831,51.08384],[3.715653,51.08377],[3.715134,51.08353],[3.715107,51.08345],[3.714932,51.08337]]},"properties":{"name":"Winkelgate","highway":"residential","vertex1":16698,"vertex2":16654}},{"type":"Feature","geometry":{"type":"LineString","coordinates":[[3.719791,51.08501],[3.719807,51.08525]]},"properties":{"bicycle":"no","motorcar":"no","foot":"no","highway":"service","vertex1":16697,"vertex2":16652}},{"type":"Feature","geometry":{"type":"LineString","coordinates":[[3.719791,51.08501],[3.719467,51.085]]},"properties":{"bicycle":"no","motorcar":"no","foot":"no","highway":"service","vertex1":16697,"vertex2":16657}},{"type":"Feature","geometry":{"type":"LineString","coordinates":[[3.715575,51.08418],[3.71565,51.08423]]},"properties":{"name":"Oogststraat","highway":"residential","vertex1":16696,"vertex2":16690}},{"type":"Feature","geometry":{"type":"LineString","coordinates":[[3.715575,51.08418],[3.715404,51.08411],[3.715146,51.084],[3.71472,51.08382],[3.714202,51.08359],[3.713802,51.08339]]},"properties":{"name":"Oogststraat","highway":"residential","vertex1":16696,"vertex2":16684}},{"type":"Feature","geometry":{"type":"LineString","coordinates":[[3.717613,51.0846],[3.717336,51.08464],[3.717311,51.0847]]},"properties":{"highway":"service","vertex1":16693,"vertex2":16671}},{"type":"Feature","geometry":{"type":"LineString","coordinates":[[3.71565,51.08423],[3.715614,51.08426],[3.715559,51.08431],[3.715331,51.08455],[3.71502,51.0849],[3.714578,51.08544]]},"properties":{"name":"Winkelstraat","oneway":"yes","oneway:bicycle":"no","highway":"residential","vertex1":16690,"vertex2":16688}},{"type":"Feature","geometry":{"type":"LineString","coordinates":[[3.71565,51.08423],[3.716066,51.08429],[3.716519,51.08435]]},"properties":{"name":"Winkelstraat","oneway":"yes","highway":"residential","vertex1":16690,"vertex2":16679}},{"type":"Feature","geometry":{"type":"LineString","coordinates":[[3.718318,51.08526],[3.71834,51.0854],[3.718352,51.08553],[3.71836,51.08567],[3.718424,51.08582],[3.718498,51.08602],[3.718537,51.08611],[3.718564,51.08621],[3.718592,51.08633],[3.71863,51.08645],[3.71868,51.08647],[3.718699,51.0865]]},"properties":{"highway":"track","vertex1":16689,"vertex2":17681}},{"type":"Feature","geometry":{"type":"LineString","coordinates":[[3.714578,51.08544],[3.715048,51.0856],[3.715751,51.08583],[3.716292,51.08601],[3.716536,51.08611],[3.7166,51.08614]]},"properties":{"name":"Molenstraat","highway":"residential","vertex1":16688,"vertex2":16686}},{"type":"Feature","geometry":{"type":"LineString","coordinates":[[3.714578,51.08544],[3.71398,51.08526],[3.713603,51.08511],[3.7132,51.08492],[3.712878,51.08468],[3.71249,51.08434]]},"properties":{"name":"Molenstraat","highway":"residential","vertex1":16688,"vertex2":16738}},{"type":"Feature","geometry":{"type":"LineString","coordinates":[[3.714578,51.08544],[3.714463,51.08554],[3.714016,51.08601]]},"properties":{"name":"Winkelstraat","highway":"residential","vertex1":16688,"vertex2":16667}},{"type":"Feature","geometry":{"type":"LineString","coordinates":[[3.71249,51.08434],[3.712976,51.08399],[3.713389,51.08368],[3.713802,51.08339]]},"properties":{"name":"Fabriekstraat","highway":"residential","vertex1":16738,"vertex2":16684}},{"type":"Feature","geometry":{"type":"LineString","coordinates":[[3.724096,51.08614],[3.723967,51.08611],[3.723581,51.08606],[3.723088,51.08606],[3.722465,51.08605],[3.721833,51.08604],[3.721328,51.08605]]},"properties":{"name":"Nicolaï Kossikoffstraat","highway":"residential","vertex1":16687,"vertex2":16675}},{"type":"Feature","geometry":{"type":"LineString","coordinates":[[3.724096,51.08614],[3.724633,51.0861],[3.725051,51.08605],[3.725293,51.08602]]},"properties":{"name":"Nicolaï Kossikoffstraat","highway":"residential","vertex1":16687,"vertex2":16635}},{"type":"Feature","geometry":{"type":"LineString","coordinates":[[3.7166,51.08614],[3.716606,51.0852]]},"properties":{"name":"Morekstraat","cyclenetwork":"yes","maxspeed":"50","highway":"tertiary","vertex1":16686,"vertex2":16655}},{"type":"Feature","geometry":{"type":"LineString","coordinates":[[3.7166,51.08614],[3.7166,51.08616],[3.716608,51.08625]]},"properties":{"name":"Morekstraat","cyclenetwork":"yes","maxspeed":"50","highway":"tertiary","vertex1":16686,"vertex2":16660}},{"type":"Feature","geometry":{"type":"LineString","coordinates":[[3.717496,51.08528],[3.71757,51.08533],[3.717638,51.08537],[3.717732,51.08539],[3.717812,51.08529],[3.717669,51.08525],[3.71757,51.08521],[3.717476,51.08521]]},"properties":{"name":"Bremstraat","highway":"residential","vertex1":16683,"vertex2":16663}},{"type":"Feature","geometry":{"type":"LineString","coordinates":[[3.717496,51.08528],[3.717272,51.08521]]},"properties":{"name":"Bremstraat","highway":"residential","vertex1":16683,"vertex2":16677}},{"type":"Feature","geometry":{"type":"LineString","coordinates":[[3.716519,51.08435],[3.716552,51.08461],[3.716558,51.08466]]},"properties":{"name":"Morekstraat","cyclenetwork":"yes","maxspeed":"50","highway":"tertiary","vertex1":16679,"vertex2":16673}},{"type":"Feature","geometry":{"type":"LineString","coordinates":[[3.717272,51.08521],[3.716929,51.08521],[3.716606,51.0852]]},"properties":{"name":"Bremstraat","highway":"residential","vertex1":16677,"vertex2":16655}},{"type":"Feature","geometry":{"type":"LineString","coordinates":[[3.717272,51.08521],[3.717476,51.08521]]},"properties":{"name":"Bremstraat","highway":"residential","vertex1":16677,"vertex2":16663}},{"type":"Feature","geometry":{"type":"LineString","coordinates":[[3.721328,51.08605],[3.721736,51.08645],[3.722044,51.08674]]},"properties":{"name":"Driemasterstraat","highway":"residential","vertex1":16675,"vertex2":17710}},{"type":"Feature","geometry":{"type":"LineString","coordinates":[[3.716558,51.08466],[3.717065,51.08472],[3.717311,51.0847]]},"properties":{"highway":"service","vertex1":16673,"vertex2":16671}},{"type":"Feature","geometry":{"type":"LineString","coordinates":[[3.716558,51.08466],[3.716569,51.08478],[3.716606,51.0852]]},"properties":{"name":"Morekstraat","cyclenetwork":"yes","maxspeed":"50","highway":"tertiary","vertex1":16673,"vertex2":16655}},{"type":"Feature","geometry":{"type":"LineString","coordinates":[[3.717311,51.0847],[3.717822,51.08492]]},"properties":{"highway":"service","vertex1":16671,"vertex2":16662}},{"type":"Feature","geometry":{"type":"LineString","coordinates":[[3.714016,51.08601],[3.713969,51.08606],[3.713771,51.08627],[3.713668,51.08641],[3.713591,51.08661]]},"properties":{"name":"Winkelstraat","highway":"residential","vertex1":16667,"vertex2":17709}},{"type":"Feature","geometry":{"type":"LineString","coordinates":[[3.714016,51.08601],[3.714086,51.08604],[3.71419,51.08607]]},"properties":{"bicycle":"no","motorcar":"no","foot":"no","highway":"service","vertex1":16667,"vertex2":16661}},{"type":"Feature","geometry":{"type":"LineString","coordinates":[[3.71419,51.08607],[3.714461,51.08615],[3.714585,51.08617],[3.714782,51.08622],[3.714886,51.08623],[3.715018,51.08622],[3.71511,51.08623],[3.715223,51.08627],[3.715293,51.08632],[3.715315,51.08637],[3.715272,51.08649],[3.715228,51.08661],[3.715228,51.08662]]},"properties":{"bicycle":"no","motorcar":"no","foot":"no","highway":"service","vertex1":16661,"vertex2":17718}},{"type":"Feature","geometry":{"type":"LineString","coordinates":[[3.71419,51.08607],[3.714134,51.08612],[3.714092,51.0862],[3.714109,51.08629],[3.714128,51.08639],[3.714152,51.08644],[3.714184,51.08648],[3.71422,51.08649]]},"properties":{"bicycle":"no","motorcar":"no","foot":"no","highway":"service","vertex1":16661,"vertex2":17680}},{"type":"Feature","geometry":{"type":"LineString","coordinates":[[3.716608,51.08625],[3.71674,51.08625],[3.716867,51.0863],[3.716892,51.08649]]},"properties":{"name":"Molenstraat","oneway":"yes","highway":"residential","vertex1":16660,"vertex2":17677}},{"type":"Feature","geometry":{"type":"LineString","coordinates":[[3.716608,51.08625],[3.716626,51.0865]]},"properties":{"name":"Morekstraat","cyclenetwork":"yes","maxspeed":"50","highway":"tertiary","vertex1":16660,"vertex2":17683}},{"type":"Feature","geometry":{"type":"LineString","coordinates":[[3.719467,51.085],[3.719248,51.085],[3.719083,51.08506],[3.719016,51.08514],[3.719116,51.08557],[3.719222,51.08562],[3.719454,51.08562],[3.71964,51.08554],[3.719797,51.08541],[3.719807,51.08525]]},"properties":{"bicycle":"no","motorcar":"no","foot":"no","highway":"service","vertex1":16657,"vertex2":16652}},{"type":"Feature","geometry":{"type":"LineString","coordinates":[[3.714932,51.08337],[3.715339,51.08311],[3.715732,51.08274]]},"properties":{"name":"Maarkpad","highway":"residential","vertex1":16654,"vertex2":16656}},{"type":"Feature","geometry":{"type":"LineString","coordinates":[[3.730875,51.08311],[3.730822,51.08336],[3.730793,51.0835]]},"properties":{"name":"New-Orleansstraat","highway":"primary","maxspeed":"50","cycleway":"lane","vertex1":16650,"vertex2":16638}},{"type":"Feature","geometry":{"type":"LineString","coordinates":[[3.730875,51.08311],[3.730964,51.08264]]},"properties":{"name":"New-Orleansstraat","highway":"primary","maxspeed":"50","cycleway":"lane","vertex1":16650,"vertex2":16614}},{"type":"Feature","geometry":{"type":"LineString","coordinates":[[3.730875,51.08311],[3.730614,51.08307]]},"properties":{"highway":"service","vertex1":16650,"vertex2":16603}},{"type":"Feature","geometry":{"type":"LineString","coordinates":[[3.730964,51.08264],[3.730691,51.08262],[3.730614,51.08307]]},"properties":{"highway":"service","vertex1":16614,"vertex2":16603}},{"type":"Feature","geometry":{"type":"LineString","coordinates":[[3.728468,51.08557],[3.728453,51.08567]]},"properties":{"name":"Marseillestraat","highway":"residential","maxspeed":"30","vertex1":16649,"vertex2":16647}},{"type":"Feature","geometry":{"type":"LineString","coordinates":[[3.728468,51.08557],[3.72855,51.08535]]},"properties":{"name":"Marseillestraat","highway":"residential","maxspeed":"30","vertex1":16649,"vertex2":16601}},{"type":"Feature","geometry":{"type":"LineString","coordinates":[[3.728468,51.08557],[3.728154,51.08554],[3.728074,51.08553],[3.728046,51.08551],[3.72805,51.08539],[3.728082,51.08532]]},"properties":{"name":"Marseillestraat","highway":"residential","maxspeed":"30","vertex1":16649,"vertex2":16622}},{"type":"Feature","geometry":{"type":"LineString","coordinates":[[3.728453,51.08567],[3.728467,51.0858],[3.728834,51.08724]]},"properties":{"name":"Marseillestraat","highway":"residential","maxspeed":"30","vertex1":16647,"vertex2":17765}},{"type":"Feature","geometry":{"type":"LineString","coordinates":[[3.728453,51.08567],[3.728936,51.08562]]},"properties":{"name":"Marseillestraat","highway":"residential","maxspeed":"30","vertex1":16647,"vertex2":16621}},{"type":"Feature","geometry":{"type":"LineString","coordinates":[[3.729985,51.08434],[3.729906,51.08458]]},"properties":{"highway":"service","vertex1":16644,"vertex2":16611}},{"type":"Feature","geometry":{"type":"LineString","coordinates":[[3.729985,51.08434],[3.730197,51.08368]]},"properties":{"highway":"service","vertex1":16644,"vertex2":16642}},{"type":"Feature","geometry":{"type":"LineString","coordinates":[[3.729985,51.08434],[3.729509,51.08428],[3.728818,51.08419]]},"properties":{"highway":"service","vertex1":16644,"vertex2":16640}},{"type":"Feature","geometry":{"type":"LineString","coordinates":[[3.727271,51.0841],[3.727563,51.08357],[3.727618,51.08344],[3.727637,51.08332]]},"properties":{"name":"Meulesteedsesteenweg","highway":"residential","maxspeed":"30","vertex1":16643,"vertex2":16631}},{"type":"Feature","geometry":{"type":"LineString","coordinates":[[3.727271,51.0841],[3.726911,51.08467],[3.726878,51.08476]]},"properties":{"name":"Meulesteedsesteenweg","highway":"residential","maxspeed":"30","vertex1":16643,"vertex2":16624}},{"type":"Feature","geometry":{"type":"LineString","coordinates":[[3.727271,51.0841],[3.726894,51.08401],[3.726783,51.08418],[3.726727,51.08418]]},"properties":{"highway":"track","vertex1":16643,"vertex2":16630}},{"type":"Feature","geometry":{"type":"LineString","coordinates":[[3.728818,51.08419],[3.728745,51.0844],[3.728836,51.08442],[3.728805,51.08455]]},"properties":{"highway":"footway","vertex1":16640,"vertex2":16605}},{"type":"Feature","geometry":{"type":"LineString","coordinates":[[3.730793,51.0835],[3.73069,51.08348],[3.728014,51.08305],[3.727904,51.08304]]},"properties":{"name":"Goedendagstraat","highway":"residential","maxspeed":"30","vertex1":16638,"vertex2":16613}},{"type":"Feature","geometry":{"type":"LineString","coordinates":[[3.730793,51.0835],[3.730442,51.08464]]},"properties":{"name":"New-Orleansstraat","highway":"primary","maxspeed":"50","cycleway":"lane","vertex1":16638,"vertex2":16623}},{"type":"Feature","geometry":{"type":"LineString","coordinates":[[3.727243,51.08487],[3.726878,51.08486]]},"properties":{"oneway":"yes","highway":"residential","maxspeed":"30","vertex1":16636,"vertex2":16626}},{"type":"Feature","geometry":{"type":"LineString","coordinates":[[3.727243,51.08487],[3.727326,51.08517]]},"properties":{"oneway":"yes","highway":"residential","maxspeed":"30","vertex1":16636,"vertex2":16634}},{"type":"Feature","geometry":{"type":"LineString","coordinates":[[3.727243,51.08487],[3.727662,51.08484]]},"properties":{"highway":"service","vertex1":16636,"vertex2":16632}},{"type":"Feature","geometry":{"type":"LineString","coordinates":[[3.725293,51.08602],[3.725447,51.08646],[3.725594,51.08681],[3.725755,51.0871],[3.725924,51.08733],[3.726029,51.08747]]},"properties":{"name":"Wiedauwkaai","maxspeed":"50","highway":"secondary","cycleway":"lane","vertex1":16635,"vertex2":17727}},{"type":"Feature","geometry":{"type":"LineString","coordinates":[[3.725293,51.08602],[3.725233,51.08582],[3.725156,51.0855],[3.725105,51.08519],[3.725078,51.08503],[3.725036,51.08448],[3.72505,51.08391],[3.725322,51.08047],[3.725281,51.0803],[3.725224,51.0802],[3.725063,51.08004],[3.724902,51.07993],[3.724595,51.07979],[3.724329,51.07965],[3.724094,51.07947],[3.72393,51.07923],[3.723856,51.07905],[3.723844,51.07886],[3.723885,51.0787],[3.723983,51.07854],[3.724106,51.07838],[3.724248,51.07825],[3.725327,51.07745]]},"properties":{"name":"Wiedauwkaai","maxspeed":"50","highway":"secondary","cycleway":"lane","vertex1":16635,"vertex2":16543}},{"type":"Feature","geometry":{"type":"LineString","coordinates":[[3.727326,51.08517],[3.726974,51.0852]]},"properties":{"oneway":"yes","highway":"residential","maxspeed":"30","vertex1":16634,"vertex2":16628}},{"type":"Feature","geometry":{"type":"LineString","coordinates":[[3.727326,51.08517],[3.727493,51.08525],[3.727566,51.08529],[3.727656,51.0853],[3.72775,51.08529],[3.7279,51.08528],[3.72801,51.08528],[3.728082,51.08532]]},"properties":{"highway":"footway","vertex1":16634,"vertex2":16622}},{"type":"Feature","geometry":{"type":"LineString","coordinates":[[3.727601,51.08293],[3.727552,51.08295],[3.727514,51.08301],[3.727484,51.08319],[3.727506,51.08326]]},"properties":{"name":"Meulesteedsesteenweg","oneway":"yes","highway":"residential","maxspeed":"30","junction":"roundabout","vertex1":16633,"vertex2":16615}},{"type":"Feature","geometry":{"type":"LineString","coordinates":[[3.727601,51.08293],[3.727714,51.08292],[3.727866,51.08294]]},"properties":{"name":"Meulesteedsesteenweg","oneway":"yes","highway":"residential","maxspeed":"30","junction":"roundabout","vertex1":16633,"vertex2":16607}},{"type":"Feature","geometry":{"type":"LineString","coordinates":[[3.727601,51.08293],[3.727568,51.08287],[3.727565,51.0828],[3.727652,51.08172]]},"properties":{"name":"Voorhavenlaan","maxspeed":"30","highway":"unclassified","vertex1":16633,"vertex2":16641}},{"type":"Feature","geometry":{"type":"LineString","coordinates":[[3.727637,51.08332],[3.727712,51.08332],[3.72777,51.08328],[3.727843,51.08317],[3.727904,51.08304]]},"properties":{"name":"Meulesteedsesteenweg","oneway":"yes","highway":"residential","maxspeed":"30","junction":"roundabout","vertex1":16631,"vertex2":16613}},{"type":"Feature","geometry":{"type":"LineString","coordinates":[[3.727637,51.08332],[3.727548,51.08329],[3.727506,51.08326]]},"properties":{"name":"Meulesteedsesteenweg","oneway":"yes","highway":"residential","maxspeed":"30","junction":"roundabout","vertex1":16631,"vertex2":16615}},{"type":"Feature","geometry":{"type":"LineString","coordinates":[[3.726727,51.08418],[3.726801,51.08458],[3.726833,51.08471],[3.726878,51.08476]]},"properties":{"name":"Meulesteedsesteenweg","highway":"residential","vertex1":16630,"vertex2":16624}},{"type":"Feature","geometry":{"type":"LineString","coordinates":[[3.72864,51.08505],[3.72855,51.08535]]},"properties":{"name":"Marseillestraat","highway":"residential","maxspeed":"30","vertex1":16629,"vertex2":16601}},{"type":"Feature","geometry":{"type":"LineString","coordinates":[[3.72864,51.08505],[3.728756,51.08471]]},"properties":{"name":"Marseillestraat","highway":"residential","maxspeed":"30","vertex1":16629,"vertex2":16627}},{"type":"Feature","geometry":{"type":"LineString","coordinates":[[3.72864,51.08505],[3.728711,51.08503],[3.728764,51.08503],[3.728865,51.08506]]},"properties":{"name":"Marseillestraat","highway":"residential","vertex1":16629,"vertex2":16602}},{"type":"Feature","geometry":{"type":"LineString","coordinates":[[3.726974,51.0852],[3.726878,51.08486]]},"properties":{"name":"Meulesteedsesteenweg","highway":"residential","maxspeed":"30","vertex1":16628,"vertex2":16626}},{"type":"Feature","geometry":{"type":"LineString","coordinates":[[3.726974,51.0852],[3.727062,51.08548],[3.727307,51.0865],[3.72734,51.08715]]},"properties":{"name":"Meulesteedsesteenweg","oneway":"yes","oneway:bicycle":"no","highway":"residential","maxspeed":"30","vertex1":16628,"vertex2":17744}},{"type":"Feature","geometry":{"type":"LineString","coordinates":[[3.728756,51.08471],[3.728805,51.08455]]},"properties":{"name":"Marseillestraat","highway":"residential","maxspeed":"30","vertex1":16627,"vertex2":16605}},{"type":"Feature","geometry":{"type":"LineString","coordinates":[[3.728756,51.08471],[3.728865,51.08506]]},"properties":{"name":"Marseillestraat","highway":"residential","maxspeed":"30","vertex1":16627,"vertex2":16602}},{"type":"Feature","geometry":{"type":"LineString","coordinates":[[3.726878,51.08486],[3.726878,51.08476]]},"properties":{"name":"Meulesteedsesteenweg","highway":"residential","maxspeed":"30","vertex1":16626,"vertex2":16624}},{"type":"Feature","geometry":{"type":"LineString","coordinates":[[3.726878,51.08486],[3.726292,51.08493]]},"properties":{"name":"Kabelsteeg","motorcar":"no","maxspeed":"30","highway":"unclassified","vertex1":16626,"vertex2":16606}},{"type":"Feature","geometry":{"type":"LineString","coordinates":[[3.729511,51.08453],[3.72895,51.08447],[3.728856,51.0845],[3.728805,51.08455]]},"properties":{"name":"Marseillestraat","highway":"residential","maxspeed":"30","vertex1":16625,"vertex2":16605}},{"type":"Feature","geometry":{"type":"LineString","coordinates":[[3.729511,51.08453],[3.729906,51.08458]]},"properties":{"name":"Marseillestraat","highway":"residential","maxspeed":"30","vertex1":16625,"vertex2":16611}},{"type":"Feature","geometry":{"type":"LineString","coordinates":[[3.729511,51.08453],[3.729296,51.0851],[3.729468,51.0857],[3.729538,51.08609]]},"properties":{"highway":"footway","vertex1":16625,"vertex2":16620}},{"type":"Feature","geometry":{"type":"LineString","coordinates":[[3.730442,51.08464],[3.729906,51.08458]]},"properties":{"name":"Marseillestraat","highway":"residential","maxspeed":"30","vertex1":16623,"vertex2":16611}},{"type":"Feature","geometry":{"type":"LineString","coordinates":[[3.730442,51.08464],[3.730222,51.08534],[3.729994,51.08603]]},"properties":{"name":"New-Orleansstraat","highway":"primary","maxspeed":"50","cycleway":"lane","vertex1":16623,"vertex2":16612}},{"type":"Feature","geometry":{"type":"LineString","coordinates":[[3.728082,51.08532],[3.728141,51.0853],[3.72855,51.08535]]},"properties":{"name":"Marseillestraat","highway":"residential","maxspeed":"30","vertex1":16622,"vertex2":16601}},{"type":"Feature","geometry":{"type":"LineString","coordinates":[[3.728936,51.08562],[3.728984,51.08558],[3.728987,51.0855],[3.728865,51.08506]]},"properties":{"name":"Marseillestraat","highway":"residential","maxspeed":"30","vertex1":16621,"vertex2":16602}},{"type":"Feature","geometry":{"type":"LineString","coordinates":[[3.728936,51.08562],[3.729012,51.08571],[3.729131,51.08571],[3.729248,51.08611],[3.729538,51.08609]]},"properties":{"highway":"footway","vertex1":16621,"vertex2":16620}},{"type":"Feature","geometry":{"type":"LineString","coordinates":[[3.729538,51.08609],[3.729806,51.08606],[3.729823,51.08602],[3.729994,51.08603]]},"properties":{"highway":"footway","vertex1":16620,"vertex2":16612}},{"type":"Feature","geometry":{"type":"LineString","coordinates":[[3.729538,51.08609],[3.729554,51.08623]]},"properties":{"highway":"footway","vertex1":16620,"vertex2":16610}},{"type":"Feature","geometry":{"type":"LineString","coordinates":[[3.727506,51.08326],[3.727401,51.08332],[3.726925,51.08332]]},"properties":{"name":"Meulestedekaai","oneway":"yes","oneway:bicycle":"no","highway":"residential","maxspeed":"30","vertex1":16615,"vertex2":16604}},{"type":"Feature","geometry":{"type":"LineString","coordinates":[[3.727904,51.08304],[3.727896,51.08298],[3.727866,51.08294]]},"properties":{"name":"Meulesteedsesteenweg","oneway":"yes","highway":"residential","maxspeed":"30","junction":"roundabout","vertex1":16613,"vertex2":16607}},{"type":"Feature","geometry":{"type":"LineString","coordinates":[[3.729994,51.08603],[3.729881,51.0864]]},"properties":{"name":"New-Orleansstraat","highway":"primary","maxspeed":"50","cycleway":"lane","vertex1":16612,"vertex2":16608}},{"type":"Feature","geometry":{"type":"LineString","coordinates":[[3.729554,51.08623],[3.72963,51.08628],[3.729678,51.08632],[3.72972,51.08636],[3.729779,51.08639],[3.729818,51.0864],[3.729881,51.0864]]},"properties":{"highway":"track","vertex1":16610,"vertex2":16608}},{"type":"Feature","geometry":{"type":"LineString","coordinates":[[3.729554,51.08623],[3.729468,51.08621],[3.729361,51.0862],[3.729254,51.08622],[3.729174,51.08625],[3.729109,51.08629],[3.729072,51.08635],[3.729061,51.08641],[3.729082,51.08648],[3.729131,51.08652],[3.729195,51.08657],[3.729276,51.0866],[3.729372,51.0866],[3.729458,51.0866],[3.729549,51.08657],[3.729608,51.08654],[3.729645,51.08651],[3.72971,51.08651],[3.729845,51.08652]]},"properties":{"highway":"track","vertex1":16610,"vertex2":17766}},{"type":"Feature","geometry":{"type":"LineString","coordinates":[[3.729881,51.0864],[3.729845,51.08652]]},"properties":{"name":"New-Orleansstraat","highway":"primary","maxspeed":"50","cycleway":"lane","vertex1":16608,"vertex2":17766}},{"type":"Feature","geometry":{"type":"LineString","coordinates":[[3.727866,51.08294],[3.72809,51.08242]]},"properties":{"name":"Meulesteedsesteenweg","highway":"residential","maxspeed":"30","vertex1":16607,"vertex2":16648}},{"type":"Feature","geometry":{"type":"LineString","coordinates":[[3.726292,51.08493],[3.726302,51.08516],[3.726328,51.08548],[3.726422,51.08603],[3.726671,51.08665],[3.727026,51.0872]]},"properties":{"name":"Meulestedekaai","oneway":"yes","oneway:bicycle":"no","highway":"residential","maxspeed":"30","vertex1":16606,"vertex2":17770}},{"type":"Feature","geometry":{"type":"LineString","coordinates":[[3.726292,51.08493],[3.726345,51.08436],[3.72642,51.08345],[3.726503,51.08337],[3.72664,51.08332],[3.726925,51.08332]]},"properties":{"name":"Meulestedekaai","oneway":"yes","oneway:bicycle":"no","highway":"residential","maxspeed":"30","vertex1":16606,"vertex2":16604}},{"type":"Feature","geometry":{"type":"LineString","coordinates":[[3.726925,51.08332],[3.726892,51.08298],[3.726905,51.08278],[3.726924,51.08245],[3.726956,51.08217],[3.726978,51.08187],[3.726999,51.08146],[3.727015,51.08134],[3.727074,51.08108],[3.727085,51.08098],[3.727074,51.08081],[3.72709,51.08047],[3.727154,51.07994]]},"properties":{"name":"Voorhavenkaai","maxspeed":"30","highway":"unclassified","vertex1":16604,"vertex2":16592}},{"type":"Feature","geometry":{"type":"LineString","coordinates":[[3.725745,51.0889],[3.725671,51.08879],[3.725546,51.08866],[3.725385,51.08852],[3.725193,51.08839]]},"properties":{"name":"Pantserschipstraat","highway":"residential","vertex1":17773,"vertex2":17741}},{"type":"Feature","geometry":{"type":"LineString","coordinates":[[3.725745,51.0889],[3.725946,51.0888],[3.726142,51.08872]]},"properties":{"name":"Zeeschipstraat","highway":"primary","maxspeed":"50","cycleway":"lane","vertex1":17773,"vertex2":17747}},{"type":"Feature","geometry":{"type":"LineString","coordinates":[[3.725745,51.0889],[3.725791,51.08909],[3.725883,51.08929],[3.725946,51.08943],[3.726029,51.08952],[3.7261,51.08959]]},"properties":{"name":"Pantserschipstraat","highway":"residential","vertex1":17773,"vertex2":17742}},{"type":"Feature","geometry":{"type":"LineString","coordinates":[[3.725745,51.0889],[3.725682,51.08895],[3.725492,51.08909],[3.725427,51.08916]]},"properties":{"name":"Zeeschipstraat","highway":"primary","maxspeed":"50","cycleway":"lane","vertex1":17773,"vertex2":17728}},{"type":"Feature","geometry":{"type":"LineString","coordinates":[[3.727136,51.08743],[3.727597,51.08737]]},"properties":{"name":"Redersplein","highway":"pedestrian","vertex1":17772,"vertex2":17749}},{"type":"Feature","geometry":{"type":"LineString","coordinates":[[3.727136,51.08743],[3.726976,51.08718]]},"properties":{"name":"Redersplein","highway":"pedestrian","vertex1":17772,"vertex2":17737}},{"type":"Feature","geometry":{"type":"LineString","coordinates":[[3.727533,51.08787],[3.727705,51.08798],[3.727758,51.08807]]},"properties":{"name":"Redersplein","highway":"track","vertex1":17771,"vertex2":17753}},{"type":"Feature","geometry":{"type":"LineString","coordinates":[[3.727533,51.08787],[3.727409,51.08778],[3.727323,51.08768],[3.727165,51.08741]]},"properties":{"name":"Redersplein","highway":"residential","maxspeed":"30","vertex1":17771,"vertex2":17736}},{"type":"Feature","geometry":{"type":"LineString","coordinates":[[3.727026,51.0872],[3.727165,51.08741]]},"properties":{"name":"Redersplein","highway":"residential","vertex1":17770,"vertex2":17736}},{"type":"Feature","geometry":{"type":"LineString","coordinates":[[3.727026,51.0872],[3.72734,51.08715]]},"properties":{"name":"Redersplein","highway":"residential","vertex1":17770,"vertex2":17744}},{"type":"Feature","geometry":{"type":"LineString","coordinates":[[3.727858,51.08778],[3.727697,51.08757],[3.727551,51.08736]]},"properties":{"name":"Alkstraat","highway":"residential","maxspeed":"30","vertex1":17769,"vertex2":17726}},{"type":"Feature","geometry":{"type":"LineString","coordinates":[[3.727858,51.08778],[3.727991,51.08791],[3.728099,51.088],[3.72822,51.08805],[3.72835,51.08805],[3.728446,51.08802]]},"properties":{"name":"Alkstraat","highway":"residential","maxspeed":"30","vertex1":17769,"vertex2":17745}},{"type":"Feature","geometry":{"type":"LineString","coordinates":[[3.727858,51.08778],[3.727809,51.08787],[3.727778,51.08795],[3.727758,51.08807]]},"properties":{"highway":"track","vertex1":17769,"vertex2":17753}},{"type":"Feature","geometry":{"type":"LineString","coordinates":[[3.724876,51.09008],[3.724752,51.09005],[3.72465,51.09002]]},"properties":{"highway":"service","vertex1":17768,"vertex2":17757}},{"type":"Feature","geometry":{"type":"LineString","coordinates":[[3.724876,51.09008],[3.724757,51.09028],[3.72428,51.09108],[3.723768,51.09195],[3.723289,51.09269]]},"properties":{"name":"Zeeschipstraat","highway":"primary","maxspeed":"70","cycleway":"lane","vertex1":17768,"vertex2":17606}},{"type":"Feature","geometry":{"type":"LineString","coordinates":[[3.724876,51.09008],[3.724963,51.08994]]},"properties":{"name":"Zeeschipstraat","highway":"primary","maxspeed":"50","cycleway":"lane","vertex1":17768,"vertex2":17734}},{"type":"Feature","geometry":{"type":"LineString","coordinates":[[3.72762,51.08736],[3.727551,51.08736]]},"properties":{"name":"Meeuwstraat","highway":"residential","maxspeed":"30","vertex1":17767,"vertex2":17726}},{"type":"Feature","geometry":{"type":"LineString","coordinates":[[3.72762,51.08736],[3.728415,51.0873]]},"properties":{"name":"Meeuwstraat","highway":"residential","maxspeed":"30","vertex1":17767,"vertex2":17733}},{"type":"Feature","geometry":{"type":"LineString","coordinates":[[3.72762,51.08736],[3.727415,51.08727],[3.72734,51.08715]]},"properties":{"name":"Redersplein","highway":"residential","vertex1":17767,"vertex2":17744}},{"type":"Feature","geometry":{"type":"LineString","coordinates":[[3.729845,51.08652],[3.729675,51.0871]]},"properties":{"name":"New-Orleansstraat","highway":"primary","maxspeed":"50","cycleway":"lane","vertex1":17766,"vertex2":17735}},{"type":"Feature","geometry":{"type":"LineString","coordinates":[[3.728834,51.08724],[3.728415,51.0873]]},"properties":{"name":"Meeuwstraat","highway":"residential","maxspeed":"30","vertex1":17765,"vertex2":17733}},{"type":"Feature","geometry":{"type":"LineString","coordinates":[[3.728834,51.08724],[3.72935,51.08718],[3.729532,51.0872],[3.729625,51.08722]]},"properties":{"name":"Meeuwstraat","highway":"residential","maxspeed":"30","vertex1":17765,"vertex2":17743}},{"type":"Feature","geometry":{"type":"LineString","coordinates":[[3.730396,51.08706],[3.731872,51.08699],[3.732445,51.08697]]},"properties":{"name":"Meeuwstraat","highway":"unclassified","vertex1":17764,"vertex2":17760}},{"type":"Feature","geometry":{"type":"LineString","coordinates":[[3.730396,51.08706],[3.73057,51.08759],[3.731011,51.08821],[3.731078,51.08827]]},"properties":{"name":"Windmolenstraat","highway":"unclassified","vertex1":17764,"vertex2":17756}},{"type":"Feature","geometry":{"type":"LineString","coordinates":[[3.730396,51.08706],[3.729675,51.0871]]},"properties":{"name":"Meeuwstraat","oneway":"yes","oneway:bicycle":"no","highway":"unclassified","vertex1":17764,"vertex2":17735}},{"type":"Feature","geometry":{"type":"LineString","coordinates":[[3.724546,51.08787],[3.724734,51.08808],[3.72484,51.08816],[3.725193,51.08839]]},"properties":{"name":"Pantserschipstraat","highway":"residential","vertex1":17763,"vertex2":17741}},{"type":"Feature","geometry":{"type":"LineString","coordinates":[[3.724546,51.08787],[3.726029,51.08747]]},"properties":{"name":"Kapiteinstraat","maxspeed":"50","highway":"tertiary","vertex1":17763,"vertex2":17727}},{"type":"Feature","geometry":{"type":"LineString","coordinates":[[3.724546,51.08787],[3.723603,51.08799]]},"properties":{"name":"Kapiteinstraat","maxspeed":"50","highway":"tertiary","vertex1":17763,"vertex2":17703}},{"type":"Feature","geometry":{"type":"LineString","coordinates":[[3.726378,51.08864],[3.726142,51.08872]]},"properties":{"name":"Zeeschipstraat","highway":"primary","maxspeed":"50","cycleway":"lane","vertex1":17762,"vertex2":17747}},{"type":"Feature","geometry":{"type":"LineString","coordinates":[[3.726378,51.08864],[3.726571,51.08858],[3.726778,51.08854]]},"properties":{"name":"Zeeschipstraat","highway":"primary","maxspeed":"50","cycleway":"lane","vertex1":17762,"vertex2":17751}},{"type":"Feature","geometry":{"type":"LineString","coordinates":[[3.726378,51.08864],[3.726385,51.08856]]},"properties":{"oneway":"yes","maxspeed":"50","highway":"primary_link","vertex1":17762,"vertex2":17759}},{"type":"Feature","geometry":{"type":"LineString","coordinates":[[3.728353,51.09105],[3.728302,51.09121],[3.728207,51.09138]]},"properties":{"name":"Pantserschipstraat","highway":"secondary","vertex1":17761,"vertex2":17731}},{"type":"Feature","geometry":{"type":"LineString","coordinates":[[3.728353,51.09105],[3.728336,51.09091]]},"properties":{"name":"Wondelgemkaai","maxspeed":"50","highway":"secondary","vertex1":17761,"vertex2":17725}},{"type":"Feature","geometry":{"type":"LineString","coordinates":[[3.732445,51.08697],[3.73261,51.08523],[3.732824,51.08355],[3.733028,51.08235]]},"properties":{"name":"Port Arthurlaan","maxspeed":"50","highway":"unclassified","vertex1":17760,"vertex2":16639}},{"type":"Feature","geometry":{"type":"LineString","coordinates":[[3.732445,51.08697],[3.732406,51.08722],[3.732309,51.08793],[3.732226,51.08797]]},"properties":{"name":"Port Arthurlaan","maxspeed":"50","highway":"unclassified","vertex1":17760,"vertex2":17754}},{"type":"Feature","geometry":{"type":"LineString","coordinates":[[3.726385,51.08856],[3.72649,51.08849],[3.726559,51.08843],[3.726623,51.08832]]},"properties":{"oneway":"yes","maxspeed":"50","highway":"primary_link","vertex1":17759,"vertex2":17729}},{"type":"Feature","geometry":{"type":"LineString","coordinates":[[3.728688,51.0914],[3.728886,51.09171],[3.729117,51.09215],[3.729452,51.09295],[3.729744,51.09389],[3.730027,51.09483],[3.730396,51.09592],[3.730791,51.0971],[3.731048,51.09772],[3.731572,51.09865],[3.731907,51.09932],[3.732087,51.0999],[3.73225,51.10055],[3.73231,51.10082]]},"properties":{"name":"Ringvaartweg-Wondelgem","highway":"unclassified","vertex1":17758,"vertex2":17570}},{"type":"Feature","geometry":{"type":"LineString","coordinates":[[3.728688,51.0914],[3.728422,51.09098],[3.728336,51.09091]]},"properties":{"name":"Ringvaartweg-Wondelgem","highway":"unclassified","vertex1":17758,"vertex2":17725}},{"type":"Feature","geometry":{"type":"LineString","coordinates":[[3.728688,51.0914],[3.728576,51.09136],[3.728465,51.09134],[3.728345,51.09135],[3.728207,51.09138]]},"properties":{"name":"Wondelgemkaai","highway":"unclassified","vertex1":17758,"vertex2":17731}},{"type":"Feature","geometry":{"type":"LineString","coordinates":[[3.72465,51.09002],[3.724058,51.09098],[3.723591,51.09177],[3.723234,51.09235],[3.722892,51.09293]]},"properties":{"highway":"service","vertex1":17757,"vertex2":17620}},{"type":"Feature","geometry":{"type":"LineString","coordinates":[[3.72465,51.09002],[3.723689,51.08971],[3.723413,51.08964],[3.723282,51.08965],[3.723191,51.08973],[3.722991,51.08994],[3.722469,51.09045],[3.722236,51.09067],[3.721833,51.09128],[3.721691,51.09135],[3.721559,51.09145],[3.721159,51.09212],[3.720973,51.09246]]},"properties":{"highway":"service","vertex1":17757,"vertex2":17618}},{"type":"Feature","geometry":{"type":"LineString","coordinates":[[3.731078,51.08827],[3.731133,51.08827],[3.73121,51.08826],[3.731934,51.08805],[3.732226,51.08797]]},"properties":{"name":"Windmolenstraat","highway":"unclassified","vertex1":17756,"vertex2":17754}},{"type":"Feature","geometry":{"type":"LineString","coordinates":[[3.727801,51.08828],[3.727434,51.08838],[3.726985,51.08849],[3.726859,51.08852]]},"properties":{"name":"Meulestedebrug","bridge":"yes","highway":"primary","maxspeed":"50","vertex1":17755,"vertex2":17739}},{"type":"Feature","geometry":{"type":"LineString","coordinates":[[3.727801,51.08828],[3.72789,51.08826]]},"properties":{"name":"New-Orleansstraat","highway":"primary","maxspeed":"50","cycleway":"lane","vertex1":17755,"vertex2":17752}},{"type":"Feature","geometry":{"type":"LineString","coordinates":[[3.732226,51.08797],[3.731936,51.08828]]},"properties":{"name":"Port Arthurlaan","maxspeed":"50","highway":"unclassified","vertex1":17754,"vertex2":17740}},{"type":"Feature","geometry":{"type":"LineString","coordinates":[[3.727758,51.08807],[3.727853,51.08821],[3.72789,51.08826]]},"properties":{"highway":"unclassified","vertex1":17753,"vertex2":17752}},{"type":"Feature","geometry":{"type":"LineString","coordinates":[[3.72789,51.08826],[3.72833,51.08815],[3.728754,51.08802],[3.728894,51.08797],[3.729032,51.0879],[3.729265,51.08775],[3.729408,51.08761],[3.729511,51.08748],[3.729582,51.08731],[3.729625,51.08722]]},"properties":{"name":"New-Orleansstraat","highway":"primary","maxspeed":"50","cycleway":"lane","vertex1":17752,"vertex2":17743}},{"type":"Feature","geometry":{"type":"LineString","coordinates":[[3.72789,51.08826],[3.727922,51.08832],[3.728403,51.08916]]},"properties":{"name":"Meulestedekaai","highway":"unclassified","vertex1":17752,"vertex2":17750}},{"type":"Feature","geometry":{"type":"LineString","coordinates":[[3.726778,51.08854],[3.726623,51.08832]]},"properties":{"name":"Wondelgemkaai","maxspeed":"50","highway":"secondary","cycleway":"lane","vertex1":17751,"vertex2":17729}},{"type":"Feature","geometry":{"type":"LineString","coordinates":[[3.726778,51.08854],[3.727752,51.08995],[3.728268,51.09078]]},"properties":{"name":"Wondelgemkaai","maxspeed":"50","highway":"secondary","vertex1":17751,"vertex2":17748}},{"type":"Feature","geometry":{"type":"LineString","coordinates":[[3.726778,51.08854],[3.726859,51.08852]]},"properties":{"name":"Zeeschipstraat","highway":"primary","maxspeed":"50","vertex1":17751,"vertex2":17739}},{"type":"Feature","geometry":{"type":"LineString","coordinates":[[3.728403,51.08916],[3.728484,51.08931],[3.72915,51.09035],[3.729952,51.09156],[3.730726,51.09277],[3.731281,51.09364]]},"properties":{"name":"Meulestedekaai","highway":"unclassified","vertex1":17750,"vertex2":17585}},{"type":"Feature","geometry":{"type":"LineString","coordinates":[[3.728403,51.08916],[3.731936,51.08828]]},"properties":{"bicycle":"no","motorcar":"no","foot":"no","highway":"service","vertex1":17750,"vertex2":17740}},{"type":"Feature","geometry":{"type":"LineString","coordinates":[[3.727597,51.08737],[3.727568,51.08723],[3.727434,51.08723],[3.727417,51.08715],[3.727418,51.08713],[3.727213,51.08712],[3.726976,51.08718]]},"properties":{"name":"Redersplein","highway":"pedestrian","vertex1":17749,"vertex2":17737}},{"type":"Feature","geometry":{"type":"LineString","coordinates":[[3.728268,51.09078],[3.727675,51.09093]]},"properties":{"name":"Zeestraat","highway":"residential","vertex1":17748,"vertex2":17746}},{"type":"Feature","geometry":{"type":"LineString","coordinates":[[3.728268,51.09078],[3.728336,51.09091]]},"properties":{"name":"Wondelgemkaai","maxspeed":"50","highway":"secondary","vertex1":17748,"vertex2":17725}},{"type":"Feature","geometry":{"type":"LineString","coordinates":[[3.727675,51.09093],[3.727392,51.09058],[3.726971,51.09022],[3.726373,51.08978],[3.7261,51.08959]]},"properties":{"name":"Pantserschipstraat","highway":"residential","vertex1":17746,"vertex2":17742}},{"type":"Feature","geometry":{"type":"LineString","coordinates":[[3.727675,51.09093],[3.72789,51.09114],[3.728087,51.09131],[3.728207,51.09138]]},"properties":{"name":"Pantserschipstraat","highway":"residential","vertex1":17746,"vertex2":17731}},{"type":"Feature","geometry":{"type":"LineString","coordinates":[[3.728446,51.08802],[3.728453,51.08786],[3.728427,51.08752],[3.728415,51.0873]]},"properties":{"name":"Albatrosstraat","highway":"residential","maxspeed":"30","vertex1":17745,"vertex2":17733}},{"type":"Feature","geometry":{"type":"LineString","coordinates":[[3.729625,51.08722],[3.729675,51.0871]]},"properties":{"name":"New-Orleansstraat","highway":"primary","maxspeed":"50","cycleway":"lane","vertex1":17743,"vertex2":17735}},{"type":"Feature","geometry":{"type":"LineString","coordinates":[[3.725193,51.08839],[3.72509,51.08856],[3.724983,51.08874],[3.724903,51.08873],[3.724631,51.0887]]},"properties":{"bicycle":"no","motorcar":"no","foot":"no","highway":"service","vertex1":17741,"vertex2":17732}},{"type":"Feature","geometry":{"type":"LineString","coordinates":[[3.731936,51.08828],[3.731759,51.0886]]},"properties":{"name":"Port Arthurlaan","maxspeed":"50","highway":"unclassified","vertex1":17740,"vertex2":17738}},{"type":"Feature","geometry":{"type":"LineString","coordinates":[[3.727165,51.08741],[3.727551,51.08736]]},"properties":{"name":"Redersplein","highway":"residential","vertex1":17736,"vertex2":17726}},{"type":"Feature","geometry":{"type":"LineString","coordinates":[[3.724963,51.08994],[3.72521,51.08947]]},"properties":{"name":"Zeeschipstraat","highway":"primary","maxspeed":"50","cycleway":"lane","vertex1":17734,"vertex2":17730}},{"type":"Feature","geometry":{"type":"LineString","coordinates":[[3.728207,51.09138],[3.728122,51.09155],[3.728045,51.09176],[3.728027,51.09197],[3.728113,51.09229],[3.728327,51.09299],[3.728346,51.09314],[3.728322,51.09326]]},"properties":{"name":"Pantserschipstraat","highway":"secondary","vertex1":17731,"vertex2":17576}},{"type":"Feature","geometry":{"type":"LineString","coordinates":[[3.72521,51.08947],[3.725334,51.08926],[3.725427,51.08916]]},"properties":{"name":"Zeeschipstraat","highway":"primary","maxspeed":"50","cycleway":"lane","vertex1":17730,"vertex2":17728}},{"type":"Feature","geometry":{"type":"LineString","coordinates":[[3.726623,51.08832],[3.726029,51.08747]]},"properties":{"name":"Wondelgemkaai","maxspeed":"50","highway":"secondary","cycleway":"lane","vertex1":17729,"vertex2":17727}},{"type":"Feature","geometry":{"type":"LineString","coordinates":[[3.713852,51.09173],[3.713725,51.09172],[3.713474,51.09174]]},"properties":{"name":"Sneeuwklokjeslaan","highway":"residential","vertex1":17724,"vertex2":17706}},{"type":"Feature","geometry":{"type":"LineString","coordinates":[[3.713852,51.09173],[3.714688,51.09179],[3.714968,51.09181],[3.715062,51.09183],[3.715143,51.09188],[3.715201,51.09199],[3.715248,51.09223]]},"properties":{"name":"Sneeuwklokjeslaan","highway":"residential","vertex1":17724,"vertex2":17613}},{"type":"Feature","geometry":{"type":"LineString","coordinates":[[3.713852,51.09173],[3.713883,51.09149],[3.71391,51.09131]]},"properties":{"name":"Waterlelielaan","highway":"residential","vertex1":17724,"vertex2":17702}},{"type":"Feature","geometry":{"type":"LineString","coordinates":[[3.71858,51.09115],[3.718587,51.09121],[3.71869,51.09128],[3.718898,51.09137],[3.719056,51.09144]]},"properties":{"name":"Vledermuisstraat","highway":"residential","vertex1":17723,"vertex2":17693}},{"type":"Feature","geometry":{"type":"LineString","coordinates":[[3.71858,51.09115],[3.718613,51.09105],[3.718657,51.09093]]},"properties":{"name":"Vledermuisstraat","highway":"residential","vertex1":17723,"vertex2":17660}},{"type":"Feature","geometry":{"type":"LineString","coordinates":[[3.71858,51.09115],[3.718365,51.09113],[3.718038,51.09116],[3.718113,51.09148],[3.717524,51.09155]]},"properties":{"name":"Maria Baersstraat","highway":"residential","vertex1":17723,"vertex2":17648}},{"type":"Feature","geometry":{"type":"LineString","coordinates":[[3.714654,51.08781],[3.71424,51.08777]]},"properties":{"highway":"service","vertex1":17722,"vertex2":17647}},{"type":"Feature","geometry":{"type":"LineString","coordinates":[[3.719426,51.09012],[3.719615,51.09027],[3.719697,51.09035],[3.719793,51.09047],[3.719826,51.0907],[3.719813,51.09088]]},"properties":{"name":"Vledermuisstraat","highway":"residential","vertex1":17721,"vertex2":17665}},{"type":"Feature","geometry":{"type":"LineString","coordinates":[[3.719426,51.09012],[3.719546,51.09002]]},"properties":{"name":"Vierweegsestraat","maxspeed":"50","highway":"tertiary","vertex1":17721,"vertex2":17664}},{"type":"Feature","geometry":{"type":"LineString","coordinates":[[3.719426,51.09012],[3.719304,51.09016],[3.719189,51.09018],[3.717743,51.09029],[3.716835,51.09039],[3.716441,51.09045],[3.716308,51.09048],[3.71616,51.09053]]},"properties":{"name":"Vierweegsestraat","maxspeed":"50","highway":"tertiary","vertex1":17721,"vertex2":17691}},{"type":"Feature","geometry":{"type":"LineString","coordinates":[[3.715199,51.08692],[3.71523,51.08673],[3.715228,51.08662]]},"properties":{"bicycle":"no","motorcar":"no","foot":"no","highway":"service","vertex1":17720,"vertex2":17718}},{"type":"Feature","geometry":{"type":"LineString","coordinates":[[3.715566,51.09044],[3.71589,51.09052],[3.715967,51.09053],[3.716074,51.09054],[3.71616,51.09053]]},"properties":{"name":"Sint-Markoenstraat","cyclenetwork":"yes","maxspeed":"50","highway":"tertiary","vertex1":17719,"vertex2":17691}},{"type":"Feature","geometry":{"type":"LineString","coordinates":[[3.715566,51.09044],[3.715057,51.0903],[3.714689,51.09022],[3.714249,51.09016]]},"properties":{"name":"Sint-Markoenstraat","cyclenetwork":"yes","maxspeed":"50","highway":"tertiary","vertex1":17719,"vertex2":17686}},{"type":"Feature","geometry":{"type":"LineString","coordinates":[[3.715566,51.09044],[3.7155,51.09052],[3.715402,51.09063],[3.715362,51.09064],[3.715188,51.09063],[3.715067,51.09079],[3.714921,51.09097],[3.714847,51.09108],[3.714746,51.09118],[3.71463,51.09125],[3.714523,51.0913],[3.714386,51.0913],[3.714141,51.09128],[3.714003,51.09127],[3.713953,51.09128],[3.71391,51.09131]]},"properties":{"highway":"track","vertex1":17719,"vertex2":17702}},{"type":"Feature","geometry":{"type":"LineString","coordinates":[[3.715228,51.08662],[3.715158,51.08665],[3.715066,51.08667],[3.714958,51.08669],[3.714853,51.08669],[3.714792,51.08667],[3.714686,51.08663],[3.71459,51.0866],[3.714487,51.08656],[3.71435,51.08652]]},"properties":{"bicycle":"no","motorcar":"no","foot":"no","highway":"service","vertex1":17718,"vertex2":17678}},{"type":"Feature","geometry":{"type":"LineString","coordinates":[[3.71795,51.08755],[3.717322,51.08745],[3.71733,51.08773],[3.717287,51.08786],[3.717255,51.08795]]},"properties":{"bicycle":"no","motorcar":"no","foot":"no","highway":"service","vertex1":17717,"vertex2":17671}},{"type":"Feature","geometry":{"type":"LineString","coordinates":[[3.717299,51.09157],[3.717524,51.09155]]},"properties":{"name":"Maria Baersstraat","highway":"residential","vertex1":17716,"vertex2":17648}},{"type":"Feature","geometry":{"type":"LineString","coordinates":[[3.717299,51.09157],[3.717437,51.09121],[3.717409,51.09118],[3.71722,51.0912],[3.717206,51.09122]]},"properties":{"name":"Maria Baersstraat","highway":"residential","vertex1":17716,"vertex2":17708}},{"type":"Feature","geometry":{"type":"LineString","coordinates":[[3.717299,51.09157],[3.716946,51.09161]]},"properties":{"name":"Maria Baersstraat","highway":"residential","vertex1":17716,"vertex2":17672}},{"type":"Feature","geometry":{"type":"LineString","coordinates":[[3.718095,51.08941],[3.718101,51.08936],[3.718149,51.08887],[3.718089,51.08868],[3.717984,51.08864],[3.717635,51.08863],[3.717615,51.08838],[3.717763,51.08803]]},"properties":{"bicycle":"no","motorcar":"no","foot":"no","highway":"service","vertex1":17715,"vertex2":17663}},{"type":"Feature","geometry":{"type":"LineString","coordinates":[[3.72079,51.08821],[3.721155,51.08835]]},"properties":{"name":"Sloepstraat","highway":"residential","vertex1":17714,"vertex2":17658}},{"type":"Feature","geometry":{"type":"LineString","coordinates":[[3.72079,51.08821],[3.719592,51.08775]]},"properties":{"name":"Sloepstraat","highway":"residential","vertex1":17714,"vertex2":17676}},{"type":"Feature","geometry":{"type":"LineString","coordinates":[[3.72079,51.08821],[3.720837,51.08808],[3.720919,51.08793],[3.72094,51.08783],[3.72096,51.08777],[3.721058,51.08765],[3.721199,51.08751],[3.721299,51.08743],[3.721374,51.0873],[3.721476,51.08716],[3.721605,51.08706],[3.721677,51.08696],[3.721717,51.08692],[3.721827,51.08686],[3.721927,51.08679],[3.722044,51.08674]]},"properties":{"highway":"path","vertex1":17714,"vertex2":17710}},{"type":"Feature","geometry":{"type":"LineString","coordinates":[[3.716638,51.08828],[3.716161,51.08825],[3.716118,51.08823],[3.716142,51.088]]},"properties":{"bicycle":"no","motorcar":"no","foot":"no","highway":"service","vertex1":17713,"vertex2":17711}},{"type":"Feature","geometry":{"type":"LineString","coordinates":[[3.716638,51.08828],[3.716737,51.08788]]},"properties":{"name":"Morekstraat","cyclenetwork":"yes","maxspeed":"50","highway":"tertiary","vertex1":17713,"vertex2":17675}},{"type":"Feature","geometry":{"type":"LineString","coordinates":[[3.716638,51.08828],[3.716579,51.08852]]},"properties":{"name":"Morekstraat","cyclenetwork":"yes","maxspeed":"50","highway":"tertiary","vertex1":17713,"vertex2":17689}},{"type":"Feature","geometry":{"type":"LineString","coordinates":[[3.723389,51.08802],[3.723126,51.08774],[3.722744,51.08741],[3.722208,51.0869],[3.722044,51.08674]]},"properties":{"name":"Driemasterstraat","highway":"residential","vertex1":17712,"vertex2":17710}},{"type":"Feature","geometry":{"type":"LineString","coordinates":[[3.723389,51.08802],[3.723603,51.08799]]},"properties":{"name":"Kapiteinstraat","maxspeed":"50","highway":"tertiary","vertex1":17712,"vertex2":17703}},{"type":"Feature","geometry":{"type":"LineString","coordinates":[[3.723389,51.08802],[3.722111,51.08817],[3.721398,51.08827],[3.721293,51.08828],[3.721155,51.08835]]},"properties":{"name":"Kapiteinstraat","maxspeed":"50","highway":"tertiary","vertex1":17712,"vertex2":17658}},{"type":"Feature","geometry":{"type":"LineString","coordinates":[[3.713591,51.08661],[3.713219,51.08654],[3.712182,51.0859]]},"properties":{"name":"Heemstraat","highway":"residential","vertex1":17709,"vertex2":16770}},{"type":"Feature","geometry":{"type":"LineString","coordinates":[[3.713591,51.08661],[3.713437,51.08706]]},"properties":{"name":"Winkelstraat","highway":"residential","vertex1":17709,"vertex2":17707}},{"type":"Feature","geometry":{"type":"LineString","coordinates":[[3.717206,51.09122],[3.717524,51.09155]]},"properties":{"name":"Maria Baersstraat","highway":"residential","vertex1":17708,"vertex2":17648}},{"type":"Feature","geometry":{"type":"LineString","coordinates":[[3.713437,51.08706],[3.712331,51.08689],[3.711759,51.0869]]},"properties":{"name":"Gundlichstraat","highway":"residential","vertex1":17707,"vertex2":17124}},{"type":"Feature","geometry":{"type":"LineString","coordinates":[[3.713437,51.08706],[3.713296,51.08755]]},"properties":{"name":"Winkelstraat","highway":"residential","vertex1":17707,"vertex2":17200}},{"type":"Feature","geometry":{"type":"LineString","coordinates":[[3.713474,51.09174],[3.713506,51.09161],[3.713554,51.09129]]},"properties":{"name":"Elzenboomlaan","highway":"residential","vertex1":17706,"vertex2":17656}},{"type":"Feature","geometry":{"type":"LineString","coordinates":[[3.713474,51.09174],[3.713429,51.0921],[3.713433,51.09225],[3.713445,51.09241],[3.713497,51.09272]]},"properties":{"name":"Elzenboomlaan","highway":"residential","vertex1":17706,"vertex2":17591}},{"type":"Feature","geometry":{"type":"LineString","coordinates":[[3.720206,51.08917],[3.720272,51.0891],[3.720754,51.08865]]},"properties":{"name":"Kapiteinstraat","maxspeed":"50","highway":"tertiary","vertex1":17705,"vertex2":17684}},{"type":"Feature","geometry":{"type":"LineString","coordinates":[[3.720206,51.08917],[3.720083,51.08941]]},"properties":{"name":"Kapiteinstraat","maxspeed":"50","highway":"tertiary","vertex1":17705,"vertex2":17666}},{"type":"Feature","geometry":{"type":"LineString","coordinates":[[3.71637,51.08965],[3.71609,51.08957],[3.715511,51.0895],[3.715103,51.08946],[3.714781,51.08947]]},"properties":{"name":"Serafien Van Cauwenbergelaan","highway":"residential","vertex1":17704,"vertex2":17642}},{"type":"Feature","geometry":{"type":"LineString","coordinates":[[3.71637,51.08965],[3.716469,51.08907],[3.716579,51.08852]]},"properties":{"name":"Morekstraat","cyclenetwork":"yes","maxspeed":"50","highway":"tertiary","vertex1":17704,"vertex2":17689}},{"type":"Feature","geometry":{"type":"LineString","coordinates":[[3.71637,51.08965],[3.716351,51.08974],[3.716318,51.0899],[3.716224,51.09031],[3.716191,51.09045],[3.71616,51.09053]]},"properties":{"name":"Morekstraat","cyclenetwork":"yes","maxspeed":"50","highway":"tertiary","vertex1":17704,"vertex2":17691}},{"type":"Feature","geometry":{"type":"LineString","coordinates":[[3.723603,51.08799],[3.72357,51.08793],[3.723492,51.0878],[3.723449,51.08771],[3.7234,51.08761],[3.72328,51.08735],[3.723268,51.08729],[3.723323,51.08723],[3.723243,51.08705],[3.723201,51.08697],[3.723123,51.08677]]},"properties":{"bicycle":"no","motorcar":"no","foot":"no","highway":"service","vertex1":17703,"vertex2":17685}},{"type":"Feature","geometry":{"type":"LineString","coordinates":[[3.71391,51.09131],[3.713554,51.09129]]},"properties":{"name":"Waterlelielaan","highway":"residential","vertex1":17702,"vertex2":17656}},{"type":"Feature","geometry":{"type":"LineString","coordinates":[[3.71378,51.08952],[3.713483,51.08954],[3.713053,51.08957]]},"properties":{"name":"Serafien Van Cauwenbergelaan","highway":"residential","vertex1":17701,"vertex2":17132}},{"type":"Feature","geometry":{"type":"LineString","coordinates":[[3.71378,51.08952],[3.714148,51.0895],[3.714341,51.08949]]},"properties":{"name":"Serafien Van Cauwenbergelaan","highway":"residential","vertex1":17701,"vertex2":17646}},{"type":"Feature","geometry":{"type":"LineString","coordinates":[[3.71378,51.08952],[3.713751,51.08936],[3.713772,51.08921],[3.713794,51.08916],[3.71388,51.08912],[3.714384,51.08911],[3.714698,51.0891],[3.714766,51.08915],[3.714781,51.08921],[3.714781,51.08929],[3.714781,51.08947]]},"properties":{"name":"Phillipus van der Nootstraat","highway":"residential","vertex1":17701,"vertex2":17642}},{"type":"Feature","geometry":{"type":"LineString","coordinates":[[3.720763,51.09036],[3.720765,51.09045],[3.720802,51.09058],[3.720839,51.09066],[3.720878,51.09073],[3.720948,51.09078],[3.721017,51.09082]]},"properties":{"name":"Schoenerstraat","highway":"residential","vertex1":17700,"vertex2":17670}},{"type":"Feature","geometry":{"type":"LineString","coordinates":[[3.720763,51.09036],[3.720841,51.0903],[3.721003,51.09011],[3.721018,51.09003]]},"properties":{"name":"Schoenerstraat","oneway":"yes","highway":"residential","vertex1":17700,"vertex2":17652}},{"type":"Feature","geometry":{"type":"LineString","coordinates":[[3.720763,51.09036],[3.720709,51.09025],[3.720744,51.09017]]},"properties":{"name":"Schoenerstraat","oneway":"yes","highway":"residential","vertex1":17700,"vertex2":17668}},{"type":"Feature","geometry":{"type":"LineString","coordinates":[[3.71407,51.08847],[3.713851,51.08847],[3.713057,51.08839]]},"properties":{"name":"Sint-Sebastiaanstraat","cyclenetwork":"yes","highway":"residential","vertex1":17699,"vertex2":17182}},{"type":"Feature","geometry":{"type":"LineString","coordinates":[[3.71407,51.08847],[3.714939,51.0885],[3.715282,51.08851]]},"properties":{"name":"Sint-Sebastiaanstraat","cyclenetwork":"yes","highway":"residential","vertex1":17699,"vertex2":17697}},{"type":"Feature","geometry":{"type":"LineString","coordinates":[[3.71407,51.08847],[3.714097,51.08831]]},"properties":{"highway":"service","vertex1":17699,"vertex2":17651}},{"type":"Feature","geometry":{"type":"LineString","coordinates":[[3.720023,51.08668],[3.719945,51.08671],[3.719915,51.08674],[3.719906,51.08681],[3.719936,51.08685],[3.720012,51.08689],[3.720095,51.0869],[3.720179,51.08689],[3.720244,51.08685],[3.720274,51.0868],[3.720259,51.08674],[3.720217,51.0867]]},"properties":{"name":"Driemasterstraat","highway":"residential","vertex1":17698,"vertex2":17696}},{"type":"Feature","geometry":{"type":"LineString","coordinates":[[3.720023,51.08668],[3.720118,51.08667]]},"properties":{"name":"Driemasterstraat","highway":"residential","vertex1":17698,"vertex2":17674}},{"type":"Feature","geometry":{"type":"LineString","coordinates":[[3.715282,51.08851],[3.71605,51.08852],[3.716579,51.08852]]},"properties":{"name":"Sint-Sebastiaanstraat","cyclenetwork":"yes","highway":"residential","vertex1":17697,"vertex2":17689}},{"type":"Feature","geometry":{"type":"LineString","coordinates":[[3.715282,51.08851],[3.715294,51.08844],[3.71534,51.08829],[3.715302,51.08823],[3.715204,51.08816]]},"properties":{"highway":"service","vertex1":17697,"vertex2":17655}},{"type":"Feature","geometry":{"type":"LineString","coordinates":[[3.720217,51.0867],[3.720118,51.08667]]},"properties":{"name":"Driemasterstraat","highway":"residential","vertex1":17696,"vertex2":17674}},{"type":"Feature","geometry":{"type":"LineString","coordinates":[[3.718633,51.09182],[3.718751,51.09185],[3.71901,51.09184],[3.719298,51.09183]]},"properties":{"name":"Watersnepstraat","highway":"residential","vertex1":17695,"vertex2":17679}},{"type":"Feature","geometry":{"type":"LineString","coordinates":[[3.718633,51.09182],[3.718592,51.09187],[3.718356,51.092],[3.718028,51.09206],[3.717656,51.09209]]},"properties":{"name":"Vledermuisstraat","highway":"residential","vertex1":17695,"vertex2":17631}},{"type":"Feature","geometry":{"type":"LineString","coordinates":[[3.718633,51.09182],[3.718724,51.09171],[3.718943,51.09151],[3.719056,51.09144]]},"properties":{"name":"Vledermuisstraat","highway":"residential","vertex1":17695,"vertex2":17693}},{"type":"Feature","geometry":{"type":"LineString","coordinates":[[3.720352,51.08984],[3.720287,51.08992],[3.720268,51.08998],[3.720307,51.09009],[3.720343,51.09013],[3.720379,51.09014],[3.72045,51.09015],[3.720548,51.09015],[3.720634,51.09015],[3.720744,51.09017]]},"properties":{"name":"Schoenerstraat","highway":"residential","vertex1":17694,"vertex2":17668}},{"type":"Feature","geometry":{"type":"LineString","coordinates":[[3.720352,51.08984],[3.720394,51.08979]]},"properties":{"highway":"footway","vertex1":17694,"vertex2":17692}},{"type":"Feature","geometry":{"type":"LineString","coordinates":[[3.719056,51.09144],[3.719223,51.09152],[3.719279,51.09174],[3.719298,51.09183]]},"properties":{"name":"Watersnepstraat","highway":"residential","vertex1":17693,"vertex2":17679}},{"type":"Feature","geometry":{"type":"LineString","coordinates":[[3.719056,51.09144],[3.719246,51.09138],[3.71959,51.0911],[3.719813,51.09088]]},"properties":{"name":"Vledermuisstraat","highway":"residential","vertex1":17693,"vertex2":17665}},{"type":"Feature","geometry":{"type":"LineString","coordinates":[[3.720394,51.08979],[3.720296,51.08976],[3.720216,51.08973],[3.72018,51.0897],[3.72016,51.08966],[3.720162,51.08947],[3.720083,51.08941]]},"properties":{"name":"Moerpad","bicycle":"yes","highway":"footway","vertex1":17692,"vertex2":17666}},{"type":"Feature","geometry":{"type":"LineString","coordinates":[[3.720394,51.08979],[3.720554,51.08984],[3.720932,51.08997],[3.721018,51.09003]]},"properties":{"name":"Moerpad","bicycle":"yes","highway":"footway","vertex1":17692,"vertex2":17652}},{"type":"Feature","geometry":{"type":"LineString","coordinates":[[3.71616,51.09053],[3.716134,51.0906],[3.716114,51.09068],[3.716104,51.09097],[3.716092,51.09163],[3.716153,51.09208],[3.716163,51.09216]]},"properties":{"name":"Evergemsesteenweg","maxspeed":"50","highway":"tertiary","vertex1":17691,"vertex2":17597}},{"type":"Feature","geometry":{"type":"LineString","coordinates":[[3.721878,51.09035],[3.721095,51.0901],[3.721018,51.09003]]},"properties":{"name":"Looppad","bicycle":"yes","highway":"footway","vertex1":17690,"vertex2":17652}},{"type":"Feature","geometry":{"type":"LineString","coordinates":[[3.721878,51.09035],[3.722097,51.09014],[3.722552,51.08974],[3.722786,51.08947],[3.722875,51.08926],[3.722789,51.0891],[3.722592,51.08897],[3.722426,51.08892],[3.722218,51.08887]]},"properties":{"name":"Durmeschipstraat","highway":"residential","vertex1":17690,"vertex2":17650}},{"type":"Feature","geometry":{"type":"LineString","coordinates":[[3.721878,51.09035],[3.721674,51.09061],[3.721619,51.09069],[3.721537,51.09075],[3.721446,51.0908],[3.721354,51.09082],[3.721247,51.09083],[3.721145,51.09083],[3.721017,51.09082]]},"properties":{"name":"Durmeschipstraat","highway":"residential","vertex1":17690,"vertex2":17670}},{"type":"Feature","geometry":{"type":"LineString","coordinates":[[3.719691,51.08987],[3.719738,51.08982]]},"properties":{"name":"Vierweegsestraat","maxspeed":"50","highway":"tertiary","vertex1":17688,"vertex2":17643}},{"type":"Feature","geometry":{"type":"LineString","coordinates":[[3.719691,51.08987],[3.719546,51.09002]]},"properties":{"name":"Vierweegsestraat","maxspeed":"50","highway":"tertiary","vertex1":17688,"vertex2":17664}},{"type":"Feature","geometry":{"type":"LineString","coordinates":[[3.719691,51.08987],[3.719532,51.08978],[3.719509,51.08973],[3.719427,51.08947],[3.719325,51.08907],[3.719259,51.08884],[3.719131,51.08877]]},"properties":{"name":"Wondelgemstationplein","oneway":"yes","highway":"residential","vertex1":17688,"vertex2":17669}},{"type":"Feature","geometry":{"type":"LineString","coordinates":[[3.717171,51.0865],[3.717055,51.08649],[3.716892,51.08649]]},"properties":{"name":"Molenstraat","oneway":"yes","oneway:bicycle":"no","highway":"residential","vertex1":17687,"vertex2":17677}},{"type":"Feature","geometry":{"type":"LineString","coordinates":[[3.717171,51.0865],[3.717517,51.08673],[3.717841,51.08693],[3.718155,51.08712],[3.718355,51.08727],[3.718418,51.08749],[3.718472,51.08773],[3.718568,51.08799],[3.718615,51.08818]]},"properties":{"name":"Molenstraat","oneway":"yes","oneway:bicycle":"no","highway":"residential","vertex1":17687,"vertex2":17661}},{"type":"Feature","geometry":{"type":"LineString","coordinates":[[3.714249,51.09016],[3.713117,51.09]]},"properties":{"name":"Sint-Markoenstraat","cyclenetwork":"yes","maxspeed":"50","highway":"tertiary","vertex1":17686,"vertex2":17198}},{"type":"Feature","geometry":{"type":"LineString","coordinates":[[3.714249,51.09016],[3.714363,51.08974],[3.714341,51.08949]]},"properties":{"name":"Kortekerkstraat","highway":"residential","vertex1":17686,"vertex2":17646}},{"type":"Feature","geometry":{"type":"LineString","coordinates":[[3.720754,51.08865],[3.721038,51.08875],[3.721285,51.08879],[3.721548,51.08882],[3.721843,51.08884],[3.722218,51.08887]]},"properties":{"name":"Fregatstraat","highway":"residential","vertex1":17684,"vertex2":17650}},{"type":"Feature","geometry":{"type":"LineString","coordinates":[[3.720754,51.08865],[3.720925,51.08851],[3.721155,51.08835]]},"properties":{"name":"Kapiteinstraat","maxspeed":"50","highway":"tertiary","vertex1":17684,"vertex2":17658}},{"type":"Feature","geometry":{"type":"LineString","coordinates":[[3.716626,51.0865],[3.716892,51.08649]]},"properties":{"name":"Molenstraat","oneway":"yes","oneway:bicycle":"no","highway":"residential","vertex1":17683,"vertex2":17677}},{"type":"Feature","geometry":{"type":"LineString","coordinates":[[3.716626,51.0865],[3.716645,51.08674]]},"properties":{"name":"Morekstraat","cyclenetwork":"yes","maxspeed":"50","highway":"tertiary","vertex1":17683,"vertex2":17659}},{"type":"Feature","geometry":{"type":"LineString","coordinates":[[3.722015,51.08915],[3.722218,51.08887]]},"properties":{"name":"Durmeschipstraat","highway":"residential","vertex1":17682,"vertex2":17650}},{"type":"Feature","geometry":{"type":"LineString","coordinates":[[3.722015,51.08915],[3.7218,51.0894],[3.721636,51.08957],[3.721526,51.08966],[3.721389,51.08977],[3.721144,51.08992],[3.721018,51.09003]]},"properties":{"name":"Schoenerstraat","highway":"residential","vertex1":17682,"vertex2":17652}},{"type":"Feature","geometry":{"type":"LineString","coordinates":[[3.718699,51.0865],[3.718792,51.08679],[3.718893,51.08707],[3.718845,51.08712],[3.718855,51.08722],[3.718933,51.08744],[3.71905,51.08784],[3.718987,51.08797],[3.718923,51.08809],[3.718965,51.08828],[3.71902,51.08849],[3.719037,51.08855],[3.719048,51.08869]]},"properties":{"bicycle":"no","motorcar":"no","foot":"no","highway":"service","vertex1":17681,"vertex2":17667}},{"type":"Feature","geometry":{"type":"LineString","coordinates":[[3.71422,51.08649],[3.71435,51.08652]]},"properties":{"bridge":"yes","bicycle":"no","motorcar":"no","foot":"no","highway":"service","vertex1":17680,"vertex2":17678}},{"type":"Feature","geometry":{"type":"LineString","coordinates":[[3.719298,51.09183],[3.719332,51.09195],[3.71938,51.09214],[3.719425,51.09231],[3.719452,51.09241],[3.71946,51.09252],[3.719418,51.09261],[3.719342,51.09269],[3.719159,51.09279],[3.718924,51.09286]]},"properties":{"name":"Watersnepstraat","highway":"residential","vertex1":17679,"vertex2":17600}},{"type":"Feature","geometry":{"type":"LineString","coordinates":[[3.719592,51.08775],[3.719561,51.08768],[3.719536,51.08754],[3.719616,51.08744],[3.719723,51.08733],[3.720379,51.08738]]},"properties":{"highway":"service","vertex1":17676,"vertex2":17662}},{"type":"Feature","geometry":{"type":"LineString","coordinates":[[3.716737,51.08788],[3.717255,51.08795]]},"properties":{"name":"Varenstraat","oneway":"yes","oneway:bicycle":"no","highway":"residential","vertex1":17675,"vertex2":17671}},{"type":"Feature","geometry":{"type":"LineString","coordinates":[[3.716737,51.08788],[3.716645,51.08674]]},"properties":{"name":"Morekstraat","cyclenetwork":"yes","maxspeed":"50","highway":"tertiary","vertex1":17675,"vertex2":17659}},{"type":"Feature","geometry":{"type":"LineString","coordinates":[[3.720857,51.09146],[3.720658,51.09183],[3.720603,51.09238]]},"properties":{"name":"Watlingtonstraat","highway":"unclassified","vertex1":17673,"vertex2":17588}},{"type":"Feature","geometry":{"type":"LineString","coordinates":[[3.717255,51.08795],[3.717763,51.08803]]},"properties":{"name":"Varenstraat","oneway":"yes","oneway:bicycle":"no","highway":"residential","vertex1":17671,"vertex2":17663}},{"type":"Feature","geometry":{"type":"LineString","coordinates":[[3.721017,51.09082],[3.720867,51.09092],[3.720693,51.09094],[3.720586,51.09095]]},"properties":{"name":"Durmeschipstraat","highway":"residential","vertex1":17670,"vertex2":17654}},{"type":"Feature","geometry":{"type":"LineString","coordinates":[[3.719131,51.08877],[3.719048,51.08869]]},"properties":{"name":"Molenstraat","highway":"residential","vertex1":17669,"vertex2":17667}},{"type":"Feature","geometry":{"type":"LineString","coordinates":[[3.719131,51.08877],[3.719095,51.08887],[3.719148,51.08906],[3.719264,51.08947],[3.719426,51.08989],[3.719463,51.08996],[3.719546,51.09002]]},"properties":{"name":"Wondelgemstationplein","oneway":"yes","highway":"residential","vertex1":17669,"vertex2":17664}},{"type":"Feature","geometry":{"type":"LineString","coordinates":[[3.720744,51.09017],[3.720781,51.09012],[3.720878,51.09004],[3.721018,51.09003]]},"properties":{"name":"Schoenerstraat","oneway":"yes","highway":"residential","vertex1":17668,"vertex2":17652}},{"type":"Feature","geometry":{"type":"LineString","coordinates":[[3.719048,51.08869],[3.718947,51.08864],[3.718829,51.0886],[3.718774,51.08857],[3.718737,51.08853],[3.718698,51.08841],[3.718615,51.08818]]},"properties":{"name":"Molenstraat","highway":"residential","vertex1":17667,"vertex2":17661}},{"type":"Feature","geometry":{"type":"LineString","coordinates":[[3.720083,51.08941],[3.720025,51.0895],[3.719972,51.08958],[3.719911,51.08965],[3.719738,51.08982]]},"properties":{"name":"Kapiteinstraat","maxspeed":"50","highway":"tertiary","vertex1":17666,"vertex2":17643}},{"type":"Feature","geometry":{"type":"LineString","coordinates":[[3.719813,51.09088],[3.720049,51.09094],[3.720068,51.0911],[3.720075,51.09117],[3.719952,51.09128],[3.719857,51.09137],[3.719729,51.09149],[3.719736,51.09168],[3.719826,51.0918],[3.71997,51.09193],[3.71998,51.09205],[3.71997,51.09218],[3.719972,51.09235],[3.71991,51.09256],[3.719892,51.09271],[3.719735,51.09278],[3.719639,51.09286],[3.719527,51.09295],[3.719438,51.09305],[3.719385,51.09319],[3.719391,51.09337],[3.719387,51.09351],[3.719357,51.09373],[3.719273,51.09378],[3.719193,51.09382],[3.718978,51.0939],[3.718731,51.09393],[3.718408,51.09394],[3.718215,51.09393],[3.718194,51.09392]]},"properties":{"bicycle":"yes","highway":"footway","vertex1":17665,"vertex2":17624}},{"type":"Feature","geometry":{"type":"LineString","coordinates":[[3.717763,51.08803],[3.718615,51.08818]]},"properties":{"name":"Varenstraat","oneway":"yes","oneway:bicycle":"no","highway":"residential","vertex1":17663,"vertex2":17661}},{"type":"Feature","geometry":{"type":"LineString","coordinates":[[3.716645,51.08674],[3.716547,51.08672],[3.716218,51.08665],[3.716027,51.08662],[3.715954,51.08659],[3.715933,51.08639],[3.715719,51.08633],[3.715675,51.08632],[3.715597,51.08646],[3.715593,51.08654],[3.71554,51.08665]]},"properties":{"bicycle":"no","motorcar":"no","foot":"no","highway":"service","vertex1":17659,"vertex2":17644}},{"type":"Feature","geometry":{"type":"LineString","coordinates":[[3.715173,51.08827],[3.715204,51.08816]]},"properties":{"highway":"service","vertex1":17657,"vertex2":17655}},{"type":"Feature","geometry":{"type":"LineString","coordinates":[[3.713554,51.09129],[3.712859,51.09124],[3.711918,51.09114],[3.711494,51.0911]]},"properties":{"name":"Waterlelielaan","highway":"residential","vertex1":17656,"vertex2":17230}},{"type":"Feature","geometry":{"type":"LineString","coordinates":[[3.715204,51.08816],[3.71527,51.08792],[3.715377,51.0879],[3.715444,51.08783],[3.715474,51.08773],[3.715423,51.08767],[3.714272,51.08754]]},"properties":{"highway":"service","vertex1":17655,"vertex2":17645}},{"type":"Feature","geometry":{"type":"LineString","coordinates":[[3.714507,51.08813],[3.714259,51.0881],[3.714146,51.08812]]},"properties":{"highway":"service","vertex1":17653,"vertex2":17649}},{"type":"Feature","geometry":{"type":"LineString","coordinates":[[3.714097,51.08831],[3.714146,51.08812]]},"properties":{"highway":"service","vertex1":17651,"vertex2":17649}},{"type":"Feature","geometry":{"type":"LineString","coordinates":[[3.714146,51.08812],[3.714097,51.08831],[3.713234,51.08821],[3.713297,51.08789]]},"properties":{"highway":"service","vertex1":17649,"vertex2":17238}},{"type":"Feature","geometry":{"type":"LineString","coordinates":[[3.714146,51.08812],[3.714079,51.08812],[3.714157,51.08777],[3.71424,51.08777]]},"properties":{"highway":"service","vertex1":17649,"vertex2":17647}},{"type":"Feature","geometry":{"type":"LineString","coordinates":[[3.713297,51.08789],[3.713308,51.08783],[3.713438,51.08748],[3.714272,51.08754]]},"properties":{"highway":"service","vertex1":17238,"vertex2":17645}},{"type":"Feature","geometry":{"type":"LineString","coordinates":[[3.71424,51.08777],[3.714272,51.08754]]},"properties":{"highway":"service","vertex1":17647,"vertex2":17645}},{"type":"Feature","geometry":{"type":"LineString","coordinates":[[3.714341,51.08949],[3.714406,51.08949],[3.714781,51.08947]]},"properties":{"name":"Serafien Van Cauwenbergelaan","highway":"residential","vertex1":17646,"vertex2":17642}},{"type":"Feature","geometry":{"type":"LineString","coordinates":[[3.718825,51.0935],[3.718901,51.09359]]},"properties":{"highway":"service","vertex1":17641,"vertex2":17634}},{"type":"Feature","geometry":{"type":"LineString","coordinates":[[3.718825,51.0935],[3.718763,51.09351],[3.718374,51.09348],[3.718268,51.09347]]},"properties":{"name":"Watersnepstraat","highway":"residential","vertex1":17641,"vertex2":17637}},{"type":"Feature","geometry":{"type":"LineString","coordinates":[[3.718825,51.0935],[3.718858,51.0933],[3.718915,51.09302],[3.718921,51.09291],[3.718924,51.09286]]},"properties":{"name":"Watersnepstraat","highway":"residential","vertex1":17641,"vertex2":17600}},{"type":"Feature","geometry":{"type":"LineString","coordinates":[[3.720001,51.0957],[3.719868,51.0958],[3.719663,51.09594],[3.719344,51.09609],[3.719122,51.09625],[3.71892,51.09635],[3.718749,51.09636],[3.718352,51.09643],[3.718012,51.09675]]},"properties":{"name":"Uitvangstraat","highway":"residential","vertex1":17640,"vertex2":17627}},{"type":"Feature","geometry":{"type":"LineString","coordinates":[[3.720001,51.0957],[3.720105,51.09561]]},"properties":{"name":"Uitvangstraat","highway":"residential","vertex1":17640,"vertex2":17623}},{"type":"Feature","geometry":{"type":"LineString","coordinates":[[3.720001,51.0957],[3.720197,51.09581],[3.720326,51.09595],[3.720353,51.09631],[3.720326,51.0965],[3.72032,51.09671],[3.720353,51.09704],[3.720374,51.09736],[3.720406,51.09771],[3.720412,51.09797]]},"properties":{"highway":"track","vertex1":17640,"vertex2":17461}},{"type":"Feature","geometry":{"type":"LineString","coordinates":[[3.718012,51.09675],[3.717744,51.097],[3.71739,51.09733]]},"properties":{"name":"Uitvangstraat","highway":"residential","vertex1":17627,"vertex2":17629}},{"type":"Feature","geometry":{"type":"LineString","coordinates":[[3.718012,51.09675],[3.71777,51.09664],[3.71758,51.09654],[3.717442,51.09647],[3.71736,51.09641],[3.717508,51.09628],[3.717583,51.09621],[3.718055,51.09586],[3.718452,51.0956],[3.718979,51.09524],[3.719401,51.09497],[3.719596,51.09483]]},"properties":{"name":"Uitvangstraat","highway":"residential","vertex1":17627,"vertex2":17621}},{"type":"Feature","geometry":{"type":"LineString","coordinates":[[3.718529,51.09416],[3.718646,51.09416],[3.718674,51.09423],[3.718715,51.0943],[3.718726,51.09436],[3.718738,51.09444],[3.718717,51.0945],[3.718605,51.09458],[3.718484,51.09463]]},"properties":{"highway":"track","vertex1":17639,"vertex2":17628}},{"type":"Feature","geometry":{"type":"LineString","coordinates":[[3.713444,51.09401],[3.713277,51.09403]]},"properties":{"name":"Waterhoenlaan","highway":"residential","vertex1":17638,"vertex2":17275}},{"type":"Feature","geometry":{"type":"LineString","coordinates":[[3.713444,51.09401],[3.713515,51.09404],[3.713397,51.09412],[3.713281,51.0941]]},"properties":{"name":"Waterhoenlaan","highway":"residential","vertex1":17638,"vertex2":17277}},{"type":"Feature","geometry":{"type":"LineString","coordinates":[[3.713277,51.09403],[3.713281,51.0941]]},"properties":{"name":"Waterhoenlaan","highway":"residential","vertex1":17275,"vertex2":17277}},{"type":"Feature","geometry":{"type":"LineString","coordinates":[[3.718268,51.09347],[3.718356,51.09308],[3.718382,51.09283]]},"properties":{"name":"Watersnepstraat","highway":"residential","vertex1":17637,"vertex2":17616}},{"type":"Feature","geometry":{"type":"LineString","coordinates":[[3.718268,51.09347],[3.71821,51.09346],[3.718025,51.09346],[3.717972,51.09346],[3.717911,51.0939]]},"properties":{"highway":"service","vertex1":17637,"vertex2":17635}},{"type":"Feature","geometry":{"type":"LineString","coordinates":[[3.718268,51.09347],[3.718194,51.09392]]},"properties":{"highway":"service","vertex1":17637,"vertex2":17624}},{"type":"Feature","geometry":{"type":"LineString","coordinates":[[3.720145,51.09623],[3.720729,51.09579]]},"properties":{"bridge":"yes","name":"Zeeschipstraat","highway":"primary","maxspeed":"70","cycleway":"lane","vertex1":17636,"vertex2":17610}},{"type":"Feature","geometry":{"type":"LineString","coordinates":[[3.720145,51.09623],[3.718724,51.09729]]},"properties":{"name":"Zeeschipstraat","highway":"primary","maxspeed":"70","cycleway":"lane","vertex1":17636,"vertex2":17632}},{"type":"Feature","geometry":{"type":"LineString","coordinates":[[3.718901,51.09359],[3.719087,51.09359],[3.719268,51.09373]]},"properties":{"highway":"service","vertex1":17634,"vertex2":17626}},{"type":"Feature","geometry":{"type":"LineString","coordinates":[[3.718901,51.09359],[3.71887,51.09369],[3.71905,51.09383]]},"properties":{"highway":"service","vertex1":17634,"vertex2":17593}},{"type":"Feature","geometry":{"type":"LineString","coordinates":[[3.717213,51.09502],[3.71694,51.09496],[3.716506,51.09486],[3.715951,51.09475],[3.715899,51.09474]]},"properties":{"name":"Benninsbrugstraat","highway":"residential","vertex1":17633,"vertex2":17599}},{"type":"Feature","geometry":{"type":"LineString","coordinates":[[3.717213,51.09502],[3.717055,51.09528],[3.716744,51.09551],[3.71637,51.09581],[3.715727,51.09638],[3.715474,51.09661]]},"properties":{"name":"Benninsbrugstraat","highway":"residential","vertex1":17633,"vertex2":17619}},{"type":"Feature","geometry":{"type":"LineString","coordinates":[[3.717213,51.09502],[3.717306,51.09482],[3.717384,51.09467],[3.717932,51.09467]]},"properties":{"name":"Benninsbrugstraat","highway":"residential","vertex1":17633,"vertex2":17617}},{"type":"Feature","geometry":{"type":"LineString","coordinates":[[3.717656,51.09209],[3.717136,51.09214],[3.716792,51.09216],[3.716513,51.09216],[3.716253,51.09217],[3.716163,51.09216]]},"properties":{"name":"Vledermuisstraat","highway":"residential","vertex1":17631,"vertex2":17597}},{"type":"Feature","geometry":{"type":"LineString","coordinates":[[3.717656,51.09209],[3.71768,51.09233],[3.71768,51.09264],[3.717678,51.09278]]},"properties":{"name":"Watersnepstraat","highway":"residential","vertex1":17631,"vertex2":17622}},{"type":"Feature","geometry":{"type":"LineString","coordinates":[[3.714047,51.096],[3.714795,51.09625],[3.714846,51.09627]]},"properties":{"name":"Kwikstaartlaan","highway":"residential","vertex1":17630,"vertex2":17596}},{"type":"Feature","geometry":{"type":"LineString","coordinates":[[3.714047,51.096],[3.713567,51.09584]]},"properties":{"name":"Kwikstaartlaan","highway":"residential","vertex1":17630,"vertex2":17608}},{"type":"Feature","geometry":{"type":"LineString","coordinates":[[3.714047,51.096],[3.714131,51.09589],[3.714329,51.09562],[3.714426,51.09551],[3.714537,51.09548],[3.714632,51.09549],[3.71508,51.09563],[3.715257,51.09568],[3.715309,51.0957]]},"properties":{"bicycle":"no","motorcar":"no","foot":"no","highway":"service","vertex1":17630,"vertex2":17601}},{"type":"Feature","geometry":{"type":"LineString","coordinates":[[3.718484,51.09463],[3.718454,51.09451],[3.718433,51.09436],[3.718248,51.09434],[3.718073,51.09433],[3.718029,51.09447],[3.717996,51.09458],[3.717932,51.09467]]},"properties":{"highway":"service","vertex1":17628,"vertex2":17617}},{"type":"Feature","geometry":{"type":"LineString","coordinates":[[3.718484,51.09463],[3.718404,51.0947]]},"properties":{"highway":"service","vertex1":17628,"vertex2":17609}},{"type":"Feature","geometry":{"type":"LineString","coordinates":[[3.723582,51.09347],[3.723641,51.09388]]},"properties":{"highway":"service","vertex1":17625,"vertex2":17614}},{"type":"Feature","geometry":{"type":"LineString","coordinates":[[3.723582,51.09347],[3.723714,51.09342],[3.724013,51.09338],[3.724121,51.09341],[3.724195,51.09347],[3.724294,51.09375],[3.724223,51.09383],[3.72374,51.09391],[3.723495,51.09353]]},"properties":{"highway":"service","vertex1":17625,"vertex2":17604}},{"type":"Feature","geometry":{"type":"LineString","coordinates":[[3.720105,51.09561],[3.720147,51.09552],[3.720147,51.09544],[3.72008,51.09524],[3.720006,51.09512],[3.719915,51.095],[3.719814,51.09492],[3.719715,51.09485],[3.719692,51.09484],[3.719596,51.09483]]},"properties":{"highway":"cycleway","vertex1":17623,"vertex2":17621}},{"type":"Feature","geometry":{"type":"LineString","coordinates":[[3.717678,51.09278],[3.717968,51.0928],[3.718382,51.09283]]},"properties":{"name":"Watersnepstraat","highway":"residential","vertex1":17622,"vertex2":17616}},{"type":"Feature","geometry":{"type":"LineString","coordinates":[[3.722892,51.09293],[3.723024,51.09296],[3.723124,51.09298]]},"properties":{"name":"Watlingtonstraat","highway":"unclassified","vertex1":17620,"vertex2":17594}},{"type":"Feature","geometry":{"type":"LineString","coordinates":[[3.722892,51.09293],[3.722811,51.09291]]},"properties":{"name":"Watlingtonstraat","highway":"unclassified","vertex1":17620,"vertex2":17602}},{"type":"Feature","geometry":{"type":"LineString","coordinates":[[3.715474,51.09661],[3.715243,51.09653],[3.714821,51.09638],[3.71477,51.09636]]},"properties":{"name":"Spesbroekstraat","highway":"residential","vertex1":17619,"vertex2":17611}},{"type":"Feature","geometry":{"type":"LineString","coordinates":[[3.715474,51.09661],[3.715948,51.09678],[3.716134,51.09684],[3.716479,51.09695],[3.71739,51.09733]]},"properties":{"name":"Spesbroekstraat","highway":"residential","vertex1":17619,"vertex2":17629}},{"type":"Feature","geometry":{"type":"LineString","coordinates":[[3.720973,51.09246],[3.722811,51.09291]]},"properties":{"name":"Watlingtonstraat","highway":"unclassified","vertex1":17618,"vertex2":17602}},{"type":"Feature","geometry":{"type":"LineString","coordinates":[[3.720973,51.09246],[3.720603,51.09238]]},"properties":{"name":"Watlingtonstraat","highway":"unclassified","vertex1":17618,"vertex2":17588}},{"type":"Feature","geometry":{"type":"LineString","coordinates":[[3.717932,51.09467],[3.718187,51.09472],[3.718326,51.09472],[3.718404,51.0947]]},"properties":{"highway":"service","vertex1":17617,"vertex2":17609}},{"type":"Feature","geometry":{"type":"LineString","coordinates":[[3.718382,51.09283],[3.718736,51.09285],[3.718924,51.09286]]},"properties":{"name":"Watersnepstraat","highway":"residential","vertex1":17616,"vertex2":17600}},{"type":"Feature","geometry":{"type":"LineString","coordinates":[[3.715223,51.09256],[3.715125,51.09259],[3.714953,51.09261],[3.714645,51.09263],[3.71411,51.09267],[3.713497,51.09272]]},"properties":{"name":"Knotwilgenlaan","highway":"residential","vertex1":17615,"vertex2":17591}},{"type":"Feature","geometry":{"type":"LineString","coordinates":[[3.715223,51.09256],[3.715272,51.09247],[3.715255,51.09227],[3.715248,51.09223]]},"properties":{"name":"Sneeuwklokjeslaan","highway":"residential","vertex1":17615,"vertex2":17613}},{"type":"Feature","geometry":{"type":"LineString","coordinates":[[3.723641,51.09388],[3.723495,51.09353]]},"properties":{"highway":"service","vertex1":17614,"vertex2":17604}},{"type":"Feature","geometry":{"type":"LineString","coordinates":[[3.723641,51.09388],[3.724429,51.09589],[3.722084,51.0963],[3.722019,51.09639],[3.722155,51.09666]]},"properties":{"highway":"service","vertex1":17614,"vertex2":17603}},{"type":"Feature","geometry":{"type":"LineString","coordinates":[[3.715248,51.09223],[3.715762,51.09219],[3.716112,51.09217],[3.716163,51.09216]]},"properties":{"name":"Haagbeuklaan","highway":"residential","vertex1":17613,"vertex2":17597}},{"type":"Feature","geometry":{"type":"LineString","coordinates":[[3.714903,51.09377],[3.715373,51.09394],[3.716113,51.09422],[3.716176,51.09423]]},"properties":{"name":"Waterhoenlaan","highway":"residential","vertex1":17612,"vertex2":17592}},{"type":"Feature","geometry":{"type":"LineString","coordinates":[[3.714903,51.09377],[3.714824,51.09373],[3.714682,51.09368],[3.714267,51.09354],[3.713978,51.09349],[3.713667,51.09349],[3.713163,51.0936]]},"properties":{"name":"Waterhoenlaan","highway":"residential","vertex1":17612,"vertex2":17300}},{"type":"Feature","geometry":{"type":"LineString","coordinates":[[3.714903,51.09377],[3.714686,51.09398],[3.714345,51.0943],[3.714192,51.0945],[3.714096,51.09468],[3.713935,51.095],[3.713753,51.09544],[3.713567,51.09584]]},"properties":{"name":"Kineastlaan","highway":"residential","vertex1":17612,"vertex2":17608}},{"type":"Feature","geometry":{"type":"LineString","coordinates":[[3.71477,51.09636],[3.714486,51.09663],[3.713906,51.09716],[3.71331,51.09768],[3.712517,51.09843],[3.712318,51.09866],[3.71222,51.09876]]},"properties":{"name":"Evergemsesteenweg","maxspeed":"50","highway":"tertiary","cycleway":"lane","vertex1":17611,"vertex2":17393}},{"type":"Feature","geometry":{"type":"LineString","coordinates":[[3.71477,51.09636],[3.714846,51.09627]]},"properties":{"name":"Evergemsesteenweg","maxspeed":"50","highway":"tertiary","cycleway":"lane","vertex1":17611,"vertex2":17596}},{"type":"Feature","geometry":{"type":"LineString","coordinates":[[3.720729,51.09579],[3.721097,51.09551],[3.721419,51.09525],[3.72194,51.09472],[3.722182,51.09443],[3.722395,51.09414]]},"properties":{"name":"Zeeschipstraat","highway":"primary","maxspeed":"70","cycleway":"lane","vertex1":17610,"vertex2":17589}},{"type":"Feature","geometry":{"type":"LineString","coordinates":[[3.713567,51.09584],[3.713073,51.09569]]},"properties":{"name":"Kwikstaartlaan","highway":"residential","vertex1":17608,"vertex2":17281}},{"type":"Feature","geometry":{"type":"LineString","coordinates":[[3.720596,51.09543],[3.720734,51.09532],[3.722089,51.09416],[3.722197,51.09412],[3.7223,51.09412],[3.722395,51.09414]]},"properties":{"name":"Zeeschipstraat","highway":"residential","vertex1":17607,"vertex2":17589}},{"type":"Feature","geometry":{"type":"LineString","coordinates":[[3.720596,51.09543],[3.720595,51.09595],[3.720611,51.09599],[3.72065,51.09603],[3.720718,51.09606],[3.720802,51.09607],[3.72094,51.09606],[3.721062,51.09604],[3.721378,51.09583],[3.721764,51.09544],[3.722365,51.09462]]},"properties":{"highway":"track","vertex1":17607,"vertex2":17595}},{"type":"Feature","geometry":{"type":"LineString","coordinates":[[3.723289,51.09269],[3.723124,51.09298]]},"properties":{"name":"Zeeschipstraat","highway":"primary","maxspeed":"70","cycleway":"lane","vertex1":17606,"vertex2":17594}},{"type":"Feature","geometry":{"type":"LineString","coordinates":[[3.723495,51.09353],[3.722888,51.09336]]},"properties":{"highway":"service","vertex1":17604,"vertex2":17590}},{"type":"Feature","geometry":{"type":"LineString","coordinates":[[3.722811,51.09291],[3.722656,51.09322],[3.720742,51.09337],[3.720648,51.09334],[3.720621,51.09276],[3.720603,51.09238]]},"properties":{"highway":"service","vertex1":17602,"vertex2":17588}},{"type":"Feature","geometry":{"type":"LineString","coordinates":[[3.715309,51.0957],[3.715387,51.0956],[3.715563,51.09533],[3.715899,51.09474]]},"properties":{"name":"Evergemsesteenweg","maxspeed":"50","highway":"tertiary","cycleway":"lane","vertex1":17601,"vertex2":17599}},{"type":"Feature","geometry":{"type":"LineString","coordinates":[[3.715309,51.0957],[3.715114,51.09596],[3.714931,51.09617],[3.714882,51.09623],[3.714846,51.09627]]},"properties":{"name":"Evergemsesteenweg","maxspeed":"50","highway":"tertiary","cycleway":"lane","vertex1":17601,"vertex2":17596}},{"type":"Feature","geometry":{"type":"LineString","coordinates":[[3.715899,51.09474],[3.715921,51.0947],[3.716176,51.09423]]},"properties":{"name":"Evergemsesteenweg","maxspeed":"50","highway":"tertiary","cycleway":"lane","vertex1":17599,"vertex2":17592}},{"type":"Feature","geometry":{"type":"LineString","coordinates":[[3.722486,51.094],[3.722395,51.09414]]},"properties":{"name":"Zeeschipstraat","highway":"primary","maxspeed":"70","vertex1":17598,"vertex2":17589}},{"type":"Feature","geometry":{"type":"LineString","coordinates":[[3.722486,51.094],[3.722736,51.09361],[3.722888,51.09336]]},"properties":{"name":"Zeeschipstraat","highway":"primary","maxspeed":"70","cycleway":"lane","vertex1":17598,"vertex2":17590}},{"type":"Feature","geometry":{"type":"LineString","coordinates":[[3.716163,51.09216],[3.716254,51.09262],[3.716389,51.0932],[3.716413,51.09338],[3.716408,51.09357],[3.716389,51.09374],[3.716362,51.09385],[3.716213,51.09417],[3.716176,51.09423]]},"properties":{"name":"Evergemsesteenweg","maxspeed":"50","highway":"tertiary","cycleway":"lane","vertex1":17597,"vertex2":17592}},{"type":"Feature","geometry":{"type":"LineString","coordinates":[[3.723124,51.09298],[3.72306,51.09308],[3.722888,51.09336]]},"properties":{"name":"Zeeschipstraat","highway":"primary","maxspeed":"70","cycleway":"lane","vertex1":17594,"vertex2":17590}},{"type":"Feature","geometry":{"type":"LineString","coordinates":[[3.713497,51.09272],[3.713192,51.09277],[3.712879,51.09283],[3.712446,51.09297]]},"properties":{"name":"Knotwilgenlaan","highway":"residential","vertex1":17591,"vertex2":17291}},{"type":"Feature","geometry":{"type":"LineString","coordinates":[[3.726062,51.09434],[3.725977,51.09464]]},"properties":{"highway":"service","vertex1":17587,"vertex2":17579}},{"type":"Feature","geometry":{"type":"LineString","coordinates":[[3.726062,51.09434],[3.725875,51.09433],[3.725748,51.09471],[3.72587,51.09472]]},"properties":{"highway":"service","vertex1":17587,"vertex2":17586}},{"type":"Feature","geometry":{"type":"LineString","coordinates":[[3.72587,51.09472],[3.725977,51.09464]]},"properties":{"highway":"service","vertex1":17586,"vertex2":17579}},{"type":"Feature","geometry":{"type":"LineString","coordinates":[[3.731281,51.09364],[3.732579,51.09363]]},"properties":{"highway":"service","vertex1":17585,"vertex2":17583}},{"type":"Feature","geometry":{"type":"LineString","coordinates":[[3.731281,51.09364],[3.731412,51.09378]]},"properties":{"highway":"service","vertex1":17585,"vertex2":17581}},{"type":"Feature","geometry":{"type":"LineString","coordinates":[[3.72707,51.09471],[3.727159,51.09495],[3.72733,51.09499],[3.727525,51.09504]]},"properties":{"highway":"service","vertex1":17584,"vertex2":17582}},{"type":"Feature","geometry":{"type":"LineString","coordinates":[[3.732579,51.09363],[3.732562,51.09372],[3.732433,51.09383],[3.732132,51.09389],[3.731746,51.09387],[3.731412,51.09378]]},"properties":{"highway":"service","vertex1":17583,"vertex2":17581}},{"type":"Feature","geometry":{"type":"LineString","coordinates":[[3.732579,51.09363],[3.732712,51.09298],[3.73313,51.09042],[3.733645,51.08735],[3.734149,51.08435],[3.734868,51.08003],[3.735335,51.07718]]},"properties":{"highway":"service","vertex1":17583,"vertex2":16520}},{"type":"Feature","geometry":{"type":"LineString","coordinates":[[3.727525,51.09504],[3.727617,51.09544],[3.727756,51.0959],[3.72799,51.0966],[3.72831,51.09743],[3.72952,51.10045]]},"properties":{"name":"Pantserschipstraat","highway":"secondary","vertex1":17582,"vertex2":17566}},{"type":"Feature","geometry":{"type":"LineString","coordinates":[[3.727525,51.09504],[3.727513,51.09499],[3.727521,51.09468],[3.727588,51.09444]]},"properties":{"name":"Pantserschipstraat","highway":"secondary","vertex1":17582,"vertex2":17580}},{"type":"Feature","geometry":{"type":"LineString","coordinates":[[3.727588,51.09444],[3.727643,51.0943],[3.727957,51.09384],[3.728263,51.09338],[3.728322,51.09326]]},"properties":{"name":"Pantserschipstraat","highway":"secondary","vertex1":17580,"vertex2":17576}},{"type":"Feature","geometry":{"type":"LineString","coordinates":[[3.727588,51.09444],[3.727406,51.09446],[3.727189,51.09449]]},"properties":{"name":"Pantserschipstraat","highway":"service","vertex1":17580,"vertex2":17575}},{"type":"Feature","geometry":{"type":"LineString","coordinates":[[3.725977,51.09464],[3.726158,51.09467]]},"properties":{"highway":"service","vertex1":17579,"vertex2":17574}},{"type":"Feature","geometry":{"type":"LineString","coordinates":[[3.726027,51.09317],[3.726296,51.09319],[3.726544,51.09319],[3.726799,51.0932],[3.727476,51.09323],[3.728055,51.09325],[3.728275,51.09326],[3.728322,51.09326]]},"properties":{"name":"Pantserschipstraat","highway":"service","vertex1":17578,"vertex2":17576}},{"type":"Feature","geometry":{"type":"LineString","coordinates":[[3.725719,51.0949],[3.725936,51.09487],[3.726128,51.09483],[3.72614,51.09475],[3.726158,51.09467]]},"properties":{"name":"Pantserschipstraat","highway":"service","vertex1":17577,"vertex2":17574}},{"type":"Feature","geometry":{"type":"LineString","coordinates":[[3.727189,51.09449],[3.727134,51.09449],[3.726373,51.0944],[3.726243,51.0944],[3.72622,51.09449],[3.726167,51.09462],[3.726158,51.09467]]},"properties":{"name":"Pantserschipstraat","highway":"service","vertex1":17575,"vertex2":17574}},{"type":"Feature","geometry":{"type":"LineString","coordinates":[[3.727189,51.09449],[3.727151,51.0944]]},"properties":{"highway":"service","vertex1":17575,"vertex2":17573}}]}