{"type":"FeatureCollection","features":[{"type":"Feature","geometry":{"type":"LineString","coordinates":[[3.713379,51.08282],[3.735352,51.08282],[3.735352,51.06902],[3.713379,51.06902],[3.713379,51.08282]]},"properties":{"id":"89776297","zoom":"14"}},{"type":"Feature","geometry":{"type":"LineString","coordinates":[[3.714145,51.08154],[3.713775,51.08132]]},"properties":{"name":"Liefbilkstraat","highway":"residential","vertex1":16705,"vertex2":16676}},{"type":"Feature","geometry":{"type":"LineString","coordinates":[[3.714145,51.08154],[3.714298,51.08165],[3.714414,51.08164],[3.714624,51.08165]]},"properties":{"highway":"footway","vertex1":16705,"vertex2":16680}},{"type":"Feature","geometry":{"type":"LineString","coordinates":[[3.713403,51.08252],[3.712588,51.08258]]},"properties":{"name":"Biesbilkstraat","highway":"residential","vertex1":16703,"vertex2":16737}},{"type":"Feature","geometry":{"type":"LineString","coordinates":[[3.713403,51.08252],[3.713979,51.0825]]},"properties":{"name":"Bloembilkstraat","highway":"residential","vertex1":16703,"vertex2":16659}},{"type":"Feature","geometry":{"type":"LineString","coordinates":[[3.713403,51.08252],[3.713308,51.082]]},"properties":{"name":"Bloembilkstraat","highway":"residential","vertex1":16703,"vertex2":16778}},{"type":"Feature","geometry":{"type":"LineString","coordinates":[[3.713403,51.08252],[3.7134,51.08258]]},"properties":{"highway":"cycleway","vertex1":16703,"vertex2":16670}},{"type":"Feature","geometry":{"type":"LineString","coordinates":[[3.712588,51.08258],[3.71252,51.08228],[3.712493,51.08207],[3.71249,51.08195]]},"properties":{"name":"Holmerestraat","highway":"residential","vertex1":16737,"vertex2":16782}},{"type":"Feature","geometry":{"type":"LineString","coordinates":[[3.712588,51.08258],[3.712604,51.08264]]},"properties":{"highway":"cycleway","vertex1":16737,"vertex2":16724}},{"type":"Feature","geometry":{"type":"LineString","coordinates":[[3.713308,51.082],[3.7134,51.08173],[3.713518,51.08148],[3.713775,51.08132]]},"properties":{"name":"Bloembilkstraat","highway":"residential","vertex1":16778,"vertex2":16676}},{"type":"Feature","geometry":{"type":"LineString","coordinates":[[3.713308,51.082],[3.714067,51.08202]]},"properties":{"name":"Krommebunderstraat","highway":"residential","vertex1":16778,"vertex2":16701}},{"type":"Feature","geometry":{"type":"LineString","coordinates":[[3.71472,51.08165],[3.714915,51.08183],[3.715056,51.08206],[3.715053,51.08231],[3.714988,51.08256]]},"properties":{"name":"Fabriekstraat","highway":"residential","vertex1":16702,"vertex2":16666}},{"type":"Feature","geometry":{"type":"LineString","coordinates":[[3.71472,51.08165],[3.714668,51.08162]]},"properties":{"highway":"cycleway","vertex1":16702,"vertex2":16678}},{"type":"Feature","geometry":{"type":"LineString","coordinates":[[3.714067,51.08202],[3.714241,51.08199],[3.714461,51.08207]]},"properties":{"highway":"footway","vertex1":16701,"vertex2":16682}},{"type":"Feature","geometry":{"type":"LineString","coordinates":[[3.715966,51.08265],[3.715878,51.08272],[3.715732,51.08274]]},"properties":{"name":"Maarkpad","highway":"residential","vertex1":16695,"vertex2":16656}},{"type":"Feature","geometry":{"type":"LineString","coordinates":[[3.715966,51.08265],[3.716092,51.08259],[3.716402,51.08259]]},"properties":{"name":"Maarkpad","highway":"cycleway","vertex1":16695,"vertex2":16651}},{"type":"Feature","geometry":{"type":"LineString","coordinates":[[3.714668,51.08162],[3.714668,51.08162]]},"properties":{"name":"Appelterepad","highway":"cycleway","vertex1":16694,"vertex2":16678}},{"type":"Feature","geometry":{"type":"LineString","coordinates":[[3.714668,51.08162],[3.714744,51.08157]]},"properties":{"name":"Appelterepad","highway":"cycleway","vertex1":16694,"vertex2":16692}},{"type":"Feature","geometry":{"type":"LineString","coordinates":[[3.714744,51.08157],[3.714744,51.08157]]},"properties":{"name":"Appelterepad","highway":"cycleway","vertex1":16692,"vertex2":16674}},{"type":"Feature","geometry":{"type":"LineString","coordinates":[[3.714744,51.08157],[3.714772,51.08142],[3.714879,51.08129],[3.714838,51.08125]]},"properties":{"highway":"footway","vertex1":16692,"vertex2":16665}},{"type":"Feature","geometry":{"type":"LineString","coordinates":[[3.721346,51.08164],[3.721196,51.08146],[3.721008,51.08126],[3.72067,51.08095],[3.720469,51.08064],[3.720006,51.07991],[3.719751,51.07956],[3.719465,51.07921],[3.719046,51.07883],[3.718772,51.07858],[3.718668,51.07845],[3.718376,51.07787]]},"properties":{"name":"Paketbootstraat","highway":"residential","vertex1":16691,"vertex2":16491}},{"type":"Feature","geometry":{"type":"LineString","coordinates":[[3.715946,51.08253],[3.716399,51.08252]]},"properties":{"highway":"service","vertex1":16685,"vertex2":16681}},{"type":"Feature","geometry":{"type":"LineString","coordinates":[[3.714461,51.08207],[3.714439,51.08197],[3.714428,51.08187],[3.714476,51.08176],[3.714624,51.08165]]},"properties":{"name":"Appelterepad","highway":"cycleway","vertex1":16682,"vertex2":16680}},{"type":"Feature","geometry":{"type":"LineString","coordinates":[[3.714461,51.08207],[3.71448,51.08215],[3.714492,51.08236],[3.714419,51.08247],[3.714301,51.08256]]},"properties":{"name":"Appelterepad","highway":"cycleway","vertex1":16682,"vertex2":16668}},{"type":"Feature","geometry":{"type":"LineString","coordinates":[[3.716399,51.08252],[3.716371,51.08183],[3.716432,51.08124],[3.716484,51.08077]]},"properties":{"name":"Morekstraat","cyclenetwork":"yes","maxspeed":"50","highway":"tertiary","vertex1":16681,"vertex2":16494}},{"type":"Feature","geometry":{"type":"LineString","coordinates":[[3.716399,51.08252],[3.7164,51.08255]]},"properties":{"name":"Morekstraat","cyclenetwork":"yes","maxspeed":"50","highway":"tertiary","vertex1":16681,"vertex2":16658}},{"type":"Feature","geometry":{"type":"LineString","coordinates":[[3.714624,51.08165],[3.714668,51.08162]]},"properties":{"name":"Appelterepad","highway":"cycleway","vertex1":16680,"vertex2":16678}},{"type":"Feature","geometry":{"type":"LineString","coordinates":[[3.714668,51.08162],[3.714744,51.08157]]},"properties":{"highway":"footway","vertex1":16678,"vertex2":16674}},{"type":"Feature","geometry":{"type":"LineString","coordinates":[[3.713775,51.08132],[3.713615,51.0811],[3.71354,51.08101],[3.713462,51.0809]]},"properties":{"name":"Liefbilkstraat","highway":"residential","vertex1":16676,"vertex2":16510}},{"type":"Feature","geometry":{"type":"LineString","coordinates":[[3.714744,51.08157],[3.714956,51.08146],[3.715222,51.0813],[3.715828,51.08098]]},"properties":{"name":"Appelterepad","highway":"cycleway","vertex1":16674,"vertex2":16672}},{"type":"Feature","geometry":{"type":"LineString","coordinates":[[3.7134,51.08258],[3.713902,51.08256],[3.714301,51.08256]]},"properties":{"name":"Biesbilkpad","highway":"cycleway","vertex1":16670,"vertex2":16668}},{"type":"Feature","geometry":{"type":"LineString","coordinates":[[3.7134,51.08258],[3.713106,51.0826],[3.712604,51.08264]]},"properties":{"name":"Biesbilkpad","highway":"cycleway","vertex1":16670,"vertex2":16724}},{"type":"Feature","geometry":{"type":"LineString","coordinates":[[3.718229,51.08101],[3.718576,51.08141]]},"properties":{"name":"Zeilschipstraat","highway":"residential","vertex1":16669,"vertex2":16653}},{"type":"Feature","geometry":{"type":"LineString","coordinates":[[3.718229,51.08101],[3.718062,51.08082],[3.717948,51.08062],[3.717808,51.08012],[3.717538,51.07919],[3.717273,51.07843],[3.717163,51.07809],[3.717075,51.07774],[3.716889,51.07711],[3.716852,51.07701],[3.716785,51.07693]]},"properties":{"name":"Zeilschipstraat","highway":"residential","vertex1":16669,"vertex2":16514}},{"type":"Feature","geometry":{"type":"LineString","coordinates":[[3.718229,51.08101],[3.718441,51.08096],[3.719292,51.08068],[3.71935,51.08066]]},"properties":{"highway":"unclassified","vertex1":16669,"vertex2":16500}},{"type":"Feature","geometry":{"type":"LineString","coordinates":[[3.714301,51.08256],[3.714803,51.08256],[3.714988,51.08256]]},"properties":{"name":"Biesbilkpad","highway":"cycleway","vertex1":16668,"vertex2":16666}},{"type":"Feature","geometry":{"type":"LineString","coordinates":[[3.714301,51.08256],[3.714093,51.08268],[3.713894,51.08281],[3.713629,51.08302],[3.713357,51.08321],[3.71283,51.0836]]},"properties":{"name":"Appelterepad","highway":"cycleway","vertex1":16668,"vertex2":16712}},{"type":"Feature","geometry":{"type":"LineString","coordinates":[[3.714988,51.08256],[3.715664,51.08256]]},"properties":{"name":"Biesbilkpad","highway":"cycleway","vertex1":16666,"vertex2":16664}},{"type":"Feature","geometry":{"type":"LineString","coordinates":[[3.714988,51.08256],[3.714803,51.08275],[3.714577,51.0829],[3.714295,51.08305]]},"properties":{"name":"Fabriekstraat","highway":"residential","vertex1":16666,"vertex2":16700}},{"type":"Feature","geometry":{"type":"LineString","coordinates":[[3.714295,51.08305],[3.714728,51.08327],[3.714932,51.08337]]},"properties":{"name":"Winkelgate","highway":"residential","vertex1":16700,"vertex2":16654}},{"type":"Feature","geometry":{"type":"LineString","coordinates":[[3.714838,51.08125],[3.714542,51.08083],[3.714051,51.08015],[3.713665,51.07955],[3.713524,51.07927]]},"properties":{"name":"Pieter Van Vynckstraat","highway":"residential","vertex1":16665,"vertex2":16492}},{"type":"Feature","geometry":{"type":"LineString","coordinates":[[3.715664,51.08256],[3.715714,51.08256],[3.7164,51.08255]]},"properties":{"name":"Biesbilkpad","highway":"cycleway","vertex1":16664,"vertex2":16658}},{"type":"Feature","geometry":{"type":"LineString","coordinates":[[3.715664,51.08256],[3.715722,51.08263],[3.715705,51.08268],[3.715732,51.08274]]},"properties":{"highway":"cycleway","vertex1":16664,"vertex2":16656}},{"type":"Feature","geometry":{"type":"LineString","coordinates":[[3.7164,51.08255],[3.716402,51.08259]]},"properties":{"name":"Morekstraat","cyclenetwork":"yes","maxspeed":"50","highway":"tertiary","vertex1":16658,"vertex2":16651}},{"type":"Feature","geometry":{"type":"LineString","coordinates":[[3.715732,51.08274],[3.715339,51.08311],[3.714932,51.08337]]},"properties":{"name":"Maarkpad","highway":"residential","vertex1":16656,"vertex2":16654}},{"type":"Feature","geometry":{"type":"LineString","coordinates":[[3.716402,51.08259],[3.716414,51.08284],[3.71643,51.08365]]},"properties":{"name":"Morekstraat","cyclenetwork":"yes","maxspeed":"50","highway":"tertiary","vertex1":16651,"vertex2":16704}},{"type":"Feature","geometry":{"type":"LineString","coordinates":[[3.72809,51.08242],[3.727866,51.08294]]},"properties":{"name":"Meulesteedsesteenweg","highway":"residential","maxspeed":"30","vertex1":16648,"vertex2":16607}},{"type":"Feature","geometry":{"type":"LineString","coordinates":[[3.72809,51.08242],[3.728246,51.08197],[3.728353,51.08174]]},"properties":{"name":"Meulesteedsesteenweg","highway":"residential","maxspeed":"30","vertex1":16648,"vertex2":16646}},{"type":"Feature","geometry":{"type":"LineString","coordinates":[[3.72809,51.08242],[3.728288,51.08244],[3.728449,51.08244],[3.730842,51.0822],[3.730917,51.08221],[3.731035,51.08221]]},"properties":{"name":"Glasgowstraat","highway":"residential","maxspeed":"30","vertex1":16648,"vertex2":16619}},{"type":"Feature","geometry":{"type":"LineString","coordinates":[[3.727866,51.08294],[3.727714,51.08292],[3.727601,51.08293]]},"properties":{"name":"Meulesteedsesteenweg","oneway":"yes","highway":"residential","maxspeed":"30","junction":"roundabout","vertex1":16607,"vertex2":16633}},{"type":"Feature","geometry":{"type":"LineString","coordinates":[[3.728353,51.08174],[3.728604,51.08117]]},"properties":{"name":"Meulesteedsesteenweg","highway":"residential","maxspeed":"30","vertex1":16646,"vertex2":16609}},{"type":"Feature","geometry":{"type":"LineString","coordinates":[[3.728353,51.08174],[3.727652,51.08172]]},"properties":{"name":"Hamburgstraat","highway":"residential","maxspeed":"30","vertex1":16646,"vertex2":16641}},{"type":"Feature","geometry":{"type":"LineString","coordinates":[[3.730064,51.08131],[3.729519,51.08121],[3.729477,51.0813]]},"properties":{"bicycle":"no","motorcar":"no","foot":"no","highway":"service","vertex1":16645,"vertex2":16617}},{"type":"Feature","geometry":{"type":"LineString","coordinates":[[3.727652,51.08172],[3.727683,51.08134],[3.727758,51.08094],[3.728093,51.08002]]},"properties":{"name":"Voorhavenlaan","maxspeed":"30","highway":"unclassified","vertex1":16641,"vertex2":16547}},{"type":"Feature","geometry":{"type":"LineString","coordinates":[[3.727652,51.08172],[3.727565,51.0828],[3.727568,51.08287],[3.727601,51.08293]]},"properties":{"name":"Voorhavenlaan","maxspeed":"30","highway":"unclassified","vertex1":16641,"vertex2":16633}},{"type":"Feature","geometry":{"type":"LineString","coordinates":[[3.733028,51.08235],[3.73114,51.08222],[3.731035,51.08221]]},"properties":{"name":"Glasgowstraat","highway":"unclassified","vertex1":16639,"vertex2":16619}},{"type":"Feature","geometry":{"type":"LineString","coordinates":[[3.733028,51.08235],[3.733178,51.08149],[3.733445,51.07986]]},"properties":{"name":"Port Arthurlaan","maxspeed":"50","highway":"unclassified","vertex1":16639,"vertex2":16533}},{"type":"Feature","geometry":{"type":"LineString","coordinates":[[3.733028,51.08235],[3.732824,51.08355],[3.73261,51.08523],[3.732445,51.08697]]},"properties":{"name":"Port Arthurlaan","maxspeed":"50","highway":"unclassified","vertex1":16639,"vertex2":17760}},{"type":"Feature","geometry":{"type":"LineString","coordinates":[[3.729978,51.08147],[3.729439,51.08138],[3.729477,51.0813]]},"properties":{"bicycle":"no","motorcar":"no","foot":"no","highway":"service","vertex1":16637,"vertex2":16617}},{"type":"Feature","geometry":{"type":"LineString","coordinates":[[3.731035,51.08221],[3.730964,51.08264]]},"properties":{"name":"New-Orleansstraat","highway":"primary","maxspeed":"50","cycleway":"lane","vertex1":16619,"vertex2":16614}},{"type":"Feature","geometry":{"type":"LineString","coordinates":[[3.731035,51.08221],[3.731077,51.08203],[3.731151,51.08157]]},"properties":{"name":"New-Orleansstraat","highway":"primary","maxspeed":"50","cycleway":"lane","vertex1":16619,"vertex2":16616}},{"type":"Feature","geometry":{"type":"LineString","coordinates":[[3.730652,51.081],[3.730483,51.08137],[3.730497,51.08142],[3.730553,51.08149],[3.730649,51.08153],[3.731049,51.08157],[3.731151,51.08157]]},"properties":{"bicycle":"no","motorcar":"no","foot":"no","highway":"service","vertex1":16618,"vertex2":16616}},{"type":"Feature","geometry":{"type":"LineString","coordinates":[[3.729477,51.0813],[3.728604,51.08117]]},"properties":{"highway":"service","vertex1":16617,"vertex2":16609}},{"type":"Feature","geometry":{"type":"LineString","coordinates":[[3.731151,51.08157],[3.731292,51.08073]]},"properties":{"name":"New-Orleansstraat","highway":"primary","maxspeed":"50","cycleway":"lane","vertex1":16616,"vertex2":16524}},{"type":"Feature","geometry":{"type":"LineString","coordinates":[[3.730964,51.08264],[3.730875,51.08311]]},"properties":{"name":"New-Orleansstraat","highway":"primary","maxspeed":"50","cycleway":"lane","vertex1":16614,"vertex2":16650}},{"type":"Feature","geometry":{"type":"LineString","coordinates":[[3.730964,51.08264],[3.730691,51.08262],[3.730614,51.08307]]},"properties":{"highway":"service","vertex1":16614,"vertex2":16603}},{"type":"Feature","geometry":{"type":"LineString","coordinates":[[3.730875,51.08311],[3.730614,51.08307]]},"properties":{"highway":"service","vertex1":16650,"vertex2":16603}},{"type":"Feature","geometry":{"type":"LineString","coordinates":[[3.728604,51.08117],[3.728927,51.08036]]},"properties":{"name":"Meulesteedsesteenweg","highway":"residential","maxspeed":"30","vertex1":16609,"vertex2":16539}},{"type":"Feature","geometry":{"type":"LineString","coordinates":[[3.731179,51.07826],[3.731944,51.07804],[3.732061,51.07799]]},"properties":{"highway":"service","vertex1":16600,"vertex2":16538}},{"type":"Feature","geometry":{"type":"LineString","coordinates":[[3.729549,51.08045],[3.730253,51.08014]]},"properties":{"name":"Helsinkistraat","highway":"residential","maxspeed":"30","vertex1":16599,"vertex2":16575}},{"type":"Feature","geometry":{"type":"LineString","coordinates":[[3.729549,51.08045],[3.728927,51.08036]]},"properties":{"name":"Leithstraat","highway":"residential","maxspeed":"30","vertex1":16599,"vertex2":16539}},{"type":"Feature","geometry":{"type":"LineString","coordinates":[[3.729549,51.08045],[3.729855,51.0805],[3.73105,51.0807],[3.731179,51.08072],[3.731292,51.08073]]},"properties":{"name":"Leithstraat","highway":"residential","maxspeed":"30","vertex1":16599,"vertex2":16524}},{"type":"Feature","geometry":{"type":"LineString","coordinates":[[3.73102,51.07945],[3.731465,51.07931]]},"properties":{"bicycle":"no","motorcar":"no","foot":"no","maxspeed":"30","highway":"service","vertex1":16598,"vertex2":16583}},{"type":"Feature","geometry":{"type":"LineString","coordinates":[[3.73102,51.07945],[3.730814,51.07922]]},"properties":{"bicycle":"no","motorcar":"no","foot":"no","maxspeed":"30","highway":"service","vertex1":16598,"vertex2":16565}},{"type":"Feature","geometry":{"type":"LineString","coordinates":[[3.73102,51.07945],[3.730797,51.07963]]},"properties":{"highway":"footway","vertex1":16598,"vertex2":16563}},{"type":"Feature","geometry":{"type":"LineString","coordinates":[[3.729689,51.07642],[3.729476,51.0764]]},"properties":{"highway":"service","vertex1":16597,"vertex2":16529}},{"type":"Feature","geometry":{"type":"LineString","coordinates":[[3.72868,51.076],[3.728593,51.076]]},"properties":{"name":"Liverpoolstraat","highway":"residential","maxspeed":"30","vertex1":16596,"vertex2":16574}},{"type":"Feature","geometry":{"type":"LineString","coordinates":[[3.72868,51.076],[3.729297,51.07603]]},"properties":{"name":"Liverpoolstraat","highway":"residential","maxspeed":"30","vertex1":16596,"vertex2":16521}},{"type":"Feature","geometry":{"type":"LineString","coordinates":[[3.72868,51.076],[3.728603,51.07675]]},"properties":{"bicycle":"yes","highway":"footway","vertex1":16596,"vertex2":16535}},{"type":"Feature","geometry":{"type":"LineString","coordinates":[[3.72868,51.076],[3.728718,51.07556],[3.729355,51.07557]]},"properties":{"bicycle":"yes","highway":"footway","vertex1":16596,"vertex2":16519}},{"type":"Feature","geometry":{"type":"LineString","coordinates":[[3.733948,51.07707],[3.733883,51.07742]]},"properties":{"name":"Port Arthurlaan","highway":"primary","maxspeed":"50","cycleway":"lane","vertex1":16595,"vertex2":16593}},{"type":"Feature","geometry":{"type":"LineString","coordinates":[[3.733948,51.07707],[3.734063,51.07635],[3.734216,51.07536],[3.734231,51.07517]]},"properties":{"name":"Port Arthurlaan","highway":"primary","maxspeed":"50","cycleway":"lane","vertex1":16595,"vertex2":16296}},{"type":"Feature","geometry":{"type":"LineString","coordinates":[[3.733948,51.07707],[3.734084,51.07708],[3.734146,51.07709],[3.734228,51.07709],[3.735219,51.07718],[3.735335,51.07718]]},"properties":{"highway":"unclassified","vertex1":16595,"vertex2":16520}},{"type":"Feature","geometry":{"type":"LineString","coordinates":[[3.733948,51.07707],[3.732083,51.07694]]},"properties":{"name":"Sint-Theresiastraat","highway":"residential","maxspeed":"30","vertex1":16595,"vertex2":16564}},{"type":"Feature","geometry":{"type":"LineString","coordinates":[[3.732381,51.07984],[3.73251,51.07983]]},"properties":{"tunnel":"building_passage","highway":"service","vertex1":16594,"vertex2":16518}},{"type":"Feature","geometry":{"type":"LineString","coordinates":[[3.732381,51.07984],[3.73231,51.07985]]},"properties":{"highway":"service","vertex1":16594,"vertex2":16569}},{"type":"Feature","geometry":{"type":"LineString","coordinates":[[3.733883,51.07742],[3.733668,51.07873],[3.733634,51.07894]]},"properties":{"name":"Port Arthurlaan","highway":"primary","maxspeed":"50","cycleway":"lane","vertex1":16593,"vertex2":16591}},{"type":"Feature","geometry":{"type":"LineString","coordinates":[[3.733883,51.07742],[3.733742,51.07743],[3.733629,51.07744],[3.731977,51.07771]]},"properties":{"name":"Dukkeldamstraat","highway":"residential","maxspeed":"30","vertex1":16593,"vertex2":16589}},{"type":"Feature","geometry":{"type":"LineString","coordinates":[[3.727154,51.07994],[3.728093,51.08002]]},"properties":{"maxspeed":"30","highway":"service","vertex1":16592,"vertex2":16547}},{"type":"Feature","geometry":{"type":"LineString","coordinates":[[3.727154,51.07994],[3.72709,51.08047],[3.727074,51.08081],[3.727085,51.08098],[3.727074,51.08108],[3.727015,51.08134],[3.726999,51.08146],[3.726978,51.08187],[3.726956,51.08217],[3.726924,51.08245],[3.726905,51.08278],[3.726892,51.08298],[3.726925,51.08332]]},"properties":{"name":"Voorhavenkaai","maxspeed":"30","highway":"unclassified","vertex1":16592,"vertex2":16604}},{"type":"Feature","geometry":{"type":"LineString","coordinates":[[3.727154,51.07994],[3.727214,51.07933],[3.727254,51.0789]]},"properties":{"name":"Voorhavenkaai","maxspeed":"30","highway":"unclassified","vertex1":16592,"vertex2":16550}},{"type":"Feature","geometry":{"type":"LineString","coordinates":[[3.733634,51.07894],[3.733629,51.07904]]},"properties":{"name":"Goolestraat","oneway":"yes","highway":"primary","maxspeed":"50","cycleway":"lane","vertex1":16591,"vertex2":16562}},{"type":"Feature","geometry":{"type":"LineString","coordinates":[[3.733634,51.07894],[3.733562,51.07904]]},"properties":{"name":"Goolestraat","oneway":"yes","highway":"primary","maxspeed":"50","cycleway":"lane","vertex1":16591,"vertex2":16541}},{"type":"Feature","geometry":{"type":"LineString","coordinates":[[3.732336,51.08003],[3.732427,51.07999]]},"properties":{"oneway":"yes","highway":"service","vertex1":16590,"vertex2":16586}},{"type":"Feature","geometry":{"type":"LineString","coordinates":[[3.732336,51.08003],[3.732285,51.08015],[3.732164,51.08022],[3.732011,51.08027],[3.731561,51.08038],[3.731365,51.08041]]},"properties":{"oneway":"yes","highway":"service","vertex1":16590,"vertex2":16552}},{"type":"Feature","geometry":{"type":"LineString","coordinates":[[3.732336,51.08003],[3.732325,51.07995],[3.73231,51.07985]]},"properties":{"highway":"service","vertex1":16590,"vertex2":16569}},{"type":"Feature","geometry":{"type":"LineString","coordinates":[[3.731977,51.07771],[3.730338,51.07799]]},"properties":{"name":"Dukkeldamstraat","highway":"residential","maxspeed":"30","vertex1":16589,"vertex2":16579}},{"type":"Feature","geometry":{"type":"LineString","coordinates":[[3.731977,51.07771],[3.732061,51.07799]]},"properties":{"name":"Galveston straat","highway":"residential","vertex1":16589,"vertex2":16538}},{"type":"Feature","geometry":{"type":"LineString","coordinates":[[3.731977,51.07771],[3.732083,51.07694]]},"properties":{"name":"Galvestonstraat","highway":"residential","maxspeed":"30","vertex1":16589,"vertex2":16564}},{"type":"Feature","geometry":{"type":"LineString","coordinates":[[3.730225,51.07644],[3.729964,51.07754]]},"properties":{"name":"Meulesteedsesteenweg","highway":"residential","maxspeed":"30","vertex1":16588,"vertex2":16532}},{"type":"Feature","geometry":{"type":"LineString","coordinates":[[3.730225,51.07644],[3.730281,51.07616]]},"properties":{"name":"Meulesteedsesteenweg","highway":"residential","maxspeed":"30","vertex1":16588,"vertex2":16546}},{"type":"Feature","geometry":{"type":"LineString","coordinates":[[3.730225,51.07644],[3.730934,51.07664]]},"properties":{"name":"Sint-Theresiastraat","highway":"residential","maxspeed":"30","vertex1":16588,"vertex2":16558}},{"type":"Feature","geometry":{"type":"LineString","coordinates":[[3.731771,51.07954],[3.731705,51.07949],[3.73165,51.07944],[3.73153,51.07939],[3.731465,51.07931]]},"properties":{"name":"Manchesterstraat","oneway":"yes","oneway:bicycle":"no","highway":"residential","maxspeed":"30","vertex1":16587,"vertex2":16583}},{"type":"Feature","geometry":{"type":"LineString","coordinates":[[3.731771,51.07954],[3.731892,51.07961]]},"properties":{"name":"Duinkerkeplein","highway":"primary","maxspeed":"50","vertex1":16587,"vertex2":16578}},{"type":"Feature","geometry":{"type":"LineString","coordinates":[[3.731771,51.07954],[3.731912,51.0795],[3.732073,51.07948]]},"properties":{"name":"Goolestraat","oneway":"yes","highway":"primary","maxspeed":"50","cycleway":"lane","vertex1":16587,"vertex2":16566}},{"type":"Feature","geometry":{"type":"LineString","coordinates":[[3.731771,51.07954],[3.731657,51.07959],[3.73159,51.07964],[3.731536,51.07968],[3.731482,51.07974]]},"properties":{"name":"Duinkerkeplein","oneway":"yes","highway":"primary","maxspeed":"50","cycleway":"lane","vertex1":16587,"vertex2":16553}},{"type":"Feature","geometry":{"type":"LineString","coordinates":[[3.732427,51.07999],[3.732555,51.07997]]},"properties":{"tunnel":"building_passage","oneway":"yes","highway":"service","vertex1":16586,"vertex2":16573}},{"type":"Feature","geometry":{"type":"LineString","coordinates":[[3.731414,51.07993],[3.731424,51.08001]]},"properties":{"name":"Duinkerkeplein","oneway":"yes","highway":"primary","maxspeed":"50","cycleway":"lane","vertex1":16585,"vertex2":16549}},{"type":"Feature","geometry":{"type":"LineString","coordinates":[[3.731414,51.07993],[3.73144,51.07981],[3.731482,51.07974]]},"properties":{"name":"Duinkerkeplein","oneway":"yes","highway":"primary","maxspeed":"50","cycleway":"lane","vertex1":16585,"vertex2":16553}},{"type":"Feature","geometry":{"type":"LineString","coordinates":[[3.732266,51.07974],[3.732254,51.07971],[3.732179,51.07967],[3.732049,51.07959]]},"properties":{"highway":"service","vertex1":16584,"vertex2":16522}},{"type":"Feature","geometry":{"type":"LineString","coordinates":[[3.732266,51.07974],[3.732301,51.07981]]},"properties":{"tunnel":"building_passage","highway":"service","vertex1":16584,"vertex2":16571}},{"type":"Feature","geometry":{"type":"LineString","coordinates":[[3.731465,51.07931],[3.731011,51.07879],[3.730647,51.07838]]},"properties":{"name":"Manchesterstraat","oneway":"yes","oneway:bicycle":"no","highway":"residential","maxspeed":"30","vertex1":16583,"vertex2":16581}},{"type":"Feature","geometry":{"type":"LineString","coordinates":[[3.731465,51.07931],[3.731482,51.07974]]},"properties":{"name":"Duinkerkeplein","highway":"footway","vertex1":16583,"vertex2":16553}},{"type":"Feature","geometry":{"type":"LineString","coordinates":[[3.726199,51.07573],[3.726149,51.07625],[3.726134,51.07652],[3.726065,51.07677],[3.725999,51.07689],[3.725932,51.07698],[3.72578,51.0771],[3.725327,51.07745]]},"properties":{"name":"Wiedauwkaai","maxspeed":"50","highway":"secondary","cycleway":"lane","vertex1":16582,"vertex2":16543}},{"type":"Feature","geometry":{"type":"LineString","coordinates":[[3.726199,51.07573],[3.726411,51.07349]]},"properties":{"name":"Wiedauwkaai","maxspeed":"50","highway":"secondary","cycleway":"lane","vertex1":16582,"vertex2":16385}},{"type":"Feature","geometry":{"type":"LineString","coordinates":[[3.726199,51.07573],[3.722464,51.07455]]},"properties":{"highway":"service","vertex1":16582,"vertex2":16419}},{"type":"Feature","geometry":{"type":"LineString","coordinates":[[3.730647,51.07838],[3.730338,51.07799]]},"properties":{"name":"Manchesterstraat","oneway":"yes","oneway:bicycle":"no","highway":"residential","maxspeed":"30","vertex1":16581,"vertex2":16579}},{"type":"Feature","geometry":{"type":"LineString","coordinates":[[3.730647,51.07838],[3.730232,51.07852]]},"properties":{"bicycle":"no","motorcar":"no","foot":"no","maxspeed":"30","highway":"service","vertex1":16581,"vertex2":16556}},{"type":"Feature","geometry":{"type":"LineString","coordinates":[[3.729214,51.07637],[3.729297,51.07603]]},"properties":{"name":"Londenstraat","highway":"residential","maxspeed":"30","vertex1":16580,"vertex2":16521}},{"type":"Feature","geometry":{"type":"LineString","coordinates":[[3.729214,51.07637],[3.729118,51.07677]]},"properties":{"name":"Londenstraat","highway":"residential","maxspeed":"30","vertex1":16580,"vertex2":16537}},{"type":"Feature","geometry":{"type":"LineString","coordinates":[[3.729214,51.07637],[3.729304,51.07638]]},"properties":{"highway":"service","vertex1":16580,"vertex2":16527}},{"type":"Feature","geometry":{"type":"LineString","coordinates":[[3.730338,51.07799],[3.72977,51.0781]]},"properties":{"name":"Dukkeldamstraat","highway":"residential","maxspeed":"30","vertex1":16579,"vertex2":16554}},{"type":"Feature","geometry":{"type":"LineString","coordinates":[[3.730338,51.07799],[3.729964,51.07754]]},"properties":{"name":"Manchesterstraat","oneway":"yes","highway":"residential","maxspeed":"30","vertex1":16579,"vertex2":16532}},{"type":"Feature","geometry":{"type":"LineString","coordinates":[[3.731892,51.07961],[3.731799,51.07965],[3.731702,51.07969],[3.73162,51.07975],[3.731555,51.07981],[3.731513,51.07988],[3.731477,51.07994]]},"properties":{"name":"Duinkerkeplein","oneway":"yes","highway":"primary","maxspeed":"50","cycleway":"lane","vertex1":16578,"vertex2":16530}},{"type":"Feature","geometry":{"type":"LineString","coordinates":[[3.731892,51.07961],[3.732049,51.07959]]},"properties":{"name":"Goolestraat","oneway":"yes","highway":"primary","maxspeed":"50","cycleway":"lane","vertex1":16578,"vertex2":16522}},{"type":"Feature","geometry":{"type":"LineString","coordinates":[[3.730737,51.07996],[3.730253,51.08014]]},"properties":{"name":"Helsinkistraat","highway":"residential","maxspeed":"30","vertex1":16577,"vertex2":16575}},{"type":"Feature","geometry":{"type":"LineString","coordinates":[[3.730737,51.07996],[3.730857,51.07996],[3.7312,51.07998],[3.731424,51.08001]]},"properties":{"name":"Helsinkistraat","highway":"residential","maxspeed":"30","vertex1":16577,"vertex2":16549}},{"type":"Feature","geometry":{"type":"LineString","coordinates":[[3.730737,51.07996],[3.730739,51.07989]]},"properties":{"highway":"footway","vertex1":16577,"vertex2":16561}},{"type":"Feature","geometry":{"type":"LineString","coordinates":[[3.728541,51.07749],[3.728928,51.0775]]},"properties":{"name":"New-Yorkstraat","highway":"unclassified","vertex1":16576,"vertex2":16551}},{"type":"Feature","geometry":{"type":"LineString","coordinates":[[3.728541,51.07749],[3.728503,51.07751]]},"properties":{"name":"Voorhavenlaan","maxspeed":"30","highway":"unclassified","vertex1":16576,"vertex2":16570}},{"type":"Feature","geometry":{"type":"LineString","coordinates":[[3.728541,51.07749],[3.728538,51.07743],[3.728589,51.07687],[3.728603,51.07675]]},"properties":{"bicycle":"yes","highway":"footway","vertex1":16576,"vertex2":16535}},{"type":"Feature","geometry":{"type":"LineString","coordinates":[[3.730253,51.08014],[3.729773,51.07948],[3.729561,51.07937],[3.729382,51.07934]]},"properties":{"name":"Greenockstraat","highway":"residential","maxspeed":"30","vertex1":16575,"vertex2":16567}},{"type":"Feature","geometry":{"type":"LineString","coordinates":[[3.728593,51.076],[3.728525,51.07675]]},"properties":{"name":"Santosstraat","maxspeed":"30","highway":"unclassified","vertex1":16574,"vertex2":16544}},{"type":"Feature","geometry":{"type":"LineString","coordinates":[[3.728593,51.076],[3.728756,51.07475],[3.728788,51.07458],[3.728842,51.07445],[3.728921,51.07429]]},"properties":{"name":"Santosstraat","maxspeed":"30","highway":"unclassified","vertex1":16574,"vertex2":16400}},{"type":"Feature","geometry":{"type":"LineString","coordinates":[[3.728593,51.076],[3.728353,51.07597],[3.728066,51.07594],[3.727523,51.07592]]},"properties":{"maxspeed":"30","highway":"unclassified","vertex1":16574,"vertex2":16568}},{"type":"Feature","geometry":{"type":"LineString","coordinates":[[3.732555,51.07997],[3.733445,51.07986]]},"properties":{"oneway":"yes","highway":"service","vertex1":16573,"vertex2":16533}},{"type":"Feature","geometry":{"type":"LineString","coordinates":[[3.728199,51.07974],[3.728241,51.07966],[3.728308,51.07944],[3.728371,51.07895]]},"properties":{"name":"Voorhavenlaan","maxspeed":"30","highway":"unclassified","vertex1":16572,"vertex2":16542}},{"type":"Feature","geometry":{"type":"LineString","coordinates":[[3.728199,51.07974],[3.728093,51.08002]]},"properties":{"name":"Voorhavenlaan","maxspeed":"30","highway":"unclassified","vertex1":16572,"vertex2":16547}},{"type":"Feature","geometry":{"type":"LineString","coordinates":[[3.728199,51.07974],[3.729138,51.07998]]},"properties":{"name":"Rotterdamstraat","highway":"residential","maxspeed":"30","vertex1":16572,"vertex2":16525}},{"type":"Feature","geometry":{"type":"LineString","coordinates":[[3.732301,51.07981],[3.73231,51.07985]]},"properties":{"highway":"service","vertex1":16571,"vertex2":16569}},{"type":"Feature","geometry":{"type":"LineString","coordinates":[[3.728503,51.07751],[3.728477,51.07759],[3.728477,51.07793],[3.728371,51.07895]]},"properties":{"name":"Voorhavenlaan","maxspeed":"30","highway":"unclassified","vertex1":16570,"vertex2":16542}},{"type":"Feature","geometry":{"type":"LineString","coordinates":[[3.728503,51.07751],[3.728472,51.07748],[3.728467,51.07743]]},"properties":{"name":"Voorhavenlaan","highway":"track","vertex1":16570,"vertex2":16548}},{"type":"Feature","geometry":{"type":"LineString","coordinates":[[3.727523,51.07592],[3.727478,51.07652]]},"properties":{"name":"Voorhavenkaai","maxspeed":"30","highway":"unclassified","vertex1":16568,"vertex2":16528}},{"type":"Feature","geometry":{"type":"LineString","coordinates":[[3.727523,51.07592],[3.727568,51.0755],[3.727632,51.07487],[3.727712,51.07424]]},"properties":{"name":"Voorhavenkaai","maxspeed":"30","highway":"unclassified","vertex1":16568,"vertex2":16395}},{"type":"Feature","geometry":{"type":"LineString","coordinates":[[3.729382,51.07934],[3.729138,51.07998]]},"properties":{"name":"Meulesteedsesteenweg","highway":"residential","maxspeed":"30","vertex1":16567,"vertex2":16525}},{"type":"Feature","geometry":{"type":"LineString","coordinates":[[3.729382,51.07934],[3.72977,51.0781]]},"properties":{"name":"Meulesteedsesteenweg","highway":"residential","maxspeed":"30","vertex1":16567,"vertex2":16554}},{"type":"Feature","geometry":{"type":"LineString","coordinates":[[3.732073,51.07948],[3.732073,51.07925]]},"properties":{"name":"Goolestraat","highway":"unclassified","vertex1":16566,"vertex2":16526}},{"type":"Feature","geometry":{"type":"LineString","coordinates":[[3.732073,51.07948],[3.732611,51.07941]]},"properties":{"name":"Goolestraat","oneway":"yes","highway":"primary","maxspeed":"50","cycleway":"lane","vertex1":16566,"vertex2":16534}},{"type":"Feature","geometry":{"type":"LineString","coordinates":[[3.732083,51.07694],[3.730934,51.07664]]},"properties":{"name":"Sint-Theresiastraat","highway":"residential","maxspeed":"30","vertex1":16564,"vertex2":16558}},{"type":"Feature","geometry":{"type":"LineString","coordinates":[[3.732083,51.07694],[3.732187,51.07632]]},"properties":{"name":"Koggestraat","highway":"residential","maxspeed":"30","vertex1":16564,"vertex2":16517}},{"type":"Feature","geometry":{"type":"LineString","coordinates":[[3.730797,51.07963],[3.730739,51.07989]]},"properties":{"highway":"footway","vertex1":16563,"vertex2":16561}},{"type":"Feature","geometry":{"type":"LineString","coordinates":[[3.730797,51.07963],[3.730552,51.07976]]},"properties":{"highway":"footway","vertex1":16563,"vertex2":16559}},{"type":"Feature","geometry":{"type":"LineString","coordinates":[[3.733629,51.07904],[3.733591,51.07914],[3.733508,51.07924],[3.733429,51.0793],[3.73329,51.07938]]},"properties":{"name":"Goolestraat","oneway":"yes","highway":"primary","maxspeed":"50","cycleway":"lane","vertex1":16562,"vertex2":16523}},{"type":"Feature","geometry":{"type":"LineString","coordinates":[[3.730739,51.07989],[3.730552,51.07976]]},"properties":{"highway":"footway","vertex1":16561,"vertex2":16559}},{"type":"Feature","geometry":{"type":"LineString","coordinates":[[3.732236,51.07608],[3.731581,51.07628]]},"properties":{"name":"Koggestraat","highway":"residential","maxspeed":"30","vertex1":16560,"vertex2":16536}},{"type":"Feature","geometry":{"type":"LineString","coordinates":[[3.732236,51.07608],[3.732187,51.07632]]},"properties":{"name":"Koggestraat","highway":"residential","maxspeed":"30","vertex1":16560,"vertex2":16517}},{"type":"Feature","geometry":{"type":"LineString","coordinates":[[3.730552,51.07976],[3.730472,51.07967]]},"properties":{"highway":"footway","vertex1":16559,"vertex2":16557}},{"type":"Feature","geometry":{"type":"LineString","coordinates":[[3.730552,51.07976],[3.730359,51.07983]]},"properties":{"highway":"footway","vertex1":16559,"vertex2":16555}},{"type":"Feature","geometry":{"type":"LineString","coordinates":[[3.730934,51.07664],[3.730991,51.07655],[3.731071,51.07647],[3.731178,51.07641],[3.731581,51.07628]]},"properties":{"name":"Koggestraat","highway":"residential","maxspeed":"30","vertex1":16558,"vertex2":16536}},{"type":"Feature","geometry":{"type":"LineString","coordinates":[[3.72977,51.0781],[3.729964,51.07754]]},"properties":{"name":"Meulesteedsesteenweg","highway":"residential","maxspeed":"30","vertex1":16554,"vertex2":16532}},{"type":"Feature","geometry":{"type":"LineString","coordinates":[[3.731365,51.08041],[3.731318,51.08062],[3.731292,51.08073]]},"properties":{"name":"New-Orleansstraat","highway":"primary","maxspeed":"50","cycleway":"lane","vertex1":16552,"vertex2":16524}},{"type":"Feature","geometry":{"type":"LineString","coordinates":[[3.731365,51.08041],[3.731424,51.08001]]},"properties":{"name":"New-Orleansstraat","highway":"primary","maxspeed":"50","cycleway":"lane","vertex1":16552,"vertex2":16549}},{"type":"Feature","geometry":{"type":"LineString","coordinates":[[3.728928,51.0775],[3.729118,51.07677]]},"properties":{"name":"Londenstraat","highway":"residential","maxspeed":"30","vertex1":16551,"vertex2":16537}},{"type":"Feature","geometry":{"type":"LineString","coordinates":[[3.728928,51.0775],[3.729964,51.07754]]},"properties":{"name":"New-Yorkstraat","highway":"unclassified","vertex1":16551,"vertex2":16532}},{"type":"Feature","geometry":{"type":"LineString","coordinates":[[3.727254,51.0789],[3.728371,51.07895]]},"properties":{"maxspeed":"30","highway":"unclassified","vertex1":16550,"vertex2":16542}},{"type":"Feature","geometry":{"type":"LineString","coordinates":[[3.727254,51.0789],[3.727273,51.07863],[3.727374,51.07761],[3.727478,51.07652]]},"properties":{"name":"Voorhavenkaai","maxspeed":"30","highway":"unclassified","vertex1":16550,"vertex2":16528}},{"type":"Feature","geometry":{"type":"LineString","coordinates":[[3.731424,51.08001],[3.731477,51.07994]]},"properties":{"name":"Duinkerkeplein","oneway":"yes","highway":"primary","maxspeed":"50","cycleway":"lane","vertex1":16549,"vertex2":16530}},{"type":"Feature","geometry":{"type":"LineString","coordinates":[[3.728467,51.07743],[3.728525,51.07675]]},"properties":{"name":"Santosstraat","maxspeed":"30","highway":"unclassified","vertex1":16548,"vertex2":16544}},{"type":"Feature","geometry":{"type":"LineString","coordinates":[[3.730281,51.07616],[3.730294,51.07607]]},"properties":{"name":"Meulesteedsesteenweg","highway":"residential","maxspeed":"30","vertex1":16546,"vertex2":16516}},{"type":"Feature","geometry":{"type":"LineString","coordinates":[[3.730281,51.07616],[3.733039,51.07532]]},"properties":{"name":"Vorkstraat","oneway":"yes","highway":"residential","maxspeed":"30","vertex1":16546,"vertex2":16289}},{"type":"Feature","geometry":{"type":"LineString","coordinates":[[3.732357,51.07955],[3.732619,51.07952]]},"properties":{"name":"Goolestraat","oneway":"yes","highway":"primary","maxspeed":"50","cycleway":"lane","vertex1":16545,"vertex2":16540}},{"type":"Feature","geometry":{"type":"LineString","coordinates":[[3.732357,51.07955],[3.732049,51.07959]]},"properties":{"name":"Goolestraat","oneway":"yes","highway":"primary","maxspeed":"50","cycleway":"lane","vertex1":16545,"vertex2":16522}},{"type":"Feature","geometry":{"type":"LineString","coordinates":[[3.728525,51.07675],[3.728603,51.07675]]},"properties":{"name":"Bombaystraat","highway":"residential","maxspeed":"30","vertex1":16544,"vertex2":16535}},{"type":"Feature","geometry":{"type":"LineString","coordinates":[[3.728525,51.07675],[3.728398,51.07674],[3.728349,51.07671],[3.728327,51.07669],[3.728332,51.07658],[3.728313,51.07656],[3.728268,51.07656],[3.727478,51.07652]]},"properties":{"name":"Voorhavenkaai","maxspeed":"30","highway":"unclassified","vertex1":16544,"vertex2":16528}},{"type":"Feature","geometry":{"type":"LineString","coordinates":[[3.725327,51.07745],[3.723054,51.07656],[3.722587,51.0762],[3.722509,51.07615]]},"properties":{"name":"Limbastraat","highway":"residential","vertex1":16543,"vertex2":16495}},{"type":"Feature","geometry":{"type":"LineString","coordinates":[[3.725327,51.07745],[3.724248,51.07825],[3.724106,51.07838],[3.723983,51.07854],[3.723885,51.0787],[3.723844,51.07886],[3.723856,51.07905],[3.72393,51.07923],[3.724094,51.07947],[3.724329,51.07965],[3.724595,51.07979],[3.724902,51.07993],[3.725063,51.08004],[3.725224,51.0802],[3.725281,51.0803],[3.725322,51.08047],[3.72505,51.08391],[3.725036,51.08448],[3.725078,51.08503],[3.725105,51.08519],[3.725156,51.0855],[3.725233,51.08582],[3.725293,51.08602]]},"properties":{"name":"Wiedauwkaai","maxspeed":"50","highway":"secondary","cycleway":"lane","vertex1":16543,"vertex2":16635}},{"type":"Feature","geometry":{"type":"LineString","coordinates":[[3.733562,51.07904],[3.733456,51.07917],[3.733296,51.07927],[3.733179,51.07932]]},"properties":{"name":"Goolestraat","oneway":"yes","highway":"primary","maxspeed":"50","cycleway":"lane","vertex1":16541,"vertex2":16531}},{"type":"Feature","geometry":{"type":"LineString","coordinates":[[3.732619,51.07952],[3.732991,51.07947],[3.733141,51.07944],[3.73326,51.0794],[3.73329,51.07938]]},"properties":{"name":"Goolestraat","oneway":"yes","highway":"primary","maxspeed":"50","cycleway":"lane","vertex1":16540,"vertex2":16523}},{"type":"Feature","geometry":{"type":"LineString","coordinates":[[3.732619,51.07952],[3.732692,51.07981],[3.73251,51.07983]]},"properties":{"highway":"service","vertex1":16540,"vertex2":16518}},{"type":"Feature","geometry":{"type":"LineString","coordinates":[[3.728927,51.08036],[3.729138,51.07998]]},"properties":{"name":"Meulesteedsesteenweg","highway":"residential","maxspeed":"30","vertex1":16539,"vertex2":16525}},{"type":"Feature","geometry":{"type":"LineString","coordinates":[[3.729118,51.07677],[3.728603,51.07675]]},"properties":{"name":"Bombaystraat","highway":"residential","maxspeed":"30","vertex1":16537,"vertex2":16535}},{"type":"Feature","geometry":{"type":"LineString","coordinates":[[3.731581,51.07628],[3.732187,51.07632]]},"properties":{"name":"Koggestraat","highway":"residential","maxspeed":"30","vertex1":16536,"vertex2":16517}},{"type":"Feature","geometry":{"type":"LineString","coordinates":[[3.732611,51.07941],[3.732859,51.07938],[3.733025,51.07936],[3.733179,51.07932]]},"properties":{"name":"Goolestraat","oneway":"yes","highway":"primary","maxspeed":"50","cycleway":"lane","vertex1":16534,"vertex2":16531}},{"type":"Feature","geometry":{"type":"LineString","coordinates":[[3.733445,51.07986],[3.733461,51.07961],[3.733433,51.07954],[3.733371,51.07946],[3.73329,51.07938]]},"properties":{"name":"Port Arthurlaan","maxspeed":"50","highway":"unclassified","vertex1":16533,"vertex2":16523}},{"type":"Feature","geometry":{"type":"LineString","coordinates":[[3.733179,51.07932],[3.73329,51.07938]]},"properties":{"name":"Port Arthurlaan","maxspeed":"50","highway":"unclassified","vertex1":16531,"vertex2":16523}},{"type":"Feature","geometry":{"type":"LineString","coordinates":[[3.729476,51.0764],[3.729304,51.07638]]},"properties":{"tunnel":"building_passage","highway":"service","vertex1":16529,"vertex2":16527}},{"type":"Feature","geometry":{"type":"LineString","coordinates":[[3.729297,51.07603],[3.729355,51.07557]]},"properties":{"name":"Londenstraat","highway":"residential","maxspeed":"30","vertex1":16521,"vertex2":16519}},{"type":"Feature","geometry":{"type":"LineString","coordinates":[[3.729297,51.07603],[3.730294,51.07607]]},"properties":{"name":"Liverpoolstraat","highway":"residential","maxspeed":"30","vertex1":16521,"vertex2":16516}},{"type":"Feature","geometry":{"type":"LineString","coordinates":[[3.735335,51.07718],[3.734868,51.08003],[3.734149,51.08435],[3.733645,51.08735],[3.73313,51.09042],[3.732712,51.09298],[3.732579,51.09363]]},"properties":{"highway":"service","vertex1":16520,"vertex2":17583}},{"type":"Feature","geometry":{"type":"LineString","coordinates":[[3.735335,51.07718],[3.735782,51.0743]]},"properties":{"highway":"service","vertex1":16520,"vertex2":18908}},{"type":"Feature","geometry":{"type":"LineString","coordinates":[[3.729355,51.07557],[3.729402,51.07521],[3.729466,51.07498],[3.7297,51.07434]]},"properties":{"name":"Londenstraat","highway":"residential","maxspeed":"30","vertex1":16519,"vertex2":16369}},{"type":"Feature","geometry":{"type":"LineString","coordinates":[[3.730294,51.07607],[3.73038,51.07554],[3.730681,51.07474]]},"properties":{"name":"Meulesteedsesteenweg","highway":"residential","maxspeed":"30","vertex1":16516,"vertex2":16333}},{"type":"Feature","geometry":{"type":"LineString","coordinates":[[3.715256,51.07972],[3.716227,51.07953]]},"properties":{"bicycle":"no","motorcar":"no","foot":"no","highway":"service","vertex1":16515,"vertex2":16502}},{"type":"Feature","geometry":{"type":"LineString","coordinates":[[3.716785,51.07693],[3.716577,51.07688],[3.716447,51.07683],[3.716406,51.07677]]},"properties":{"name":"Zeilschipstraat","highway":"residential","vertex1":16514,"vertex2":16512}},{"type":"Feature","geometry":{"type":"LineString","coordinates":[[3.716785,51.07693],[3.71697,51.07692],[3.717268,51.0769],[3.717726,51.07683]]},"properties":{"name":"Tapuitstraat","highway":"residential","vertex1":16514,"vertex2":16488}},{"type":"Feature","geometry":{"type":"LineString","coordinates":[[3.714327,51.07663],[3.714092,51.07666],[3.713874,51.07667],[3.712734,51.07661],[3.71258,51.07658]]},"properties":{"name":"Grensstraat","highway":"residential","maxspeed":"30","vertex1":16513,"vertex2":16832}},{"type":"Feature","geometry":{"type":"LineString","coordinates":[[3.714327,51.07663],[3.714453,51.0766],[3.714727,51.07647],[3.7152,51.07625]]},"properties":{"name":"Grensstraat","highway":"residential","maxspeed":"30","vertex1":16513,"vertex2":16504}},{"type":"Feature","geometry":{"type":"LineString","coordinates":[[3.714327,51.07663],[3.714346,51.07674],[3.714013,51.07686],[3.713675,51.07696],[3.713225,51.07707],[3.712909,51.07713],[3.712645,51.07718],[3.71231,51.07718]]},"properties":{"highway":"track","vertex1":16513,"vertex2":16868}},{"type":"Feature","geometry":{"type":"LineString","coordinates":[[3.71258,51.07658],[3.712625,51.0765],[3.712862,51.07615]]},"properties":{"name":"Veronicastraat","highway":"residential","maxspeed":"30","vertex1":16832,"vertex2":16859}},{"type":"Feature","geometry":{"type":"LineString","coordinates":[[3.71258,51.07658],[3.712536,51.07666],[3.71231,51.07718]]},"properties":{"name":"Veronicastraat","highway":"residential","maxspeed":"30","vertex1":16832,"vertex2":16868}},{"type":"Feature","geometry":{"type":"LineString","coordinates":[[3.716406,51.07677],[3.716398,51.07667],[3.716522,51.07636],[3.716666,51.07607],[3.716802,51.07584],[3.716881,51.07573],[3.71694,51.07565],[3.71709,51.0755],[3.717158,51.07544]]},"properties":{"name":"Zeilschipstraat","highway":"residential","vertex1":16512,"vertex2":16482}},{"type":"Feature","geometry":{"type":"LineString","coordinates":[[3.713737,51.07904],[3.71334,51.07897],[3.712612,51.07871]]},"properties":{"name":"Sint-Godelievestraat","highway":"residential","vertex1":16511,"vertex2":16885}},{"type":"Feature","geometry":{"type":"LineString","coordinates":[[3.713737,51.07904],[3.714435,51.07888],[3.715123,51.07873],[3.715882,51.07856]]},"properties":{"name":"Sint-Godelievestraat","highway":"residential","vertex1":16511,"vertex2":16497}},{"type":"Feature","geometry":{"type":"LineString","coordinates":[[3.713737,51.07904],[3.713487,51.07912],[3.713369,51.07915]]},"properties":{"name":"Spoorwegstraat","highway":"residential","vertex1":16511,"vertex2":16882}},{"type":"Feature","geometry":{"type":"LineString","coordinates":[[3.713369,51.07915],[3.713524,51.07927]]},"properties":{"name":"Spoorwegstraat","highway":"residential","vertex1":16882,"vertex2":16492}},{"type":"Feature","geometry":{"type":"LineString","coordinates":[[3.713462,51.0809],[3.712878,51.0811],[3.712785,51.08126],[3.712703,51.08144],[3.712545,51.0818],[3.71249,51.08195]]},"properties":{"name":"Holmerestraat","highway":"residential","vertex1":16510,"vertex2":16782}},{"type":"Feature","geometry":{"type":"LineString","coordinates":[[3.713462,51.0809],[3.713408,51.08082]]},"properties":{"name":"Liefbilkstraat","highway":"residential","vertex1":16510,"vertex2":16499}},{"type":"Feature","geometry":{"type":"LineString","coordinates":[[3.71455,51.07741],[3.715039,51.0774],[3.715396,51.07739],[3.715747,51.07738]]},"properties":{"name":"Spurriestraat","highway":"residential","vertex1":16509,"vertex2":16507}},{"type":"Feature","geometry":{"type":"LineString","coordinates":[[3.71455,51.07741],[3.714247,51.07742],[3.7137,51.07751],[3.713112,51.07764]]},"properties":{"name":"Spurriestraat","highway":"residential","vertex1":16509,"vertex2":16855}},{"type":"Feature","geometry":{"type":"LineString","coordinates":[[3.71455,51.07741],[3.714576,51.07765],[3.714587,51.07783],[3.714544,51.07788],[3.714404,51.07792],[3.714065,51.07793]]},"properties":{"name":"Tijmstraat","highway":"residential","vertex1":16509,"vertex2":16489}},{"type":"Feature","geometry":{"type":"LineString","coordinates":[[3.718742,51.07591],[3.720619,51.07519]]},"properties":{"highway":"service","vertex1":16508,"vertex2":16450}},{"type":"Feature","geometry":{"type":"LineString","coordinates":[[3.715747,51.07738],[3.715755,51.07731],[3.715733,51.07701],[3.715637,51.07676],[3.715468,51.07658]]},"properties":{"name":"Morekstraat","cyclenetwork":"yes","maxspeed":"50","highway":"tertiary","vertex1":16507,"vertex2":16485}},{"type":"Feature","geometry":{"type":"LineString","coordinates":[[3.715747,51.07738],[3.71575,51.07753],[3.715744,51.07804],[3.715776,51.07827],[3.715882,51.07856]]},"properties":{"name":"Morekstraat","cyclenetwork":"yes","maxspeed":"50","highway":"tertiary","vertex1":16507,"vertex2":16497}},{"type":"Feature","geometry":{"type":"LineString","coordinates":[[3.715292,51.07637],[3.7152,51.07625]]},"properties":{"name":"Dracenastraat","cyclenetwork":"yes","maxspeed":"50","highway":"tertiary","vertex1":16506,"vertex2":16504}},{"type":"Feature","geometry":{"type":"LineString","coordinates":[[3.715292,51.07637],[3.715468,51.07658]]},"properties":{"name":"Dracenastraat","cyclenetwork":"yes","maxspeed":"50","highway":"tertiary","vertex1":16506,"vertex2":16485}},{"type":"Feature","geometry":{"type":"LineString","coordinates":[[3.715292,51.07637],[3.715032,51.0765],[3.714616,51.07671],[3.714137,51.07688],[3.713695,51.077],[3.71332,51.07709],[3.712725,51.0772],[3.712323,51.07723]]},"properties":{"highway":"cycleway","vertex1":16506,"vertex2":16876}},{"type":"Feature","geometry":{"type":"LineString","coordinates":[[3.714058,51.07619],[3.714331,51.0761],[3.714237,51.07598]]},"properties":{"bicycle":"no","motorcar":"no","foot":"no","highway":"service","vertex1":16505,"vertex2":16503}},{"type":"Feature","geometry":{"type":"LineString","coordinates":[[3.714058,51.07619],[3.714154,51.07638],[3.714271,51.07654]]},"properties":{"bicycle":"no","motorcar":"no","foot":"no","highway":"service","vertex1":16505,"vertex2":16487}},{"type":"Feature","geometry":{"type":"LineString","coordinates":[[3.714058,51.07619],[3.713655,51.07621]]},"properties":{"bicycle":"no","motorcar":"no","foot":"no","highway":"service","vertex1":16505,"vertex2":16501}},{"type":"Feature","geometry":{"type":"LineString","coordinates":[[3.7152,51.07625],[3.715633,51.07606],[3.715976,51.07587],[3.716242,51.0757],[3.716543,51.07547],[3.71678,51.07523],[3.716891,51.07512]]},"properties":{"name":"Hakkeneistraat","cyclenetwork":"yes","highway":"residential","maxspeed":"30","vertex1":16504,"vertex2":16440}},{"type":"Feature","geometry":{"type":"LineString","coordinates":[[3.7152,51.07625],[3.713904,51.07487]]},"properties":{"name":"Dracenastraat","maxspeed":"50","highway":"tertiary","vertex1":16504,"vertex2":16483}},{"type":"Feature","geometry":{"type":"LineString","coordinates":[[3.716227,51.07953],[3.716055,51.07901],[3.715894,51.0786],[3.715882,51.07856]]},"properties":{"name":"Morekstraat","cyclenetwork":"yes","maxspeed":"50","highway":"tertiary","vertex1":16502,"vertex2":16497}},{"type":"Feature","geometry":{"type":"LineString","coordinates":[[3.716227,51.07953],[3.716404,51.08007],[3.716506,51.08062],[3.716484,51.08077]]},"properties":{"name":"Morekstraat","cyclenetwork":"yes","maxspeed":"50","highway":"tertiary","vertex1":16502,"vertex2":16494}},{"type":"Feature","geometry":{"type":"LineString","coordinates":[[3.718143,51.0758],[3.71756,51.07598]]},"properties":{"name":"Hammerikstraat","highway":"track","vertex1":16498,"vertex2":16490}},{"type":"Feature","geometry":{"type":"LineString","coordinates":[[3.718143,51.0758],[3.718204,51.07578]]},"properties":{"name":"Hammerikstraat","bridge":"yes","highway":"track","vertex1":16498,"vertex2":16493}},{"type":"Feature","geometry":{"type":"LineString","coordinates":[[3.719377,51.07755],[3.71926,51.07759],[3.718706,51.07776],[3.718376,51.07787]]},"properties":{"highway":"track","vertex1":16496,"vertex2":16491}},{"type":"Feature","geometry":{"type":"LineString","coordinates":[[3.722509,51.07615],[3.722488,51.07609],[3.722196,51.07586],[3.721915,51.07564],[3.721862,51.07553],[3.721913,51.0754],[3.721957,51.07529],[3.721903,51.07516]]},"properties":{"highway":"cycleway","vertex1":16495,"vertex2":16479}},{"type":"Feature","geometry":{"type":"LineString","coordinates":[[3.716484,51.08077],[3.716269,51.08069],[3.715698,51.08024],[3.715134,51.07991],[3.714953,51.07981],[3.714736,51.0797],[3.714051,51.07943],[3.713524,51.07927]]},"properties":{"name":"Spoorwegstraat","highway":"residential","vertex1":16494,"vertex2":16492}},{"type":"Feature","geometry":{"type":"LineString","coordinates":[[3.718204,51.07578],[3.718238,51.07577],[3.718942,51.07553],[3.719826,51.07518],[3.720401,51.07499],[3.720865,51.0748],[3.721106,51.07474],[3.721464,51.07467],[3.721581,51.07463]]},"properties":{"name":"Hammerikstraat","highway":"track","vertex1":16493,"vertex2":16456}},{"type":"Feature","geometry":{"type":"LineString","coordinates":[[3.718376,51.07787],[3.718333,51.07779],[3.718094,51.07736],[3.717885,51.07702],[3.717726,51.07683]]},"properties":{"name":"Paketbootstraat","highway":"residential","vertex1":16491,"vertex2":16488}},{"type":"Feature","geometry":{"type":"LineString","coordinates":[[3.71756,51.07598],[3.717491,51.07586],[3.717443,51.07578],[3.717313,51.07565],[3.717226,51.07555],[3.717158,51.07544]]},"properties":{"name":"Paketbootstraat","highway":"residential","vertex1":16490,"vertex2":16482}},{"type":"Feature","geometry":{"type":"LineString","coordinates":[[3.71756,51.07598],[3.717631,51.07615],[3.717646,51.07644],[3.717726,51.07683]]},"properties":{"name":"Paketbootstraat","highway":"residential","vertex1":16490,"vertex2":16488}},{"type":"Feature","geometry":{"type":"LineString","coordinates":[[3.720012,51.07595],[3.720149,51.07557],[3.720754,51.07533]]},"properties":{"highway":"service","vertex1":16486,"vertex2":16420}},{"type":"Feature","geometry":{"type":"LineString","coordinates":[[3.713583,51.07333],[3.713718,51.07319]]},"properties":{"name":"Egelantierstraat","highway":"residential","vertex1":16484,"vertex2":16434}},{"type":"Feature","geometry":{"type":"LineString","coordinates":[[3.713583,51.07333],[3.713798,51.07349],[3.713766,51.07351],[3.713641,51.07346],[3.713351,51.07356],[3.713347,51.07365],[3.713298,51.07365]]},"properties":{"name":"Egelantierstraat","highway":"pedestrian","vertex1":16484,"vertex2":15825}},{"type":"Feature","geometry":{"type":"LineString","coordinates":[[3.713583,51.07333],[3.71322,51.07346]]},"properties":{"name":"Egelantierstraat","highway":"pedestrian","vertex1":16484,"vertex2":15833}},{"type":"Feature","geometry":{"type":"LineString","coordinates":[[3.713583,51.07333],[3.713583,51.07333]]},"properties":{"name":"Egelantierstraat","highway":"residential","vertex1":16484,"vertex2":16437}},{"type":"Feature","geometry":{"type":"LineString","coordinates":[[3.713298,51.07365],[3.71322,51.07346]]},"properties":{"name":"Egelantierstraat","highway":"pedestrian","vertex1":15825,"vertex2":15861}},{"type":"Feature","geometry":{"type":"LineString","coordinates":[[3.71322,51.07346],[3.712976,51.07349]]},"properties":{"name":"Egelantierstraat","highway":"residential","vertex1":15833,"vertex2":15880}},{"type":"Feature","geometry":{"type":"LineString","coordinates":[[3.71322,51.07346],[3.71322,51.07346]]},"properties":{"name":"Egelantierstraat","highway":"residential","vertex1":15833,"vertex2":15861}},{"type":"Feature","geometry":{"type":"LineString","coordinates":[[3.713904,51.07487],[3.713658,51.07479]]},"properties":{"name":"Dracenastraat","oneway":"yes","maxspeed":"50","highway":"tertiary","vertex1":16483,"vertex2":16452}},{"type":"Feature","geometry":{"type":"LineString","coordinates":[[3.713904,51.07487],[3.713747,51.0747]]},"properties":{"name":"Dracenastraat","oneway":"yes","maxspeed":"50","highway":"tertiary","vertex1":16483,"vertex2":16448}},{"type":"Feature","geometry":{"type":"LineString","coordinates":[[3.717158,51.07544],[3.717243,51.07537],[3.717275,51.07533]]},"properties":{"name":"Zeilschipstraat","highway":"residential","vertex1":16482,"vertex2":16407}},{"type":"Feature","geometry":{"type":"LineString","coordinates":[[3.721614,51.07446],[3.721547,51.0743],[3.721402,51.07394],[3.72128,51.07365],[3.721204,51.07345],[3.721218,51.07339],[3.721224,51.07336]]},"properties":{"highway":"cycleway","vertex1":16481,"vertex2":16403}},{"type":"Feature","geometry":{"type":"LineString","coordinates":[[3.721614,51.07446],[3.721671,51.0746],[3.721835,51.07499],[3.721903,51.07516]]},"properties":{"highway":"cycleway","vertex1":16481,"vertex2":16479}},{"type":"Feature","geometry":{"type":"LineString","coordinates":[[3.721614,51.07446],[3.721518,51.07448]]},"properties":{"highway":"service","vertex1":16481,"vertex2":16402}},{"type":"Feature","geometry":{"type":"LineString","coordinates":[[3.721614,51.07446],[3.721715,51.07444],[3.721854,51.0744],[3.722116,51.07436]]},"properties":{"highway":"service","vertex1":16481,"vertex2":16454}},{"type":"Feature","geometry":{"type":"LineString","coordinates":[[3.716978,51.07515],[3.71716,51.07523],[3.717205,51.07524],[3.717256,51.07526]]},"properties":{"cyclenetwork":"yes","highway":"unclassified","vertex1":16480,"vertex2":16404}},{"type":"Feature","geometry":{"type":"LineString","coordinates":[[3.716978,51.07515],[3.716891,51.07512]]},"properties":{"cyclenetwork":"yes","highway":"unclassified","vertex1":16480,"vertex2":16440}},{"type":"Feature","geometry":{"type":"LineString","coordinates":[[3.716978,51.07515],[3.717031,51.0751],[3.717357,51.07484],[3.717725,51.07455],[3.717966,51.07428],[3.718296,51.07387],[3.718368,51.07374],[3.718406,51.07349],[3.718462,51.07341]]},"properties":{"highway":"track","vertex1":16480,"vertex2":16463}},{"type":"Feature","geometry":{"type":"LineString","coordinates":[[3.721903,51.07516],[3.721813,51.07517]]},"properties":{"highway":"service","vertex1":16479,"vertex2":16412}},{"type":"Feature","geometry":{"type":"LineString","coordinates":[[3.721903,51.07516],[3.721921,51.07516]]},"properties":{"highway":"service","vertex1":16479,"vertex2":16431}},{"type":"Feature","geometry":{"type":"LineString","coordinates":[[3.71566,51.07449],[3.715837,51.0746],[3.716162,51.07481],[3.7164,51.07492],[3.71668,51.07503],[3.716891,51.07512]]},"properties":{"name":"Maïsstraat","highway":"residential","maxspeed":"30","vertex1":16478,"vertex2":16440}},{"type":"Feature","geometry":{"type":"LineString","coordinates":[[3.71566,51.07449],[3.715436,51.07434],[3.715165,51.07416]]},"properties":{"name":"Maïsstraat","highway":"residential","maxspeed":"30","vertex1":16478,"vertex2":16438}},{"type":"Feature","geometry":{"type":"LineString","coordinates":[[3.71566,51.07449],[3.716041,51.07431],[3.716199,51.07428],[3.716357,51.07438]]},"properties":{"name":"Maïsstraat","highway":"residential","maxspeed":"30","vertex1":16478,"vertex2":16432}},{"type":"Feature","geometry":{"type":"LineString","coordinates":[[3.72373,51.07337],[3.723475,51.07336],[3.723264,51.07352]]},"properties":{"highway":"service","vertex1":16477,"vertex2":16428}},{"type":"Feature","geometry":{"type":"LineString","coordinates":[[3.72373,51.07337],[3.724092,51.07338]]},"properties":{"highway":"service","vertex1":16477,"vertex2":16473}},{"type":"Feature","geometry":{"type":"LineString","coordinates":[[3.72373,51.07337],[3.723733,51.07327]]},"properties":{"highway":"cycleway","vertex1":16477,"vertex2":16409}},{"type":"Feature","geometry":{"type":"LineString","coordinates":[[3.714226,51.07353],[3.714578,51.07377],[3.714998,51.07406],[3.715165,51.07416]]},"properties":{"name":"Maïsstraat","highway":"residential","maxspeed":"30","vertex1":16476,"vertex2":16438}},{"type":"Feature","geometry":{"type":"LineString","coordinates":[[3.714226,51.07353],[3.714037,51.0734],[3.713718,51.07319]]},"properties":{"name":"Maïsstraat","highway":"residential","maxspeed":"30","vertex1":16476,"vertex2":16434}},{"type":"Feature","geometry":{"type":"LineString","coordinates":[[3.714226,51.07353],[3.714462,51.07341]]},"properties":{"name":"Jan Yoensstraat","highway":"residential","maxspeed":"30","vertex1":16476,"vertex2":16408}},{"type":"Feature","geometry":{"type":"LineString","coordinates":[[3.716142,51.07357],[3.716308,51.0735],[3.71644,51.07345]]},"properties":{"motorcar":"no","highway":"track","vertex1":16475,"vertex2":16430}},{"type":"Feature","geometry":{"type":"LineString","coordinates":[[3.716142,51.07357],[3.716082,51.0736]]},"properties":{"bridge":"yes","motorcar":"no","highway":"track","vertex1":16475,"vertex2":16414}},{"type":"Feature","geometry":{"type":"LineString","coordinates":[[3.722581,51.07377],[3.722129,51.07376]]},"properties":{"highway":"service","vertex1":16474,"vertex2":16436}},{"type":"Feature","geometry":{"type":"LineString","coordinates":[[3.714298,51.07323],[3.714462,51.07341]]},"properties":{"name":"Jan Yoensstraat","highway":"residential","vertex1":16472,"vertex2":16408}},{"type":"Feature","geometry":{"type":"LineString","coordinates":[[3.723806,51.07292],[3.723902,51.07292],[3.725273,51.07296],[3.726024,51.07302],[3.726214,51.07295],[3.726223,51.07287]]},"properties":{"highway":"track","vertex1":16471,"vertex2":16397}},{"type":"Feature","geometry":{"type":"LineString","coordinates":[[3.723806,51.07292],[3.723422,51.07293],[3.72296,51.07292],[3.72233,51.07291]]},"properties":{"highway":"track","vertex1":16471,"vertex2":16469}},{"type":"Feature","geometry":{"type":"LineString","coordinates":[[3.723806,51.07292],[3.723532,51.07287],[3.722454,51.07278]]},"properties":{"highway":"track","vertex1":16471,"vertex2":16457}},{"type":"Feature","geometry":{"type":"LineString","coordinates":[[3.717528,51.07187],[3.717616,51.07215],[3.717421,51.07225],[3.717307,51.07224],[3.717024,51.07214],[3.716727,51.07202],[3.716384,51.07188],[3.716191,51.07178],[3.715846,51.0715],[3.71584,51.07145],[3.715951,51.07134],[3.716208,51.07114],[3.716483,51.07091],[3.716826,51.07059]]},"properties":{"bicycle":"no","motorcar":"no","foot":"no","highway":"service","vertex1":16470,"vertex2":16468}},{"type":"Feature","geometry":{"type":"LineString","coordinates":[[3.717528,51.07187],[3.717416,51.07158],[3.717277,51.07131],[3.717099,51.07104]]},"properties":{"name":"Gaardeniersweg","highway":"service","vertex1":16470,"vertex2":16417}},{"type":"Feature","geometry":{"type":"LineString","coordinates":[[3.72233,51.07291],[3.721271,51.07287]]},"properties":{"highway":"track","vertex1":16469,"vertex2":16467}},{"type":"Feature","geometry":{"type":"LineString","coordinates":[[3.72233,51.07291],[3.722024,51.07299],[3.721466,51.07299],[3.721107,51.07304],[3.720362,51.07305],[3.719707,51.07306],[3.719219,51.07312],[3.718844,51.07309]]},"properties":{"highway":"track","vertex1":16469,"vertex2":16465}},{"type":"Feature","geometry":{"type":"LineString","coordinates":[[3.72233,51.07291],[3.722405,51.07285],[3.722454,51.07278]]},"properties":{"highway":"track","vertex1":16469,"vertex2":16457}},{"type":"Feature","geometry":{"type":"LineString","coordinates":[[3.716826,51.07059],[3.716586,51.07021],[3.716432,51.06991],[3.716343,51.06971],[3.716252,51.06942],[3.716229,51.06918],[3.716204,51.06907],[3.716205,51.069]]},"properties":{"name":"Gaardeniersweg","highway":"service","vertex1":16468,"vertex2":16033}},{"type":"Feature","geometry":{"type":"LineString","coordinates":[[3.716826,51.07059],[3.717099,51.07104]]},"properties":{"name":"Gaardeniersweg","highway":"service","vertex1":16468,"vertex2":16417}},{"type":"Feature","geometry":{"type":"LineString","coordinates":[[3.716205,51.069],[3.716285,51.069]]},"properties":{"name":"Gaardeniersweg","highway":"unclassified","vertex1":16033,"vertex2":16089}},{"type":"Feature","geometry":{"type":"LineString","coordinates":[[3.721271,51.07287],[3.721054,51.07291],[3.720364,51.07293],[3.719704,51.0729],[3.718889,51.07306],[3.718844,51.07309]]},"properties":{"highway":"track","vertex1":16467,"vertex2":16465}},{"type":"Feature","geometry":{"type":"LineString","coordinates":[[3.721271,51.07287],[3.721185,51.07284],[3.721149,51.07281]]},"properties":{"highway":"track","vertex1":16467,"vertex2":16443}},{"type":"Feature","geometry":{"type":"LineString","coordinates":[[3.713391,51.07298],[3.71358,51.0731]]},"properties":{"name":"Maïsstraat","highway":"residential","maxspeed":"30","vertex1":16466,"vertex2":16416}},{"type":"Feature","geometry":{"type":"LineString","coordinates":[[3.713391,51.07298],[3.713194,51.07285],[3.713139,51.07281]]},"properties":{"name":"Maïsstraat","highway":"residential","maxspeed":"30","vertex1":16466,"vertex2":15836}},{"type":"Feature","geometry":{"type":"LineString","coordinates":[[3.713391,51.07298],[3.713368,51.07303],[3.713327,51.07308],[3.713269,51.07313],[3.713197,51.07316],[3.713115,51.07318],[3.713027,51.07319],[3.712937,51.07319],[3.712885,51.07318],[3.712837,51.07317]]},"properties":{"highway":"footway","vertex1":16466,"vertex2":15884}},{"type":"Feature","geometry":{"type":"LineString","coordinates":[[3.712837,51.07317],[3.712854,51.07322],[3.712912,51.07335]]},"properties":{"name":"Anjelierstraat","oneway":"yes","oneway:bicycle":"no","highway":"residential","maxspeed":"30","vertex1":15884,"vertex2":15882}},{"type":"Feature","geometry":{"type":"LineString","coordinates":[[3.718844,51.07309],[3.718462,51.07341]]},"properties":{"highway":"track","vertex1":16465,"vertex2":16463}},{"type":"Feature","geometry":{"type":"LineString","coordinates":[[3.713414,51.07455],[3.713396,51.07444]]},"properties":{"name":"Anjelierstraat","oneway":"yes","oneway:bicycle":"no","highway":"residential","vertex1":16464,"vertex2":16462}},{"type":"Feature","geometry":{"type":"LineString","coordinates":[[3.713414,51.07455],[3.713389,51.07454],[3.713364,51.07454],[3.71334,51.07455],[3.713317,51.07455],[3.713298,51.07456],[3.713284,51.07458],[3.713275,51.07459],[3.713272,51.07461]]},"properties":{"name":"Frans van Ryhovelaan","maxspeed":"50","highway":"tertiary","junction":"roundabout","vertex1":16464,"vertex2":15862}},{"type":"Feature","geometry":{"type":"LineString","coordinates":[[3.713414,51.07455],[3.713437,51.07455],[3.713704,51.07467],[3.713723,51.07468],[3.713737,51.07469],[3.713747,51.0747]]},"properties":{"name":"Frans van Ryhovelaan","maxspeed":"50","highway":"tertiary","junction":"roundabout","vertex1":16464,"vertex2":16448}},{"type":"Feature","geometry":{"type":"LineString","coordinates":[[3.713272,51.07461],[3.713276,51.07462],[3.713285,51.07464],[3.7133,51.07465],[3.713318,51.07466],[3.713491,51.07473],[3.713546,51.07476]]},"properties":{"name":"Frans van Ryhovelaan","maxspeed":"50","highway":"tertiary","junction":"roundabout","vertex1":15862,"vertex2":16413}},{"type":"Feature","geometry":{"type":"LineString","coordinates":[[3.718462,51.07341],[3.718468,51.07308],[3.718333,51.07252],[3.718328,51.07238],[3.718323,51.07223],[3.718264,51.07202],[3.718146,51.07188],[3.718119,51.07174],[3.718115,51.07164]]},"properties":{"highway":"track","vertex1":16463,"vertex2":16441}},{"type":"Feature","geometry":{"type":"LineString","coordinates":[[3.713396,51.07444],[3.713226,51.07405],[3.712976,51.07349]]},"properties":{"name":"Anjelierstraat","oneway":"yes","oneway:bicycle":"no","highway":"residential","maxspeed":"30","vertex1":16462,"vertex2":15880}},{"type":"Feature","geometry":{"type":"LineString","coordinates":[[3.712976,51.07349],[3.712912,51.07335]]},"properties":{"name":"Anjelierstraat","oneway":"yes","oneway:bicycle":"no","highway":"residential","maxspeed":"30","vertex1":15880,"vertex2":15882}},{"type":"Feature","geometry":{"type":"LineString","coordinates":[[3.717018,51.07014],[3.71686,51.06984]]},"properties":{"highway":"track","vertex1":16461,"vertex2":16116}},{"type":"Feature","geometry":{"type":"LineString","coordinates":[[3.717018,51.07014],[3.717025,51.07015]]},"properties":{"highway":"track","vertex1":16461,"vertex2":16459}},{"type":"Feature","geometry":{"type":"LineString","coordinates":[[3.717018,51.07014],[3.716957,51.07018],[3.716939,51.07027],[3.717092,51.07057],[3.717336,51.07098],[3.717585,51.0712],[3.718012,51.07154],[3.718115,51.07164]]},"properties":{"highway":"track","vertex1":16461,"vertex2":16441}},{"type":"Feature","geometry":{"type":"LineString","coordinates":[[3.716928,51.07507],[3.716996,51.07498],[3.717049,51.0749],[3.717124,51.0748],[3.717276,51.07457],[3.717093,51.07436],[3.716896,51.07421],[3.716683,51.07404],[3.716494,51.07388],[3.716421,51.07378],[3.71637,51.0737],[3.716364,51.07362],[3.71644,51.07345]]},"properties":{"name":"Gaardenierspad","motorcar":"no","highway":"track","vertex1":16460,"vertex2":16430}},{"type":"Feature","geometry":{"type":"LineString","coordinates":[[3.716928,51.07507],[3.716891,51.07512]]},"properties":{"name":"Gaardenierspad","motorcar":"no","highway":"track","vertex1":16460,"vertex2":16440}},{"type":"Feature","geometry":{"type":"LineString","coordinates":[[3.717025,51.07015],[3.717043,51.07018]]},"properties":{"highway":"track","vertex1":16459,"vertex2":16455}},{"type":"Feature","geometry":{"type":"LineString","coordinates":[[3.723572,51.07259],[3.723658,51.07264],[3.723778,51.07268],[3.724482,51.07272],[3.725291,51.07279],[3.725929,51.07285],[3.726223,51.07287]]},"properties":{"name":"Parallelweg","highway":"unclassified","vertex1":16458,"vertex2":16397}},{"type":"Feature","geometry":{"type":"LineString","coordinates":[[3.722454,51.07278],[3.722293,51.07277],[3.721641,51.07271],[3.720941,51.07261]]},"properties":{"highway":"track","vertex1":16457,"vertex2":16435}},{"type":"Feature","geometry":{"type":"LineString","coordinates":[[3.721581,51.07463],[3.721518,51.07448]]},"properties":{"name":"Hurstweg","highway":"unclassified","vertex1":16456,"vertex2":16402}},{"type":"Feature","geometry":{"type":"LineString","coordinates":[[3.721581,51.07463],[3.72172,51.07498]]},"properties":{"name":"Hurstweg","highway":"unclassified","vertex1":16456,"vertex2":16442}},{"type":"Feature","geometry":{"type":"LineString","coordinates":[[3.717043,51.07018],[3.717272,51.0701],[3.717484,51.07003],[3.717644,51.07],[3.71783,51.07003],[3.718546,51.07029],[3.719579,51.0708]]},"properties":{"highway":"track","vertex1":16455,"vertex2":16453}},{"type":"Feature","geometry":{"type":"LineString","coordinates":[[3.717043,51.07018],[3.717097,51.07029],[3.717272,51.07055],[3.717521,51.07087],[3.717797,51.07114],[3.718103,51.07135],[3.718253,51.07144]]},"properties":{"highway":"track","vertex1":16455,"vertex2":16433}},{"type":"Feature","geometry":{"type":"LineString","coordinates":[[3.722116,51.07436],[3.722145,51.07391]]},"properties":{"highway":"service","vertex1":16454,"vertex2":16439}},{"type":"Feature","geometry":{"type":"LineString","coordinates":[[3.722116,51.07436],[3.722426,51.07436],[3.722464,51.07455]]},"properties":{"highway":"service","vertex1":16454,"vertex2":16419}},{"type":"Feature","geometry":{"type":"LineString","coordinates":[[3.713658,51.07479],[3.71362,51.07484],[3.713524,51.07494]]},"properties":{"name":"Veronicastraat","oneway":"yes","highway":"residential","maxspeed":"30","vertex1":16452,"vertex2":16415}},{"type":"Feature","geometry":{"type":"LineString","coordinates":[[3.713658,51.07479],[3.713633,51.07479],[3.713609,51.07478],[3.713586,51.07478],[3.713546,51.07476]]},"properties":{"name":"Frans van Ryhovelaan","maxspeed":"50","highway":"tertiary","junction":"roundabout","vertex1":16452,"vertex2":16413}},{"type":"Feature","geometry":{"type":"LineString","coordinates":[[3.713658,51.07479],[3.713683,51.07478],[3.713705,51.07478],[3.713724,51.07476],[3.713738,51.07475],[3.713747,51.07474],[3.71375,51.07472],[3.713747,51.0747]]},"properties":{"name":"Frans van Ryhovelaan","maxspeed":"50","highway":"tertiary","junction":"roundabout","vertex1":16452,"vertex2":16448}},{"type":"Feature","geometry":{"type":"LineString","coordinates":[[3.721849,51.07525],[3.721813,51.07517]]},"properties":{"name":"Hurstweg","highway":"unclassified","vertex1":16451,"vertex2":16412}},{"type":"Feature","geometry":{"type":"LineString","coordinates":[[3.720619,51.07519],[3.720841,51.0751]]},"properties":{"highway":"service","vertex1":16450,"vertex2":16444}},{"type":"Feature","geometry":{"type":"LineString","coordinates":[[3.720619,51.07519],[3.720754,51.07533]]},"properties":{"highway":"service","vertex1":16450,"vertex2":16420}},{"type":"Feature","geometry":{"type":"LineString","coordinates":[[3.714883,51.07286],[3.714548,51.073],[3.714692,51.07317],[3.714738,51.0732]]},"properties":{"highway":"service","vertex1":16449,"vertex2":16411}},{"type":"Feature","geometry":{"type":"LineString","coordinates":[[3.714883,51.07286],[3.71542,51.07262]]},"properties":{"highway":"service","vertex1":16449,"vertex2":16447}},{"type":"Feature","geometry":{"type":"LineString","coordinates":[[3.714883,51.07286],[3.714656,51.07286],[3.713961,51.07315],[3.713677,51.07303],[3.71269,51.07225],[3.712614,51.07224]]},"properties":{"highway":"service","vertex1":16449,"vertex2":15795}},{"type":"Feature","geometry":{"type":"LineString","coordinates":[[3.713747,51.0747],[3.713863,51.07467],[3.715039,51.07421],[3.715165,51.07416]]},"properties":{"name":"Kriekelaarstraat","highway":"residential","maxspeed":"30","vertex1":16448,"vertex2":16438}},{"type":"Feature","geometry":{"type":"LineString","coordinates":[[3.71542,51.07262],[3.715582,51.07261],[3.715838,51.07264],[3.716324,51.07249],[3.716461,51.07246],[3.716799,51.07254],[3.716936,51.07278],[3.71701,51.07281],[3.717122,51.07282],[3.717253,51.0728],[3.717297,51.07275],[3.717364,51.07263]]},"properties":{"highway":"service","vertex1":16447,"vertex2":16445}},{"type":"Feature","geometry":{"type":"LineString","coordinates":[[3.71542,51.07262],[3.715699,51.07236],[3.71616,51.07211],[3.716177,51.07201],[3.716163,51.07194],[3.716056,51.07183],[3.715533,51.07137],[3.714715,51.07063],[3.714302,51.07027],[3.714044,51.07016],[3.713583,51.07007],[3.713465,51.07006],[3.712408,51.07055],[3.712368,51.0706],[3.712373,51.07076],[3.71233,51.07107],[3.7123,51.07133]]},"properties":{"highway":"service","vertex1":16447,"vertex2":15855}},{"type":"Feature","geometry":{"type":"LineString","coordinates":[[3.721078,51.07339],[3.721224,51.07336]]},"properties":{"cyclenetwork":"yes","highway":"cycleway","vertex1":16446,"vertex2":16403}},{"type":"Feature","geometry":{"type":"LineString","coordinates":[[3.721078,51.07339],[3.720842,51.07343],[3.720289,51.07357],[3.719734,51.07376],[3.719187,51.074],[3.718686,51.07426],[3.718294,51.07452],[3.717919,51.07483],[3.71752,51.07517],[3.717404,51.07533],[3.717348,51.07534],[3.717275,51.07533]]},"properties":{"cyclenetwork":"yes","highway":"cycleway","vertex1":16446,"vertex2":16407}},{"type":"Feature","geometry":{"type":"LineString","coordinates":[[3.721078,51.07339],[3.7211,51.07334]]},"properties":{"name":"Hurstweg","highway":"unclassified","vertex1":16446,"vertex2":16410}},{"type":"Feature","geometry":{"type":"LineString","coordinates":[[3.721078,51.07339],[3.721518,51.07448]]},"properties":{"name":"Hurstweg","highway":"unclassified","vertex1":16446,"vertex2":16402}},{"type":"Feature","geometry":{"type":"LineString","coordinates":[[3.721149,51.07281],[3.720595,51.07272],[3.719726,51.07251],[3.71934,51.07236],[3.718747,51.07203],[3.718115,51.07164]]},"properties":{"highway":"track","vertex1":16443,"vertex2":16441}},{"type":"Feature","geometry":{"type":"LineString","coordinates":[[3.721149,51.07281],[3.721107,51.07277],[3.720941,51.07261]]},"properties":{"highway":"track","vertex1":16443,"vertex2":16435}},{"type":"Feature","geometry":{"type":"LineString","coordinates":[[3.72172,51.07498],[3.720899,51.07528],[3.720754,51.07533]]},"properties":{"highway":"service","vertex1":16442,"vertex2":16420}},{"type":"Feature","geometry":{"type":"LineString","coordinates":[[3.72172,51.07498],[3.721813,51.07517]]},"properties":{"name":"Hurstweg","highway":"unclassified","vertex1":16442,"vertex2":16412}},{"type":"Feature","geometry":{"type":"LineString","coordinates":[[3.718115,51.07164],[3.718114,51.07159],[3.718232,51.07151],[3.718253,51.07144]]},"properties":{"highway":"track","vertex1":16441,"vertex2":16433}},{"type":"Feature","geometry":{"type":"LineString","coordinates":[[3.722145,51.07391],[3.72252,51.07393]]},"properties":{"highway":"service","vertex1":16439,"vertex2":16427}},{"type":"Feature","geometry":{"type":"LineString","coordinates":[[3.722145,51.07391],[3.722129,51.07376]]},"properties":{"highway":"service","vertex1":16439,"vertex2":16436}},{"type":"Feature","geometry":{"type":"LineString","coordinates":[[3.715165,51.07416],[3.71529,51.07412],[3.71548,51.07402]]},"properties":{"name":"Jan Yoensstraat","highway":"residential","maxspeed":"30","vertex1":16438,"vertex2":16418}},{"type":"Feature","geometry":{"type":"LineString","coordinates":[[3.713583,51.07333],[3.71322,51.07346]]},"properties":{"name":"Egelantierstraat","highway":"residential","vertex1":16437,"vertex2":15861}},{"type":"Feature","geometry":{"type":"LineString","coordinates":[[3.722129,51.07376],[3.722164,51.07363]]},"properties":{"highway":"service","vertex1":16436,"vertex2":16406}},{"type":"Feature","geometry":{"type":"LineString","coordinates":[[3.720941,51.07261],[3.720638,51.07254],[3.720404,51.07248],[3.720249,51.07238],[3.720072,51.07231],[3.71964,51.07219],[3.719302,51.07207],[3.719034,51.07193],[3.718827,51.07182],[3.7185,51.07161],[3.718253,51.07144]]},"properties":{"highway":"track","vertex1":16435,"vertex2":16433}},{"type":"Feature","geometry":{"type":"LineString","coordinates":[[3.713718,51.07319],[3.71358,51.0731]]},"properties":{"name":"Maïsstraat","highway":"residential","maxspeed":"30","vertex1":16434,"vertex2":16416}},{"type":"Feature","geometry":{"type":"LineString","coordinates":[[3.721921,51.07516],[3.722031,51.07514]]},"properties":{"bridge":"yes","highway":"service","vertex1":16431,"vertex2":16429}},{"type":"Feature","geometry":{"type":"LineString","coordinates":[[3.71644,51.07345],[3.716492,51.07341],[3.716699,51.07329],[3.716944,51.07314],[3.717237,51.07299],[3.717438,51.07291],[3.717686,51.07275],[3.717842,51.07249],[3.717649,51.07186],[3.71732,51.07116],[3.71687,51.07049],[3.716525,51.0699],[3.716445,51.06974],[3.716347,51.06937],[3.716285,51.069]]},"properties":{"name":"Gaardenierspad","motorcar":"no","highway":"track","vertex1":16430,"vertex2":16089}},{"type":"Feature","geometry":{"type":"LineString","coordinates":[[3.716285,51.069],[3.716598,51.06899]]},"properties":{"name":"Gaardeniersweg","highway":"unclassified","vertex1":16089,"vertex2":16114}},{"type":"Feature","geometry":{"type":"LineString","coordinates":[[3.722031,51.07514],[3.722414,51.07504],[3.722578,51.07479]]},"properties":{"highway":"service","vertex1":16429,"vertex2":16421}},{"type":"Feature","geometry":{"type":"LineString","coordinates":[[3.723264,51.07352],[3.722158,51.07348],[3.722164,51.07363]]},"properties":{"highway":"service","vertex1":16428,"vertex2":16406}},{"type":"Feature","geometry":{"type":"LineString","coordinates":[[3.723232,51.07365],[3.722164,51.07363]]},"properties":{"highway":"service","vertex1":16426,"vertex2":16406}},{"type":"Feature","geometry":{"type":"LineString","coordinates":[[3.715646,51.07386],[3.715714,51.07384],[3.715763,51.07383],[3.715814,51.07382],[3.715868,51.07383],[3.715909,51.07384],[3.715943,51.07386],[3.715976,51.07391],[3.716,51.07395],[3.716007,51.07398],[3.716003,51.07401],[3.715983,51.07404],[3.715958,51.07406],[3.715924,51.07408],[3.715875,51.07409],[3.715808,51.0741],[3.715752,51.0741],[3.715694,51.07409],[3.715639,51.07408],[3.715572,51.07406],[3.71548,51.07402]]},"properties":{"name":"Jan Yoensstraat","highway":"residential","maxspeed":"30","vertex1":16425,"vertex2":16418}},{"type":"Feature","geometry":{"type":"LineString","coordinates":[[3.715646,51.07386],[3.715582,51.07389]]},"properties":{"name":"Jan Yoensstraat","highway":"residential","maxspeed":"30","vertex1":16425,"vertex2":16423}},{"type":"Feature","geometry":{"type":"LineString","coordinates":[[3.715646,51.07386],[3.715602,51.07375],[3.715885,51.07365],[3.716082,51.0736]]},"properties":{"motorcar":"no","highway":"track","vertex1":16425,"vertex2":16414}},{"type":"Feature","geometry":{"type":"LineString","coordinates":[[3.723732,51.07318],[3.724051,51.07319],[3.724272,51.0732],[3.724493,51.0732],[3.724729,51.07322],[3.724996,51.07327],[3.725261,51.07338],[3.72555,51.07345],[3.726411,51.07349]]},"properties":{"cyclenetwork":"yes","highway":"cycleway","vertex1":16424,"vertex2":16385}},{"type":"Feature","geometry":{"type":"LineString","coordinates":[[3.723732,51.07318],[3.723297,51.07318],[3.722949,51.07318],[3.722743,51.07319],[3.722277,51.07322],[3.721777,51.07327],[3.721286,51.07334],[3.721224,51.07336]]},"properties":{"cyclenetwork":"yes","highway":"cycleway","vertex1":16424,"vertex2":16403}},{"type":"Feature","geometry":{"type":"LineString","coordinates":[[3.723732,51.07318],[3.723731,51.07322]]},"properties":{"highway":"cycleway","vertex1":16424,"vertex2":16422}},{"type":"Feature","geometry":{"type":"LineString","coordinates":[[3.715582,51.07389],[3.715545,51.07391],[3.715522,51.07394],[3.715494,51.07397],[3.71548,51.07402]]},"properties":{"name":"Jan Yoensstraat","highway":"residential","maxspeed":"30","vertex1":16423,"vertex2":16418}},{"type":"Feature","geometry":{"type":"LineString","coordinates":[[3.723731,51.07322],[3.723733,51.07327]]},"properties":{"bridge":"yes","highway":"cycleway","vertex1":16422,"vertex2":16409}},{"type":"Feature","geometry":{"type":"LineString","coordinates":[[3.71548,51.07402],[3.714788,51.07326]]},"properties":{"name":"Jan Yoensstraat","highway":"residential","maxspeed":"30","vertex1":16418,"vertex2":16405}},{"type":"Feature","geometry":{"type":"LineString","coordinates":[[3.71358,51.0731],[3.712912,51.07335]]},"properties":{"name":"Boekweitstraat","highway":"residential","vertex1":16416,"vertex2":15882}},{"type":"Feature","geometry":{"type":"LineString","coordinates":[[3.713524,51.07494],[3.713546,51.07476]]},"properties":{"name":"Veronicastraat","oneway":"yes","highway":"residential","maxspeed":"30","vertex1":16415,"vertex2":16413}},{"type":"Feature","geometry":{"type":"LineString","coordinates":[[3.713524,51.07494],[3.713341,51.07531],[3.713169,51.07562],[3.713046,51.07584],[3.712862,51.07615]]},"properties":{"name":"Veronicastraat","highway":"residential","maxspeed":"30","vertex1":16415,"vertex2":16859}},{"type":"Feature","geometry":{"type":"LineString","coordinates":[[3.714738,51.0732],[3.714788,51.07326]]},"properties":{"name":"Jan Yoensstraat","highway":"residential","vertex1":16411,"vertex2":16405}},{"type":"Feature","geometry":{"type":"LineString","coordinates":[[3.7211,51.07334],[3.721297,51.07328],[3.72182,51.07321],[3.722218,51.07317],[3.722389,51.07316],[3.722844,51.07313],[3.723371,51.07312],[3.724025,51.07314],[3.724795,51.07317],[3.724952,51.0732],[3.725084,51.07323],[3.725258,51.07327],[3.725554,51.07334],[3.726423,51.07337]]},"properties":{"name":"Buitensingel","highway":"unclassified","vertex1":16410,"vertex2":16358}},{"type":"Feature","geometry":{"type":"LineString","coordinates":[[3.714462,51.07341],[3.714788,51.07326]]},"properties":{"name":"Jan Yoensstraat","highway":"residential","maxspeed":"30","vertex1":16408,"vertex2":16405}},{"type":"Feature","geometry":{"type":"LineString","coordinates":[[3.717275,51.07533],[3.717271,51.07532],[3.717256,51.07526]]},"properties":{"name":"Zeilschipstraat","cyclenetwork":"yes","highway":"residential","vertex1":16407,"vertex2":16404}},{"type":"Feature","geometry":{"type":"LineString","coordinates":[[3.731185,51.07182],[3.731282,51.07196],[3.731317,51.07219]]},"properties":{"name":"Muidepoort","maxspeed":"50","highway":"tertiary","vertex1":16401,"vertex2":16348}},{"type":"Feature","geometry":{"type":"LineString","coordinates":[[3.731185,51.07182],[3.731004,51.07156]]},"properties":{"name":"Muidepoort","maxspeed":"50","highway":"tertiary","vertex1":16401,"vertex2":16316}},{"type":"Feature","geometry":{"type":"LineString","coordinates":[[3.731185,51.07182],[3.730702,51.07189]]},"properties":{"name":"Koffiesteeg","highway":"residential","maxspeed":"30","vertex1":16401,"vertex2":16327}},{"type":"Feature","geometry":{"type":"LineString","coordinates":[[3.728921,51.07429],[3.727712,51.07424]]},"properties":{"name":"Kopenhagenstraat","maxspeed":"30","highway":"unclassified","vertex1":16400,"vertex2":16395}},{"type":"Feature","geometry":{"type":"LineString","coordinates":[[3.728921,51.07429],[3.729019,51.07418],[3.729169,51.07405],[3.729335,51.07393],[3.729469,51.07384],[3.729652,51.07375]]},"properties":{"name":"Santosstraat","maxspeed":"30","highway":"unclassified","vertex1":16400,"vertex2":16314}},{"type":"Feature","geometry":{"type":"LineString","coordinates":[[3.728921,51.07429],[3.7297,51.07434]]},"properties":{"name":"Oslostraat","highway":"residential","maxspeed":"30","vertex1":16400,"vertex2":16369}},{"type":"Feature","geometry":{"type":"LineString","coordinates":[[3.726463,51.07288],[3.726353,51.07288],[3.726223,51.07287]]},"properties":{"name":"Parallelweg","highway":"unclassified","vertex1":16399,"vertex2":16397}},{"type":"Feature","geometry":{"type":"LineString","coordinates":[[3.726463,51.07288],[3.726447,51.07306]]},"properties":{"name":"Wiedauwkaai","maxspeed":"50","highway":"secondary","cycleway":"lane","vertex1":16399,"vertex2":16288}},{"type":"Feature","geometry":{"type":"LineString","coordinates":[[3.726463,51.07288],[3.726522,51.0724],[3.72659,51.072],[3.726651,51.07164]]},"properties":{"name":"Wiedauwkaai","maxspeed":"50","highway":"secondary","cycleway":"lane","vertex1":16399,"vertex2":16335}},{"type":"Feature","geometry":{"type":"LineString","coordinates":[[3.732019,51.07088],[3.732032,51.07106],[3.732048,51.07129]]},"properties":{"highway":"footway","vertex1":16398,"vertex2":16304}},{"type":"Feature","geometry":{"type":"LineString","coordinates":[[3.732019,51.07088],[3.731846,51.07076],[3.7316,51.07063],[3.731368,51.07058],[3.731094,51.07055],[3.730809,51.07057],[3.730426,51.07064]]},"properties":{"name":"Houtdoklaan","maxspeed":"50","highway":"residential","vertex1":16398,"vertex2":16343}},{"type":"Feature","geometry":{"type":"LineString","coordinates":[[3.732019,51.07088],[3.732336,51.07129]]},"properties":{"name":"Houtdoklaan","maxspeed":"50","highway":"residential","vertex1":16398,"vertex2":16374}},{"type":"Feature","geometry":{"type":"LineString","coordinates":[[3.725859,51.07006],[3.725856,51.06974]]},"properties":{"highway":"service","vertex1":16396,"vertex2":16160}},{"type":"Feature","geometry":{"type":"LineString","coordinates":[[3.727712,51.07424],[3.727806,51.07333]]},"properties":{"name":"Terneuzenlaan","highway":"residential","maxspeed":"30","vertex1":16395,"vertex2":16389}},{"type":"Feature","geometry":{"type":"LineString","coordinates":[[3.731321,51.07271],[3.731304,51.07281],[3.731215,51.07315]]},"properties":{"name":"Muidepoort","maxspeed":"50","highway":"tertiary","vertex1":16394,"vertex2":16312}},{"type":"Feature","geometry":{"type":"LineString","coordinates":[[3.731321,51.07271],[3.731337,51.07253]]},"properties":{"name":"Muidepoort","maxspeed":"50","highway":"tertiary","vertex1":16394,"vertex2":16294}},{"type":"Feature","geometry":{"type":"LineString","coordinates":[[3.731321,51.07271],[3.732121,51.07273]]},"properties":{"name":"Zaamslagstraat","oneway":"yes","oneway:bicycle":"no","highway":"residential","maxspeed":"30","vertex1":16394,"vertex2":16293}},{"type":"Feature","geometry":{"type":"LineString","coordinates":[[3.73433,51.07437],[3.734383,51.07431],[3.73446,51.07422],[3.73449,51.07418]]},"properties":{"name":"Port Arthurlaan","oneway":"yes","highway":"primary","bicycle":"no","maxspeed":"50","vertex1":16393,"vertex2":16372}},{"type":"Feature","geometry":{"type":"LineString","coordinates":[[3.73433,51.07437],[3.734316,51.07431],[3.734286,51.0742],[3.734276,51.07417]]},"properties":{"name":"Port Arthurlaan","oneway":"yes","highway":"primary","bicycle":"no","maxspeed":"50","vertex1":16393,"vertex2":16319}},{"type":"Feature","geometry":{"type":"LineString","coordinates":[[3.73433,51.07437],[3.734249,51.07495]]},"properties":{"name":"Port Arthurlaan","highway":"primary","bicycle":"no","maxspeed":"50","vertex1":16393,"vertex2":16340}},{"type":"Feature","geometry":{"type":"LineString","coordinates":[[3.731206,51.07318],[3.731178,51.07329],[3.73117,51.07332],[3.731133,51.07346]]},"properties":{"name":"Muidepoort","maxspeed":"50","highway":"tertiary","vertex1":16392,"vertex2":16368}},{"type":"Feature","geometry":{"type":"LineString","coordinates":[[3.731206,51.07318],[3.731215,51.07315]]},"properties":{"name":"Muidepoort","maxspeed":"50","highway":"tertiary","vertex1":16392,"vertex2":16312}},{"type":"Feature","geometry":{"type":"LineString","coordinates":[[3.731206,51.07318],[3.732074,51.07323]]},"properties":{"name":"Kajuitstraat","highway":"residential","maxspeed":"30","vertex1":16392,"vertex2":16295}},{"type":"Feature","geometry":{"type":"LineString","coordinates":[[3.73293,51.07225],[3.732265,51.07249],[3.732131,51.07253]]},"properties":{"name":"Roerstraat","highway":"residential","maxspeed":"30","vertex1":16391,"vertex2":16291}},{"type":"Feature","geometry":{"type":"LineString","coordinates":[[3.73293,51.07225],[3.733179,51.07238],[3.733358,51.07244]]},"properties":{"maxspeed":"50","highway":"unclassified","vertex1":16391,"vertex2":16390}},{"type":"Feature","geometry":{"type":"LineString","coordinates":[[3.73293,51.07225],[3.733218,51.07257]]},"properties":{"maxspeed":"50","highway":"unclassified","vertex1":16391,"vertex2":16292}},{"type":"Feature","geometry":{"type":"LineString","coordinates":[[3.73293,51.07225],[3.732912,51.07222],[3.732722,51.07193],[3.732511,51.07156]]},"properties":{"name":"Houtdoklaan","maxspeed":"50","highway":"residential","vertex1":16391,"vertex2":16336}},{"type":"Feature","geometry":{"type":"LineString","coordinates":[[3.733358,51.07244],[3.73325,51.07249],[3.733218,51.07257]]},"properties":{"maxspeed":"50","highway":"unclassified","vertex1":16390,"vertex2":16292}},{"type":"Feature","geometry":{"type":"LineString","coordinates":[[3.733358,51.07244],[3.73374,51.07253],[3.733858,51.07254],[3.734004,51.07255],[3.734124,51.07254],[3.734239,51.07253],[3.734464,51.07249],[3.734674,51.07243],[3.73487,51.07236],[3.735008,51.07228],[3.735108,51.0722],[3.735188,51.07214],[3.735294,51.072],[3.73535,51.07187],[3.735414,51.07162]]},"properties":{"name":"Koopvaardijlaan","maxspeed":"50","highway":"unclassified","vertex1":16390,"vertex2":18810}},{"type":"Feature","geometry":{"type":"LineString","coordinates":[[3.735414,51.07162],[3.735613,51.07195],[3.736331,51.07315]]},"properties":{"name":"Chinastraat","highway":"unclassified","vertex1":18810,"vertex2":18806}},{"type":"Feature","geometry":{"type":"LineString","coordinates":[[3.735414,51.07162],[3.73533,51.07146]]},"properties":{"name":"Koopvaardijlaan","maxspeed":"50","highway":"unclassified","vertex1":18810,"vertex2":16298}},{"type":"Feature","geometry":{"type":"LineString","coordinates":[[3.727806,51.07333],[3.727816,51.07318],[3.727819,51.07315],[3.727822,51.0731]]},"properties":{"name":"Terneuzenlaan","highway":"residential","maxspeed":"30","vertex1":16389,"vertex2":16387}},{"type":"Feature","geometry":{"type":"LineString","coordinates":[[3.727806,51.07333],[3.727742,51.07333],[3.727608,51.0732],[3.72753,51.0732]]},"properties":{"highway":"footway","vertex1":16389,"vertex2":16373}},{"type":"Feature","geometry":{"type":"LineString","coordinates":[[3.73489,51.07071],[3.735073,51.07102],[3.73533,51.07146]]},"properties":{"name":"Koopvaardijlaan","maxspeed":"50","highway":"unclassified","vertex1":16388,"vertex2":16298}},{"type":"Feature","geometry":{"type":"LineString","coordinates":[[3.73489,51.07071],[3.73448,51.07],[3.734358,51.0698],[3.734338,51.06969],[3.734347,51.06957],[3.734422,51.06934],[3.735195,51.06772],[3.735291,51.06758],[3.735463,51.06746],[3.735669,51.06739]]},"properties":{"name":"Koopvaardijlaan","maxspeed":"50","highway":"unclassified","vertex1":16388,"vertex2":18916}},{"type":"Feature","geometry":{"type":"LineString","coordinates":[[3.73489,51.07071],[3.738004,51.07]]},"properties":{"name":"Oceaniëstraat","highway":"unclassified","vertex1":16388,"vertex2":18860}},{"type":"Feature","geometry":{"type":"LineString","coordinates":[[3.727822,51.0731],[3.727608,51.07311],[3.727539,51.07311]]},"properties":{"cyclenetwork":"yes","highway":"footway","vertex1":16387,"vertex2":16371}},{"type":"Feature","geometry":{"type":"LineString","coordinates":[[3.727822,51.0731],[3.727829,51.07306]]},"properties":{"name":"Terneuzenlaan","cyclenetwork":"yes","highway":"residential","maxspeed":"30","vertex1":16387,"vertex2":16311}},{"type":"Feature","geometry":{"type":"LineString","coordinates":[[3.73149,51.07423],[3.731484,51.07444]]},"properties":{"name":"Haanstraat","highway":"residential","maxspeed":"30","vertex1":16386,"vertex2":16310}},{"type":"Feature","geometry":{"type":"LineString","coordinates":[[3.726411,51.07349],[3.726423,51.07337]]},"properties":{"name":"Wiedauwkaai","cyclenetwork":"yes","maxspeed":"50","highway":"secondary","cycleway":"lane","vertex1":16385,"vertex2":16358}},{"type":"Feature","geometry":{"type":"LineString","coordinates":[[3.732418,51.07441],[3.732435,51.07434],[3.732488,51.07413],[3.732598,51.0737]]},"properties":{"name":"Patrijsstraat","highway":"residential","maxspeed":"30","vertex1":16384,"vertex2":16334}},{"type":"Feature","geometry":{"type":"LineString","coordinates":[[3.732418,51.07441],[3.732053,51.07445],[3.731938,51.0745]]},"properties":{"name":"Haanstraat","highway":"residential","maxspeed":"30","vertex1":16384,"vertex2":16378}},{"type":"Feature","geometry":{"type":"LineString","coordinates":[[3.725574,51.0715],[3.726651,51.07164]]},"properties":{"highway":"service","vertex1":16383,"vertex2":16335}},{"type":"Feature","geometry":{"type":"LineString","coordinates":[[3.725574,51.0715],[3.725725,51.07102],[3.726722,51.07114]]},"properties":{"highway":"service","vertex1":16383,"vertex2":16329}},{"type":"Feature","geometry":{"type":"LineString","coordinates":[[3.732606,51.07365],[3.732598,51.0737]]},"properties":{"name":"Patrijsstraat","highway":"residential","maxspeed":"30","vertex1":16382,"vertex2":16334}},{"type":"Feature","geometry":{"type":"LineString","coordinates":[[3.732606,51.07365],[3.732907,51.07367]]},"properties":{"name":"Pauwstraat","bicycle":"no","maxspeed":"50","highway":"tertiary","vertex1":16382,"vertex2":16377}},{"type":"Feature","geometry":{"type":"LineString","coordinates":[[3.732606,51.07365],[3.731834,51.07362],[3.73134,51.07361],[3.731253,51.0736],[3.731198,51.07357],[3.731127,51.07352]]},"properties":{"name":"Pauwstraat","bicycle":"no","maxspeed":"50","highway":"tertiary","vertex1":16382,"vertex2":16366}},{"type":"Feature","geometry":{"type":"LineString","coordinates":[[3.733791,51.0738],[3.733542,51.07373]]},"properties":{"name":"Port Arthurlaan","bicycle":"no","maxspeed":"50","highway":"tertiary","vertex1":16381,"vertex2":16379}},{"type":"Feature","geometry":{"type":"LineString","coordinates":[[3.733791,51.0738],[3.733898,51.07382]]},"properties":{"name":"Port Arthurlaan","oneway":"yes","bicycle":"no","maxspeed":"50","highway":"tertiary","vertex1":16381,"vertex2":16375}},{"type":"Feature","geometry":{"type":"LineString","coordinates":[[3.732743,51.0751],[3.733039,51.07532]]},"properties":{"name":"Fazantstraat","oneway":"yes","highway":"residential","maxspeed":"30","vertex1":16380,"vertex2":16289}},{"type":"Feature","geometry":{"type":"LineString","coordinates":[[3.732743,51.0751],[3.731938,51.0745]]},"properties":{"name":"Fazantstraat","highway":"residential","maxspeed":"30","vertex1":16380,"vertex2":16378}},{"type":"Feature","geometry":{"type":"LineString","coordinates":[[3.732743,51.0751],[3.732627,51.07513],[3.731661,51.07505],[3.731533,51.07502]]},"properties":{"name":"Landbouwersstraat","oneway":"yes","highway":"residential","maxspeed":"30","vertex1":16380,"vertex2":16332}},{"type":"Feature","geometry":{"type":"LineString","coordinates":[[3.733542,51.07373],[3.733331,51.07369],[3.733138,51.07367],[3.732907,51.07367]]},"properties":{"name":"Port Arthurlaan","bicycle":"no","maxspeed":"50","highway":"tertiary","vertex1":16379,"vertex2":16377}},{"type":"Feature","geometry":{"type":"LineString","coordinates":[[3.733542,51.07373],[3.733571,51.07366]]},"properties":{"highway":"service","vertex1":16379,"vertex2":16322}},{"type":"Feature","geometry":{"type":"LineString","coordinates":[[3.731938,51.0745],[3.731866,51.07455],[3.731533,51.07502]]},"properties":{"name":"Achtermuide","oneway":"yes","highway":"residential","maxspeed":"30","vertex1":16378,"vertex2":16332}},{"type":"Feature","geometry":{"type":"LineString","coordinates":[[3.731938,51.0745],[3.731841,51.07446],[3.731484,51.07444]]},"properties":{"name":"Haanstraat","highway":"residential","maxspeed":"30","vertex1":16378,"vertex2":16310}},{"type":"Feature","geometry":{"type":"LineString","coordinates":[[3.7312,51.07491],[3.731441,51.07456]]},"properties":{"name":"Landbouwersstraat","highway":"residential","maxspeed":"30","vertex1":16376,"vertex2":16308}},{"type":"Feature","geometry":{"type":"LineString","coordinates":[[3.7312,51.07491],[3.730681,51.07474]]},"properties":{"name":"Landbouwersstraat","oneway":"yes","highway":"residential","maxspeed":"30","vertex1":16376,"vertex2":16333}},{"type":"Feature","geometry":{"type":"LineString","coordinates":[[3.7312,51.07491],[3.731533,51.07502]]},"properties":{"name":"Landbouwersstraat","oneway":"yes","highway":"residential","maxspeed":"30","vertex1":16376,"vertex2":16332}},{"type":"Feature","geometry":{"type":"LineString","coordinates":[[3.733898,51.07382],[3.734082,51.07383],[3.734091,51.07383],[3.734163,51.07383]]},"properties":{"name":"Port Arthurlaan","oneway":"yes","bicycle":"no","maxspeed":"50","highway":"tertiary","vertex1":16375,"vertex2":16361}},{"type":"Feature","geometry":{"type":"LineString","coordinates":[[3.733898,51.07382],[3.73403,51.07391],[3.734083,51.07395]]},"properties":{"name":"Port Arthurlaan","oneway":"yes","bicycle":"no","maxspeed":"50","highway":"tertiary","vertex1":16375,"vertex2":16320}},{"type":"Feature","geometry":{"type":"LineString","coordinates":[[3.732336,51.07129],[3.732423,51.0714]]},"properties":{"name":"Houtdoklaan","maxspeed":"50","highway":"residential","vertex1":16374,"vertex2":16330}},{"type":"Feature","geometry":{"type":"LineString","coordinates":[[3.732336,51.07129],[3.732048,51.07129]]},"properties":{"highway":"footway","vertex1":16374,"vertex2":16304}},{"type":"Feature","geometry":{"type":"LineString","coordinates":[[3.72753,51.0732],[3.726589,51.07317]]},"properties":{"bridge":"movable","highway":"footway","vertex1":16373,"vertex2":16318}},{"type":"Feature","geometry":{"type":"LineString","coordinates":[[3.73449,51.07418],[3.734366,51.07418],[3.734276,51.07417]]},"properties":{"name":"Port Arthurlaan","highway":"primary","maxspeed":"50","junction":"roundabout","cycleway":"lane","vertex1":16372,"vertex2":16319}},{"type":"Feature","geometry":{"type":"LineString","coordinates":[[3.73449,51.07418],[3.734588,51.07417],[3.734679,51.07412],[3.734728,51.07408],[3.734767,51.07402],[3.734776,51.07397]]},"properties":{"name":"Port Arthurlaan","highway":"primary","maxspeed":"50","junction":"roundabout","cycleway":"lane","vertex1":16372,"vertex2":16337}},{"type":"Feature","geometry":{"type":"LineString","coordinates":[[3.727539,51.07311],[3.726596,51.07307]]},"properties":{"bridge":"movable","cyclenetwork":"yes","highway":"footway","vertex1":16371,"vertex2":16352}},{"type":"Feature","geometry":{"type":"LineString","coordinates":[[3.728298,51.07149],[3.728739,51.07114],[3.728894,51.07106],[3.729549,51.07078],[3.729774,51.07072],[3.73,51.07067],[3.730384,51.07057]]},"properties":{"cyclenetwork":"yes","highway":"cycleway","vertex1":16370,"vertex2":16328}},{"type":"Feature","geometry":{"type":"LineString","coordinates":[[3.728298,51.07149],[3.727881,51.07182],[3.727822,51.07188],[3.727781,51.07196]]},"properties":{"cyclenetwork":"yes","highway":"cycleway","vertex1":16370,"vertex2":16306}},{"type":"Feature","geometry":{"type":"LineString","coordinates":[[3.728298,51.07149],[3.728393,51.07154]]},"properties":{"highway":"cycleway","vertex1":16370,"vertex2":16363}},{"type":"Feature","geometry":{"type":"LineString","coordinates":[[3.7297,51.07434],[3.729929,51.07368]]},"properties":{"name":"Londenstraat","highway":"residential","maxspeed":"30","vertex1":16369,"vertex2":16355}},{"type":"Feature","geometry":{"type":"LineString","coordinates":[[3.731133,51.07346],[3.731127,51.07352]]},"properties":{"name":"Muidepoort","maxspeed":"50","highway":"tertiary","vertex1":16368,"vertex2":16366}},{"type":"Feature","geometry":{"type":"LineString","coordinates":[[3.731133,51.07346],[3.731065,51.07346]]},"properties":{"name":"Londenstraat","highway":"residential","maxspeed":"30","vertex1":16368,"vertex2":16341}},{"type":"Feature","geometry":{"type":"LineString","coordinates":[[3.731133,51.07346],[3.731205,51.07349],[3.731245,51.07353],[3.733209,51.0736],[3.73331,51.07361],[3.733571,51.07366]]},"properties":{"oneway":"yes","highway":"cycleway","vertex1":16368,"vertex2":16322}},{"type":"Feature","geometry":{"type":"LineString","coordinates":[[3.727873,51.07232],[3.72808,51.07236],[3.728337,51.07244]]},"properties":{"name":"Assenedestraat","highway":"residential","maxspeed":"30","vertex1":16367,"vertex2":16365}},{"type":"Feature","geometry":{"type":"LineString","coordinates":[[3.727873,51.07232],[3.727728,51.0723]]},"properties":{"highway":"cycleway","vertex1":16367,"vertex2":16326}},{"type":"Feature","geometry":{"type":"LineString","coordinates":[[3.727873,51.07232],[3.727834,51.0729]]},"properties":{"name":"Terneuzenlaan","highway":"residential","maxspeed":"30","vertex1":16367,"vertex2":16290}},{"type":"Feature","geometry":{"type":"LineString","coordinates":[[3.727873,51.07232],[3.727914,51.07212],[3.727944,51.07198]]},"properties":{"name":"Terneuzenlaan","highway":"residential","maxspeed":"30","vertex1":16367,"vertex2":16353}},{"type":"Feature","geometry":{"type":"LineString","coordinates":[[3.731127,51.07352],[3.731097,51.07361]]},"properties":{"name":"Meulesteedsesteenweg","highway":"residential","maxspeed":"30","vertex1":16366,"vertex2":16300}},{"type":"Feature","geometry":{"type":"LineString","coordinates":[[3.728189,51.0728],[3.728179,51.0729],[3.727834,51.0729]]},"properties":{"bicycle":"no","motorcar":"no","foot":"no","maxspeed":"30","highway":"service","vertex1":16364,"vertex2":16290}},{"type":"Feature","geometry":{"type":"LineString","coordinates":[[3.728393,51.07154],[3.728593,51.07164],[3.728963,51.07188]]},"properties":{"name":"Boekhoutestraat","highway":"residential","maxspeed":"30","vertex1":16363,"vertex2":16357}},{"type":"Feature","geometry":{"type":"LineString","coordinates":[[3.728393,51.07154],[3.728131,51.07175],[3.727984,51.07188],[3.727944,51.07198]]},"properties":{"name":"Terneuzenlaan","highway":"residential","maxspeed":"30","vertex1":16363,"vertex2":16353}},{"type":"Feature","geometry":{"type":"LineString","coordinates":[[3.728393,51.07154],[3.728799,51.07122],[3.729217,51.07101],[3.729571,51.07087],[3.729809,51.07078]]},"properties":{"name":"Terneuzenlaan","highway":"residential","maxspeed":"30","vertex1":16363,"vertex2":16325}},{"type":"Feature","geometry":{"type":"LineString","coordinates":[[3.731085,51.07314],[3.730832,51.07314],[3.730417,51.07314]]},"properties":{"highway":"track","vertex1":16362,"vertex2":16305}},{"type":"Feature","geometry":{"type":"LineString","coordinates":[[3.731085,51.07314],[3.731215,51.07315]]},"properties":{"highway":"track","vertex1":16362,"vertex2":16312}},{"type":"Feature","geometry":{"type":"LineString","coordinates":[[3.734163,51.07383],[3.734106,51.07389],[3.734083,51.07395]]},"properties":{"name":"Port Arthurlaan","highway":"primary","maxspeed":"50","junction":"roundabout","cycleway":"lane","vertex1":16361,"vertex2":16320}},{"type":"Feature","geometry":{"type":"LineString","coordinates":[[3.734163,51.07383],[3.734236,51.07379],[3.734301,51.07377],[3.73439,51.07375],[3.734475,51.07375],[3.734572,51.07377],[3.734664,51.07381],[3.734732,51.07386]]},"properties":{"name":"Port Arthurlaan","highway":"primary","maxspeed":"50","junction":"roundabout","cycleway":"lane","vertex1":16361,"vertex2":16359}},{"type":"Feature","geometry":{"type":"LineString","coordinates":[[3.734163,51.07383],[3.733571,51.07366]]},"properties":{"oneway":"yes","highway":"cycleway","vertex1":16361,"vertex2":16322}},{"type":"Feature","geometry":{"type":"LineString","coordinates":[[3.730051,51.07003],[3.730073,51.07006]]},"properties":{"name":"Voormuide","oneway":"yes","maxspeed":"50","highway":"tertiary","vertex1":16360,"vertex2":16302}},{"type":"Feature","geometry":{"type":"LineString","coordinates":[[3.730051,51.07003],[3.729989,51.06991]]},"properties":{"name":"Voormuide","oneway":"yes","maxspeed":"50","highway":"tertiary","vertex1":16360,"vertex2":16223}},{"type":"Feature","geometry":{"type":"LineString","coordinates":[[3.730051,51.07003],[3.730131,51.07001]]},"properties":{"highway":"footway","vertex1":16360,"vertex2":16301}},{"type":"Feature","geometry":{"type":"LineString","coordinates":[[3.730051,51.07003],[3.729992,51.07004],[3.730017,51.07007],[3.730028,51.07008]]},"properties":{"highway":"footway","vertex1":16360,"vertex2":16354}},{"type":"Feature","geometry":{"type":"LineString","coordinates":[[3.734732,51.07386],[3.734762,51.07391],[3.734776,51.07397]]},"properties":{"name":"Port Arthurlaan","highway":"primary","maxspeed":"50","junction":"roundabout","cycleway":"lane","vertex1":16359,"vertex2":16337}},{"type":"Feature","geometry":{"type":"LineString","coordinates":[[3.734732,51.07386],[3.734807,51.07386],[3.734861,51.07386],[3.734996,51.07385],[3.735199,51.07384],[3.735326,51.07383],[3.735464,51.07384],[3.735658,51.07385],[3.736022,51.07388],[3.736334,51.07391],[3.736724,51.07394]]},"properties":{"name":"Vliegtuiglaan","oneway":"yes","highway":"primary","maxspeed":"50","vertex1":16359,"vertex2":18804}},{"type":"Feature","geometry":{"type":"LineString","coordinates":[[3.726423,51.07337],[3.726438,51.07316]]},"properties":{"name":"Wiedauwkaai","cyclenetwork":"yes","maxspeed":"50","highway":"secondary","cycleway":"lane","vertex1":16358,"vertex2":16350}},{"type":"Feature","geometry":{"type":"LineString","coordinates":[[3.729822,51.07016],[3.729889,51.07014],[3.729954,51.07012],[3.730028,51.07008]]},"properties":{"name":"Sassekaai","oneway":"yes","highway":"residential","maxspeed":"30","vertex1":16356,"vertex2":16354}},{"type":"Feature","geometry":{"type":"LineString","coordinates":[[3.729822,51.07016],[3.729777,51.07017],[3.729723,51.07017],[3.72962,51.07016],[3.729506,51.07013],[3.729386,51.07005]]},"properties":{"name":"Sassekaai","oneway":"yes","highway":"residential","maxspeed":"30","vertex1":16356,"vertex2":16344}},{"type":"Feature","geometry":{"type":"LineString","coordinates":[[3.729929,51.07368],[3.729942,51.07365],[3.730007,51.07359],[3.730253,51.07352],[3.730548,51.07348],[3.730821,51.07347],[3.731065,51.07346]]},"properties":{"name":"Londenstraat","highway":"residential","maxspeed":"30","vertex1":16355,"vertex2":16341}},{"type":"Feature","geometry":{"type":"LineString","coordinates":[[3.729929,51.07368],[3.729652,51.07375]]},"properties":{"name":"Santosstraat","maxspeed":"30","highway":"track","vertex1":16355,"vertex2":16314}},{"type":"Feature","geometry":{"type":"LineString","coordinates":[[3.730028,51.07008],[3.730073,51.07006]]},"properties":{"name":"Sassekaai","oneway":"yes","highway":"residential","maxspeed":"30","vertex1":16354,"vertex2":16302}},{"type":"Feature","geometry":{"type":"LineString","coordinates":[[3.727944,51.07198],[3.728213,51.07207],[3.728906,51.07236],[3.729159,51.07247]]},"properties":{"name":"Loodsenstraat","highway":"residential","maxspeed":"30","vertex1":16353,"vertex2":16351}},{"type":"Feature","geometry":{"type":"LineString","coordinates":[[3.727944,51.07198],[3.727781,51.07196]]},"properties":{"highway":"cycleway","vertex1":16353,"vertex2":16306}},{"type":"Feature","geometry":{"type":"LineString","coordinates":[[3.726596,51.07307],[3.726447,51.07306]]},"properties":{"cyclenetwork":"yes","highway":"footway","vertex1":16352,"vertex2":16288}},{"type":"Feature","geometry":{"type":"LineString","coordinates":[[3.729159,51.07247],[3.729322,51.07251],[3.729542,51.07251],[3.729795,51.07251],[3.730471,51.07252]]},"properties":{"name":"Loodsenstraat","highway":"residential","maxspeed":"30","vertex1":16351,"vertex2":16349}},{"type":"Feature","geometry":{"type":"LineString","coordinates":[[3.729159,51.07247],[3.730301,51.07151]]},"properties":{"name":"Makelaarsstraat","highway":"residential","maxspeed":"30","vertex1":16351,"vertex2":16347}},{"type":"Feature","geometry":{"type":"LineString","coordinates":[[3.729159,51.07247],[3.72882,51.07276],[3.728672,51.07289]]},"properties":{"name":"Makelaarsstraat","highway":"residential","maxspeed":"30","vertex1":16351,"vertex2":16331}},{"type":"Feature","geometry":{"type":"LineString","coordinates":[[3.726438,51.07316],[3.726589,51.07317]]},"properties":{"highway":"footway","vertex1":16350,"vertex2":16318}},{"type":"Feature","geometry":{"type":"LineString","coordinates":[[3.726438,51.07316],[3.72644,51.07313],[3.726444,51.0731],[3.726447,51.07306]]},"properties":{"name":"Wiedauwkaai","cyclenetwork":"yes","maxspeed":"50","highway":"secondary","cycleway":"lane","vertex1":16350,"vertex2":16288}},{"type":"Feature","geometry":{"type":"LineString","coordinates":[[3.730471,51.07252],[3.731337,51.07253]]},"properties":{"name":"Loodsenstraat","highway":"residential","maxspeed":"30","vertex1":16349,"vertex2":16294}},{"type":"Feature","geometry":{"type":"LineString","coordinates":[[3.730471,51.07252],[3.730479,51.07227]]},"properties":{"name":"Suikerijsteeg","highway":"residential","maxspeed":"30","vertex1":16349,"vertex2":16323}},{"type":"Feature","geometry":{"type":"LineString","coordinates":[[3.731317,51.07219],[3.731337,51.07253]]},"properties":{"name":"Muidepoort","maxspeed":"50","highway":"tertiary","vertex1":16348,"vertex2":16294}},{"type":"Feature","geometry":{"type":"LineString","coordinates":[[3.731317,51.07219],[3.730588,51.07226]]},"properties":{"name":"Suikerijsteeg","highway":"residential","maxspeed":"30","vertex1":16348,"vertex2":16313}},{"type":"Feature","geometry":{"type":"LineString","coordinates":[[3.730301,51.07151],[3.730419,51.07145],[3.730832,51.07133]]},"properties":{"name":"Makelaarsstraat","highway":"residential","maxspeed":"30","vertex1":16347,"vertex2":16346}},{"type":"Feature","geometry":{"type":"LineString","coordinates":[[3.730301,51.07151],[3.729809,51.07078]]},"properties":{"name":"Matrozenstraat","oneway":"yes","highway":"residential","maxspeed":"30","vertex1":16347,"vertex2":16325}},{"type":"Feature","geometry":{"type":"LineString","coordinates":[[3.730832,51.07133],[3.731004,51.07156]]},"properties":{"name":"Muidepoort","maxspeed":"50","highway":"tertiary","vertex1":16346,"vertex2":16316}},{"type":"Feature","geometry":{"type":"LineString","coordinates":[[3.730832,51.07133],[3.730426,51.07064]]},"properties":{"name":"Muidepoort","maxspeed":"50","highway":"tertiary","vertex1":16346,"vertex2":16343}},{"type":"Feature","geometry":{"type":"LineString","coordinates":[[3.730815,51.07441],[3.730681,51.07474]]},"properties":{"name":"Meulesteedsesteenweg","highway":"residential","maxspeed":"30","vertex1":16345,"vertex2":16333}},{"type":"Feature","geometry":{"type":"LineString","coordinates":[[3.730815,51.07441],[3.731097,51.07361]]},"properties":{"name":"Meulesteedsesteenweg","highway":"residential","maxspeed":"30","vertex1":16345,"vertex2":16300}},{"type":"Feature","geometry":{"type":"LineString","coordinates":[[3.730815,51.07441],[3.731163,51.07443]]},"properties":{"name":"Haanstraat","highway":"residential","maxspeed":"30","vertex1":16345,"vertex2":16315}},{"type":"Feature","geometry":{"type":"LineString","coordinates":[[3.729386,51.07005],[3.729989,51.06991]]},"properties":{"name":"Sluismeesterstraat","highway":"residential","maxspeed":"30","vertex1":16344,"vertex2":16223}},{"type":"Feature","geometry":{"type":"LineString","coordinates":[[3.729386,51.07005],[3.729246,51.06992],[3.72915,51.06983],[3.729079,51.06976],[3.728932,51.0696]]},"properties":{"name":"Sassekaai","oneway":"yes","highway":"residential","maxspeed":"30","vertex1":16344,"vertex2":16161}},{"type":"Feature","geometry":{"type":"LineString","coordinates":[[3.730426,51.07064],[3.730151,51.0707],[3.729809,51.07078]]},"properties":{"name":"Terneuzenlaan","highway":"residential","maxspeed":"30","vertex1":16343,"vertex2":16325}},{"type":"Feature","geometry":{"type":"LineString","coordinates":[[3.730426,51.07064],[3.730384,51.07057]]},"properties":{"name":"Muidepoort","maxspeed":"50","highway":"tertiary","vertex1":16343,"vertex2":16328}},{"type":"Feature","geometry":{"type":"LineString","coordinates":[[3.732064,51.07153],[3.732131,51.07253]]},"properties":{"name":"Spadestraat","highway":"residential","maxspeed":"30","vertex1":16342,"vertex2":16291}},{"type":"Feature","geometry":{"type":"LineString","coordinates":[[3.732064,51.07153],[3.732048,51.07129]]},"properties":{"highway":"footway","vertex1":16342,"vertex2":16304}},{"type":"Feature","geometry":{"type":"LineString","coordinates":[[3.732064,51.07153],[3.731004,51.07156]]},"properties":{"name":"Zeilstraat","oneway":"yes","oneway:bicycle":"no","highway":"residential","maxspeed":"30","vertex1":16342,"vertex2":16316}},{"type":"Feature","geometry":{"type":"LineString","coordinates":[[3.732064,51.07153],[3.732511,51.07156]]},"properties":{"oneway":"yes","highway":"unclassified","vertex1":16342,"vertex2":16336}},{"type":"Feature","geometry":{"type":"LineString","coordinates":[[3.732064,51.07153],[3.732423,51.0714]]},"properties":{"oneway":"yes","highway":"unclassified","vertex1":16342,"vertex2":16330}},{"type":"Feature","geometry":{"type":"LineString","coordinates":[[3.731065,51.07346],[3.731066,51.07349],[3.73106,51.07352],[3.731061,51.07358],[3.731097,51.07361]]},"properties":{"oneway":"yes","highway":"cycleway","vertex1":16341,"vertex2":16300}},{"type":"Feature","geometry":{"type":"LineString","coordinates":[[3.734249,51.07495],[3.73418,51.07497]]},"properties":{"name":"Vorkstraat","oneway":"yes","highway":"residential","maxspeed":"30","vertex1":16340,"vertex2":16338}},{"type":"Feature","geometry":{"type":"LineString","coordinates":[[3.734249,51.07495],[3.734231,51.07517]]},"properties":{"name":"Port Arthurlaan","highway":"primary","bicycle":"no","maxspeed":"50","vertex1":16340,"vertex2":16296}},{"type":"Feature","geometry":{"type":"LineString","coordinates":[[3.730706,51.07281],[3.730246,51.07281],[3.73009,51.07283],[3.730083,51.07293],[3.730113,51.07301],[3.730236,51.07307],[3.730417,51.07314]]},"properties":{"highway":"track","vertex1":16339,"vertex2":16305}},{"type":"Feature","geometry":{"type":"LineString","coordinates":[[3.73418,51.07497],[3.733039,51.07532]]},"properties":{"name":"Vorkstraat","oneway":"yes","highway":"residential","maxspeed":"30","vertex1":16338,"vertex2":16289}},{"type":"Feature","geometry":{"type":"LineString","coordinates":[[3.73418,51.07497],[3.734169,51.07509],[3.734231,51.07517]]},"properties":{"oneway":"yes","highway":"cycleway","vertex1":16338,"vertex2":16296}},{"type":"Feature","geometry":{"type":"LineString","coordinates":[[3.73418,51.07497],[3.734185,51.07481],[3.734233,51.07456],[3.734242,51.0744],[3.734212,51.07427],[3.734197,51.07423],[3.734276,51.07417]]},"properties":{"oneway":"yes","highway":"cycleway","vertex1":16338,"vertex2":16319}},{"type":"Feature","geometry":{"type":"LineString","coordinates":[[3.734776,51.07397],[3.73484,51.07396],[3.734973,51.07393],[3.735123,51.07392],[3.735296,51.07391],[3.735557,51.07392],[3.735888,51.07395],[3.736217,51.07398],[3.736683,51.07402],[3.737094,51.07405],[3.737751,51.07413]]},"properties":{"name":"Vliegtuiglaan","oneway":"yes","highway":"primary","maxspeed":"50","vertex1":16337,"vertex2":18802}},{"type":"Feature","geometry":{"type":"LineString","coordinates":[[3.734776,51.07397],[3.734778,51.07411],[3.734777,51.07432],[3.734703,51.07462],[3.734424,51.075],[3.734231,51.07517]]},"properties":{"oneway":"yes","highway":"cycleway","vertex1":16337,"vertex2":16296}},{"type":"Feature","geometry":{"type":"LineString","coordinates":[[3.732511,51.07156],[3.732423,51.0714]]},"properties":{"name":"Houtdoklaan","maxspeed":"50","highway":"residential","vertex1":16336,"vertex2":16330}},{"type":"Feature","geometry":{"type":"LineString","coordinates":[[3.726651,51.07164],[3.726722,51.07114]]},"properties":{"name":"Wiedauwkaai","maxspeed":"50","highway":"secondary","cycleway":"lane","vertex1":16335,"vertex2":16329}},{"type":"Feature","geometry":{"type":"LineString","coordinates":[[3.732598,51.0737],[3.733182,51.07372],[3.733576,51.07384],[3.733724,51.07391],[3.734083,51.07395]]},"properties":{"oneway":"yes","highway":"cycleway","vertex1":16334,"vertex2":16320}},{"type":"Feature","geometry":{"type":"LineString","coordinates":[[3.732598,51.0737],[3.732416,51.07369],[3.73215,51.0737],[3.731249,51.07366],[3.731125,51.07363],[3.731097,51.07361]]},"properties":{"oneway":"yes","highway":"cycleway","vertex1":16334,"vertex2":16300}},{"type":"Feature","geometry":{"type":"LineString","coordinates":[[3.728672,51.07289],[3.728577,51.07293],[3.72844,51.07296],[3.728413,51.07302],[3.728326,51.07307]]},"properties":{"highway":"path","vertex1":16331,"vertex2":16297}},{"type":"Feature","geometry":{"type":"LineString","coordinates":[[3.728672,51.07289],[3.728763,51.07296],[3.728849,51.07309]]},"properties":{"highway":"path","vertex1":16331,"vertex2":16303}},{"type":"Feature","geometry":{"type":"LineString","coordinates":[[3.726722,51.07114],[3.726856,51.07018],[3.726874,51.06976]]},"properties":{"name":"Wiedauwkaai","maxspeed":"50","highway":"secondary","cycleway":"lane","vertex1":16329,"vertex2":16150}},{"type":"Feature","geometry":{"type":"LineString","coordinates":[[3.730384,51.07057],[3.730124,51.07006]]},"properties":{"name":"Muidebrug","bridge":"yes","cyclenetwork":"yes","maxspeed":"50","highway":"tertiary","cycleway":"lane","vertex1":16328,"vertex2":16324}},{"type":"Feature","geometry":{"type":"LineString","coordinates":[[3.727728,51.0723],[3.727757,51.07204],[3.727781,51.07196]]},"properties":{"cyclenetwork":"yes","highway":"cycleway","vertex1":16326,"vertex2":16306}},{"type":"Feature","geometry":{"type":"LineString","coordinates":[[3.727728,51.0723],[3.727666,51.07281],[3.727682,51.07286],[3.727736,51.07289],[3.727834,51.0729]]},"properties":{"cyclenetwork":"yes","highway":"cycleway","vertex1":16326,"vertex2":16290}},{"type":"Feature","geometry":{"type":"LineString","coordinates":[[3.730124,51.07006],[3.730214,51.07005],[3.730751,51.06993]]},"properties":{"name":"Dok-Noord","oneway":"yes","oneway:bicycle":"no","highway":"residential","vertex1":16324,"vertex2":16176}},{"type":"Feature","geometry":{"type":"LineString","coordinates":[[3.730124,51.07006],[3.730073,51.07006]]},"properties":{"name":"Sassekaai","oneway":"yes","highway":"residential","maxspeed":"30","vertex1":16324,"vertex2":16302}},{"type":"Feature","geometry":{"type":"LineString","coordinates":[[3.730124,51.07006],[3.730131,51.07001]]},"properties":{"name":"Voormuide","oneway":"yes","cyclenetwork":"yes","maxspeed":"50","highway":"tertiary","vertex1":16324,"vertex2":16301}},{"type":"Feature","geometry":{"type":"LineString","coordinates":[[3.730479,51.07227],[3.730433,51.0722]]},"properties":{"name":"Suikerijsteeg","highway":"residential","maxspeed":"30","vertex1":16323,"vertex2":16321}},{"type":"Feature","geometry":{"type":"LineString","coordinates":[[3.730479,51.07227],[3.730588,51.07226]]},"properties":{"name":"Suikerijsteeg","highway":"residential","maxspeed":"30","vertex1":16323,"vertex2":16313}},{"type":"Feature","geometry":{"type":"LineString","coordinates":[[3.733571,51.07366],[3.733598,51.0736],[3.733627,51.07356],[3.73367,51.07354],[3.733734,51.07353],[3.735976,51.07362]]},"properties":{"highway":"service","vertex1":16322,"vertex2":18874}},{"type":"Feature","geometry":{"type":"LineString","coordinates":[[3.730433,51.0722],[3.730427,51.07216]]},"properties":{"name":"Suikerijsteeg","highway":"residential","maxspeed":"30","vertex1":16321,"vertex2":16309}},{"type":"Feature","geometry":{"type":"LineString","coordinates":[[3.730433,51.0722],[3.730389,51.0722]]},"properties":{"name":"Suikerijsteeg","highway":"residential","maxspeed":"30","vertex1":16321,"vertex2":16307}},{"type":"Feature","geometry":{"type":"LineString","coordinates":[[3.734083,51.07395],[3.734082,51.07399],[3.73411,51.07406],[3.734192,51.07413],[3.734276,51.07417]]},"properties":{"name":"Port Arthurlaan","highway":"primary","maxspeed":"50","junction":"roundabout","cycleway":"lane","vertex1":16320,"vertex2":16319}},{"type":"Feature","geometry":{"type":"LineString","coordinates":[[3.73142,51.07444],[3.731163,51.07443]]},"properties":{"name":"Haanstraat","motorcar":"no","highway":"residential","maxspeed":"30","vertex1":16317,"vertex2":16315}},{"type":"Feature","geometry":{"type":"LineString","coordinates":[[3.73142,51.07444],[3.731484,51.07444]]},"properties":{"name":"Haanstraat","highway":"residential","maxspeed":"30","vertex1":16317,"vertex2":16310}},{"type":"Feature","geometry":{"type":"LineString","coordinates":[[3.727829,51.07306],[3.727834,51.0729]]},"properties":{"name":"Terneuzenlaan","cyclenetwork":"yes","highway":"residential","maxspeed":"30","vertex1":16311,"vertex2":16290}},{"type":"Feature","geometry":{"type":"LineString","coordinates":[[3.727829,51.07306],[3.72812,51.07306],[3.728326,51.07307]]},"properties":{"highway":"path","vertex1":16311,"vertex2":16297}},{"type":"Feature","geometry":{"type":"LineString","coordinates":[[3.730427,51.07216],[3.730395,51.07214],[3.730352,51.07215],[3.730357,51.07218],[3.730389,51.0722]]},"properties":{"name":"Suikerijsteeg","highway":"residential","maxspeed":"30","vertex1":16309,"vertex2":16307}},{"type":"Feature","geometry":{"type":"LineString","coordinates":[[3.730417,51.07314],[3.730175,51.07314],[3.729877,51.07313],[3.729658,51.07312],[3.729532,51.0731],[3.729295,51.0731],[3.729185,51.0731],[3.72901,51.0731],[3.728926,51.07309],[3.728849,51.07309]]},"properties":{"highway":"path","vertex1":16305,"vertex2":16303}},{"type":"Feature","geometry":{"type":"LineString","coordinates":[[3.728849,51.07309],[3.728776,51.07309],[3.72858,51.07308],[3.728326,51.07307]]},"properties":{"highway":"path","vertex1":16303,"vertex2":16297}},{"type":"Feature","geometry":{"type":"LineString","coordinates":[[3.730131,51.07001],[3.730073,51.06989]]},"properties":{"name":"Voormuide","oneway":"yes","cyclenetwork":"yes","maxspeed":"50","highway":"tertiary","vertex1":16301,"vertex2":16175}},{"type":"Feature","geometry":{"type":"LineString","coordinates":[[3.733463,51.07273],[3.733425,51.07322],[3.73336,51.07328],[3.733232,51.07331],[3.732074,51.07323]]},"properties":{"name":"Kajuitstraat","highway":"residential","maxspeed":"30","vertex1":16299,"vertex2":16295}},{"type":"Feature","geometry":{"type":"LineString","coordinates":[[3.733463,51.07273],[3.73386,51.0729],[3.734133,51.07299],[3.734431,51.07307],[3.734574,51.0731],[3.734851,51.07315],[3.735185,51.07315],[3.735803,51.07317],[3.736331,51.07315]]},"properties":{"name":"Aziëstraat","maxspeed":"50","highway":"unclassified","vertex1":16299,"vertex2":18806}},{"type":"Feature","geometry":{"type":"LineString","coordinates":[[3.733463,51.07273],[3.733218,51.07257]]},"properties":{"name":"Aziëstraat","maxspeed":"50","highway":"unclassified","vertex1":16299,"vertex2":16292}},{"type":"Feature","geometry":{"type":"LineString","coordinates":[[3.73533,51.07146],[3.735558,51.07139],[3.736958,51.07107],[3.73717,51.07103],[3.737777,51.07109]]},"properties":{"name":"Australiëstraat","highway":"unclassified","vertex1":16298,"vertex2":18858}},{"type":"Feature","geometry":{"type":"LineString","coordinates":[[3.732074,51.07323],[3.732121,51.07273]]},"properties":{"name":"Spadestraat","highway":"residential","maxspeed":"30","vertex1":16295,"vertex2":16293}},{"type":"Feature","geometry":{"type":"LineString","coordinates":[[3.731337,51.07253],[3.732131,51.07253]]},"properties":{"name":"Roerstraat","oneway":"yes","oneway:bicycle":"no","highway":"residential","maxspeed":"30","vertex1":16294,"vertex2":16291}},{"type":"Feature","geometry":{"type":"LineString","coordinates":[[3.732121,51.07273],[3.732131,51.07253]]},"properties":{"name":"Spadestraat","highway":"residential","maxspeed":"30","vertex1":16293,"vertex2":16291}},{"type":"Feature","geometry":{"type":"LineString","coordinates":[[3.728547,51.06968],[3.728629,51.06964],[3.728692,51.06964],[3.72874,51.06964],[3.728932,51.0696]]},"properties":{"bridge":"yes","highway":"footway","vertex1":16271,"vertex2":16161}},{"type":"Feature","geometry":{"type":"LineString","coordinates":[[3.729989,51.06991],[3.730029,51.0699],[3.730073,51.06989]]},"properties":{"name":"Sluismeesterstraat","highway":"residential","maxspeed":"30","vertex1":16223,"vertex2":16175}},{"type":"Feature","geometry":{"type":"LineString","coordinates":[[3.729989,51.06991],[3.729872,51.06968],[3.729673,51.06928],[3.729624,51.06913],[3.729596,51.06899]]},"properties":{"name":"Voormuide","oneway":"yes","maxspeed":"50","highway":"tertiary","vertex1":16223,"vertex2":16128}},{"type":"Feature","geometry":{"type":"LineString","coordinates":[[3.729596,51.06899],[3.729511,51.069],[3.728668,51.06915],[3.728653,51.06915]]},"properties":{"name":"Scheepvaartstraat","oneway":"yes","oneway:bicycle":"no","highway":"residential","maxspeed":"30","vertex1":16128,"vertex2":16219}},{"type":"Feature","geometry":{"type":"LineString","coordinates":[[3.729596,51.06899],[3.72964,51.06899],[3.729691,51.06898]]},"properties":{"name":"Scheepvaartstraat","oneway":"yes","oneway:bicycle":"no","highway":"residential","maxspeed":"30","vertex1":16128,"vertex2":16221}},{"type":"Feature","geometry":{"type":"LineString","coordinates":[[3.728653,51.06915],[3.728487,51.06881]]},"properties":{"name":"Sassekaai","oneway":"yes","highway":"residential","maxspeed":"30","vertex1":16219,"vertex2":16145}},{"type":"Feature","geometry":{"type":"LineString","coordinates":[[3.728653,51.06915],[3.728808,51.06942],[3.728852,51.0695],[3.728931,51.0696],[3.728932,51.0696]]},"properties":{"name":"Sassekaai","oneway":"yes","highway":"residential","maxspeed":"30","vertex1":16219,"vertex2":16161}},{"type":"Feature","geometry":{"type":"LineString","coordinates":[[3.730389,51.06908],[3.730512,51.06899]]},"properties":{"highway":"footway","vertex1":16215,"vertex2":16135}},{"type":"Feature","geometry":{"type":"LineString","coordinates":[[3.730389,51.06908],[3.730332,51.0691]]},"properties":{"highway":"footway","vertex1":16215,"vertex2":16167}},{"type":"Feature","geometry":{"type":"LineString","coordinates":[[3.730512,51.06899],[3.730551,51.06898],[3.730607,51.06899],[3.730653,51.06901],[3.730668,51.06905],[3.730643,51.06923],[3.730609,51.06924],[3.730538,51.06924],[3.730435,51.06924],[3.730293,51.06927],[3.730242,51.06926],[3.730209,51.06923],[3.730217,51.0692],[3.730332,51.0691]]},"properties":{"highway":"footway","vertex1":16135,"vertex2":16167}},{"type":"Feature","geometry":{"type":"LineString","coordinates":[[3.726898,51.06922],[3.726982,51.06922],[3.727028,51.06923]]},"properties":{"name":"Tolhuiskaai","bicycle":"no","motorcar":"no","foot":"no","highway":"unclassified","vertex1":16213,"vertex2":16169}},{"type":"Feature","geometry":{"type":"LineString","coordinates":[[3.726898,51.06922],[3.726874,51.06976]]},"properties":{"name":"Wiedauwkaai","maxspeed":"50","highway":"secondary","cycleway":"lane","vertex1":16213,"vertex2":16150}},{"type":"Feature","geometry":{"type":"LineString","coordinates":[[3.726898,51.06922],[3.726928,51.06855],[3.72693,51.06848]]},"properties":{"name":"Wiedauwkaai","maxspeed":"50","highway":"secondary","cycleway":"lane","vertex1":16213,"vertex2":16133}},{"type":"Feature","geometry":{"type":"LineString","coordinates":[[3.72693,51.06848],[3.726835,51.06847],[3.726364,51.06845],[3.725892,51.06842],[3.725431,51.06839]]},"properties":{"highway":"cycleway","vertex1":16133,"vertex2":16214}},{"type":"Feature","geometry":{"type":"LineString","coordinates":[[3.728078,51.0692],[3.728063,51.06917]]},"properties":{"name":"Tolhuiskaai","bicycle":"no","motorcar":"no","foot":"no","highway":"unclassified","vertex1":16212,"vertex2":16210}},{"type":"Feature","geometry":{"type":"LineString","coordinates":[[3.728078,51.0692],[3.728207,51.06947],[3.72774,51.06957],[3.727584,51.06924]]},"properties":{"name":"Tolhuiskaai","bicycle":"no","motorcar":"no","foot":"no","highway":"unclassified","vertex1":16212,"vertex2":16208}},{"type":"Feature","geometry":{"type":"LineString","coordinates":[[3.728063,51.06917],[3.727584,51.06924]]},"properties":{"name":"Tolhuiskaai","bicycle":"no","motorcar":"no","foot":"no","highway":"unclassified","vertex1":16210,"vertex2":16208}},{"type":"Feature","geometry":{"type":"LineString","coordinates":[[3.728063,51.06917],[3.727944,51.06892],[3.727637,51.06898]]},"properties":{"bicycle":"no","motorcar":"no","foot":"no","highway":"service","vertex1":16210,"vertex2":16255}},{"type":"Feature","geometry":{"type":"LineString","coordinates":[[3.727584,51.06924],[3.727544,51.06924],[3.727028,51.06923]]},"properties":{"name":"Tolhuisbrug","bridge":"yes","bicycle":"no","motorcar":"no","foot":"no","highway":"unclassified","vertex1":16208,"vertex2":16169}},{"type":"Feature","geometry":{"type":"LineString","coordinates":[[3.729886,51.06952],[3.730016,51.06977],[3.730073,51.06989]]},"properties":{"name":"Voormuide","oneway":"yes","cyclenetwork":"yes","maxspeed":"50","highway":"tertiary","vertex1":16201,"vertex2":16175}},{"type":"Feature","geometry":{"type":"LineString","coordinates":[[3.729886,51.06952],[3.72976,51.06927],[3.729717,51.06911],[3.729705,51.06905]]},"properties":{"name":"Voormuide","oneway":"yes","cyclenetwork":"yes","maxspeed":"50","highway":"tertiary","vertex1":16201,"vertex2":16181}},{"type":"Feature","geometry":{"type":"LineString","coordinates":[[3.729705,51.06905],[3.729786,51.06905],[3.729889,51.06905],[3.730037,51.06895]]},"properties":{"name":"Bevelandstraat","oneway":"yes","oneway:bicycle":"no","highway":"residential","maxspeed":"30","vertex1":16181,"vertex2":16165}},{"type":"Feature","geometry":{"type":"LineString","coordinates":[[3.729705,51.06905],[3.729691,51.06898]]},"properties":{"name":"Voormuide","oneway":"yes","cyclenetwork":"yes","maxspeed":"50","highway":"tertiary","vertex1":16181,"vertex2":16221}},{"type":"Feature","geometry":{"type":"LineString","coordinates":[[3.730037,51.06895],[3.730332,51.0691]]},"properties":{"highway":"footway","vertex1":16165,"vertex2":16167}},{"type":"Feature","geometry":{"type":"LineString","coordinates":[[3.730751,51.06993],[3.731449,51.06973],[3.731749,51.0696],[3.731985,51.06946],[3.732221,51.06929],[3.732425,51.06908],[3.732565,51.06886],[3.732926,51.06818]]},"properties":{"name":"Dok-Noord","highway":"residential","maxspeed":"30","vertex1":16176,"vertex2":16180}},{"type":"Feature","geometry":{"type":"LineString","coordinates":[[3.725199,51.06973],[3.725527,51.06973]]},"properties":{"highway":"service","vertex1":16168,"vertex2":16166}},{"type":"Feature","geometry":{"type":"LineString","coordinates":[[3.725527,51.06973],[3.725856,51.06974]]},"properties":{"highway":"service","vertex1":16166,"vertex2":16160}},{"type":"Feature","geometry":{"type":"LineString","coordinates":[[3.725527,51.06973],[3.725539,51.06952],[3.725861,51.06953]]},"properties":{"highway":"service","vertex1":16166,"vertex2":16142}},{"type":"Feature","geometry":{"type":"LineString","coordinates":[[3.725856,51.06974],[3.726604,51.06976]]},"properties":{"highway":"service","vertex1":16160,"vertex2":16158}},{"type":"Feature","geometry":{"type":"LineString","coordinates":[[3.725856,51.06974],[3.725861,51.06953]]},"properties":{"highway":"service","vertex1":16160,"vertex2":16142}},{"type":"Feature","geometry":{"type":"LineString","coordinates":[[3.726604,51.06976],[3.726874,51.06976]]},"properties":{"highway":"service","vertex1":16158,"vertex2":16150}},{"type":"Feature","geometry":{"type":"LineString","coordinates":[[3.726604,51.06976],[3.726671,51.06887],[3.726558,51.06876],[3.725293,51.06873],[3.725431,51.06839]]},"properties":{"highway":"service","vertex1":16158,"vertex2":16214}},{"type":"Feature","geometry":{"type":"LineString","coordinates":[[3.725866,51.0693],[3.725861,51.06953]]},"properties":{"highway":"service","vertex1":16148,"vertex2":16142}},{"type":"Feature","geometry":{"type":"LineString","coordinates":[[3.71686,51.06984],[3.716748,51.06948],[3.716683,51.06919],[3.716654,51.06907],[3.716598,51.06899]]},"properties":{"name":"Parallelweg","highway":"track","vertex1":16116,"vertex2":16114}}]}