{"type":"FeatureCollection","features":[{"type":"Feature","geometry":{"type":"LineString","coordinates":[[3.779297,51.11042],[3.80127,51.11042],[3.80127,51.09662],[3.779297,51.09662],[3.779297,51.11042]]},"properties":{"id":"89743532","zoom":"14"}},{"type":"Feature","geometry":{"type":"LineString","coordinates":[[3.78051,51.10757],[3.780962,51.10782],[3.781224,51.10796],[3.781369,51.10803],[3.781563,51.1081]]},"properties":{"name":"Bredestraat","highway":"tertiary","vertex1":19981,"vertex2":19980}},{"type":"Feature","geometry":{"type":"LineString","coordinates":[[3.78051,51.10757],[3.780287,51.10742]]},"properties":{"name":"Bredestraat","highway":"tertiary","vertex1":19981,"vertex2":19978}},{"type":"Feature","geometry":{"type":"LineString","coordinates":[[3.78051,51.10757],[3.780496,51.10765],[3.780424,51.10799]]},"properties":{"highway":"residential","vertex1":19981,"vertex2":19979}},{"type":"Feature","geometry":{"type":"LineString","coordinates":[[3.781563,51.1081],[3.781204,51.10807],[3.780424,51.10799]]},"properties":{"name":"Wittewalle","maxspeed":"50","highway":"tertiary","vertex1":19980,"vertex2":19979}},{"type":"Feature","geometry":{"type":"LineString","coordinates":[[3.780424,51.10799],[3.777406,51.10772]]},"properties":{"name":"Wittewalle","maxspeed":"50","highway":"tertiary","vertex1":19979,"vertex2":18102}},{"type":"Feature","geometry":{"type":"LineString","coordinates":[[3.780287,51.10742],[3.780615,51.1072],[3.780662,51.10714],[3.78073,51.10702],[3.780818,51.10686],[3.780933,51.10655],[3.78107,51.10617],[3.781186,51.10576],[3.781528,51.10444],[3.781559,51.10405],[3.781567,51.10394],[3.781494,51.10387],[3.781276,51.10378]]},"properties":{"name":"Mostwegel","highway":"residential","maxspeed":"30","vertex1":19978,"vertex2":19977}},{"type":"Feature","geometry":{"type":"LineString","coordinates":[[3.780287,51.10742],[3.778999,51.10648],[3.778304,51.10596]]},"properties":{"name":"Bredestraat","highway":"tertiary","vertex1":19978,"vertex2":18110}},{"type":"Feature","geometry":{"type":"LineString","coordinates":[[3.781276,51.10378],[3.78134,51.10373],[3.781379,51.10367],[3.782029,51.10198]]},"properties":{"name":"Moststraat","cyclenetwork":"yes","highway":"residential","maxspeed":"30","vertex1":19977,"vertex2":19963}},{"type":"Feature","geometry":{"type":"LineString","coordinates":[[3.781276,51.10378],[3.781128,51.10387],[3.780988,51.1039],[3.780868,51.10391],[3.78071,51.1039],[3.777761,51.10347],[3.777589,51.10347],[3.777424,51.10349],[3.777004,51.10364],[3.776888,51.10366],[3.77678,51.10365],[3.776153,51.1035]]},"properties":{"name":"Moststraat","cyclenetwork":"yes","highway":"residential","maxspeed":"30","vertex1":19977,"vertex2":18089}},{"type":"Feature","geometry":{"type":"LineString","coordinates":[[3.790538,51.09806],[3.790254,51.09803],[3.790085,51.09799],[3.789782,51.09787],[3.789615,51.09783],[3.789438,51.09779],[3.788726,51.09768],[3.788635,51.09766],[3.786759,51.09711],[3.785748,51.09675],[3.784573,51.09632],[3.784359,51.09626],[3.784058,51.09619],[3.783868,51.09613],[3.783215,51.09586]]},"properties":{"name":"Langenaarstraat","highway":"unclassified","vertex1":19976,"vertex2":19946}},{"type":"Feature","geometry":{"type":"LineString","coordinates":[[3.783215,51.09586],[3.782705,51.09631],[3.782593,51.09637],[3.782452,51.09642],[3.782291,51.09645],[3.78211,51.09643],[3.781886,51.0964]]},"properties":{"name":"Drieselstraat","maxspeed":"50","highway":"tertiary","vertex1":19946,"vertex2":19935}},{"type":"Feature","geometry":{"type":"LineString","coordinates":[[3.7928,51.10118],[3.792328,51.10121],[3.791597,51.1013],[3.790903,51.10136],[3.78967,51.10144],[3.787333,51.10155]]},"properties":{"name":"Veldstraat","cyclenetwork":"yes","highway":"residential","vertex1":19975,"vertex2":19970}},{"type":"Feature","geometry":{"type":"LineString","coordinates":[[3.782459,51.09918],[3.78229,51.09917],[3.782116,51.09918],[3.781874,51.09921],[3.78041,51.09945],[3.780354,51.09947],[3.780286,51.0995],[3.779272,51.10011]]},"properties":{"highway":"track","vertex1":19973,"vertex2":18172}},{"type":"Feature","geometry":{"type":"LineString","coordinates":[[3.779272,51.10011],[3.780078,51.10051],[3.781014,51.10097],[3.781886,51.10144]]},"properties":{"name":"Oude Veldstraat","maxspeed":"50","highway":"residential","vertex1":18172,"vertex2":19949}},{"type":"Feature","geometry":{"type":"LineString","coordinates":[[3.782024,51.10153],[3.781975,51.10158],[3.782029,51.10198]]},"properties":{"name":"Moststraat","cyclenetwork":"yes","highway":"residential","maxspeed":"30","vertex1":19972,"vertex2":19963}},{"type":"Feature","geometry":{"type":"LineString","coordinates":[[3.782024,51.10153],[3.782265,51.10127]]},"properties":{"name":"Absdalestraat","oneway":"yes","highway":"residential","vertex1":19972,"vertex2":19959}},{"type":"Feature","geometry":{"type":"LineString","coordinates":[[3.782024,51.10153],[3.782184,51.10163],[3.782343,51.10169],[3.782564,51.10173],[3.78291,51.10174],[3.783679,51.10172]]},"properties":{"name":"Oude Veldstraat","cyclenetwork":"yes","maxspeed":"50","highway":"residential","vertex1":19972,"vertex2":19957}},{"type":"Feature","geometry":{"type":"LineString","coordinates":[[3.782024,51.10153],[3.781886,51.10144]]},"properties":{"name":"Oude Veldstraat","maxspeed":"50","highway":"residential","vertex1":19972,"vertex2":19949}},{"type":"Feature","geometry":{"type":"LineString","coordinates":[[3.779422,51.0993],[3.7795,51.09931]]},"properties":{"name":"Kamerijkstraat","highway":"residential","maxspeed":"30","vertex1":19971,"vertex2":19954}},{"type":"Feature","geometry":{"type":"LineString","coordinates":[[3.779422,51.0993],[3.779523,51.09943]]},"properties":{"name":"Kamerijkstraat","highway":"residential","maxspeed":"30","vertex1":19971,"vertex2":19962}},{"type":"Feature","geometry":{"type":"LineString","coordinates":[[3.779422,51.0993],[3.779288,51.09917]]},"properties":{"name":"Kamerijkstraat","highway":"residential","maxspeed":"30","vertex1":19971,"vertex2":18154}},{"type":"Feature","geometry":{"type":"LineString","coordinates":[[3.779288,51.09917],[3.77875,51.09888]]},"properties":{"name":"Kamerijkstraat","highway":"residential","maxspeed":"30","vertex1":18154,"vertex2":18156}},{"type":"Feature","geometry":{"type":"LineString","coordinates":[[3.779288,51.09917],[3.779218,51.09909],[3.779187,51.09901],[3.779197,51.09893],[3.779248,51.09885],[3.779334,51.09879]]},"properties":{"name":"Kamerijkstraat","highway":"residential","vertex1":18154,"vertex2":19960}},{"type":"Feature","geometry":{"type":"LineString","coordinates":[[3.787333,51.10155],[3.785568,51.10163],[3.784792,51.10166],[3.783984,51.10169],[3.783679,51.10172]]},"properties":{"name":"Oude Veldstraat","cyclenetwork":"yes","maxspeed":"50","highway":"residential","vertex1":19970,"vertex2":19957}},{"type":"Feature","geometry":{"type":"LineString","coordinates":[[3.780829,51.09911],[3.780723,51.099]]},"properties":{"name":"Kamerijkstraat","highway":"residential","maxspeed":"30","vertex1":19969,"vertex2":19955}},{"type":"Feature","geometry":{"type":"LineString","coordinates":[[3.780829,51.09911],[3.780871,51.09914],[3.780928,51.09915],[3.780985,51.09914],[3.781027,51.09911],[3.781042,51.09908],[3.781027,51.09904],[3.780985,51.09902],[3.780928,51.09901],[3.780871,51.09902],[3.78079,51.09901]]},"properties":{"name":"Kamerijkstraat","highway":"residential","maxspeed":"30","vertex1":19969,"vertex2":19958}},{"type":"Feature","geometry":{"type":"LineString","coordinates":[[3.78104,51.09956],[3.780584,51.09967],[3.780989,51.09988]]},"properties":{"name":"Absdalestraat","highway":"residential","maxspeed":"30","vertex1":19968,"vertex2":19953}},{"type":"Feature","geometry":{"type":"LineString","coordinates":[[3.78104,51.09956],[3.78185,51.0994],[3.782029,51.09941],[3.782596,51.09957],[3.783368,51.09991],[3.78374,51.10003],[3.784006,51.10013]]},"properties":{"name":"Absdalestraat","highway":"residential","maxspeed":"30","vertex1":19968,"vertex2":19964}},{"type":"Feature","geometry":{"type":"LineString","coordinates":[[3.78104,51.09956],[3.781019,51.0997]]},"properties":{"name":"Absdalestraat","highway":"residential","vertex1":19968,"vertex2":19967}},{"type":"Feature","geometry":{"type":"LineString","coordinates":[[3.781019,51.0997],[3.780989,51.09988]]},"properties":{"name":"Absdalestraat","highway":"residential","vertex1":19967,"vertex2":19953}},{"type":"Feature","geometry":{"type":"LineString","coordinates":[[3.779679,51.09865],[3.779054,51.09801]]},"properties":{"name":"Schoutstraat","highway":"residential","maxspeed":"30","vertex1":19966,"vertex2":18183}},{"type":"Feature","geometry":{"type":"LineString","coordinates":[[3.779679,51.09865],[3.779334,51.09879]]},"properties":{"name":"Kamerijkstraat","highway":"residential","maxspeed":"30","vertex1":19966,"vertex2":19960}},{"type":"Feature","geometry":{"type":"LineString","coordinates":[[3.779679,51.09865],[3.780176,51.09845]]},"properties":{"name":"Kamerijkstraat","highway":"residential","maxspeed":"30","vertex1":19966,"vertex2":19952}},{"type":"Feature","geometry":{"type":"LineString","coordinates":[[3.779054,51.09801],[3.779758,51.09772]]},"properties":{"name":"Schoutstraat","highway":"residential","maxspeed":"30","vertex1":18183,"vertex2":19956}},{"type":"Feature","geometry":{"type":"LineString","coordinates":[[3.779054,51.09801],[3.778878,51.09783],[3.779195,51.09748],[3.77927,51.09748]]},"properties":{"name":"Schoutstraat","highway":"residential","maxspeed":"30","vertex1":18183,"vertex2":18138}},{"type":"Feature","geometry":{"type":"LineString","coordinates":[[3.785114,51.0987],[3.784782,51.09863],[3.784722,51.09855]]},"properties":{"highway":"service","vertex1":19965,"vertex2":19951}},{"type":"Feature","geometry":{"type":"LineString","coordinates":[[3.784006,51.10013],[3.784035,51.10008],[3.784019,51.09986],[3.784158,51.09955],[3.784252,51.09946]]},"properties":{"name":"Absdalestraat","highway":"residential","maxspeed":"30","vertex1":19964,"vertex2":19950}},{"type":"Feature","geometry":{"type":"LineString","coordinates":[[3.784006,51.10013],[3.783858,51.10034],[3.78367,51.1006],[3.783542,51.10068],[3.783327,51.10077],[3.782909,51.10089],[3.782756,51.10095]]},"properties":{"name":"Absdalestraat","highway":"residential","maxspeed":"30","vertex1":19964,"vertex2":19961}},{"type":"Feature","geometry":{"type":"LineString","coordinates":[[3.782029,51.10198],[3.782373,51.1019],[3.783679,51.10172]]},"properties":{"cyclenetwork":"yes","highway":"residential","vertex1":19963,"vertex2":19957}},{"type":"Feature","geometry":{"type":"LineString","coordinates":[[3.779523,51.09943],[3.779577,51.09947],[3.77966,51.09948],[3.779733,51.09947],[3.779792,51.09943],[3.77981,51.09938],[3.779792,51.09933],[3.779734,51.0993],[3.779658,51.09929],[3.779582,51.0993],[3.7795,51.09931]]},"properties":{"name":"Kamerijkstraat","highway":"residential","maxspeed":"30","vertex1":19962,"vertex2":19954}},{"type":"Feature","geometry":{"type":"LineString","coordinates":[[3.782756,51.10095],[3.782667,51.10099],[3.782265,51.10127]]},"properties":{"name":"Absdalestraat","highway":"residential","maxspeed":"30","vertex1":19961,"vertex2":19959}},{"type":"Feature","geometry":{"type":"LineString","coordinates":[[3.782756,51.10095],[3.782592,51.10075],[3.782415,51.10062],[3.780989,51.09988]]},"properties":{"name":"Absdalestraat","highway":"residential","maxspeed":"30","vertex1":19961,"vertex2":19953}},{"type":"Feature","geometry":{"type":"LineString","coordinates":[[3.779334,51.09879],[3.779157,51.09885],[3.779044,51.09888],[3.778913,51.09889],[3.77875,51.09888]]},"properties":{"name":"Kamerijkstraat","highway":"residential","maxspeed":"30","vertex1":19960,"vertex2":18156}},{"type":"Feature","geometry":{"type":"LineString","coordinates":[[3.782265,51.10127],[3.782018,51.10137],[3.781886,51.10144]]},"properties":{"name":"Absdalestraat","highway":"residential","oneway":"-1","vertex1":19959,"vertex2":19949}},{"type":"Feature","geometry":{"type":"LineString","coordinates":[[3.78079,51.09901],[3.780723,51.099]]},"properties":{"name":"Kamerijkstraat","highway":"residential","maxspeed":"30","vertex1":19958,"vertex2":19955}},{"type":"Feature","geometry":{"type":"LineString","coordinates":[[3.779758,51.09772],[3.77927,51.09748]]},"properties":{"name":"Schoutstraat","highway":"residential","maxspeed":"30","vertex1":19956,"vertex2":18138}},{"type":"Feature","geometry":{"type":"LineString","coordinates":[[3.779758,51.09772],[3.780885,51.09729],[3.781158,51.09718],[3.78141,51.09717],[3.78155,51.09721]]},"properties":{"name":"Schoutstraat","highway":"residential","maxspeed":"30","vertex1":19956,"vertex2":19941}},{"type":"Feature","geometry":{"type":"LineString","coordinates":[[3.780723,51.099],[3.780253,51.09852],[3.780176,51.09845]]},"properties":{"name":"Kamerijkstraat","highway":"residential","maxspeed":"30","vertex1":19955,"vertex2":19952}},{"type":"Feature","geometry":{"type":"LineString","coordinates":[[3.780176,51.09845],[3.780366,51.09837],[3.780774,51.09821],[3.781096,51.09806],[3.78124,51.09792],[3.781363,51.09768],[3.78155,51.09721]]},"properties":{"name":"Kamerijkstraat","highway":"residential","maxspeed":"30","vertex1":19952,"vertex2":19941}},{"type":"Feature","geometry":{"type":"LineString","coordinates":[[3.784722,51.09855],[3.78487,51.09842],[3.785112,51.09793],[3.78486,51.09748],[3.784788,51.09745],[3.784658,51.09743],[3.784262,51.09735],[3.784029,51.09731]]},"properties":{"name":"Magergoedkouter","highway":"residential","maxspeed":"30","vertex1":19951,"vertex2":19945}},{"type":"Feature","geometry":{"type":"LineString","coordinates":[[3.784722,51.09855],[3.784554,51.09862],[3.784475,51.09879]]},"properties":{"highway":"service","vertex1":19951,"vertex2":19948}},{"type":"Feature","geometry":{"type":"LineString","coordinates":[[3.784252,51.09946],[3.784194,51.09939],[3.784475,51.09879]]},"properties":{"highway":"footway","vertex1":19950,"vertex2":19948}},{"type":"Feature","geometry":{"type":"LineString","coordinates":[[3.782686,51.09729],[3.78266,51.09729]]},"properties":{"highway":"residential","maxspeed":"30","vertex1":19947,"vertex2":19943}},{"type":"Feature","geometry":{"type":"LineString","coordinates":[[3.782686,51.09729],[3.782623,51.09759],[3.782338,51.0982],[3.782276,51.09851],[3.782383,51.09882],[3.783449,51.09871],[3.783993,51.09742],[3.784029,51.09731]]},"properties":{"name":"Magergoedhof","highway":"residential","maxspeed":"30","vertex1":19947,"vertex2":19945}},{"type":"Feature","geometry":{"type":"LineString","coordinates":[[3.784029,51.09731],[3.783737,51.09727],[3.783402,51.09723],[3.78266,51.09729]]},"properties":{"name":"Magergoedkouter","highway":"residential","maxspeed":"30","vertex1":19945,"vertex2":19943}},{"type":"Feature","geometry":{"type":"LineString","coordinates":[[3.78266,51.09729],[3.782242,51.09731],[3.78178,51.09727],[3.78155,51.09721]]},"properties":{"name":"Magergoedkouter","highway":"residential","maxspeed":"30","vertex1":19943,"vertex2":19941}},{"type":"Feature","geometry":{"type":"LineString","coordinates":[[3.78155,51.09721],[3.781886,51.0964]]},"properties":{"name":"Kamerijkstraat","highway":"residential","maxspeed":"30","vertex1":19941,"vertex2":19935}},{"type":"Feature","geometry":{"type":"LineString","coordinates":[[3.79405,51.09728],[3.794446,51.09686],[3.794591,51.09665],[3.794685,51.09645],[3.79484,51.09607],[3.795082,51.09572],[3.795176,51.09553],[3.795055,51.09546],[3.794492,51.09515],[3.793226,51.09446],[3.790574,51.093]]},"properties":{"highway":"track","vertex1":19859,"vertex2":19861}}]}