{"type":"FeatureCollection","features":[{"type":"Feature","geometry":{"type":"LineString","coordinates":[[3.779297,51.09662],[3.80127,51.09662],[3.80127,51.08282],[3.779297,51.08282],[3.779297,51.09662]]},"properties":{"id":"89759916","zoom":"14"}},{"type":"Feature","geometry":{"type":"LineString","coordinates":[[3.801108,51.08407],[3.801333,51.08427]]},"properties":{"name":"Gloxinalaan","highway":"residential","vertex1":19670,"vertex2":19718}},{"type":"Feature","geometry":{"type":"LineString","coordinates":[[3.801333,51.08427],[3.801112,51.08424]]},"properties":{"name":"Gloxinalaan","highway":"residential","vertex1":19718,"vertex2":19651}},{"type":"Feature","geometry":{"type":"LineString","coordinates":[[3.794112,51.08355],[3.794253,51.0836],[3.794489,51.08369]]},"properties":{"name":"Antwerpsesteenweg","highway":"primary","maxspeed":"70","cycleway":"lane","vertex1":19669,"vertex2":19658}},{"type":"Feature","geometry":{"type":"LineString","coordinates":[[3.794112,51.08355],[3.793749,51.08342]]},"properties":{"name":"Antwerpsesteenweg","highway":"primary","maxspeed":"70","cycleway":"lane","vertex1":19669,"vertex2":19664}},{"type":"Feature","geometry":{"type":"LineString","coordinates":[[3.794112,51.08355],[3.794182,51.08352],[3.794468,51.08339]]},"properties":{"maxspeed":"120","oneway":"yes","highway":"motorway_link","vertex1":19669,"vertex2":19652}},{"type":"Feature","geometry":{"type":"LineString","coordinates":[[3.794104,51.08338],[3.793749,51.08342]]},"properties":{"maxspeed":"120","oneway":"yes","highway":"motorway_link","vertex1":19668,"vertex2":19664}},{"type":"Feature","geometry":{"type":"LineString","coordinates":[[3.794104,51.08338],[3.79433,51.08334],[3.794479,51.08329],[3.796224,51.08257],[3.796499,51.08242],[3.796642,51.08229],[3.796724,51.08215],[3.796768,51.08196],[3.79675,51.08179],[3.796643,51.08163],[3.796482,51.08149],[3.796294,51.08139],[3.7961,51.08133],[3.795894,51.08128],[3.795705,51.08127],[3.795572,51.08127],[3.795404,51.0813],[3.794365,51.0816]]},"properties":{"maxspeed":"120","oneway":"yes","highway":"motorway_link","vertex1":19668,"vertex2":19645}},{"type":"Feature","geometry":{"type":"LineString","coordinates":[[3.793749,51.08342],[3.793616,51.08338]]},"properties":{"name":"Antwerpsesteenweg","highway":"primary","maxspeed":"70","cycleway":"lane","vertex1":19664,"vertex2":19649}},{"type":"Feature","geometry":{"type":"LineString","coordinates":[[3.79958,51.08546],[3.798712,51.08516]]},"properties":{"name":"Antwerpsesteenweg","highway":"primary","maxspeed":"70","cycleway":"lane","vertex1":19661,"vertex2":19656}},{"type":"Feature","geometry":{"type":"LineString","coordinates":[[3.79958,51.08546],[3.799643,51.08549]]},"properties":{"name":"Antwerpse Steenweg \/ Antwerpsesteenweg","highway":"primary","maxspeed":"70","cycleway":"lane","vertex1":19661,"vertex2":19648}},{"type":"Feature","geometry":{"type":"LineString","coordinates":[[3.794571,51.08341],[3.794641,51.08332]]},"properties":{"maxspeed":"120","oneway":"yes","highway":"motorway_link","vertex1":19659,"vertex2":19654}},{"type":"Feature","geometry":{"type":"LineString","coordinates":[[3.794571,51.08341],[3.794505,51.08351],[3.794491,51.08359],[3.794489,51.08369]]},"properties":{"maxspeed":"120","oneway":"yes","highway":"motorway_link","vertex1":19659,"vertex2":19658}},{"type":"Feature","geometry":{"type":"LineString","coordinates":[[3.794489,51.08369],[3.79485,51.08381]]},"properties":{"name":"Antwerpsesteenweg","highway":"primary","maxspeed":"70","cycleway":"lane","vertex1":19658,"vertex2":19644}},{"type":"Feature","geometry":{"type":"LineString","coordinates":[[3.798712,51.08516],[3.798255,51.08581],[3.798063,51.08621],[3.798132,51.08631],[3.797666,51.0871],[3.797584,51.08712],[3.797506,51.0871],[3.79764,51.08688]]},"properties":{"highway":"service","vertex1":19656,"vertex2":19894}},{"type":"Feature","geometry":{"type":"LineString","coordinates":[[3.798712,51.08516],[3.79485,51.08381]]},"properties":{"name":"Antwerpsesteenweg","highway":"primary","maxspeed":"70","cycleway":"lane","vertex1":19656,"vertex2":19644}},{"type":"Feature","geometry":{"type":"LineString","coordinates":[[3.794641,51.08332],[3.794468,51.08339]]},"properties":{"maxspeed":"120","oneway":"yes","highway":"motorway_link","vertex1":19654,"vertex2":19652}},{"type":"Feature","geometry":{"type":"LineString","coordinates":[[3.794641,51.08332],[3.795862,51.08281]]},"properties":{"maxspeed":"120","oneway":"yes","highway":"motorway_link","vertex1":19654,"vertex2":19660}},{"type":"Feature","geometry":{"type":"LineString","coordinates":[[3.800084,51.0849],[3.799986,51.08505],[3.799889,51.08519],[3.799735,51.08538],[3.799643,51.08549]]},"properties":{"name":"Antwerpse Steenweg","highway":"service","vertex1":19650,"vertex2":19648}},{"type":"Feature","geometry":{"type":"LineString","coordinates":[[3.793616,51.08338],[3.793424,51.08377],[3.792328,51.08569],[3.791831,51.08643]]},"properties":{"name":"Drieselstraat","maxspeed":"50","highway":"tertiary","vertex1":19649,"vertex2":19884}},{"type":"Feature","geometry":{"type":"LineString","coordinates":[[3.793616,51.08338],[3.793423,51.08331],[3.792746,51.08304],[3.792511,51.08294]]},"properties":{"name":"Antwerpsesteenweg","highway":"primary","maxspeed":"70","cycleway":"lane","vertex1":19649,"vertex2":19641}},{"type":"Feature","geometry":{"type":"LineString","coordinates":[[3.799643,51.08549],[3.79984,51.08556]]},"properties":{"name":"Antwerpse Steenweg \/ Antwerpsesteenweg","highway":"primary","maxspeed":"70","cycleway":"lane","vertex1":19648,"vertex2":19646}},{"type":"Feature","geometry":{"type":"LineString","coordinates":[[3.79984,51.08556],[3.800422,51.08576],[3.801409,51.08611]]},"properties":{"name":"Antwerpse Steenweg","highway":"primary","maxspeed":"70","cycleway":"lane","vertex1":19646,"vertex2":19732}},{"type":"Feature","geometry":{"type":"LineString","coordinates":[[3.792511,51.08294],[3.792197,51.0828]]},"properties":{"name":"Antwerpsesteenweg","highway":"primary","maxspeed":"70","cycleway":"lane","vertex1":19641,"vertex2":19653}},{"type":"Feature","geometry":{"type":"LineString","coordinates":[[3.792197,51.0828],[3.791875,51.0828],[3.791643,51.08284],[3.789505,51.08345],[3.787218,51.08418],[3.786399,51.0844]]},"properties":{"maxspeed":"120","oneway":"yes","highway":"motorway_link","vertex1":19653,"vertex2":19590}},{"type":"Feature","geometry":{"type":"LineString","coordinates":[[3.779565,51.08532],[3.77984,51.08494]]},"properties":{"name":"Vossenbergstraat","highway":"residential","vertex1":19639,"vertex2":19582}},{"type":"Feature","geometry":{"type":"LineString","coordinates":[[3.779565,51.08532],[3.779329,51.08568]]},"properties":{"name":"Vossenbergstraat","highway":"residential","vertex1":19639,"vertex2":19637}},{"type":"Feature","geometry":{"type":"LineString","coordinates":[[3.779565,51.08532],[3.780021,51.0854],[3.780666,51.08548],[3.78077,51.08548],[3.780956,51.08541]]},"properties":{"name":"Vossenbergstraat","highway":"residential","vertex1":19639,"vertex2":19635}},{"type":"Feature","geometry":{"type":"LineString","coordinates":[[3.785723,51.08522],[3.785822,51.08521]]},"properties":{"name":"Smalleheerweg","highway":"residential","vertex1":19638,"vertex2":19586}},{"type":"Feature","geometry":{"type":"LineString","coordinates":[[3.785723,51.08522],[3.785681,51.08522],[3.785535,51.08527],[3.785154,51.08552]]},"properties":{"name":"Smalleheerweg","highway":"residential","vertex1":19638,"vertex2":19606}},{"type":"Feature","geometry":{"type":"LineString","coordinates":[[3.785723,51.08522],[3.785652,51.08516],[3.785477,51.08522],[3.785168,51.08542]]},"properties":{"oneway":"yes","highway":"cycleway","vertex1":19638,"vertex2":19631}},{"type":"Feature","geometry":{"type":"LineString","coordinates":[[3.785723,51.08522],[3.785819,51.08527]]},"properties":{"oneway":"yes","highway":"cycleway","vertex1":19638,"vertex2":19633}},{"type":"Feature","geometry":{"type":"LineString","coordinates":[[3.789356,51.0864],[3.789332,51.08643]]},"properties":{"highway":"service","vertex1":19636,"vertex2":19902}},{"type":"Feature","geometry":{"type":"LineString","coordinates":[[3.789356,51.0864],[3.789427,51.08629]]},"properties":{"highway":"service","vertex1":19636,"vertex2":19608}},{"type":"Feature","geometry":{"type":"LineString","coordinates":[[3.789356,51.0864],[3.790025,51.08659],[3.790107,51.08659],[3.790178,51.08658],[3.790272,51.08653]]},"properties":{"highway":"service","vertex1":19636,"vertex2":19924}},{"type":"Feature","geometry":{"type":"LineString","coordinates":[[3.78832,51.08591],[3.788173,51.08593]]},"properties":{"highway":"service","vertex1":19634,"vertex2":19630}},{"type":"Feature","geometry":{"type":"LineString","coordinates":[[3.78832,51.08591],[3.789086,51.08613]]},"properties":{"name":"Smalleheerweg","highway":"residential","vertex1":19634,"vertex2":19604}},{"type":"Feature","geometry":{"type":"LineString","coordinates":[[3.78832,51.08591],[3.786002,51.08522],[3.785822,51.08521]]},"properties":{"name":"Smalleheerweg","highway":"residential","vertex1":19634,"vertex2":19586}},{"type":"Feature","geometry":{"type":"LineString","coordinates":[[3.785819,51.08527],[3.785975,51.08528],[3.788173,51.08593]]},"properties":{"highway":"cycleway","vertex1":19633,"vertex2":19630}},{"type":"Feature","geometry":{"type":"LineString","coordinates":[[3.785819,51.08527],[3.785711,51.08527],[3.785592,51.08532],[3.785302,51.08551],[3.785154,51.08552]]},"properties":{"highway":"cycleway","vertex1":19633,"vertex2":19606}},{"type":"Feature","geometry":{"type":"LineString","coordinates":[[3.783492,51.08632],[3.783787,51.08628],[3.783963,51.08624],[3.784113,51.08618],[3.784509,51.08593],[3.785154,51.08552]]},"properties":{"name":"Smalleheerweg","highway":"residential","vertex1":19632,"vertex2":19606}},{"type":"Feature","geometry":{"type":"LineString","coordinates":[[3.783492,51.08632],[3.783192,51.08627],[3.782977,51.0862],[3.782812,51.0861],[3.782658,51.08597]]},"properties":{"name":"Smalleheerweg","highway":"residential","vertex1":19632,"vertex2":19625}},{"type":"Feature","geometry":{"type":"LineString","coordinates":[[3.783492,51.08632],[3.782451,51.08637]]},"properties":{"highway":"service","vertex1":19632,"vertex2":19615}},{"type":"Feature","geometry":{"type":"LineString","coordinates":[[3.785168,51.08542],[3.785154,51.08552]]},"properties":{"oneway":"yes","highway":"cycleway","vertex1":19631,"vertex2":19606}},{"type":"Feature","geometry":{"type":"LineString","coordinates":[[3.788173,51.08593],[3.787766,51.08599]]},"properties":{"highway":"service","vertex1":19630,"vertex2":19628}},{"type":"Feature","geometry":{"type":"LineString","coordinates":[[3.788173,51.08593],[3.78828,51.08596],[3.789048,51.08619],[3.789082,51.0862],[3.789427,51.08629]]},"properties":{"highway":"cycleway","vertex1":19630,"vertex2":19608}},{"type":"Feature","geometry":{"type":"LineString","coordinates":[[3.787766,51.08599],[3.781254,51.08694]]},"properties":{"highway":"service","vertex1":19628,"vertex2":19907}},{"type":"Feature","geometry":{"type":"LineString","coordinates":[[3.787766,51.08599],[3.788137,51.08605],[3.788654,51.08615],[3.78901,51.08632],[3.789332,51.08643]]},"properties":{"highway":"service","vertex1":19628,"vertex2":19902}},{"type":"Feature","geometry":{"type":"LineString","coordinates":[[3.782658,51.08597],[3.781877,51.08495]]},"properties":{"name":"Smalleheerweg","bridge":"yes","highway":"residential","vertex1":19625,"vertex2":19597}},{"type":"Feature","geometry":{"type":"LineString","coordinates":[[3.782658,51.08597],[3.782676,51.08612],[3.782658,51.08619],[3.782601,51.08626],[3.782451,51.08637]]},"properties":{"highway":"service","vertex1":19625,"vertex2":19615}},{"type":"Feature","geometry":{"type":"LineString","coordinates":[[3.785088,51.08459],[3.784723,51.08475]]},"properties":{"maxspeed":"120","oneway":"yes","bicycle":"no","motorcar":"no","foot":"no","highway":"unclassified","vertex1":19623,"vertex2":19621}},{"type":"Feature","geometry":{"type":"LineString","coordinates":[[3.785088,51.08459],[3.785313,51.08447],[3.785484,51.08435],[3.785611,51.08423],[3.785716,51.08412],[3.785788,51.08401],[3.785834,51.08389],[3.785853,51.08377],[3.78585,51.08366],[3.785831,51.08356],[3.785722,51.08333],[3.78543,51.08292],[3.785404,51.08289]]},"properties":{"oneway":"yes","bicycle":"no","motorcar":"no","foot":"no","highway":"unclassified","vertex1":19623,"vertex2":19600}},{"type":"Feature","geometry":{"type":"LineString","coordinates":[[3.782834,51.08427],[3.782695,51.08426],[3.781426,51.0839],[3.781074,51.08394]]},"properties":{"name":"Korteheerweg","highway":"residential","vertex1":19620,"vertex2":19599}},{"type":"Feature","geometry":{"type":"LineString","coordinates":[[3.782834,51.08427],[3.782973,51.08434],[3.784333,51.08472]]},"properties":{"highway":"track","vertex1":19620,"vertex2":19595}},{"type":"Feature","geometry":{"type":"LineString","coordinates":[[3.783542,51.08538],[3.784211,51.08516],[3.786399,51.0844]]},"properties":{"highway":"motorway","maxspeed":"120","oneway":"yes","vertex1":19619,"vertex2":19590}},{"type":"Feature","geometry":{"type":"LineString","coordinates":[[3.783542,51.08538],[3.783188,51.0855],[3.782248,51.08578],[3.780936,51.08615],[3.779762,51.08644],[3.779,51.08662],[3.77826,51.08677],[3.777997,51.08682]]},"properties":{"highway":"motorway","maxspeed":"120","oneway":"yes","vertex1":19619,"vertex2":18301}},{"type":"Feature","geometry":{"type":"LineString","coordinates":[[3.782451,51.08637],[3.781495,51.08644],[3.78118,51.08654],[3.780999,51.08661]]},"properties":{"highway":"service","vertex1":19615,"vertex2":19914}},{"type":"Feature","geometry":{"type":"LineString","coordinates":[[3.784594,51.08489],[3.786537,51.08422],[3.790982,51.0826]]},"properties":{"highway":"motorway","maxspeed":"120","oneway":"yes","vertex1":19611,"vertex2":19662}},{"type":"Feature","geometry":{"type":"LineString","coordinates":[[3.784594,51.08489],[3.784018,51.08508]]},"properties":{"highway":"motorway","maxspeed":"120","oneway":"yes","vertex1":19611,"vertex2":19591}},{"type":"Feature","geometry":{"type":"LineString","coordinates":[[3.785334,51.08502],[3.785745,51.08514],[3.785822,51.08521]]},"properties":{"highway":"track","vertex1":19609,"vertex2":19586}},{"type":"Feature","geometry":{"type":"LineString","coordinates":[[3.789427,51.08629],[3.789465,51.08624]]},"properties":{"highway":"service","vertex1":19608,"vertex2":19589}},{"type":"Feature","geometry":{"type":"LineString","coordinates":[[3.789427,51.08629],[3.790272,51.08653]]},"properties":{"highway":"cycleway","vertex1":19608,"vertex2":19924}},{"type":"Feature","geometry":{"type":"LineString","coordinates":[[3.780378,51.08309],[3.780054,51.08265]]},"properties":{"name":"Smalleheerweg","highway":"residential","vertex1":19605,"vertex2":19607}},{"type":"Feature","geometry":{"type":"LineString","coordinates":[[3.780378,51.08309],[3.780864,51.08366]]},"properties":{"name":"Smalleheerweg","highway":"residential","vertex1":19605,"vertex2":19603}},{"type":"Feature","geometry":{"type":"LineString","coordinates":[[3.780378,51.08309],[3.780409,51.08305],[3.78052,51.08287],[3.780729,51.08277],[3.780851,51.08273]]},"properties":{"name":"Smalle Heerweg","highway":"residential","vertex1":19605,"vertex2":19594}},{"type":"Feature","geometry":{"type":"LineString","coordinates":[[3.780054,51.08265],[3.780851,51.08273]]},"properties":{"name":"Groenstraat","highway":"tertiary","vertex1":19607,"vertex2":19594}},{"type":"Feature","geometry":{"type":"LineString","coordinates":[[3.780851,51.08273],[3.78114,51.08276]]},"properties":{"name":"Groenstraat","highway":"tertiary","vertex1":19594,"vertex2":19614}},{"type":"Feature","geometry":{"type":"LineString","coordinates":[[3.789086,51.08613],[3.789119,51.08614],[3.789465,51.08624]]},"properties":{"name":"Smalleheerweg","highway":"residential","vertex1":19604,"vertex2":19589}},{"type":"Feature","geometry":{"type":"LineString","coordinates":[[3.780864,51.08366],[3.78091,51.08372]]},"properties":{"name":"Smalleheerweg","highway":"residential","vertex1":19603,"vertex2":19601}},{"type":"Feature","geometry":{"type":"LineString","coordinates":[[3.780864,51.08366],[3.780721,51.08379],[3.780295,51.08433]]},"properties":{"name":"Vossenbergstraat","highway":"residential","vertex1":19603,"vertex2":19584}},{"type":"Feature","geometry":{"type":"LineString","coordinates":[[3.78091,51.08372],[3.781074,51.08394]]},"properties":{"name":"Smalleheerweg","highway":"residential","vertex1":19601,"vertex2":19599}},{"type":"Feature","geometry":{"type":"LineString","coordinates":[[3.78091,51.08372],[3.781128,51.08281]]},"properties":{"name":"Smalle Heerweg","highway":"residential","vertex1":19601,"vertex2":19610}},{"type":"Feature","geometry":{"type":"LineString","coordinates":[[3.781128,51.08281],[3.78114,51.08276]]},"properties":{"name":"Smalle Heerweg","highway":"residential","vertex1":19610,"vertex2":19614}},{"type":"Feature","geometry":{"type":"LineString","coordinates":[[3.785404,51.08289],[3.785197,51.08295],[3.78496,51.08295],[3.78114,51.08276]]},"properties":{"name":"Groenstraat","highway":"tertiary","vertex1":19600,"vertex2":19614}},{"type":"Feature","geometry":{"type":"LineString","coordinates":[[3.785404,51.08289],[3.78567,51.08278],[3.785953,51.08254],[3.786687,51.08187]]},"properties":{"name":"Groenstraat","highway":"tertiary","vertex1":19600,"vertex2":19593}},{"type":"Feature","geometry":{"type":"LineString","coordinates":[[3.781074,51.08394],[3.781087,51.08396],[3.781877,51.08495]]},"properties":{"name":"Smalleheerweg","highway":"residential","vertex1":19599,"vertex2":19597}},{"type":"Feature","geometry":{"type":"LineString","coordinates":[[3.784018,51.08508],[3.783113,51.08538],[3.782181,51.08567],[3.780883,51.08603],[3.779701,51.08633],[3.778346,51.08663],[3.776926,51.08689],[3.7756,51.08708]]},"properties":{"highway":"motorway","maxspeed":"120","oneway":"yes","vertex1":19591,"vertex2":18320}},{"type":"Feature","geometry":{"type":"LineString","coordinates":[[3.786399,51.0844],[3.791034,51.08273]]},"properties":{"highway":"motorway","maxspeed":"120","oneway":"yes","vertex1":19590,"vertex2":19655}},{"type":"Feature","geometry":{"type":"LineString","coordinates":[[3.789465,51.08624],[3.790341,51.08649]]},"properties":{"name":"Smalleheerweg","highway":"residential","vertex1":19589,"vertex2":19896}},{"type":"Feature","geometry":{"type":"LineString","coordinates":[[3.780295,51.08433],[3.77984,51.08494]]},"properties":{"name":"Vossenbergstraat","highway":"residential","vertex1":19584,"vertex2":19582}},{"type":"Feature","geometry":{"type":"LineString","coordinates":[[3.780295,51.08433],[3.779215,51.08344]]},"properties":{"name":"Alfons van de Broeckstraat","highway":"residential","vertex1":19584,"vertex2":18375}},{"type":"Feature","geometry":{"type":"LineString","coordinates":[[3.77984,51.08494],[3.776294,51.08564]]},"properties":{"name":"Koutergoedstraat","highway":"residential","vertex1":19582,"vertex2":18349}},{"type":"Feature","geometry":{"type":"LineString","coordinates":[[3.783215,51.09586],[3.782705,51.09631],[3.782593,51.09637],[3.782452,51.09642],[3.782291,51.09645],[3.78211,51.09643],[3.781886,51.0964]]},"properties":{"name":"Drieselstraat","maxspeed":"50","highway":"tertiary","vertex1":19946,"vertex2":19935}},{"type":"Feature","geometry":{"type":"LineString","coordinates":[[3.783215,51.09586],[3.784274,51.09492],[3.784827,51.09443],[3.784965,51.09431]]},"properties":{"name":"Drieselstraat","maxspeed":"50","highway":"tertiary","vertex1":19946,"vertex2":19940}},{"type":"Feature","geometry":{"type":"LineString","coordinates":[[3.783215,51.09586],[3.783868,51.09613],[3.784058,51.09619],[3.784359,51.09626],[3.784573,51.09632],[3.785748,51.09675],[3.786759,51.09711],[3.788635,51.09766],[3.788726,51.09768],[3.789438,51.09779],[3.789615,51.09783],[3.789782,51.09787],[3.790085,51.09799],[3.790254,51.09803],[3.790538,51.09806]]},"properties":{"name":"Langenaarstraat","highway":"unclassified","vertex1":19946,"vertex2":19976}},{"type":"Feature","geometry":{"type":"LineString","coordinates":[[3.782272,51.09367],[3.784005,51.09282]]},"properties":{"oneway":"yes","highway":"service","vertex1":19944,"vertex2":19942}},{"type":"Feature","geometry":{"type":"LineString","coordinates":[[3.782272,51.09367],[3.780708,51.0927],[3.780695,51.09264]]},"properties":{"oneway":"yes","highway":"service","vertex1":19944,"vertex2":19938}},{"type":"Feature","geometry":{"type":"LineString","coordinates":[[3.784005,51.09282],[3.783168,51.09229],[3.783064,51.09227],[3.780695,51.09264]]},"properties":{"oneway":"yes","highway":"service","vertex1":19942,"vertex2":19938}},{"type":"Feature","geometry":{"type":"LineString","coordinates":[[3.784965,51.09431],[3.785264,51.09406],[3.785716,51.09375],[3.78653,51.09316]]},"properties":{"name":"Drieselstraat","maxspeed":"50","highway":"tertiary","vertex1":19940,"vertex2":19936}},{"type":"Feature","geometry":{"type":"LineString","coordinates":[[3.784965,51.09431],[3.785158,51.09434],[3.785391,51.09413],[3.785839,51.09382],[3.786656,51.09323]]},"properties":{"highway":"cycleway","vertex1":19940,"vertex2":19931}},{"type":"Feature","geometry":{"type":"LineString","coordinates":[[3.788579,51.09192],[3.79044,51.09293]]},"properties":{"highway":"unclassified","vertex1":19939,"vertex2":19858}},{"type":"Feature","geometry":{"type":"LineString","coordinates":[[3.788579,51.09192],[3.788453,51.09185]]},"properties":{"highway":"unclassified","vertex1":19939,"vertex2":19901}},{"type":"Feature","geometry":{"type":"LineString","coordinates":[[3.788579,51.09192],[3.788001,51.09229],[3.78729,51.09275],[3.786656,51.09323]]},"properties":{"highway":"cycleway","vertex1":19939,"vertex2":19931}},{"type":"Feature","geometry":{"type":"LineString","coordinates":[[3.788579,51.09192],[3.788773,51.0918],[3.789002,51.09165],[3.789143,51.09153],[3.789294,51.09138],[3.78944,51.09127],[3.789769,51.09109],[3.789886,51.09098],[3.789886,51.09093],[3.789818,51.09087],[3.789593,51.0907],[3.789561,51.09065],[3.78954,51.0905],[3.789536,51.0903],[3.789536,51.09016],[3.789568,51.09003],[3.789603,51.08992],[3.789935,51.08941]]},"properties":{"highway":"cycleway","vertex1":19939,"vertex2":19930}},{"type":"Feature","geometry":{"type":"LineString","coordinates":[[3.780695,51.09264],[3.780596,51.09256],[3.780601,51.09249],[3.780655,51.0924]]},"properties":{"oneway":"yes","highway":"service","vertex1":19938,"vertex2":19934}},{"type":"Feature","geometry":{"type":"LineString","coordinates":[[3.781254,51.09338],[3.779343,51.09217],[3.77915,51.09206],[3.778863,51.09192]]},"properties":{"highway":"service","vertex1":19937,"vertex2":18307}},{"type":"Feature","geometry":{"type":"LineString","coordinates":[[3.781254,51.09338],[3.781612,51.09361],[3.781821,51.09377],[3.782012,51.0939],[3.782116,51.0939],[3.78224,51.09386],[3.785027,51.09251],[3.785142,51.09248],[3.785262,51.09248],[3.785392,51.09251],[3.78653,51.09316]]},"properties":{"highway":"service","vertex1":19937,"vertex2":19936}},{"type":"Feature","geometry":{"type":"LineString","coordinates":[[3.781254,51.09338],[3.781081,51.09343],[3.781014,51.09343],[3.780941,51.09341],[3.778994,51.09219],[3.778936,51.09216],[3.778807,51.09211],[3.778766,51.09209],[3.778742,51.09204],[3.778758,51.09201]]},"properties":{"highway":"service","vertex1":19937,"vertex2":18196}},{"type":"Feature","geometry":{"type":"LineString","coordinates":[[3.778863,51.09192],[3.778378,51.09168],[3.777612,51.09132]]},"properties":{"highway":"service","vertex1":18307,"vertex2":18325}},{"type":"Feature","geometry":{"type":"LineString","coordinates":[[3.778863,51.09192],[3.778758,51.09201]]},"properties":{"highway":"service","vertex1":18307,"vertex2":18196}},{"type":"Feature","geometry":{"type":"LineString","coordinates":[[3.78653,51.09316],[3.786656,51.09323]]},"properties":{"name":"Gefusilleerdenstraat","highway":"unclassified","vertex1":19936,"vertex2":19931}},{"type":"Feature","geometry":{"type":"LineString","coordinates":[[3.78653,51.09316],[3.787167,51.09268],[3.787883,51.09221],[3.788453,51.09185]]},"properties":{"name":"Drieselstraat","maxspeed":"50","highway":"tertiary","vertex1":19936,"vertex2":19901}},{"type":"Feature","geometry":{"type":"LineString","coordinates":[[3.781886,51.0964],[3.78155,51.09721]]},"properties":{"name":"Kamerijkstraat","highway":"residential","maxspeed":"30","vertex1":19935,"vertex2":19941}},{"type":"Feature","geometry":{"type":"LineString","coordinates":[[3.781886,51.0964],[3.780749,51.09616],[3.78058,51.09613],[3.780373,51.09613],[3.780162,51.09613],[3.779972,51.09616]]},"properties":{"name":"Drieselstraat","maxspeed":"50","highway":"tertiary","vertex1":19935,"vertex2":19933}},{"type":"Feature","geometry":{"type":"LineString","coordinates":[[3.779972,51.09616],[3.779724,51.09622],[3.779496,51.09631],[3.778849,51.0966],[3.778671,51.09665],[3.778522,51.09672]]},"properties":{"name":"Drieselstraat","maxspeed":"50","highway":"tertiary","vertex1":19933,"vertex2":18200}},{"type":"Feature","geometry":{"type":"LineString","coordinates":[[3.779972,51.09616],[3.779924,51.09609],[3.779874,51.09605],[3.779816,51.09604],[3.779577,51.09601],[3.7788,51.09599],[3.778475,51.09597]]},"properties":{"name":"Eksaardserijweg","highway":"residential","maxspeed":"30","vertex1":19933,"vertex2":18206}},{"type":"Feature","geometry":{"type":"LineString","coordinates":[[3.778522,51.09672],[3.778462,51.09654],[3.778603,51.09611],[3.778475,51.09597]]},"properties":{"name":"Eksaardserijweg","maxspeed":"50","highway":"tertiary","vertex1":18200,"vertex2":18206}},{"type":"Feature","geometry":{"type":"LineString","coordinates":[[3.78415,51.09274],[3.783345,51.09222],[3.782731,51.0905]]},"properties":{"highway":"service","vertex1":19932,"vertex2":19915}},{"type":"Feature","geometry":{"type":"LineString","coordinates":[[3.786656,51.09323],[3.78776,51.09359],[3.792143,51.09502]]},"properties":{"name":"Gefusilleerdenstraat","highway":"unclassified","vertex1":19931,"vertex2":19856}},{"type":"Feature","geometry":{"type":"LineString","coordinates":[[3.789935,51.08941],[3.789996,51.08931]]},"properties":{"bridge":"yes","highway":"cycleway","vertex1":19930,"vertex2":19922}},{"type":"Feature","geometry":{"type":"LineString","coordinates":[[3.786448,51.08981],[3.785515,51.08995]]},"properties":{"highway":"service","vertex1":19929,"vertex2":19928}},{"type":"Feature","geometry":{"type":"LineString","coordinates":[[3.786448,51.08981],[3.787502,51.08966]]},"properties":{"highway":"service","vertex1":19929,"vertex2":19906}},{"type":"Feature","geometry":{"type":"LineString","coordinates":[[3.786448,51.08981],[3.78651,51.09]]},"properties":{"highway":"service","vertex1":19929,"vertex2":19917}},{"type":"Feature","geometry":{"type":"LineString","coordinates":[[3.785515,51.08995],[3.784402,51.09011],[3.784223,51.09015]]},"properties":{"highway":"service","vertex1":19928,"vertex2":19927}},{"type":"Feature","geometry":{"type":"LineString","coordinates":[[3.785515,51.08995],[3.785573,51.09009]]},"properties":{"highway":"service","vertex1":19928,"vertex2":19912}},{"type":"Feature","geometry":{"type":"LineString","coordinates":[[3.784223,51.09015],[3.784247,51.09021],[3.784241,51.09026],[3.784206,51.09031],[3.784145,51.09035],[3.784081,51.09037]]},"properties":{"highway":"service","vertex1":19927,"vertex2":19908}},{"type":"Feature","geometry":{"type":"LineString","coordinates":[[3.784223,51.09015],[3.784156,51.0901],[3.78408,51.09007],[3.784014,51.09007]]},"properties":{"highway":"service","vertex1":19927,"vertex2":19921}},{"type":"Feature","geometry":{"type":"LineString","coordinates":[[3.783746,51.09022],[3.783763,51.09028],[3.783808,51.09032]]},"properties":{"highway":"service","vertex1":19926,"vertex2":19909}},{"type":"Feature","geometry":{"type":"LineString","coordinates":[[3.783746,51.09022],[3.783764,51.09016],[3.783808,51.09012],[3.783876,51.09008],[3.783952,51.09007],[3.784014,51.09007]]},"properties":{"highway":"service","vertex1":19926,"vertex2":19921}},{"type":"Feature","geometry":{"type":"LineString","coordinates":[[3.783746,51.09022],[3.783568,51.09021],[3.783378,51.0902],[3.783298,51.09017],[3.783218,51.09012],[3.783136,51.09003],[3.783022,51.08975],[3.782988,51.08969],[3.782902,51.08963],[3.782648,51.08952],[3.782592,51.08949],[3.782089,51.08809],[3.7821,51.08798],[3.782099,51.08786],[3.782134,51.0878],[3.782188,51.08777],[3.782458,51.08772],[3.783496,51.08757],[3.783604,51.08754],[3.783921,51.08737],[3.783979,51.08731],[3.783993,51.08727],[3.783946,51.08715],[3.783812,51.08676],[3.783854,51.0867],[3.783924,51.08667],[3.785408,51.08646],[3.785483,51.08647],[3.785555,51.08665],[3.785636,51.08666],[3.786786,51.08651],[3.786872,51.0865],[3.787519,51.08658],[3.788063,51.08652],[3.78821,51.08653],[3.788492,51.08667],[3.788645,51.0867],[3.788782,51.08671],[3.78919,51.08664]]},"properties":{"highway":"service","vertex1":19926,"vertex2":19910}},{"type":"Feature","geometry":{"type":"LineString","coordinates":[[3.77985,51.08729],[3.780649,51.08717],[3.780598,51.08703]]},"properties":{"highway":"service","vertex1":19925,"vertex2":19905}},{"type":"Feature","geometry":{"type":"LineString","coordinates":[[3.790272,51.08653],[3.790341,51.08649]]},"properties":{"highway":"service","vertex1":19924,"vertex2":19896}},{"type":"Feature","geometry":{"type":"LineString","coordinates":[[3.790272,51.08653],[3.790303,51.08654],[3.790922,51.08672],[3.791101,51.08679],[3.791184,51.08683]]},"properties":{"highway":"cycleway","vertex1":19924,"vertex2":19889}},{"type":"Feature","geometry":{"type":"LineString","coordinates":[[3.780938,51.08698],[3.78189,51.08962],[3.781884,51.08966],[3.781811,51.08974],[3.781813,51.08979]]},"properties":{"highway":"service","vertex1":19923,"vertex2":19911}},{"type":"Feature","geometry":{"type":"LineString","coordinates":[[3.780938,51.08698],[3.780695,51.08702]]},"properties":{"highway":"service","vertex1":19923,"vertex2":19913}},{"type":"Feature","geometry":{"type":"LineString","coordinates":[[3.780938,51.08698],[3.781034,51.08697],[3.781254,51.08694]]},"properties":{"highway":"service","vertex1":19923,"vertex2":19907}},{"type":"Feature","geometry":{"type":"LineString","coordinates":[[3.789996,51.08931],[3.789874,51.08924]]},"properties":{"highway":"track","vertex1":19922,"vertex2":19920}},{"type":"Feature","geometry":{"type":"LineString","coordinates":[[3.789996,51.08931],[3.793006,51.09116],[3.793054,51.09119],[3.793156,51.0912],[3.793298,51.09124],[3.793423,51.0913],[3.793617,51.09142],[3.793671,51.09148],[3.7937,51.09153],[3.793696,51.09157],[3.793694,51.09163],[3.79375,51.09167]]},"properties":{"highway":"track","vertex1":19922,"vertex2":19867}},{"type":"Feature","geometry":{"type":"LineString","coordinates":[[3.789996,51.08931],[3.79002,51.08927],[3.790179,51.08902],[3.791384,51.08727],[3.791511,51.08714],[3.791517,51.0871],[3.791511,51.08707]]},"properties":{"highway":"cycleway","vertex1":19922,"vertex2":19871}},{"type":"Feature","geometry":{"type":"LineString","coordinates":[[3.784014,51.09007],[3.78403,51.08998],[3.784038,51.08993],[3.784033,51.08989],[3.783838,51.08934],[3.78383,51.0893],[3.783862,51.08924],[3.783988,51.08922],[3.784926,51.08909],[3.785324,51.08872],[3.785414,51.08868],[3.785588,51.08865],[3.78675,51.08847],[3.786906,51.08848],[3.788622,51.08823],[3.789199,51.08815],[3.789375,51.08807],[3.789609,51.08793]]},"properties":{"highway":"service","vertex1":19921,"vertex2":19904}},{"type":"Feature","geometry":{"type":"LineString","coordinates":[[3.789874,51.08924],[3.789452,51.0899],[3.789413,51.09001],[3.789379,51.09015],[3.789379,51.0903],[3.789382,51.09051],[3.789398,51.09075],[3.789371,51.0909],[3.789317,51.09106],[3.789248,51.09119],[3.789148,51.09133],[3.789007,51.09148],[3.788876,51.09158],[3.788656,51.09173],[3.788453,51.09185]]},"properties":{"name":"Drieselstraat","maxspeed":"50","highway":"tertiary","vertex1":19920,"vertex2":19901}},{"type":"Feature","geometry":{"type":"LineString","coordinates":[[3.789874,51.08924],[3.790034,51.08899],[3.79124,51.08723]]},"properties":{"name":"Drieselstraat","maxspeed":"50","highway":"tertiary","vertex1":19920,"vertex2":19877}},{"type":"Feature","geometry":{"type":"LineString","coordinates":[[3.782107,51.09057],[3.782532,51.09051],[3.782731,51.0905]]},"properties":{"highway":"service","vertex1":19919,"vertex2":19915}},{"type":"Feature","geometry":{"type":"LineString","coordinates":[[3.782107,51.09057],[3.779812,51.0909],[3.778847,51.09101],[3.778472,51.09105],[3.777946,51.09113],[3.77782,51.09118],[3.777612,51.09132]]},"properties":{"highway":"service","vertex1":19919,"vertex2":18325}},{"type":"Feature","geometry":{"type":"LineString","coordinates":[[3.782107,51.09057],[3.781813,51.08979]]},"properties":{"highway":"service","vertex1":19919,"vertex2":19911}},{"type":"Feature","geometry":{"type":"LineString","coordinates":[[3.789193,51.0907],[3.789126,51.09024],[3.788798,51.09013],[3.788478,51.08999],[3.788141,51.08997],[3.787622,51.08997]]},"properties":{"highway":"service","vertex1":19918,"vertex2":19903}},{"type":"Feature","geometry":{"type":"LineString","coordinates":[[3.78651,51.09],[3.786772,51.09009],[3.787622,51.08997]]},"properties":{"highway":"service","vertex1":19917,"vertex2":19903}},{"type":"Feature","geometry":{"type":"LineString","coordinates":[[3.78651,51.09],[3.786384,51.09009],[3.786106,51.09018],[3.785756,51.09018],[3.785573,51.09009]]},"properties":{"highway":"service","vertex1":19917,"vertex2":19912}},{"type":"Feature","geometry":{"type":"LineString","coordinates":[[3.780878,51.08671],[3.781254,51.08694]]},"properties":{"highway":"service","vertex1":19916,"vertex2":19907}},{"type":"Feature","geometry":{"type":"LineString","coordinates":[[3.780878,51.08671],[3.78076,51.08682],[3.78069,51.08695],[3.780695,51.08702]]},"properties":{"highway":"service","vertex1":19916,"vertex2":19913}},{"type":"Feature","geometry":{"type":"LineString","coordinates":[[3.780878,51.08671],[3.780999,51.08661]]},"properties":{"highway":"service","vertex1":19916,"vertex2":19914}},{"type":"Feature","geometry":{"type":"LineString","coordinates":[[3.782731,51.0905],[3.783047,51.09047],[3.783616,51.09039],[3.783808,51.09032]]},"properties":{"highway":"service","vertex1":19915,"vertex2":19909}},{"type":"Feature","geometry":{"type":"LineString","coordinates":[[3.780999,51.08661],[3.780868,51.08657],[3.780731,51.08655],[3.780506,51.08655],[3.780288,51.08658],[3.779293,51.08681]]},"properties":{"highway":"service","vertex1":19914,"vertex2":18323}},{"type":"Feature","geometry":{"type":"LineString","coordinates":[[3.780695,51.08702],[3.780598,51.08703]]},"properties":{"highway":"service","vertex1":19913,"vertex2":19905}},{"type":"Feature","geometry":{"type":"LineString","coordinates":[[3.785573,51.09009],[3.785558,51.09017],[3.785503,51.09028],[3.78432,51.09046],[3.78417,51.09044],[3.784081,51.09037]]},"properties":{"highway":"service","vertex1":19912,"vertex2":19908}},{"type":"Feature","geometry":{"type":"LineString","coordinates":[[3.781813,51.08979],[3.778188,51.09032],[3.778078,51.09042],[3.776577,51.09064],[3.776512,51.09064],[3.776474,51.09063],[3.775672,51.08999],[3.775635,51.08994],[3.774959,51.08804],[3.774935,51.08798],[3.774943,51.08789],[3.774988,51.08781],[3.775074,51.08773],[3.7752,51.08768],[3.775331,51.08765],[3.778022,51.08725],[3.778244,51.08731],[3.77844,51.08735],[3.780598,51.08703]]},"properties":{"highway":"service","vertex1":19911,"vertex2":19905}},{"type":"Feature","geometry":{"type":"LineString","coordinates":[[3.78919,51.08664],[3.789348,51.08667],[3.789471,51.08672],[3.789562,51.0868],[3.789611,51.08691],[3.789806,51.08749],[3.789798,51.08757],[3.789737,51.08766],[3.789551,51.08778],[3.789609,51.08793]]},"properties":{"highway":"service","vertex1":19910,"vertex2":19904}},{"type":"Feature","geometry":{"type":"LineString","coordinates":[[3.78919,51.08664],[3.789332,51.08643]]},"properties":{"highway":"service","vertex1":19910,"vertex2":19902}},{"type":"Feature","geometry":{"type":"LineString","coordinates":[[3.783808,51.09032],[3.783909,51.09037],[3.783994,51.09038],[3.784081,51.09037]]},"properties":{"highway":"service","vertex1":19909,"vertex2":19908}},{"type":"Feature","geometry":{"type":"LineString","coordinates":[[3.787502,51.08966],[3.789184,51.08942],[3.789267,51.08939],[3.789342,51.08935],[3.78979,51.08873],[3.789833,51.08864],[3.789836,51.08856],[3.789609,51.08793]]},"properties":{"highway":"service","vertex1":19906,"vertex2":19904}},{"type":"Feature","geometry":{"type":"LineString","coordinates":[[3.787502,51.08966],[3.787622,51.08997]]},"properties":{"highway":"service","vertex1":19906,"vertex2":19903}},{"type":"Feature","geometry":{"type":"LineString","coordinates":[[3.79134,51.08701],[3.79124,51.08723]]},"properties":{"name":"Drieselstraat","oneway":"yes","maxspeed":"50","highway":"tertiary","vertex1":19900,"vertex2":19877}},{"type":"Feature","geometry":{"type":"LineString","coordinates":[[3.79134,51.08701],[3.791403,51.08692]]},"properties":{"name":"Drieselstraat","oneway":"yes","maxspeed":"50","highway":"tertiary","vertex1":19900,"vertex2":19879}},{"type":"Feature","geometry":{"type":"LineString","coordinates":[[3.79134,51.08701],[3.791437,51.08704]]},"properties":{"oneway":"yes","highway":"cycleway","vertex1":19900,"vertex2":19881}},{"type":"Feature","geometry":{"type":"LineString","coordinates":[[3.79134,51.08701],[3.791297,51.087]]},"properties":{"oneway":"yes","highway":"cycleway","vertex1":19900,"vertex2":19865}},{"type":"Feature","geometry":{"type":"LineString","coordinates":[[3.791702,51.08693],[3.791832,51.08692]]},"properties":{"name":"Smalleheerweg","oneway":"yes","highway":"residential","vertex1":19899,"vertex2":19898}},{"type":"Feature","geometry":{"type":"LineString","coordinates":[[3.791702,51.08693],[3.791725,51.08691],[3.791741,51.08689],[3.791758,51.08686]]},"properties":{"highway":"tertiary","junction":"roundabout","vertex1":19899,"vertex2":19873}},{"type":"Feature","geometry":{"type":"LineString","coordinates":[[3.791702,51.08693],[3.791649,51.08695],[3.791583,51.08696]]},"properties":{"highway":"tertiary","junction":"roundabout","vertex1":19899,"vertex2":19883}},{"type":"Feature","geometry":{"type":"LineString","coordinates":[[3.791832,51.08692],[3.791758,51.08686]]},"properties":{"name":"Smalleheerweg","oneway":"yes","highway":"residential","vertex1":19898,"vertex2":19873}},{"type":"Feature","geometry":{"type":"LineString","coordinates":[[3.791832,51.08692],[3.791857,51.08688],[3.791808,51.08669]]},"properties":{"oneway":"yes","highway":"cycleway","vertex1":19898,"vertex2":19897}},{"type":"Feature","geometry":{"type":"LineString","coordinates":[[3.791832,51.08692],[3.791787,51.08697],[3.791744,51.08699],[3.791538,51.08706],[3.791511,51.08707]]},"properties":{"oneway":"yes","highway":"cycleway","vertex1":19898,"vertex2":19871}},{"type":"Feature","geometry":{"type":"LineString","coordinates":[[3.791832,51.08692],[3.79785,51.08866]]},"properties":{"name":"Smalleheerweg","highway":"residential","vertex1":19898,"vertex2":19876}},{"type":"Feature","geometry":{"type":"LineString","coordinates":[[3.791808,51.08669],[3.791793,51.08667],[3.791738,51.08665]]},"properties":{"oneway":"yes","highway":"cycleway","vertex1":19897,"vertex2":19882}},{"type":"Feature","geometry":{"type":"LineString","coordinates":[[3.791808,51.08669],[3.791831,51.08643]]},"properties":{"oneway":"yes","highway":"cycleway","vertex1":19897,"vertex2":19884}},{"type":"Feature","geometry":{"type":"LineString","coordinates":[[3.790341,51.08649],[3.790946,51.08667]]},"properties":{"name":"Smalleheerweg","highway":"residential","vertex1":19896,"vertex2":19872}},{"type":"Feature","geometry":{"type":"LineString","coordinates":[[3.791639,51.08662],[3.791555,51.08671]]},"properties":{"name":"Drieselstraat","oneway":"yes","maxspeed":"50","highway":"tertiary","vertex1":19895,"vertex2":19870}},{"type":"Feature","geometry":{"type":"LineString","coordinates":[[3.791639,51.08662],[3.791678,51.0866],[3.791831,51.08643]]},"properties":{"name":"Drieselstraat","oneway":"yes","maxspeed":"50","highway":"tertiary","vertex1":19895,"vertex2":19884}},{"type":"Feature","geometry":{"type":"LineString","coordinates":[[3.791639,51.08662],[3.791608,51.08662],[3.791544,51.08663]]},"properties":{"oneway":"yes","highway":"cycleway","vertex1":19895,"vertex2":19891}},{"type":"Feature","geometry":{"type":"LineString","coordinates":[[3.791639,51.08662],[3.791738,51.08665]]},"properties":{"oneway":"yes","highway":"cycleway","vertex1":19895,"vertex2":19882}},{"type":"Feature","geometry":{"type":"LineString","coordinates":[[3.791411,51.08675],[3.791256,51.08672]]},"properties":{"name":"Smalleheerweg","oneway":"yes","highway":"residential","vertex1":19893,"vertex2":19875}},{"type":"Feature","geometry":{"type":"LineString","coordinates":[[3.791411,51.08675],[3.791377,51.08678],[3.791359,51.08681],[3.791357,51.08685]]},"properties":{"highway":"tertiary","junction":"roundabout","vertex1":19893,"vertex2":19866}},{"type":"Feature","geometry":{"type":"LineString","coordinates":[[3.791411,51.08675],[3.791444,51.08673],[3.791497,51.08672],[3.791555,51.08671]]},"properties":{"highway":"tertiary","junction":"roundabout","vertex1":19893,"vertex2":19870}},{"type":"Feature","geometry":{"type":"LineString","coordinates":[[3.799978,51.08804],[3.799664,51.08796],[3.799554,51.08798],[3.798761,51.08892]]},"properties":{"name":"Waalsland","highway":"residential","vertex1":19892,"vertex2":19885}},{"type":"Feature","geometry":{"type":"LineString","coordinates":[[3.799978,51.08804],[3.800462,51.08819],[3.800647,51.08822],[3.800734,51.08826],[3.800723,51.08832],[3.800584,51.08853]]},"properties":{"name":"Waalsland","highway":"residential","vertex1":19892,"vertex2":19890}},{"type":"Feature","geometry":{"type":"LineString","coordinates":[[3.799978,51.08804],[3.800433,51.08748],[3.800578,51.08746],[3.801211,51.08768]]},"properties":{"name":"Waalsland","highway":"residential","vertex1":19892,"vertex2":19886}},{"type":"Feature","geometry":{"type":"LineString","coordinates":[[3.791544,51.08663],[3.79149,51.08664],[3.791394,51.08667],[3.791281,51.08669],[3.791256,51.08672]]},"properties":{"oneway":"yes","highway":"cycleway","vertex1":19891,"vertex2":19875}},{"type":"Feature","geometry":{"type":"LineString","coordinates":[[3.791544,51.08663],[3.791831,51.08643]]},"properties":{"oneway":"yes","highway":"cycleway","vertex1":19891,"vertex2":19884}},{"type":"Feature","geometry":{"type":"LineString","coordinates":[[3.791184,51.08683],[3.791297,51.087]]},"properties":{"oneway":"yes","highway":"cycleway","vertex1":19889,"vertex2":19865}},{"type":"Feature","geometry":{"type":"LineString","coordinates":[[3.791184,51.08683],[3.791217,51.08678]]},"properties":{"oneway":"yes","highway":"cycleway","vertex1":19889,"vertex2":19887}},{"type":"Feature","geometry":{"type":"LineString","coordinates":[[3.797868,51.08866],[3.79785,51.08866]]},"properties":{"name":"Smalleheerweg","highway":"residential","vertex1":19888,"vertex2":19876}},{"type":"Feature","geometry":{"type":"LineString","coordinates":[[3.791217,51.08678],[3.791256,51.0868],[3.791357,51.08685]]},"properties":{"name":"Smalleheerweg","oneway":"yes","highway":"residential","vertex1":19887,"vertex2":19866}},{"type":"Feature","geometry":{"type":"LineString","coordinates":[[3.791217,51.08678],[3.791046,51.08672],[3.790946,51.08667]]},"properties":{"name":"Smalleheerweg","oneway":"yes","highway":"residential","vertex1":19887,"vertex2":19872}},{"type":"Feature","geometry":{"type":"LineString","coordinates":[[3.791217,51.08678],[3.791256,51.08672]]},"properties":{"oneway":"yes","highway":"cycleway","vertex1":19887,"vertex2":19875}},{"type":"Feature","geometry":{"type":"LineString","coordinates":[[3.791831,51.08643],[3.791738,51.08665]]},"properties":{"name":"Drieselstraat","oneway":"yes","highway":"tertiary","vertex1":19884,"vertex2":19882}},{"type":"Feature","geometry":{"type":"LineString","coordinates":[[3.791583,51.08696],[3.791437,51.08704]]},"properties":{"name":"Drieselstraat","oneway":"yes","highway":"tertiary","vertex1":19883,"vertex2":19881}},{"type":"Feature","geometry":{"type":"LineString","coordinates":[[3.791583,51.08696],[3.791514,51.08696],[3.791468,51.08695],[3.791432,51.08694],[3.791403,51.08692]]},"properties":{"highway":"tertiary","junction":"roundabout","vertex1":19883,"vertex2":19879}},{"type":"Feature","geometry":{"type":"LineString","coordinates":[[3.791738,51.08665],[3.791716,51.0867],[3.791731,51.08677]]},"properties":{"name":"Drieselstraat","oneway":"yes","highway":"tertiary","vertex1":19882,"vertex2":19878}},{"type":"Feature","geometry":{"type":"LineString","coordinates":[[3.791437,51.08704],[3.791385,51.08708],[3.79124,51.08723]]},"properties":{"name":"Drieselstraat","oneway":"yes","highway":"tertiary","vertex1":19881,"vertex2":19877}},{"type":"Feature","geometry":{"type":"LineString","coordinates":[[3.791437,51.08704],[3.791511,51.08707]]},"properties":{"oneway":"yes","highway":"cycleway","vertex1":19881,"vertex2":19871}},{"type":"Feature","geometry":{"type":"LineString","coordinates":[[3.796088,51.09114],[3.79785,51.08866]]},"properties":{"highway":"track","vertex1":19880,"vertex2":19876}},{"type":"Feature","geometry":{"type":"LineString","coordinates":[[3.791403,51.08692],[3.791372,51.08689],[3.791357,51.08685]]},"properties":{"highway":"tertiary","junction":"roundabout","vertex1":19879,"vertex2":19866}},{"type":"Feature","geometry":{"type":"LineString","coordinates":[[3.791731,51.08677],[3.791692,51.08674],[3.791631,51.08672],[3.791555,51.08671]]},"properties":{"highway":"tertiary","junction":"roundabout","vertex1":19878,"vertex2":19870}},{"type":"Feature","geometry":{"type":"LineString","coordinates":[[3.791731,51.08677],[3.791757,51.08681],[3.791762,51.08684],[3.791758,51.08686]]},"properties":{"highway":"tertiary","junction":"roundabout","vertex1":19878,"vertex2":19873}},{"type":"Feature","geometry":{"type":"LineString","coordinates":[[3.791256,51.08672],[3.791186,51.08671],[3.790946,51.08667]]},"properties":{"name":"Smalleheerweg","oneway":"yes","highway":"residential","vertex1":19875,"vertex2":19872}},{"type":"Feature","geometry":{"type":"LineString","coordinates":[[3.796654,51.09119],[3.798377,51.08881]]},"properties":{"highway":"track","vertex1":19874,"vertex2":19868}},{"type":"Feature","geometry":{"type":"LineString","coordinates":[[3.801147,51.08967],[3.800604,51.09052],[3.799515,51.09216],[3.799361,51.09238],[3.799339,51.09247],[3.799371,51.09253],[3.799499,51.09266],[3.799655,51.09287],[3.799736,51.09296],[3.799961,51.09307],[3.801097,51.09359]]},"properties":{"name":"Smalle Heerweg","highway":"unclassified","vertex1":19869,"vertex2":19864}},{"type":"Feature","geometry":{"type":"LineString","coordinates":[[3.801097,51.09359],[3.80134,51.0937],[3.801415,51.09378],[3.801479,51.09408],[3.801576,51.09428],[3.801672,51.09462],[3.801656,51.09473]]},"properties":{"name":"Smalle Heerweg","highway":"unclassified","vertex1":19864,"vertex2":19854}},{"type":"Feature","geometry":{"type":"LineString","coordinates":[[3.801097,51.09359],[3.799948,51.09494]]},"properties":{"highway":"track","vertex1":19864,"vertex2":19862}},{"type":"Feature","geometry":{"type":"LineString","coordinates":[[3.794348,51.09376],[3.794208,51.09389],[3.79372,51.0941],[3.793318,51.09407],[3.792808,51.09393],[3.792089,51.0937],[3.790565,51.09287]]},"properties":{"highway":"path","vertex1":19863,"vertex2":19855}},{"type":"Feature","geometry":{"type":"LineString","coordinates":[[3.790574,51.093],[3.793226,51.09446],[3.794492,51.09515],[3.795055,51.09546],[3.795176,51.09553],[3.795082,51.09572],[3.79484,51.09607],[3.794685,51.09645],[3.794591,51.09665],[3.794446,51.09686],[3.79405,51.09728]]},"properties":{"highway":"track","vertex1":19861,"vertex2":19859}},{"type":"Feature","geometry":{"type":"LineString","coordinates":[[3.790574,51.093],[3.79044,51.09293]]},"properties":{"highway":"unclassified","vertex1":19861,"vertex2":19858}},{"type":"Feature","geometry":{"type":"LineString","coordinates":[[3.79048,51.09282],[3.790565,51.09287]]},"properties":{"highway":"path","vertex1":19860,"vertex2":19855}},{"type":"Feature","geometry":{"type":"LineString","coordinates":[[3.79044,51.09293],[3.790565,51.09287]]},"properties":{"highway":"path","vertex1":19858,"vertex2":19855}},{"type":"Feature","geometry":{"type":"LineString","coordinates":[[3.791618,51.09574],[3.791731,51.09557],[3.792138,51.0951],[3.792143,51.09502]]},"properties":{"highway":"track","vertex1":19857,"vertex2":19856}}]}