{"type":"FeatureCollection","features":[{"type":"Feature","geometry":{"type":"LineString","coordinates":[[3.779297,51.08282],[3.80127,51.08282],[3.80127,51.06902],[3.779297,51.06902],[3.779297,51.08282]]},"properties":{"id":"89776300","zoom":"14"}},{"type":"Feature","geometry":{"type":"LineString","coordinates":[[3.79939,51.07938],[3.799548,51.0793],[3.800438,51.07882],[3.801488,51.07817],[3.802392,51.07754],[3.803576,51.07665],[3.804893,51.07537],[3.805784,51.07434],[3.806181,51.07379],[3.806603,51.07318],[3.807101,51.07231]]},"properties":{"highway":"motorway","maxspeed":"120","oneway":"yes","vertex1":19704,"vertex2":19751}},{"type":"Feature","geometry":{"type":"LineString","coordinates":[[3.79939,51.07938],[3.798412,51.07988]]},"properties":{"highway":"motorway","maxspeed":"120","oneway":"yes","vertex1":19704,"vertex2":19685}},{"type":"Feature","geometry":{"type":"LineString","coordinates":[[3.797407,51.0787],[3.796666,51.07896],[3.795766,51.0792],[3.79549,51.07928],[3.795363,51.07925],[3.795143,51.07916]]},"properties":{"name":"Achtene","highway":"unclassified","vertex1":19703,"vertex2":19675}},{"type":"Feature","geometry":{"type":"LineString","coordinates":[[3.790956,51.07616],[3.790366,51.07638]]},"properties":{"bicycle":"no","motorcar":"no","foot":"no","highway":"service","vertex1":19702,"vertex2":19686}},{"type":"Feature","geometry":{"type":"LineString","coordinates":[[3.794452,51.0797],[3.794449,51.07995],[3.794508,51.08009],[3.794635,51.0802]]},"properties":{"maxspeed":"120","oneway":"yes","highway":"motorway_link","vertex1":19701,"vertex2":19680}},{"type":"Feature","geometry":{"type":"LineString","coordinates":[[3.794452,51.0797],[3.795143,51.07916]]},"properties":{"name":"Orchideestraat","highway":"tertiary","vertex1":19701,"vertex2":19675}},{"type":"Feature","geometry":{"type":"LineString","coordinates":[[3.794452,51.0797],[3.794085,51.07999]]},"properties":{"name":"Orchideestraat","highway":"tertiary","vertex1":19701,"vertex2":19700}},{"type":"Feature","geometry":{"type":"LineString","coordinates":[[3.794085,51.07999],[3.794516,51.08015],[3.794635,51.0802]]},"properties":{"maxspeed":"120","oneway":"yes","highway":"motorway_link","vertex1":19700,"vertex2":19680}},{"type":"Feature","geometry":{"type":"LineString","coordinates":[[3.794085,51.07999],[3.794006,51.08005]]},"properties":{"name":"Orchideestraat","highway":"tertiary","vertex1":19700,"vertex2":19687}},{"type":"Feature","geometry":{"type":"LineString","coordinates":[[3.796909,51.07845],[3.796999,51.07833],[3.797099,51.07827],[3.79721,51.07826],[3.797322,51.07828],[3.797458,51.07835],[3.797634,51.07838],[3.798233,51.07847],[3.79869,51.07857],[3.799153,51.0787],[3.79945,51.0788],[3.799538,51.0788],[3.799631,51.07876],[3.799802,51.07854],[3.800153,51.078],[3.800432,51.07747]]},"properties":{"name":"Voordestraat","highway":"service","vertex1":19699,"vertex2":19676}},{"type":"Feature","geometry":{"type":"LineString","coordinates":[[3.796909,51.07845],[3.796077,51.0783]]},"properties":{"name":"Voordestraat","highway":"tertiary","vertex1":19699,"vertex2":19692}},{"type":"Feature","geometry":{"type":"LineString","coordinates":[[3.796909,51.07845],[3.797422,51.07853],[3.798096,51.07866],[3.798392,51.07872],[3.798732,51.07882]]},"properties":{"name":"Voordestraat","highway":"tertiary","vertex1":19699,"vertex2":19684}},{"type":"Feature","geometry":{"type":"LineString","coordinates":[[3.790756,51.07779],[3.79061,51.07788],[3.790402,51.07815],[3.790093,51.07855],[3.789944,51.0787]]},"properties":{"name":"Herman Teirlinckstraat","highway":"residential","vertex1":19698,"vertex2":19554}},{"type":"Feature","geometry":{"type":"LineString","coordinates":[[3.790756,51.07779],[3.790901,51.07777],[3.791084,51.07779],[3.794647,51.07812]]},"properties":{"name":"Pijkestraat","highway":"residential","vertex1":19698,"vertex2":19694}},{"type":"Feature","geometry":{"type":"LineString","coordinates":[[3.790756,51.07779],[3.790359,51.07763],[3.790024,51.07745],[3.789468,51.07711]]},"properties":{"name":"Pijkestraat","highway":"residential","vertex1":19698,"vertex2":19562}},{"type":"Feature","geometry":{"type":"LineString","coordinates":[[3.795894,51.07631],[3.796409,51.07651],[3.796827,51.07665],[3.7971,51.07674]]},"properties":{"name":"Rietorchisstraat","highway":"residential","vertex1":19697,"vertex2":19682}},{"type":"Feature","geometry":{"type":"LineString","coordinates":[[3.795894,51.07631],[3.795594,51.07611],[3.79495,51.07579],[3.794177,51.07547]]},"properties":{"name":"Rietorchisstraat","highway":"residential","vertex1":19697,"vertex2":19696}},{"type":"Feature","geometry":{"type":"LineString","coordinates":[[3.795894,51.07631],[3.795722,51.07645],[3.795282,51.07676],[3.794928,51.077]]},"properties":{"name":"Handekenskruidstraat","highway":"residential","vertex1":19697,"vertex2":19678}},{"type":"Feature","geometry":{"type":"LineString","coordinates":[[3.792512,51.07951],[3.792187,51.07936],[3.791438,51.07927],[3.791237,51.0792],[3.791102,51.07919],[3.790625,51.07899],[3.789944,51.0787]]},"properties":{"name":"Govaartsakker","highway":"residential","vertex1":19695,"vertex2":19554}},{"type":"Feature","geometry":{"type":"LineString","coordinates":[[3.792512,51.07951],[3.792161,51.07985]]},"properties":{"name":"Govaartsakker","highway":"residential","vertex1":19695,"vertex2":19683}},{"type":"Feature","geometry":{"type":"LineString","coordinates":[[3.792512,51.07951],[3.792661,51.07937],[3.792988,51.07882],[3.793072,51.07878],[3.794193,51.07888]]},"properties":{"name":"Govaartsakker","highway":"residential","vertex1":19695,"vertex2":19677}},{"type":"Feature","geometry":{"type":"LineString","coordinates":[[3.794647,51.07812],[3.796077,51.0783]]},"properties":{"name":"Pijkestraat","highway":"residential","vertex1":19694,"vertex2":19692}},{"type":"Feature","geometry":{"type":"LineString","coordinates":[[3.794647,51.07812],[3.7948,51.07729],[3.794928,51.077]]},"properties":{"name":"Handekenskruidstraat","highway":"residential","vertex1":19694,"vertex2":19678}},{"type":"Feature","geometry":{"type":"LineString","coordinates":[[3.800338,51.07871],[3.79932,51.07927],[3.798564,51.07965],[3.798251,51.0798]]},"properties":{"highway":"motorway","maxspeed":"120","oneway":"yes","vertex1":19693,"vertex2":19673}},{"type":"Feature","geometry":{"type":"LineString","coordinates":[[3.800338,51.07871],[3.801448,51.07805],[3.802292,51.07745],[3.80344,51.07655],[3.804748,51.07528],[3.805643,51.07423],[3.80602,51.07372],[3.806423,51.07312],[3.806943,51.07222]]},"properties":{"highway":"motorway","maxspeed":"120","oneway":"yes","vertex1":19693,"vertex2":19744}},{"type":"Feature","geometry":{"type":"LineString","coordinates":[[3.796077,51.0783],[3.7971,51.07674]]},"properties":{"name":"Orchideestraat","highway":"tertiary","vertex1":19692,"vertex2":19682}},{"type":"Feature","geometry":{"type":"LineString","coordinates":[[3.796077,51.0783],[3.795782,51.07866],[3.795143,51.07916]]},"properties":{"name":"Orchideestraat","highway":"tertiary","vertex1":19692,"vertex2":19675}},{"type":"Feature","geometry":{"type":"LineString","coordinates":[[3.797602,51.08001],[3.797044,51.08024],[3.796613,51.0804],[3.796297,51.08047],[3.796059,51.08051],[3.79582,51.08051],[3.795562,51.08049],[3.795272,51.08044],[3.795069,51.08039],[3.794835,51.0803],[3.794635,51.0802]]},"properties":{"maxspeed":"120","oneway":"yes","highway":"motorway_link","vertex1":19691,"vertex2":19680}},{"type":"Feature","geometry":{"type":"LineString","coordinates":[[3.797602,51.08001],[3.798251,51.0798]]},"properties":{"maxspeed":"120","oneway":"yes","highway":"motorway_link","vertex1":19691,"vertex2":19673}},{"type":"Feature","geometry":{"type":"LineString","coordinates":[[3.793493,51.08042],[3.79379,51.08033],[3.793944,51.08028],[3.794103,51.08025],[3.794363,51.08025]]},"properties":{"maxspeed":"120","oneway":"yes","highway":"motorway_link","vertex1":19690,"vertex2":19688}},{"type":"Feature","geometry":{"type":"LineString","coordinates":[[3.793493,51.08042],[3.793207,51.08059]]},"properties":{"name":"Orchideestraat","highway":"tertiary","vertex1":19690,"vertex2":19679}},{"type":"Feature","geometry":{"type":"LineString","coordinates":[[3.793493,51.08042],[3.794006,51.08005]]},"properties":{"name":"Orchideestraat","highway":"tertiary","vertex1":19690,"vertex2":19687}},{"type":"Feature","geometry":{"type":"LineString","coordinates":[[3.798159,51.08007],[3.798412,51.07988]]},"properties":{"maxspeed":"120","oneway":"yes","highway":"motorway_link","vertex1":19689,"vertex2":19685}},{"type":"Feature","geometry":{"type":"LineString","coordinates":[[3.798159,51.08007],[3.79778,51.08027],[3.797567,51.08041],[3.797372,51.08057],[3.797186,51.08075],[3.797004,51.08099],[3.79694,51.08112],[3.796899,51.08129],[3.79689,51.08155],[3.796901,51.08178],[3.796907,51.08198],[3.796877,51.08214],[3.796815,51.08227],[3.796711,51.08239],[3.796552,51.0825],[3.79644,51.08258],[3.7963,51.08263],[3.795862,51.08281]]},"properties":{"maxspeed":"120","oneway":"yes","highway":"motorway_link","vertex1":19689,"vertex2":19660}},{"type":"Feature","geometry":{"type":"LineString","coordinates":[[3.794363,51.08025],[3.79446,51.08026],[3.794555,51.08028],[3.794665,51.08033],[3.794756,51.08041],[3.794815,51.08046],[3.794849,51.08052],[3.794876,51.08057],[3.794874,51.08064],[3.794873,51.0807],[3.794845,51.08077],[3.794808,51.08084],[3.794751,51.08091],[3.794538,51.08109],[3.794233,51.08128],[3.792999,51.08181]]},"properties":{"maxspeed":"120","oneway":"yes","highway":"motorway_link","vertex1":19688,"vertex2":19642}},{"type":"Feature","geometry":{"type":"LineString","coordinates":[[3.794363,51.08025],[3.794188,51.08019],[3.794092,51.08015],[3.794006,51.08005]]},"properties":{"maxspeed":"120","oneway":"yes","highway":"motorway_link","vertex1":19688,"vertex2":19687}},{"type":"Feature","geometry":{"type":"LineString","coordinates":[[3.790366,51.07638],[3.790207,51.07652],[3.789628,51.077],[3.789468,51.07711]]},"properties":{"bicycle":"no","motorcar":"no","foot":"no","highway":"service","vertex1":19686,"vertex2":19562}},{"type":"Feature","geometry":{"type":"LineString","coordinates":[[3.790366,51.07638],[3.790371,51.07631],[3.790309,51.07619],[3.790213,51.0761],[3.790035,51.07599]]},"properties":{"bicycle":"no","motorcar":"no","foot":"no","highway":"service","vertex1":19686,"vertex2":19549}},{"type":"Feature","geometry":{"type":"LineString","coordinates":[[3.790366,51.07638],[3.790403,51.07629],[3.790484,51.076],[3.790532,51.07594],[3.790604,51.07558],[3.790553,51.07542],[3.790481,51.0751],[3.790416,51.07479],[3.790376,51.07453]]},"properties":{"bicycle":"no","motorcar":"no","foot":"no","highway":"service","vertex1":19686,"vertex2":19433}},{"type":"Feature","geometry":{"type":"LineString","coordinates":[[3.798412,51.07988],[3.797412,51.08033],[3.796444,51.08072],[3.795389,51.08113],[3.793996,51.08166]]},"properties":{"highway":"motorway","maxspeed":"120","oneway":"yes","vertex1":19685,"vertex2":19663}},{"type":"Feature","geometry":{"type":"LineString","coordinates":[[3.798732,51.07882],[3.800108,51.07941]]},"properties":{"bridge":"yes","highway":"tertiary","vertex1":19684,"vertex2":19681}},{"type":"Feature","geometry":{"type":"LineString","coordinates":[[3.7971,51.07674],[3.797601,51.07603],[3.797685,51.07576],[3.79769,51.07542]]},"properties":{"name":"Orchideestraat","highway":"tertiary","vertex1":19682,"vertex2":19449}},{"type":"Feature","geometry":{"type":"LineString","coordinates":[[3.800108,51.07941],[3.801498,51.08002],[3.8024,51.08043],[3.802485,51.08047]]},"properties":{"name":"Voordestraat","highway":"tertiary","vertex1":19681,"vertex2":19712}},{"type":"Feature","geometry":{"type":"LineString","coordinates":[[3.793207,51.08059],[3.792871,51.08076],[3.791845,51.0813],[3.791229,51.08176]]},"properties":{"name":"Orchideestraat","highway":"tertiary","vertex1":19679,"vertex2":19665}},{"type":"Feature","geometry":{"type":"LineString","coordinates":[[3.794928,51.077],[3.794252,51.07663],[3.794006,51.07657],[3.793383,51.07656],[3.792675,51.07656]]},"properties":{"name":"Handekenskruidstraat","highway":"residential","vertex1":19678,"vertex2":19674}},{"type":"Feature","geometry":{"type":"LineString","coordinates":[[3.798251,51.0798],[3.797362,51.0802],[3.79635,51.08062],[3.795239,51.08105],[3.793638,51.08164],[3.792696,51.08199]]},"properties":{"highway":"motorway","maxspeed":"120","oneway":"yes","vertex1":19673,"vertex2":19672}},{"type":"Feature","geometry":{"type":"LineString","coordinates":[[3.792696,51.08199],[3.791646,51.08236]]},"properties":{"highway":"motorway","maxspeed":"120","oneway":"yes","vertex1":19672,"vertex2":19667}},{"type":"Feature","geometry":{"type":"LineString","coordinates":[[3.792696,51.08199],[3.792999,51.08181]]},"properties":{"maxspeed":"120","oneway":"yes","highway":"motorway_link","vertex1":19672,"vertex2":19642}},{"type":"Feature","geometry":{"type":"LineString","coordinates":[[3.791259,51.08264],[3.791785,51.08245]]},"properties":{"bridge":"yes","highway":"motorway","oneway":"yes","vertex1":19671,"vertex2":19657}},{"type":"Feature","geometry":{"type":"LineString","coordinates":[[3.791259,51.08264],[3.791034,51.08273]]},"properties":{"bridge":"yes","highway":"motorway","oneway":"yes","vertex1":19671,"vertex2":19655}},{"type":"Feature","geometry":{"type":"LineString","coordinates":[[3.791646,51.08236],[3.790982,51.0826]]},"properties":{"bridge":"yes","highway":"motorway","oneway":"yes","vertex1":19667,"vertex2":19662}},{"type":"Feature","geometry":{"type":"LineString","coordinates":[[3.791302,51.08241],[3.792197,51.0828]]},"properties":{"name":"Antwerpsesteenweg","highway":"primary","maxspeed":"70","cycleway":"lane","vertex1":19666,"vertex2":19653}},{"type":"Feature","geometry":{"type":"LineString","coordinates":[[3.791302,51.08241],[3.790915,51.08223]]},"properties":{"name":"Antwerpsesteenweg","highway":"primary","maxspeed":"70","cycleway":"lane","vertex1":19666,"vertex2":19647}},{"type":"Feature","geometry":{"type":"LineString","coordinates":[[3.791229,51.08176],[3.790936,51.08219],[3.790915,51.08223]]},"properties":{"name":"Orchideestraat","oneway":"yes","highway":"tertiary","vertex1":19665,"vertex2":19647}},{"type":"Feature","geometry":{"type":"LineString","coordinates":[[3.791229,51.08176],[3.790846,51.08199],[3.790655,51.08206],[3.790594,51.08208]]},"properties":{"name":"Orchideestraat","oneway":"yes","highway":"tertiary","vertex1":19665,"vertex2":19643}},{"type":"Feature","geometry":{"type":"LineString","coordinates":[[3.793996,51.08166],[3.791785,51.08245]]},"properties":{"highway":"motorway","maxspeed":"120","oneway":"yes","vertex1":19663,"vertex2":19657}},{"type":"Feature","geometry":{"type":"LineString","coordinates":[[3.793996,51.08166],[3.794365,51.0816]]},"properties":{"maxspeed":"120","oneway":"yes","highway":"motorway_link","vertex1":19663,"vertex2":19645}},{"type":"Feature","geometry":{"type":"LineString","coordinates":[[3.790982,51.0826],[3.786537,51.08422],[3.784594,51.08489]]},"properties":{"highway":"motorway","maxspeed":"120","oneway":"yes","vertex1":19662,"vertex2":19611}},{"type":"Feature","geometry":{"type":"LineString","coordinates":[[3.795862,51.08281],[3.794641,51.08332]]},"properties":{"maxspeed":"120","oneway":"yes","highway":"motorway_link","vertex1":19660,"vertex2":19654}},{"type":"Feature","geometry":{"type":"LineString","coordinates":[[3.791034,51.08273],[3.786399,51.0844]]},"properties":{"highway":"motorway","maxspeed":"120","oneway":"yes","vertex1":19655,"vertex2":19590}},{"type":"Feature","geometry":{"type":"LineString","coordinates":[[3.786399,51.0844],[3.787218,51.08418],[3.789505,51.08345],[3.791643,51.08284],[3.791875,51.0828],[3.792197,51.0828]]},"properties":{"maxspeed":"120","oneway":"yes","highway":"motorway_link","vertex1":19590,"vertex2":19653}},{"type":"Feature","geometry":{"type":"LineString","coordinates":[[3.792197,51.0828],[3.792511,51.08294]]},"properties":{"name":"Antwerpsesteenweg","highway":"primary","maxspeed":"70","cycleway":"lane","vertex1":19653,"vertex2":19641}},{"type":"Feature","geometry":{"type":"LineString","coordinates":[[3.790915,51.08223],[3.790594,51.08208]]},"properties":{"name":"Antwerpsesteenweg","highway":"primary","maxspeed":"70","cycleway":"lane","vertex1":19647,"vertex2":19643}},{"type":"Feature","geometry":{"type":"LineString","coordinates":[[3.794365,51.0816],[3.795404,51.0813],[3.795572,51.08127],[3.795705,51.08127],[3.795894,51.08128],[3.7961,51.08133],[3.796294,51.08139],[3.796482,51.08149],[3.796643,51.08163],[3.79675,51.08179],[3.796768,51.08196],[3.796724,51.08215],[3.796642,51.08229],[3.796499,51.08242],[3.796224,51.08257],[3.794479,51.08329],[3.79433,51.08334],[3.794104,51.08338]]},"properties":{"maxspeed":"120","oneway":"yes","highway":"motorway_link","vertex1":19645,"vertex2":19668}},{"type":"Feature","geometry":{"type":"LineString","coordinates":[[3.790594,51.08208],[3.790349,51.0821],[3.790062,51.08211],[3.789643,51.08208],[3.787018,51.08176],[3.786902,51.08178]]},"properties":{"name":"Groenstraat","highway":"tertiary","vertex1":19643,"vertex2":19613}},{"type":"Feature","geometry":{"type":"LineString","coordinates":[[3.790594,51.08208],[3.790437,51.08201],[3.789158,51.08142]]},"properties":{"name":"Antwerpsesteenweg","highway":"primary","maxspeed":"70","cycleway":"lane","vertex1":19643,"vertex2":19592}},{"type":"Feature","geometry":{"type":"LineString","coordinates":[[3.78057,51.08126],[3.780744,51.08107]]},"properties":{"highway":"cycleway","vertex1":19640,"vertex2":19624}},{"type":"Feature","geometry":{"type":"LineString","coordinates":[[3.78057,51.08126],[3.779746,51.08151],[3.780065,51.08194],[3.78007,51.082],[3.779912,51.08263]]},"properties":{"name":"Emilie Schattemanstraat","highway":"residential","vertex1":19640,"vertex2":19602}},{"type":"Feature","geometry":{"type":"LineString","coordinates":[[3.786713,51.08171],[3.786509,51.08168],[3.785817,51.08153],[3.784936,51.08131]]},"properties":{"name":"Wildebrake","highway":"residential","vertex1":19629,"vertex2":19588}},{"type":"Feature","geometry":{"type":"LineString","coordinates":[[3.786713,51.08171],[3.78668,51.08172],[3.786646,51.08175],[3.78663,51.08176],[3.786621,51.0818],[3.786628,51.08182],[3.78664,51.08184],[3.786662,51.08186],[3.786687,51.08187]]},"properties":{"name":"Groenstraat","oneway":"yes","highway":"tertiary","junction":"roundabout","vertex1":19629,"vertex2":19593}},{"type":"Feature","geometry":{"type":"LineString","coordinates":[[3.786713,51.08171],[3.786766,51.08171],[3.786808,51.08171],[3.786852,51.08173],[3.786885,51.08175],[3.786902,51.08178]]},"properties":{"name":"Groenstraat","oneway":"yes","highway":"tertiary","junction":"roundabout","vertex1":19629,"vertex2":19613}},{"type":"Feature","geometry":{"type":"LineString","coordinates":[[3.781933,51.08142],[3.78204,51.08123]]},"properties":{"name":"Gebroeders Jacobspad","highway":"cycleway","vertex1":19627,"vertex2":19626}},{"type":"Feature","geometry":{"type":"LineString","coordinates":[[3.781933,51.08142],[3.781836,51.08156]]},"properties":{"name":"Gebroeders Jacobspad","highway":"cycleway","vertex1":19627,"vertex2":19612}},{"type":"Feature","geometry":{"type":"LineString","coordinates":[[3.781933,51.08142],[3.781177,51.08124],[3.780744,51.08107]]},"properties":{"name":"Gebroeders Jacobspad","highway":"cycleway","vertex1":19627,"vertex2":19624}},{"type":"Feature","geometry":{"type":"LineString","coordinates":[[3.78204,51.08123],[3.782621,51.08055]]},"properties":{"name":"Elise Grandprezstraat","highway":"residential","vertex1":19626,"vertex2":19513}},{"type":"Feature","geometry":{"type":"LineString","coordinates":[[3.780744,51.08107],[3.780819,51.08097],[3.781639,51.08016]]},"properties":{"name":"Leonie Rammeloostraat","highway":"residential","vertex1":19624,"vertex2":19540}},{"type":"Feature","geometry":{"type":"LineString","coordinates":[[3.784688,51.08125],[3.78492,51.08093]]},"properties":{"name":"Wildebrake","highway":"residential","vertex1":19622,"vertex2":19522}},{"type":"Feature","geometry":{"type":"LineString","coordinates":[[3.784688,51.08125],[3.783625,51.08092],[3.782621,51.08055]]},"properties":{"name":"Wildebrake","highway":"residential","vertex1":19622,"vertex2":19513}},{"type":"Feature","geometry":{"type":"LineString","coordinates":[[3.784688,51.08125],[3.784936,51.08131]]},"properties":{"name":"Wildebrake","highway":"residential","vertex1":19622,"vertex2":19588}},{"type":"Feature","geometry":{"type":"LineString","coordinates":[[3.784556,51.08167],[3.784478,51.08174],[3.784517,51.08183],[3.784655,51.08182],[3.784726,51.08175]]},"properties":{"name":"Wildebrake","highway":"residential","vertex1":19618,"vertex2":19598}},{"type":"Feature","geometry":{"type":"LineString","coordinates":[[3.784556,51.08167],[3.7847,51.08166]]},"properties":{"name":"Wildebrake","highway":"residential","vertex1":19618,"vertex2":19616}},{"type":"Feature","geometry":{"type":"LineString","coordinates":[[3.788439,51.08115],[3.787432,51.0807]]},"properties":{"name":"Antwerpsesteenweg","oneway":"yes","highway":"primary","maxspeed":"70","cycleway":"lane","vertex1":19617,"vertex2":19534}},{"type":"Feature","geometry":{"type":"LineString","coordinates":[[3.788439,51.08115],[3.789022,51.08141]]},"properties":{"name":"Antwerpsesteenweg","oneway":"yes","highway":"primary","maxspeed":"70","cycleway":"lane","vertex1":19617,"vertex2":19587}},{"type":"Feature","geometry":{"type":"LineString","coordinates":[[3.7847,51.08166],[3.784936,51.08131]]},"properties":{"name":"Wildebrake","highway":"residential","vertex1":19616,"vertex2":19588}},{"type":"Feature","geometry":{"type":"LineString","coordinates":[[3.7847,51.08166],[3.784726,51.08175]]},"properties":{"name":"Wildebrake","highway":"residential","vertex1":19616,"vertex2":19598}},{"type":"Feature","geometry":{"type":"LineString","coordinates":[[3.78114,51.08276],[3.7817,51.08179]]},"properties":{"name":"Louise Derachestraat","highway":"residential","vertex1":19614,"vertex2":19596}},{"type":"Feature","geometry":{"type":"LineString","coordinates":[[3.78114,51.08276],[3.78496,51.08295],[3.785197,51.08295],[3.785404,51.08289]]},"properties":{"name":"Groenstraat","highway":"tertiary","vertex1":19614,"vertex2":19600}},{"type":"Feature","geometry":{"type":"LineString","coordinates":[[3.78114,51.08276],[3.780851,51.08273]]},"properties":{"name":"Groenstraat","highway":"tertiary","vertex1":19614,"vertex2":19594}},{"type":"Feature","geometry":{"type":"LineString","coordinates":[[3.78114,51.08276],[3.781128,51.08281]]},"properties":{"name":"Smalle Heerweg","highway":"residential","vertex1":19614,"vertex2":19610}},{"type":"Feature","geometry":{"type":"LineString","coordinates":[[3.785404,51.08289],[3.78567,51.08278],[3.785953,51.08254],[3.786687,51.08187]]},"properties":{"name":"Groenstraat","highway":"tertiary","vertex1":19600,"vertex2":19593}},{"type":"Feature","geometry":{"type":"LineString","coordinates":[[3.786902,51.08178],[3.786902,51.08181],[3.786891,51.08183],[3.786859,51.08186],[3.78682,51.08188],[3.786775,51.08189],[3.786739,51.08188],[3.786687,51.08187]]},"properties":{"name":"Groenstraat","oneway":"yes","highway":"tertiary","junction":"roundabout","vertex1":19613,"vertex2":19593}},{"type":"Feature","geometry":{"type":"LineString","coordinates":[[3.781836,51.08156],[3.7817,51.08179]]},"properties":{"name":"Louise Derachestraat","highway":"residential","vertex1":19612,"vertex2":19596}},{"type":"Feature","geometry":{"type":"LineString","coordinates":[[3.781128,51.08281],[3.78091,51.08372]]},"properties":{"name":"Smalle Heerweg","highway":"residential","vertex1":19610,"vertex2":19601}},{"type":"Feature","geometry":{"type":"LineString","coordinates":[[3.780054,51.08265],[3.780378,51.08309]]},"properties":{"name":"Smalleheerweg","highway":"residential","vertex1":19607,"vertex2":19605}},{"type":"Feature","geometry":{"type":"LineString","coordinates":[[3.780054,51.08265],[3.780851,51.08273]]},"properties":{"name":"Groenstraat","highway":"tertiary","vertex1":19607,"vertex2":19594}},{"type":"Feature","geometry":{"type":"LineString","coordinates":[[3.780054,51.08265],[3.779912,51.08263]]},"properties":{"name":"Groenstraat","highway":"tertiary","vertex1":19607,"vertex2":19602}},{"type":"Feature","geometry":{"type":"LineString","coordinates":[[3.780378,51.08309],[3.780409,51.08305],[3.78052,51.08287],[3.780729,51.08277],[3.780851,51.08273]]},"properties":{"name":"Smalle Heerweg","highway":"residential","vertex1":19605,"vertex2":19594}},{"type":"Feature","geometry":{"type":"LineString","coordinates":[[3.779912,51.08263],[3.77745,51.08239],[3.775814,51.08212]]},"properties":{"name":"Groenstraat","highway":"tertiary","vertex1":19602,"vertex2":18327}},{"type":"Feature","geometry":{"type":"LineString","coordinates":[[3.7817,51.08179],[3.782575,51.08202],[3.782709,51.08211]]},"properties":{"name":"Louise Derachestraat","highway":"residential","vertex1":19596,"vertex2":19583}},{"type":"Feature","geometry":{"type":"LineString","coordinates":[[3.789158,51.08142],[3.789119,51.08136]]},"properties":{"name":"Antwerpsesteenweg","oneway":"yes","highway":"primary","cycleway":"lane","vertex1":19592,"vertex2":19585}},{"type":"Feature","geometry":{"type":"LineString","coordinates":[[3.789158,51.08142],[3.789022,51.08141]]},"properties":{"name":"Antwerpsesteenweg","oneway":"yes","highway":"primary","maxspeed":"70","cycleway":"lane","vertex1":19592,"vertex2":19587}},{"type":"Feature","geometry":{"type":"LineString","coordinates":[[3.789119,51.08136],[3.78751,51.08064]]},"properties":{"name":"Antwerpsesteenweg","oneway":"yes","highway":"primary","cycleway":"lane","vertex1":19585,"vertex2":19564}},{"type":"Feature","geometry":{"type":"LineString","coordinates":[[3.7831,51.0769],[3.782729,51.077],[3.782338,51.07714],[3.781951,51.07728],[3.781858,51.07731]]},"properties":{"name":"Achtenkouterstraat","highway":"residential","vertex1":19581,"vertex2":19558}},{"type":"Feature","geometry":{"type":"LineString","coordinates":[[3.7831,51.0769],[3.783363,51.07679]]},"properties":{"name":"Achtenkouterstraat","highway":"residential","vertex1":19581,"vertex2":19563}},{"type":"Feature","geometry":{"type":"LineString","coordinates":[[3.7831,51.0769],[3.783315,51.07691],[3.783432,51.07691]]},"properties":{"name":"Pijkestraat","highway":"residential","vertex1":19581,"vertex2":19555}},{"type":"Feature","geometry":{"type":"LineString","coordinates":[[3.780771,51.07692],[3.781036,51.07682]]},"properties":{"highway":"service","vertex1":19580,"vertex2":19551}},{"type":"Feature","geometry":{"type":"LineString","coordinates":[[3.780771,51.07692],[3.780841,51.07699]]},"properties":{"highway":"service","vertex1":19580,"vertex2":19579}},{"type":"Feature","geometry":{"type":"LineString","coordinates":[[3.780771,51.07692],[3.780048,51.07624]]},"properties":{"highway":"service","vertex1":19580,"vertex2":19541}},{"type":"Feature","geometry":{"type":"LineString","coordinates":[[3.787378,51.07914],[3.787182,51.07907],[3.78683,51.07945]]},"properties":{"oneway":"yes","highway":"service","vertex1":19578,"vertex2":19546}},{"type":"Feature","geometry":{"type":"LineString","coordinates":[[3.787378,51.07914],[3.787569,51.07921]]},"properties":{"oneway":"yes","highway":"service","vertex1":19578,"vertex2":19524}},{"type":"Feature","geometry":{"type":"LineString","coordinates":[[3.787378,51.07914],[3.787036,51.07952]]},"properties":{"oneway":"yes","highway":"service","vertex1":19578,"vertex2":19526}},{"type":"Feature","geometry":{"type":"LineString","coordinates":[[3.788441,51.07934],[3.788166,51.07942]]},"properties":{"oneway":"yes","highway":"service","vertex1":19577,"vertex2":19544}},{"type":"Feature","geometry":{"type":"LineString","coordinates":[[3.788441,51.07934],[3.788722,51.07938],[3.78885,51.07943]]},"properties":{"oneway":"yes","highway":"service","vertex1":19577,"vertex2":19575}},{"type":"Feature","geometry":{"type":"LineString","coordinates":[[3.788441,51.07934],[3.787972,51.07988]]},"properties":{"highway":"service","vertex1":19577,"vertex2":19528}},{"type":"Feature","geometry":{"type":"LineString","coordinates":[[3.78144,51.08007],[3.781639,51.08016]]},"properties":{"name":"Sofie Schollstraat","highway":"residential","vertex1":19576,"vertex2":19540}},{"type":"Feature","geometry":{"type":"LineString","coordinates":[[3.78885,51.07943],[3.788979,51.07948]]},"properties":{"oneway":"yes","highway":"service","vertex1":19575,"vertex2":19536}},{"type":"Feature","geometry":{"type":"LineString","coordinates":[[3.78885,51.07943],[3.789166,51.07908],[3.789335,51.07889]]},"properties":{"highway":"service","vertex1":19575,"vertex2":19508}},{"type":"Feature","geometry":{"type":"LineString","coordinates":[[3.782292,51.08041],[3.781639,51.08016]]},"properties":{"name":"Sofie Schollstraat","highway":"residential","vertex1":19574,"vertex2":19540}},{"type":"Feature","geometry":{"type":"LineString","coordinates":[[3.782292,51.08041],[3.782621,51.08055]]},"properties":{"name":"Kouterbosstraat","highway":"residential","vertex1":19574,"vertex2":19513}},{"type":"Feature","geometry":{"type":"LineString","coordinates":[[3.782292,51.08041],[3.782486,51.08018],[3.783701,51.07914],[3.783878,51.07902]]},"properties":{"name":"Kouterbosstraat","highway":"residential","vertex1":19574,"vertex2":19553}},{"type":"Feature","geometry":{"type":"LineString","coordinates":[[3.784873,51.07951],[3.785271,51.07971]]},"properties":{"name":"Antwerpsesteenweg","oneway":"yes","highway":"primary","maxspeed":"70","cycleway":"lane","vertex1":19573,"vertex2":19516}},{"type":"Feature","geometry":{"type":"LineString","coordinates":[[3.784873,51.07951],[3.784536,51.07935],[3.783878,51.07902]]},"properties":{"name":"Antwerpsesteenweg","oneway":"yes","highway":"primary","maxspeed":"70","cycleway":"lane","vertex1":19573,"vertex2":19553}},{"type":"Feature","geometry":{"type":"LineString","coordinates":[[3.785206,51.08078],[3.78492,51.08093]]},"properties":{"name":"Wildebrake","highway":"residential","vertex1":19572,"vertex2":19522}},{"type":"Feature","geometry":{"type":"LineString","coordinates":[[3.785206,51.08078],[3.785013,51.0807]]},"properties":{"name":"Wildebrake","highway":"residential","vertex1":19572,"vertex2":19538}},{"type":"Feature","geometry":{"type":"LineString","coordinates":[[3.787818,51.07982],[3.787972,51.07988]]},"properties":{"oneway":"yes","highway":"service","vertex1":19571,"vertex2":19528}},{"type":"Feature","geometry":{"type":"LineString","coordinates":[[3.787818,51.07982],[3.78763,51.07975]]},"properties":{"oneway":"yes","highway":"service","vertex1":19571,"vertex2":19569}},{"type":"Feature","geometry":{"type":"LineString","coordinates":[[3.787818,51.07982],[3.788166,51.07942]]},"properties":{"highway":"service","vertex1":19571,"vertex2":19544}},{"type":"Feature","geometry":{"type":"LineString","coordinates":[[3.788746,51.07765],[3.789468,51.07711]]},"properties":{"bicycle":"no","motorcar":"no","foot":"no","highway":"track","vertex1":19570,"vertex2":19562}},{"type":"Feature","geometry":{"type":"LineString","coordinates":[[3.78763,51.07975],[3.787208,51.0802],[3.787027,51.08012]]},"properties":{"oneway":"yes","highway":"service","vertex1":19569,"vertex2":19561}},{"type":"Feature","geometry":{"type":"LineString","coordinates":[[3.78763,51.07975],[3.787439,51.07967]]},"properties":{"oneway":"yes","highway":"service","vertex1":19569,"vertex2":19531}},{"type":"Feature","geometry":{"type":"LineString","coordinates":[[3.78763,51.07975],[3.78797,51.07936]]},"properties":{"highway":"service","vertex1":19569,"vertex2":19542}},{"type":"Feature","geometry":{"type":"LineString","coordinates":[[3.786193,51.07882],[3.786252,51.07861],[3.78631,51.07842],[3.786359,51.07833],[3.78649,51.07821],[3.786613,51.07806],[3.786761,51.07798],[3.786882,51.07798],[3.787002,51.07799],[3.787125,51.07803],[3.787804,51.07827],[3.788273,51.07843],[3.788607,51.07856],[3.788723,51.07864],[3.788988,51.07874],[3.789335,51.07889]]},"properties":{"highway":"service","vertex1":19568,"vertex2":19508}},{"type":"Feature","geometry":{"type":"LineString","coordinates":[[3.782749,51.07818],[3.783553,51.07874]]},"properties":{"name":"Antwerpsesteenweg","oneway":"yes","highway":"primary","cycleway":"lane","vertex1":19567,"vertex2":19550}},{"type":"Feature","geometry":{"type":"LineString","coordinates":[[3.782749,51.07818],[3.782678,51.07813],[3.781976,51.07755]]},"properties":{"name":"Antwerpsesteenweg","oneway":"yes","highway":"primary","cycleway":"lane","vertex1":19567,"vertex2":19556}},{"type":"Feature","geometry":{"type":"LineString","coordinates":[[3.788324,51.08001],[3.787651,51.08052],[3.78751,51.08064]]},"properties":{"name":"Herman Teirlinckstraat","highway":"residential","vertex1":19566,"vertex2":19564}},{"type":"Feature","geometry":{"type":"LineString","coordinates":[[3.788324,51.08001],[3.788979,51.07948]]},"properties":{"name":"Herman Teirlinckstraat","highway":"residential","vertex1":19566,"vertex2":19536}},{"type":"Feature","geometry":{"type":"LineString","coordinates":[[3.788324,51.08001],[3.787972,51.07988]]},"properties":{"oneway":"yes","highway":"service","vertex1":19566,"vertex2":19528}},{"type":"Feature","geometry":{"type":"LineString","coordinates":[[3.784325,51.07609],[3.784066,51.07636],[3.783904,51.07649],[3.783631,51.07664],[3.783363,51.07679]]},"properties":{"name":"Achtenkouterstraat","highway":"residential","vertex1":19565,"vertex2":19563}},{"type":"Feature","geometry":{"type":"LineString","coordinates":[[3.784325,51.07609],[3.783346,51.07553]]},"properties":{"name":"Zenobé Grammestraat","highway":"residential","vertex1":19565,"vertex2":19552}},{"type":"Feature","geometry":{"type":"LineString","coordinates":[[3.784325,51.07609],[3.784976,51.07559],[3.785419,51.07537]]},"properties":{"name":"Achtenkouterstraat","highway":"residential","vertex1":19565,"vertex2":19504}},{"type":"Feature","geometry":{"type":"LineString","coordinates":[[3.78751,51.08064],[3.787432,51.0807]]},"properties":{"name":"Herman Teirlinckstraat","highway":"residential","vertex1":19564,"vertex2":19534}},{"type":"Feature","geometry":{"type":"LineString","coordinates":[[3.78751,51.08064],[3.786712,51.08027],[3.785194,51.0796]]},"properties":{"name":"Antwerpsesteenweg","oneway":"yes","highway":"primary","cycleway":"lane","vertex1":19564,"vertex2":19530}},{"type":"Feature","geometry":{"type":"LineString","coordinates":[[3.783363,51.07679],[3.783432,51.07691]]},"properties":{"name":"achterkouterstraat","highway":"residential","vertex1":19563,"vertex2":19555}},{"type":"Feature","geometry":{"type":"LineString","coordinates":[[3.789468,51.07711],[3.787878,51.07614]]},"properties":{"name":"Pijkestraat","highway":"residential","vertex1":19562,"vertex2":19545}},{"type":"Feature","geometry":{"type":"LineString","coordinates":[[3.787027,51.08012],[3.786848,51.08003]]},"properties":{"oneway":"yes","highway":"service","vertex1":19561,"vertex2":19559}},{"type":"Feature","geometry":{"type":"LineString","coordinates":[[3.787027,51.08012],[3.787439,51.07967]]},"properties":{"oneway":"yes","highway":"service","vertex1":19561,"vertex2":19531}},{"type":"Feature","geometry":{"type":"LineString","coordinates":[[3.781644,51.07737],[3.781752,51.07735]]},"properties":{"name":"Achtenkouterstraat","highway":"residential","vertex1":19560,"vertex2":19532}},{"type":"Feature","geometry":{"type":"LineString","coordinates":[[3.781644,51.07737],[3.781561,51.07738],[3.781512,51.0774],[3.78133,51.07744],[3.77904,51.07793]]},"properties":{"name":"Hollenaarstraat","highway":"residential","vertex1":19560,"vertex2":18417}},{"type":"Feature","geometry":{"type":"LineString","coordinates":[[3.781644,51.07737],[3.781749,51.07746],[3.78242,51.07804],[3.782869,51.07837]]},"properties":{"name":"Antwerpsesteenweg","oneway":"yes","highway":"primary","maxspeed":"70","cycleway":"lane","vertex1":19560,"vertex2":19529}},{"type":"Feature","geometry":{"type":"LineString","coordinates":[[3.781644,51.07737],[3.781531,51.07727],[3.781036,51.07682]]},"properties":{"name":"Antwerpsesteenweg","oneway":"yes","highway":"primary","maxspeed":"70","cycleway":"lane","vertex1":19560,"vertex2":19551}},{"type":"Feature","geometry":{"type":"LineString","coordinates":[[3.786848,51.08003],[3.786654,51.07994]]},"properties":{"oneway":"yes","highway":"service","vertex1":19559,"vertex2":19514}},{"type":"Feature","geometry":{"type":"LineString","coordinates":[[3.786848,51.08003],[3.787236,51.0796]]},"properties":{"oneway":"yes","highway":"service","vertex1":19559,"vertex2":19548}},{"type":"Feature","geometry":{"type":"LineString","coordinates":[[3.781858,51.07731],[3.781796,51.07733],[3.781752,51.07735]]},"properties":{"name":"Achtenkouterstraat","highway":"residential","vertex1":19558,"vertex2":19532}},{"type":"Feature","geometry":{"type":"LineString","coordinates":[[3.781858,51.07731],[3.781742,51.07717],[3.781606,51.07701]]},"properties":{"name":"Antwerpsesteenweg","oneway":"yes","highway":"residential","vertex1":19558,"vertex2":19512}},{"type":"Feature","geometry":{"type":"LineString","coordinates":[[3.787584,51.07599],[3.785672,51.07525]]},"properties":{"name":"Hyacinth Lippensstraat","highway":"residential","vertex1":19557,"vertex2":19490}},{"type":"Feature","geometry":{"type":"LineString","coordinates":[[3.787584,51.07599],[3.787484,51.07609],[3.787356,51.07618]]},"properties":{"name":"Pijkestraat","highway":"residential","vertex1":19557,"vertex2":19543}},{"type":"Feature","geometry":{"type":"LineString","coordinates":[[3.787584,51.07599],[3.787878,51.07614]]},"properties":{"name":"Pijkestraat","highway":"residential","vertex1":19557,"vertex2":19545}},{"type":"Feature","geometry":{"type":"LineString","coordinates":[[3.781976,51.07755],[3.78184,51.07743],[3.781752,51.07735]]},"properties":{"name":"Antwerpsesteenweg","oneway":"yes","highway":"primary","cycleway":"lane","vertex1":19556,"vertex2":19532}},{"type":"Feature","geometry":{"type":"LineString","coordinates":[[3.783432,51.07691],[3.784197,51.07691],[3.785728,51.07664],[3.786266,51.07653],[3.787356,51.07618]]},"properties":{"name":"Pijkestraat","highway":"residential","vertex1":19555,"vertex2":19543}},{"type":"Feature","geometry":{"type":"LineString","coordinates":[[3.789944,51.0787],[3.789903,51.07874],[3.789596,51.079]]},"properties":{"name":"Herman Teirlinckstraat","highway":"residential","vertex1":19554,"vertex2":19518}},{"type":"Feature","geometry":{"type":"LineString","coordinates":[[3.783878,51.07902],[3.783952,51.07897]]},"properties":{"name":"Kouterbosstraat","highway":"residential","vertex1":19553,"vertex2":19533}},{"type":"Feature","geometry":{"type":"LineString","coordinates":[[3.783878,51.07902],[3.78357,51.07884],[3.782869,51.07837]]},"properties":{"name":"Antwerpsesteenweg","oneway":"yes","highway":"primary","maxspeed":"70","cycleway":"lane","vertex1":19553,"vertex2":19529}},{"type":"Feature","geometry":{"type":"LineString","coordinates":[[3.783346,51.07553],[3.782376,51.07497]]},"properties":{"name":"Zenobé Grammestraat","highway":"residential","vertex1":19552,"vertex2":19506}},{"type":"Feature","geometry":{"type":"LineString","coordinates":[[3.783346,51.07553],[3.783571,51.07536],[3.784495,51.07506],[3.784541,51.07504],[3.784582,51.07504],[3.784627,51.07505]]},"properties":{"name":"Schoolwegel","highway":"track","vertex1":19552,"vertex2":19500}},{"type":"Feature","geometry":{"type":"LineString","coordinates":[[3.781036,51.07682],[3.780295,51.07615]]},"properties":{"name":"Antwerpsesteenweg","oneway":"yes","highway":"primary","maxspeed":"70","cycleway":"lane","vertex1":19551,"vertex2":19539}},{"type":"Feature","geometry":{"type":"LineString","coordinates":[[3.783553,51.07874],[3.783952,51.07897]]},"properties":{"name":"Antwerpsesteenweg","oneway":"yes","highway":"primary","cycleway":"lane","vertex1":19550,"vertex2":19533}},{"type":"Feature","geometry":{"type":"LineString","coordinates":[[3.787236,51.0796],[3.787439,51.07967]]},"properties":{"oneway":"yes","highway":"service","vertex1":19548,"vertex2":19531}},{"type":"Feature","geometry":{"type":"LineString","coordinates":[[3.787236,51.0796],[3.787036,51.07952]]},"properties":{"oneway":"yes","highway":"service","vertex1":19548,"vertex2":19526}},{"type":"Feature","geometry":{"type":"LineString","coordinates":[[3.787236,51.0796],[3.787569,51.07921]]},"properties":{"oneway":"yes","highway":"service","vertex1":19548,"vertex2":19524}},{"type":"Feature","geometry":{"type":"LineString","coordinates":[[3.786294,51.07887],[3.786208,51.07897],[3.785888,51.07933]]},"properties":{"highway":"service","vertex1":19547,"vertex2":19521}},{"type":"Feature","geometry":{"type":"LineString","coordinates":[[3.78683,51.07945],[3.787036,51.07952]]},"properties":{"oneway":"yes","highway":"service","vertex1":19546,"vertex2":19526}},{"type":"Feature","geometry":{"type":"LineString","coordinates":[[3.78683,51.07945],[3.7867,51.07961]]},"properties":{"oneway":"yes","highway":"service","vertex1":19546,"vertex2":19535}},{"type":"Feature","geometry":{"type":"LineString","coordinates":[[3.787878,51.07614],[3.787605,51.07614],[3.787356,51.07618]]},"properties":{"name":"Pijkestraat","highway":"residential","vertex1":19545,"vertex2":19543}},{"type":"Feature","geometry":{"type":"LineString","coordinates":[[3.788166,51.07942],[3.78797,51.07936]]},"properties":{"oneway":"yes","highway":"service","vertex1":19544,"vertex2":19542}},{"type":"Feature","geometry":{"type":"LineString","coordinates":[[3.78797,51.07936],[3.78778,51.07928]]},"properties":{"oneway":"yes","highway":"service","vertex1":19542,"vertex2":19510}},{"type":"Feature","geometry":{"type":"LineString","coordinates":[[3.780048,51.07624],[3.780295,51.07615]]},"properties":{"highway":"service","vertex1":19541,"vertex2":19539}},{"type":"Feature","geometry":{"type":"LineString","coordinates":[[3.780295,51.07615],[3.780377,51.07611]]},"properties":{"highway":"service","vertex1":19539,"vertex2":19537}},{"type":"Feature","geometry":{"type":"LineString","coordinates":[[3.780295,51.07615],[3.779273,51.07524]]},"properties":{"name":"Antwerpsesteenweg","oneway":"yes","highway":"primary","maxspeed":"70","cycleway":"lane","vertex1":19539,"vertex2":19208}},{"type":"Feature","geometry":{"type":"LineString","coordinates":[[3.785013,51.0807],[3.78492,51.08093]]},"properties":{"name":"Wildebrake","highway":"residential","vertex1":19538,"vertex2":19522}},{"type":"Feature","geometry":{"type":"LineString","coordinates":[[3.780377,51.07611],[3.779197,51.07505],[3.779097,51.07496]]},"properties":{"name":"Antwerpsesteenweg","oneway":"yes","highway":"primary","cycleway":"lane","vertex1":19537,"vertex2":19229}},{"type":"Feature","geometry":{"type":"LineString","coordinates":[[3.780377,51.07611],[3.781616,51.07722],[3.781752,51.07735]]},"properties":{"name":"Antwerpsesteenweg","oneway":"yes","highway":"primary","cycleway":"lane","vertex1":19537,"vertex2":19532}},{"type":"Feature","geometry":{"type":"LineString","coordinates":[[3.779097,51.07496],[3.779412,51.07482]]},"properties":{"highway":"footway","vertex1":19229,"vertex2":19491}},{"type":"Feature","geometry":{"type":"LineString","coordinates":[[3.779097,51.07496],[3.778982,51.07486]]},"properties":{"name":"Antwerpsesteenweg","oneway":"yes","highway":"primary","cycleway":"lane","vertex1":19229,"vertex2":19218}},{"type":"Feature","geometry":{"type":"LineString","coordinates":[[3.788979,51.07948],[3.789538,51.07904],[3.789596,51.079]]},"properties":{"name":"Herman Teirlinckstraat","highway":"residential","vertex1":19536,"vertex2":19518}},{"type":"Feature","geometry":{"type":"LineString","coordinates":[[3.7867,51.07961],[3.78649,51.07953]]},"properties":{"oneway":"yes","highway":"service","vertex1":19535,"vertex2":19527}},{"type":"Feature","geometry":{"type":"LineString","coordinates":[[3.7867,51.07961],[3.78647,51.07986]]},"properties":{"oneway":"yes","highway":"service","vertex1":19535,"vertex2":19511}},{"type":"Feature","geometry":{"type":"LineString","coordinates":[[3.787432,51.0807],[3.785271,51.07971]]},"properties":{"name":"Antwerpsesteenweg","oneway":"yes","highway":"primary","maxspeed":"70","cycleway":"lane","vertex1":19534,"vertex2":19516}},{"type":"Feature","geometry":{"type":"LineString","coordinates":[[3.783952,51.07897],[3.784108,51.07906],[3.784758,51.0794]]},"properties":{"name":"Antwerpsesteenweg","oneway":"yes","highway":"primary","cycleway":"lane","vertex1":19533,"vertex2":19509}},{"type":"Feature","geometry":{"type":"LineString","coordinates":[[3.787439,51.07967],[3.78778,51.07928]]},"properties":{"highway":"service","vertex1":19531,"vertex2":19510}},{"type":"Feature","geometry":{"type":"LineString","coordinates":[[3.785194,51.0796],[3.784758,51.0794]]},"properties":{"name":"Antwerpsesteenweg","oneway":"yes","highway":"primary","cycleway":"lane","vertex1":19530,"vertex2":19509}},{"type":"Feature","geometry":{"type":"LineString","coordinates":[[3.78649,51.07953],[3.786286,51.07946]]},"properties":{"oneway":"yes","highway":"service","vertex1":19527,"vertex2":19525}},{"type":"Feature","geometry":{"type":"LineString","coordinates":[[3.78649,51.07953],[3.786283,51.07978]]},"properties":{"oneway":"yes","highway":"service","vertex1":19527,"vertex2":19515}},{"type":"Feature","geometry":{"type":"LineString","coordinates":[[3.787036,51.07952],[3.786654,51.07994]]},"properties":{"oneway":"yes","highway":"service","vertex1":19526,"vertex2":19514}},{"type":"Feature","geometry":{"type":"LineString","coordinates":[[3.786286,51.07946],[3.786084,51.0794]]},"properties":{"oneway":"yes","highway":"service","vertex1":19525,"vertex2":19523}},{"type":"Feature","geometry":{"type":"LineString","coordinates":[[3.786286,51.07946],[3.786099,51.07969]]},"properties":{"oneway":"yes","highway":"service","vertex1":19525,"vertex2":19517}},{"type":"Feature","geometry":{"type":"LineString","coordinates":[[3.787569,51.07921],[3.78778,51.07928]]},"properties":{"oneway":"yes","highway":"service","vertex1":19524,"vertex2":19510}},{"type":"Feature","geometry":{"type":"LineString","coordinates":[[3.786084,51.0794],[3.785888,51.07933]]},"properties":{"oneway":"yes","highway":"service","vertex1":19523,"vertex2":19521}},{"type":"Feature","geometry":{"type":"LineString","coordinates":[[3.786084,51.0794],[3.785913,51.07961]]},"properties":{"oneway":"yes","highway":"service","vertex1":19523,"vertex2":19519}},{"type":"Feature","geometry":{"type":"LineString","coordinates":[[3.785888,51.07933],[3.785726,51.07952],[3.785913,51.07961]]},"properties":{"oneway":"yes","highway":"service","vertex1":19521,"vertex2":19519}},{"type":"Feature","geometry":{"type":"LineString","coordinates":[[3.780486,51.07584],[3.779412,51.07482]]},"properties":{"name":"Antwerpsesteenweg","highway":"residential","vertex1":19520,"vertex2":19491}},{"type":"Feature","geometry":{"type":"LineString","coordinates":[[3.780486,51.07584],[3.781327,51.07666],[3.781482,51.07683],[3.781606,51.07701]]},"properties":{"name":"Antwerpsesteenweg","highway":"residential","vertex1":19520,"vertex2":19512}},{"type":"Feature","geometry":{"type":"LineString","coordinates":[[3.780486,51.07584],[3.780838,51.07569],[3.782376,51.07497]]},"properties":{"name":"Doornbilkstraat","highway":"residential","vertex1":19520,"vertex2":19506}},{"type":"Feature","geometry":{"type":"LineString","coordinates":[[3.785913,51.07961],[3.786099,51.07969]]},"properties":{"oneway":"yes","highway":"service","vertex1":19519,"vertex2":19517}},{"type":"Feature","geometry":{"type":"LineString","coordinates":[[3.789596,51.079],[3.789335,51.07889]]},"properties":{"highway":"service","vertex1":19518,"vertex2":19508}},{"type":"Feature","geometry":{"type":"LineString","coordinates":[[3.786099,51.07969],[3.786283,51.07978]]},"properties":{"oneway":"yes","highway":"service","vertex1":19517,"vertex2":19515}},{"type":"Feature","geometry":{"type":"LineString","coordinates":[[3.786283,51.07978],[3.78647,51.07986]]},"properties":{"oneway":"yes","highway":"service","vertex1":19515,"vertex2":19511}},{"type":"Feature","geometry":{"type":"LineString","coordinates":[[3.786654,51.07994],[3.78647,51.07986]]},"properties":{"oneway":"yes","highway":"service","vertex1":19514,"vertex2":19511}},{"type":"Feature","geometry":{"type":"LineString","coordinates":[[3.780818,51.07502],[3.780656,51.07492],[3.781407,51.0744]]},"properties":{"bicycle":"no","motorcar":"no","foot":"no","highway":"service","vertex1":19507,"vertex2":19505}},{"type":"Feature","geometry":{"type":"LineString","coordinates":[[3.782376,51.07497],[3.781407,51.0744]]},"properties":{"name":"Zenobé Grammestraat","highway":"residential","vertex1":19506,"vertex2":19505}},{"type":"Feature","geometry":{"type":"LineString","coordinates":[[3.781407,51.0744],[3.780651,51.07396]]},"properties":{"name":"Zenobé Grammestraat","highway":"residential","vertex1":19505,"vertex2":19503}},{"type":"Feature","geometry":{"type":"LineString","coordinates":[[3.785419,51.07537],[3.784627,51.07505]]},"properties":{"name":"Schoolwegel","highway":"track","vertex1":19504,"vertex2":19500}},{"type":"Feature","geometry":{"type":"LineString","coordinates":[[3.785419,51.07537],[3.785672,51.07525]]},"properties":{"name":"Achtenkouterstraat","highway":"residential","vertex1":19504,"vertex2":19490}},{"type":"Feature","geometry":{"type":"LineString","coordinates":[[3.780651,51.07396],[3.779978,51.07434]]},"properties":{"name":"Beelbroekstraat","maxspeed":"50","highway":"tertiary","vertex1":19503,"vertex2":19501}},{"type":"Feature","geometry":{"type":"LineString","coordinates":[[3.780651,51.07396],[3.780784,51.07388]]},"properties":{"name":"Beelbroekstraat","maxspeed":"50","highway":"tertiary","vertex1":19503,"vertex2":19496}},{"type":"Feature","geometry":{"type":"LineString","coordinates":[[3.780074,51.07155],[3.779945,51.07154],[3.779863,51.07149],[3.779908,51.07128]]},"properties":{"name":"Frederik Vanmellestraat","highway":"residential","maxspeed":"30","vertex1":19502,"vertex2":19480}},{"type":"Feature","geometry":{"type":"LineString","coordinates":[[3.780074,51.07155],[3.780841,51.07162],[3.781496,51.07167],[3.781582,51.07141],[3.781611,51.07134]]},"properties":{"name":"Frederik Vanmellestraat","highway":"residential","maxspeed":"30","vertex1":19502,"vertex2":19488}},{"type":"Feature","geometry":{"type":"LineString","coordinates":[[3.780074,51.07155],[3.780092,51.07158],[3.78003,51.07183],[3.779579,51.07235]]},"properties":{"motorcar":"no","highway":"track","vertex1":19502,"vertex2":19481}},{"type":"Feature","geometry":{"type":"LineString","coordinates":[[3.780074,51.07155],[3.78015,51.0712],[3.780185,51.07119],[3.780703,51.07123],[3.780759,51.07123],[3.780813,51.07122],[3.781247,51.07102]]},"properties":{"motorcar":"no","highway":"track","vertex1":19502,"vertex2":19477}},{"type":"Feature","geometry":{"type":"LineString","coordinates":[[3.779978,51.07434],[3.779412,51.07466],[3.779306,51.07472]]},"properties":{"name":"Beelbroekstraat","maxspeed":"50","highway":"tertiary","vertex1":19501,"vertex2":19479}},{"type":"Feature","geometry":{"type":"LineString","coordinates":[[3.779978,51.07434],[3.779159,51.07395],[3.778704,51.07431]]},"properties":{"oneway":"yes","highway":"service","vertex1":19501,"vertex2":19248}},{"type":"Feature","geometry":{"type":"LineString","coordinates":[[3.784627,51.07505],[3.78552,51.07449],[3.785661,51.07436],[3.785734,51.07421],[3.785875,51.07385],[3.785954,51.07371],[3.786071,51.07356],[3.786306,51.07326],[3.78652,51.07271],[3.787128,51.07161],[3.787212,51.07129],[3.787143,51.07121],[3.786647,51.07114],[3.786516,51.07108],[3.786424,51.07016]]},"properties":{"name":"Lijntjespoelpad","highway":"track","vertex1":19500,"vertex2":19482}},{"type":"Feature","geometry":{"type":"LineString","coordinates":[[3.781768,51.07022],[3.781017,51.07014]]},"properties":{"name":"Geo Langiestraat","highway":"residential","maxspeed":"30","vertex1":19499,"vertex2":19486}},{"type":"Feature","geometry":{"type":"LineString","coordinates":[[3.781768,51.07022],[3.781886,51.07024],[3.782152,51.07036]]},"properties":{"name":"Geo Langiestraat","highway":"residential","maxspeed":"30","vertex1":19499,"vertex2":19498}},{"type":"Feature","geometry":{"type":"LineString","coordinates":[[3.781768,51.07022],[3.781632,51.0708],[3.781591,51.07084],[3.781547,51.07088],[3.781247,51.07102]]},"properties":{"motorcar":"no","highway":"track","vertex1":19499,"vertex2":19477}},{"type":"Feature","geometry":{"type":"LineString","coordinates":[[3.781768,51.07022],[3.781905,51.0696],[3.781838,51.06948],[3.781681,51.06919],[3.781679,51.06907],[3.781723,51.069],[3.781804,51.06894],[3.781886,51.06889],[3.782661,51.06878],[3.783255,51.06869],[3.783878,51.06861],[3.785102,51.0685],[3.785399,51.06851],[3.785666,51.06849],[3.785747,51.06847]]},"properties":{"motorcar":"no","highway":"track","vertex1":19499,"vertex2":19358}},{"type":"Feature","geometry":{"type":"LineString","coordinates":[[3.785747,51.06847],[3.785828,51.06849],[3.785916,51.0685],[3.787082,51.06846],[3.788504,51.06845],[3.788623,51.06847],[3.788651,51.06849]]},"properties":{"name":"Ketshage","highway":"residential","maxspeed":"30","vertex1":19358,"vertex2":19375}},{"type":"Feature","geometry":{"type":"LineString","coordinates":[[3.782152,51.07036],[3.782268,51.07026],[3.783007,51.06963],[3.783035,51.0695],[3.782966,51.0693]]},"properties":{"name":"Maurice Sysstraat","highway":"residential","maxspeed":"30","vertex1":19498,"vertex2":19353}},{"type":"Feature","geometry":{"type":"LineString","coordinates":[[3.782152,51.07036],[3.782972,51.07076]]},"properties":{"name":"Geo Langiestraat","highway":"residential","maxspeed":"30","vertex1":19498,"vertex2":19478}},{"type":"Feature","geometry":{"type":"LineString","coordinates":[[3.78523,51.07102],[3.78522,51.07058],[3.785222,51.07016]]},"properties":{"bicycle":"no","motorcar":"no","foot":"no","highway":"track","vertex1":19497,"vertex2":19492}},{"type":"Feature","geometry":{"type":"LineString","coordinates":[[3.78523,51.07102],[3.785259,51.07104]]},"properties":{"bicycle":"no","motorcar":"no","foot":"no","highway":"track","vertex1":19497,"vertex2":19495}},{"type":"Feature","geometry":{"type":"LineString","coordinates":[[3.78523,51.07102],[3.785148,51.07104]]},"properties":{"bicycle":"no","motorcar":"no","foot":"no","highway":"track","vertex1":19497,"vertex2":19493}},{"type":"Feature","geometry":{"type":"LineString","coordinates":[[3.780784,51.07388],[3.781056,51.07363],[3.781557,51.07314]]},"properties":{"name":"Beelbroekstraat","maxspeed":"50","highway":"tertiary","vertex1":19496,"vertex2":19484}},{"type":"Feature","geometry":{"type":"LineString","coordinates":[[3.780784,51.07388],[3.778648,51.07317]]},"properties":{"name":"Schuurstraat","highway":"residential","maxspeed":"30","vertex1":19496,"vertex2":19168}},{"type":"Feature","geometry":{"type":"LineString","coordinates":[[3.778648,51.07317],[3.779093,51.07259],[3.779268,51.07233]]},"properties":{"name":"Charles Doudeletstraat","highway":"residential","maxspeed":"30","vertex1":19168,"vertex2":19170}},{"type":"Feature","geometry":{"type":"LineString","coordinates":[[3.785259,51.07104],[3.785352,51.07108],[3.785403,51.07115],[3.785408,51.07121],[3.785386,51.07125],[3.785327,51.07125],[3.78523,51.07123],[3.785103,51.07122],[3.784983,51.07113],[3.784975,51.07109],[3.785067,51.07106],[3.785148,51.07104]]},"properties":{"bicycle":"no","motorcar":"no","foot":"no","highway":"track","vertex1":19495,"vertex2":19493}},{"type":"Feature","geometry":{"type":"LineString","coordinates":[[3.782711,51.07143],[3.782848,51.07093],[3.782972,51.07076]]},"properties":{"name":"Beelbroekstraat","maxspeed":"50","highway":"tertiary","vertex1":19494,"vertex2":19478}},{"type":"Feature","geometry":{"type":"LineString","coordinates":[[3.782711,51.07143],[3.782573,51.072],[3.782534,51.07209],[3.782494,51.07216],[3.782439,51.07223],[3.781557,51.07314]]},"properties":{"name":"Beelbroekstraat","maxspeed":"50","highway":"tertiary","vertex1":19494,"vertex2":19484}},{"type":"Feature","geometry":{"type":"LineString","coordinates":[[3.782711,51.07143],[3.781758,51.07134],[3.781611,51.07134]]},"properties":{"name":"Camille D'havestraat","highway":"residential","maxspeed":"30","vertex1":19494,"vertex2":19488}},{"type":"Feature","geometry":{"type":"LineString","coordinates":[[3.785222,51.07016],[3.785856,51.07016],[3.786424,51.07016]]},"properties":{"name":"Beelbroekstraat","maxspeed":"50","highway":"tertiary","vertex1":19492,"vertex2":19482}},{"type":"Feature","geometry":{"type":"LineString","coordinates":[[3.785222,51.07016],[3.784526,51.07015],[3.784192,51.07019],[3.783833,51.07026],[3.7836,51.07033],[3.783427,51.0704],[3.783336,51.07048],[3.782972,51.07076]]},"properties":{"name":"Beelbroekstraat","maxspeed":"50","highway":"tertiary","vertex1":19492,"vertex2":19478}},{"type":"Feature","geometry":{"type":"LineString","coordinates":[[3.779412,51.07482],[3.779306,51.07472]]},"properties":{"name":"Antwerpsesteenweg","highway":"residential","vertex1":19491,"vertex2":19479}},{"type":"Feature","geometry":{"type":"LineString","coordinates":[[3.785672,51.07525],[3.786351,51.07489],[3.786906,51.07463],[3.787896,51.07423],[3.788718,51.07394],[3.78963,51.0736],[3.789765,51.07356],[3.791838,51.0729],[3.792142,51.07285],[3.792382,51.07284],[3.792714,51.07285],[3.792944,51.07282],[3.793362,51.07271]]},"properties":{"name":"Achtenkouterstraat","highway":"residential","vertex1":19490,"vertex2":19429}},{"type":"Feature","geometry":{"type":"LineString","coordinates":[[3.779425,51.07227],[3.779268,51.07233]]},"properties":{"name":"Charles Doudeletstraat","highway":"residential","maxspeed":"30","vertex1":19489,"vertex2":19170}},{"type":"Feature","geometry":{"type":"LineString","coordinates":[[3.779425,51.07227],[3.779195,51.07209],[3.779082,51.07214]]},"properties":{"name":"Charles Doudeletstraat","highway":"residential","maxspeed":"30","vertex1":19489,"vertex2":19260}},{"type":"Feature","geometry":{"type":"LineString","coordinates":[[3.779425,51.07227],[3.779579,51.07235]]},"properties":{"name":"Charles Doudeletstraat","highway":"residential","maxspeed":"30","vertex1":19489,"vertex2":19481}},{"type":"Feature","geometry":{"type":"LineString","coordinates":[[3.779268,51.07233],[3.779082,51.07214]]},"properties":{"name":"Charles Doudeletstraat","highway":"residential","maxspeed":"30","vertex1":19170,"vertex2":19260}},{"type":"Feature","geometry":{"type":"LineString","coordinates":[[3.781611,51.07134],[3.781247,51.07102]]},"properties":{"name":"Camille D'havestraat","highway":"residential","maxspeed":"30","vertex1":19488,"vertex2":19477}},{"type":"Feature","geometry":{"type":"LineString","coordinates":[[3.780275,51.07262],[3.780456,51.07272]]},"properties":{"name":"Charles Doudeletstraat","highway":"residential","maxspeed":"30","vertex1":19487,"vertex2":19485}},{"type":"Feature","geometry":{"type":"LineString","coordinates":[[3.780275,51.07262],[3.780061,51.07253]]},"properties":{"name":"Charles Doudeletstraat","highway":"residential","maxspeed":"30","vertex1":19487,"vertex2":19483}},{"type":"Feature","geometry":{"type":"LineString","coordinates":[[3.781017,51.07014],[3.780063,51.07005]]},"properties":{"name":"Geo Langiestraat","highway":"residential","maxspeed":"30","vertex1":19486,"vertex2":19476}},{"type":"Feature","geometry":{"type":"LineString","coordinates":[[3.781017,51.07014],[3.781074,51.06979],[3.781052,51.06974],[3.780954,51.06961]]},"properties":{"name":"Gabriël Celisstraat","highway":"residential","maxspeed":"30","vertex1":19486,"vertex2":19370}},{"type":"Feature","geometry":{"type":"LineString","coordinates":[[3.780456,51.07272],[3.780523,51.07257],[3.780414,51.07252],[3.780241,51.07251],[3.780061,51.07253]]},"properties":{"name":"Charles Doudeletstraat","highway":"residential","maxspeed":"30","vertex1":19485,"vertex2":19483}},{"type":"Feature","geometry":{"type":"LineString","coordinates":[[3.780456,51.07272],[3.781557,51.07314]]},"properties":{"highway":"path","vertex1":19485,"vertex2":19484}},{"type":"Feature","geometry":{"type":"LineString","coordinates":[[3.780061,51.07253],[3.779908,51.07249],[3.779579,51.07235]]},"properties":{"name":"Charles Doudeletstraat","highway":"residential","maxspeed":"30","vertex1":19483,"vertex2":19481}},{"type":"Feature","geometry":{"type":"LineString","coordinates":[[3.786424,51.07016],[3.786695,51.07011],[3.786917,51.07003],[3.787505,51.06971],[3.787746,51.06961],[3.788079,51.06955],[3.788334,51.06953],[3.788578,51.06953]]},"properties":{"name":"Beelbroekstraat","maxspeed":"50","highway":"tertiary","vertex1":19482,"vertex2":19360}},{"type":"Feature","geometry":{"type":"LineString","coordinates":[[3.779306,51.07472],[3.779033,51.07484],[3.778982,51.07486]]},"properties":{"name":"Beelbroekstraat","maxspeed":"50","highway":"tertiary","vertex1":19479,"vertex2":19218}},{"type":"Feature","geometry":{"type":"LineString","coordinates":[[3.779306,51.07472],[3.779176,51.07458],[3.779131,51.07456]]},"properties":{"name":"Atnwerpsesteenweg","oneway":"yes","highway":"residential","maxspeed":"30","vertex1":19479,"vertex2":19250}},{"type":"Feature","geometry":{"type":"LineString","coordinates":[[3.781247,51.07102],[3.781107,51.07091],[3.780831,51.07086],[3.780058,51.07078],[3.779822,51.07078],[3.779876,51.07061],[3.779935,51.0705],[3.780063,51.07005]]},"properties":{"name":"Camille D'havestraat","highway":"residential","maxspeed":"30","vertex1":19477,"vertex2":19476}},{"type":"Feature","geometry":{"type":"LineString","coordinates":[[3.780063,51.07005],[3.779823,51.06964],[3.779822,51.06955]]},"properties":{"name":"Geo Langiestraat","highway":"residential","maxspeed":"30","vertex1":19476,"vertex2":19354}},{"type":"Feature","geometry":{"type":"LineString","coordinates":[[3.79471,51.07018],[3.793904,51.06995]]},"properties":{"name":"Raaktstraat","highway":"living_street","maxspeed":"20","vertex1":19475,"vertex2":19462}},{"type":"Feature","geometry":{"type":"LineString","coordinates":[[3.79471,51.07018],[3.794794,51.0702]]},"properties":{"highway":"track","vertex1":19475,"vertex2":19444}},{"type":"Feature","geometry":{"type":"LineString","coordinates":[[3.79877,51.07444],[3.798668,51.07442]]},"properties":{"name":"Venusschoentjestraat","highway":"residential","vertex1":19474,"vertex2":19473}},{"type":"Feature","geometry":{"type":"LineString","coordinates":[[3.79877,51.07444],[3.798837,51.07447],[3.798878,51.07457],[3.798733,51.07459]]},"properties":{"name":"Venusschoentjestraat","highway":"residential","vertex1":19474,"vertex2":19446}},{"type":"Feature","geometry":{"type":"LineString","coordinates":[[3.798668,51.07442],[3.798733,51.07459]]},"properties":{"name":"Venusschoentjestraat","highway":"residential","vertex1":19473,"vertex2":19446}},{"type":"Feature","geometry":{"type":"LineString","coordinates":[[3.798668,51.07442],[3.798608,51.07427],[3.79858,51.07417],[3.79862,51.0741],[3.798688,51.07405],[3.798901,51.07396],[3.799594,51.07365]]},"properties":{"name":"Venusschoentjestraat","highway":"residential","vertex1":19473,"vertex2":19432}},{"type":"Feature","geometry":{"type":"LineString","coordinates":[[3.794841,51.07021],[3.794794,51.0702]]},"properties":{"bridge":"yes","highway":"track","vertex1":19472,"vertex2":19444}},{"type":"Feature","geometry":{"type":"LineString","coordinates":[[3.794841,51.07021],[3.794914,51.07023]]},"properties":{"highway":"path","vertex1":19472,"vertex2":19442}},{"type":"Feature","geometry":{"type":"LineString","coordinates":[[3.800095,51.07404],[3.800203,51.07402],[3.800602,51.07386],[3.800702,51.07386],[3.800793,51.07388],[3.801268,51.074],[3.802022,51.07419],[3.802562,51.07433]]},"properties":{"name":"Koraalwortelstraat","highway":"residential","vertex1":19471,"vertex2":19756}},{"type":"Feature","geometry":{"type":"LineString","coordinates":[[3.800095,51.07404],[3.800042,51.07402]]},"properties":{"name":"Harlekijnstraat","highway":"residential","vertex1":19471,"vertex2":19464}},{"type":"Feature","geometry":{"type":"LineString","coordinates":[[3.797966,51.07077],[3.799168,51.07007]]},"properties":{"name":"Beelbroekstraat","maxspeed":"50","highway":"residential","vertex1":19470,"vertex2":19431}},{"type":"Feature","geometry":{"type":"LineString","coordinates":[[3.797966,51.07077],[3.797449,51.07107]]},"properties":{"name":"Beelbroekstraat","maxspeed":"50","highway":"residential","vertex1":19470,"vertex2":19420}},{"type":"Feature","geometry":{"type":"LineString","coordinates":[[3.797966,51.07077],[3.799612,51.07129],[3.80044,51.07156]]},"properties":{"name":"Dreef","highway":"unclassified","vertex1":19470,"vertex2":19437}},{"type":"Feature","geometry":{"type":"LineString","coordinates":[[3.799362,51.07341],[3.799874,51.07319],[3.799983,51.07311],[3.800036,51.07302],[3.800179,51.07276]]},"properties":{"name":"Hondskruidstraat","highway":"residential","vertex1":19469,"vertex2":19463}},{"type":"Feature","geometry":{"type":"LineString","coordinates":[[3.799362,51.07341],[3.799594,51.07365]]},"properties":{"name":"Harlekijnstraat","highway":"residential","vertex1":19469,"vertex2":19432}},{"type":"Feature","geometry":{"type":"LineString","coordinates":[[3.799362,51.07341],[3.799207,51.0733],[3.799059,51.07317],[3.798973,51.07312]]},"properties":{"name":"Harlekijnstraat","highway":"residential","vertex1":19469,"vertex2":19461}},{"type":"Feature","geometry":{"type":"LineString","coordinates":[[3.797016,51.07132],[3.797106,51.07127]]},"properties":{"name":"Beelbroekstraat","maxspeed":"50","highway":"residential","vertex1":19468,"vertex2":19430}},{"type":"Feature","geometry":{"type":"LineString","coordinates":[[3.797016,51.07132],[3.796159,51.07184]]},"properties":{"name":"Beelbroekstraat","maxspeed":"50","highway":"residential","vertex1":19468,"vertex2":19439}},{"type":"Feature","geometry":{"type":"LineString","coordinates":[[3.797016,51.07132],[3.796188,51.07076]]},"properties":{"name":"Winkelkouterpad","highway":"path","vertex1":19468,"vertex2":19450}},{"type":"Feature","geometry":{"type":"LineString","coordinates":[[3.800264,51.07262],[3.800146,51.07259],[3.800108,51.07267]]},"properties":{"name":"Hondskruidstraat","highway":"residential","vertex1":19467,"vertex2":19465}},{"type":"Feature","geometry":{"type":"LineString","coordinates":[[3.800264,51.07262],[3.800179,51.07276]]},"properties":{"name":"Hondskruidstraat","highway":"residential","vertex1":19467,"vertex2":19463}},{"type":"Feature","geometry":{"type":"LineString","coordinates":[[3.796496,51.07215],[3.796249,51.07206],[3.796137,51.07201],[3.796069,51.07196]]},"properties":{"name":"Orchideestraat","highway":"tertiary","vertex1":19466,"vertex2":19421}},{"type":"Feature","geometry":{"type":"LineString","coordinates":[[3.796496,51.07215],[3.796407,51.07205]]},"properties":{"name":"Orchideestraat","bicycle":"no","motorcar":"no","highway":"tertiary","vertex1":19466,"vertex2":19441}},{"type":"Feature","geometry":{"type":"LineString","coordinates":[[3.796496,51.07215],[3.796705,51.07259],[3.797062,51.07325]]},"properties":{"name":"Orchideestraat","highway":"tertiary","vertex1":19466,"vertex2":19440}},{"type":"Feature","geometry":{"type":"LineString","coordinates":[[3.800108,51.07267],[3.800179,51.07276]]},"properties":{"name":"Hondskruidstraat","highway":"residential","vertex1":19465,"vertex2":19463}},{"type":"Feature","geometry":{"type":"LineString","coordinates":[[3.800042,51.07402],[3.799996,51.074],[3.79972,51.07376],[3.799594,51.07365]]},"properties":{"name":"Harlekijnstraat","highway":"residential","vertex1":19464,"vertex2":19432}},{"type":"Feature","geometry":{"type":"LineString","coordinates":[[3.800042,51.07402],[3.800037,51.07411]]},"properties":{"highway":"residential","vertex1":19464,"vertex2":19423}},{"type":"Feature","geometry":{"type":"LineString","coordinates":[[3.793904,51.06995],[3.79425,51.06946]]},"properties":{"name":"Raaktstraat","highway":"living_street","maxspeed":"20","vertex1":19462,"vertex2":19396}},{"type":"Feature","geometry":{"type":"LineString","coordinates":[[3.793904,51.06995],[3.793493,51.07057]]},"properties":{"name":"Raaktstraat","highway":"living_street","maxspeed":"20","vertex1":19462,"vertex2":19454}},{"type":"Feature","geometry":{"type":"LineString","coordinates":[[3.793904,51.06995],[3.793552,51.06987],[3.793362,51.06984],[3.79319,51.06993],[3.793005,51.07011],[3.792867,51.07013],[3.792757,51.0702]]},"properties":{"motorcar":"no","highway":"track","vertex1":19462,"vertex2":19436}},{"type":"Feature","geometry":{"type":"LineString","coordinates":[[3.798973,51.07312],[3.798831,51.07236]]},"properties":{"name":"Standelkruidstraat","highway":"residential","vertex1":19461,"vertex2":19455}},{"type":"Feature","geometry":{"type":"LineString","coordinates":[[3.798973,51.07312],[3.798888,51.07311],[3.798146,51.07316],[3.797062,51.07325]]},"properties":{"name":"Harlekijnstraat","highway":"residential","vertex1":19461,"vertex2":19440}},{"type":"Feature","geometry":{"type":"LineString","coordinates":[[3.794937,51.07212],[3.795213,51.07216],[3.795494,51.07219],[3.795655,51.07218],[3.795802,51.07214],[3.795981,51.07202],[3.796069,51.07196]]},"properties":{"name":"Beelbroekstraat","maxspeed":"50","highway":"tertiary","vertex1":19460,"vertex2":19421}},{"type":"Feature","geometry":{"type":"LineString","coordinates":[[3.794937,51.07212],[3.794558,51.07201],[3.793973,51.07181]]},"properties":{"name":"Beelbroekstraat","maxspeed":"50","highway":"tertiary","vertex1":19460,"vertex2":19438}},{"type":"Feature","geometry":{"type":"LineString","coordinates":[[3.794937,51.07212],[3.794177,51.07241],[3.793362,51.07271]]},"properties":{"name":"Achtenkouterstraat","highway":"residential","vertex1":19460,"vertex2":19429}},{"type":"Feature","geometry":{"type":"LineString","coordinates":[[3.7988,51.0722],[3.798918,51.07219]]},"properties":{"name":"Standelkruidstraat","highway":"residential","vertex1":19459,"vertex2":19457}},{"type":"Feature","geometry":{"type":"LineString","coordinates":[[3.7988,51.0722],[3.798831,51.07236]]},"properties":{"name":"Standelkruidstraat","highway":"residential","vertex1":19459,"vertex2":19455}},{"type":"Feature","geometry":{"type":"LineString","coordinates":[[3.792095,51.07091],[3.792206,51.07097],[3.793754,51.07173],[3.793973,51.07181]]},"properties":{"name":"Beelbroekstraat","maxspeed":"50","highway":"tertiary","vertex1":19458,"vertex2":19438}},{"type":"Feature","geometry":{"type":"LineString","coordinates":[[3.792095,51.07091],[3.790929,51.07032]]},"properties":{"name":"Beelbroekstraat","maxspeed":"50","highway":"tertiary","vertex1":19458,"vertex2":19422}},{"type":"Feature","geometry":{"type":"LineString","coordinates":[[3.792095,51.07091],[3.792379,51.07055],[3.792454,51.07046],[3.792757,51.0702]]},"properties":{"bicycle":"no","highway":"path","vertex1":19458,"vertex2":19436}},{"type":"Feature","geometry":{"type":"LineString","coordinates":[[3.798918,51.07219],[3.79893,51.07229],[3.798831,51.07236]]},"properties":{"name":"Standelkruidstraat","highway":"residential","vertex1":19457,"vertex2":19455}},{"type":"Feature","geometry":{"type":"LineString","coordinates":[[3.798918,51.07219],[3.798954,51.07215],[3.798903,51.07192],[3.798455,51.07176],[3.797975,51.0716],[3.797922,51.07157],[3.797693,51.07148],[3.797513,51.07146],[3.797361,51.07141],[3.797219,51.07133],[3.797106,51.07127]]},"properties":{"highway":"path","vertex1":19457,"vertex2":19430}},{"type":"Feature","geometry":{"type":"LineString","coordinates":[[3.794557,51.07078],[3.794736,51.07044]]},"properties":{"bicycle":"no","motorcar":"no","highway":"track","vertex1":19456,"vertex2":19428}},{"type":"Feature","geometry":{"type":"LineString","coordinates":[[3.794557,51.07078],[3.794531,51.07084]]},"properties":{"bicycle":"no","motorcar":"no","highway":"track","vertex1":19456,"vertex2":19426}},{"type":"Feature","geometry":{"type":"LineString","coordinates":[[3.793493,51.07057],[3.793615,51.07061],[3.794531,51.07084]]},"properties":{"name":"Beelbroekhof","highway":"residential","maxspeed":"30","vertex1":19454,"vertex2":19426}},{"type":"Feature","geometry":{"type":"LineString","coordinates":[[3.793493,51.07057],[3.793397,51.07053],[3.792807,51.07024],[3.792757,51.0702]]},"properties":{"name":"Beelbroekhof","highway":"residential","maxspeed":"30","vertex1":19454,"vertex2":19436}},{"type":"Feature","geometry":{"type":"LineString","coordinates":[[3.797636,51.07521],[3.797107,51.07525],[3.796613,51.07529],[3.796366,51.07526],[3.796033,51.07512],[3.795487,51.07479]]},"properties":{"name":"Vanillestraat","highway":"residential","vertex1":19453,"vertex2":19451}},{"type":"Feature","geometry":{"type":"LineString","coordinates":[[3.797636,51.07521],[3.797154,51.07404],[3.797124,51.07392],[3.797062,51.07325]]},"properties":{"name":"Orchideestraat","highway":"tertiary","vertex1":19453,"vertex2":19440}},{"type":"Feature","geometry":{"type":"LineString","coordinates":[[3.797636,51.07521],[3.797678,51.0753],[3.79769,51.07542]]},"properties":{"name":"Orchideestraat","highway":"tertiary","vertex1":19453,"vertex2":19449}},{"type":"Feature","geometry":{"type":"LineString","coordinates":[[3.794583,51.07085],[3.795488,51.07107],[3.795594,51.07107],[3.795679,51.07104],[3.796147,51.07078]]},"properties":{"name":"Beelbroekhof","highway":"residential","maxspeed":"30","vertex1":19452,"vertex2":19434}},{"type":"Feature","geometry":{"type":"LineString","coordinates":[[3.794583,51.07085],[3.794531,51.07084]]},"properties":{"name":"Beelbroekhof","highway":"residential","maxspeed":"30","vertex1":19452,"vertex2":19426}},{"type":"Feature","geometry":{"type":"LineString","coordinates":[[3.794583,51.07085],[3.793973,51.07181]]},"properties":{"name":"Beelbroekpad","highway":"path","vertex1":19452,"vertex2":19438}},{"type":"Feature","geometry":{"type":"LineString","coordinates":[[3.796188,51.07076],[3.796614,51.07051]]},"properties":{"name":"Beelbroekhof","highway":"residential","maxspeed":"30","vertex1":19450,"vertex2":19448}},{"type":"Feature","geometry":{"type":"LineString","coordinates":[[3.796188,51.07076],[3.796147,51.07078]]},"properties":{"name":"Beelbroekhof","highway":"residential","maxspeed":"30","vertex1":19450,"vertex2":19434}},{"type":"Feature","geometry":{"type":"LineString","coordinates":[[3.79769,51.07542],[3.798051,51.07542],[3.798684,51.07558],[3.799488,51.07582],[3.799705,51.07583],[3.800072,51.07529]]},"properties":{"name":"Wespenorchisstraat","highway":"residential","vertex1":19449,"vertex2":19447}},{"type":"Feature","geometry":{"type":"LineString","coordinates":[[3.796614,51.07051],[3.796681,51.07046],[3.796808,51.07022],[3.796747,51.07015],[3.79512,51.06976]]},"properties":{"name":"Beelbroekhof","highway":"residential","maxspeed":"30","vertex1":19448,"vertex2":19408}},{"type":"Feature","geometry":{"type":"LineString","coordinates":[[3.796614,51.07051],[3.797449,51.07107]]},"properties":{"name":"Beelbroekhof","highway":"residential","maxspeed":"30","vertex1":19448,"vertex2":19420}},{"type":"Feature","geometry":{"type":"LineString","coordinates":[[3.800072,51.07529],[3.800149,51.07518],[3.800117,51.07499]]},"properties":{"name":"Wespenorchisstraat","highway":"residential","vertex1":19447,"vertex2":19435}},{"type":"Feature","geometry":{"type":"LineString","coordinates":[[3.800072,51.07529],[3.800226,51.07533],[3.800381,51.07536],[3.800498,51.07539],[3.800602,51.07544],[3.800757,51.07554],[3.800898,51.0756],[3.801014,51.07567],[3.801116,51.07573],[3.801303,51.07578],[3.801425,51.0758]]},"properties":{"highway":"path","vertex1":19447,"vertex2":19708}},{"type":"Feature","geometry":{"type":"LineString","coordinates":[[3.800032,51.07478],[3.80016,51.07476]]},"properties":{"name":"Wespenorchisstraat","highway":"residential","vertex1":19445,"vertex2":19443}},{"type":"Feature","geometry":{"type":"LineString","coordinates":[[3.800032,51.07478],[3.800031,51.07484],[3.800117,51.07499]]},"properties":{"name":"Wespenorchisstraat","highway":"residential","vertex1":19445,"vertex2":19435}},{"type":"Feature","geometry":{"type":"LineString","coordinates":[[3.80016,51.07476],[3.80019,51.07488],[3.800117,51.07499]]},"properties":{"name":"Wespenorchisstraat","highway":"residential","vertex1":19443,"vertex2":19435}},{"type":"Feature","geometry":{"type":"LineString","coordinates":[[3.80016,51.07476],[3.800168,51.07472],[3.800082,51.07449],[3.800056,51.07442]]},"properties":{"highway":"path","vertex1":19443,"vertex2":19425}},{"type":"Feature","geometry":{"type":"LineString","coordinates":[[3.794914,51.07023],[3.794925,51.07027],[3.794904,51.07032],[3.794875,51.07035],[3.794835,51.07037],[3.794779,51.07039],[3.794755,51.07042],[3.794736,51.07044]]},"properties":{"highway":"path","vertex1":19442,"vertex2":19428}},{"type":"Feature","geometry":{"type":"LineString","coordinates":[[3.794914,51.07023],[3.794964,51.07024],[3.7952,51.07032],[3.79543,51.07038],[3.795643,51.07045],[3.795823,51.07054],[3.795831,51.07056],[3.796147,51.07078]]},"properties":{"highway":"path","vertex1":19442,"vertex2":19434}},{"type":"Feature","geometry":{"type":"LineString","coordinates":[[3.796407,51.07205],[3.79626,51.0719],[3.796159,51.07184]]},"properties":{"name":"Orchideestraat","bicycle":"no","motorcar":"no","highway":"tertiary","vertex1":19441,"vertex2":19439}},{"type":"Feature","geometry":{"type":"LineString","coordinates":[[3.796159,51.07184],[3.796069,51.07196]]},"properties":{"name":"Beelbroekstraat","maxspeed":"50","highway":"tertiary","vertex1":19439,"vertex2":19421}},{"type":"Feature","geometry":{"type":"LineString","coordinates":[[3.80044,51.07156],[3.802027,51.07207]]},"properties":{"name":"Dreef","highway":"unclassified","vertex1":19437,"vertex2":19758}},{"type":"Feature","geometry":{"type":"LineString","coordinates":[[3.80044,51.07156],[3.800201,51.07188],[3.800905,51.07209],[3.801837,51.07241]]},"properties":{"name":"Te Winkel","highway":"residential","vertex1":19437,"vertex2":19749}},{"type":"Feature","geometry":{"type":"LineString","coordinates":[[3.802027,51.07207],[3.801837,51.07241]]},"properties":{"name":"Hof van Oombergen","highway":"residential","vertex1":19758,"vertex2":19749}},{"type":"Feature","geometry":{"type":"LineString","coordinates":[[3.792757,51.0702],[3.792735,51.07015],[3.792713,51.07006],[3.792654,51.07001],[3.792034,51.06972],[3.791886,51.06964]]},"properties":{"name":"Beelbroekhof","highway":"residential","maxspeed":"30","vertex1":19436,"vertex2":19380}},{"type":"Feature","geometry":{"type":"LineString","coordinates":[[3.799168,51.07007],[3.799229,51.0701],[3.79928,51.07012],[3.80263,51.07084],[3.805684,51.07153],[3.806147,51.07163],[3.806347,51.07169],[3.806474,51.07175],[3.806782,51.07192]]},"properties":{"name":"Veldekensstraat","maxspeed":"50","highway":"residential","vertex1":19431,"vertex2":19759}},{"type":"Feature","geometry":{"type":"LineString","coordinates":[[3.799168,51.07007],[3.799246,51.07003],[3.79929,51.07],[3.799378,51.06995],[3.799468,51.06988]]},"properties":{"name":"Beelbroekstraat","maxspeed":"50","highway":"residential","vertex1":19431,"vertex2":19398}},{"type":"Feature","geometry":{"type":"LineString","coordinates":[[3.797106,51.07127],[3.797449,51.07107]]},"properties":{"name":"Beelbroekstraat","maxspeed":"50","highway":"residential","vertex1":19430,"vertex2":19420}},{"type":"Feature","geometry":{"type":"LineString","coordinates":[[3.800036,51.07437],[3.800056,51.07442]]},"properties":{"bridge":"yes","highway":"path","vertex1":19427,"vertex2":19425}},{"type":"Feature","geometry":{"type":"LineString","coordinates":[[3.800036,51.07437],[3.799954,51.07416],[3.800037,51.07411]]},"properties":{"highway":"path","vertex1":19427,"vertex2":19423}},{"type":"Feature","geometry":{"type":"LineString","coordinates":[[3.800034,51.07418],[3.800037,51.07411]]},"properties":{"highway":"residential","vertex1":19424,"vertex2":19423}},{"type":"Feature","geometry":{"type":"LineString","coordinates":[[3.790929,51.07032],[3.790371,51.07011],[3.789126,51.06967],[3.788847,51.06958],[3.788578,51.06953]]},"properties":{"name":"Beelbroekstraat","maxspeed":"50","highway":"tertiary","vertex1":19422,"vertex2":19360}},{"type":"Feature","geometry":{"type":"LineString","coordinates":[[3.790929,51.07032],[3.79159,51.0695]]},"properties":{"name":"Luc Van Parysstraat","highway":"residential","maxspeed":"30","vertex1":19422,"vertex2":19418}},{"type":"Feature","geometry":{"type":"LineString","coordinates":[[3.79159,51.0695],[3.791886,51.06964]]},"properties":{"name":"Beelbroekhof","highway":"residential","maxspeed":"30","vertex1":19418,"vertex2":19380}},{"type":"Feature","geometry":{"type":"LineString","coordinates":[[3.79159,51.0695],[3.791432,51.06942],[3.790644,51.06905],[3.790555,51.06902],[3.790176,51.06899]]},"properties":{"name":"Beelbroekhof","highway":"residential","maxspeed":"30","vertex1":19418,"vertex2":19362}},{"type":"Feature","geometry":{"type":"LineString","coordinates":[[3.799774,51.06973],[3.80124,51.06881]]},"properties":{"name":"Stationsstraat","maxspeed":"50","highway":"residential","vertex1":19416,"vertex2":19376}},{"type":"Feature","geometry":{"type":"LineString","coordinates":[[3.799774,51.06973],[3.799468,51.06988]]},"properties":{"name":"Beelbroekstraat","maxspeed":"50","highway":"residential","vertex1":19416,"vertex2":19398}},{"type":"Feature","geometry":{"type":"LineString","coordinates":[[3.798598,51.06963],[3.79913,51.06974],[3.799359,51.06979],[3.799468,51.06988]]},"properties":{"name":"Alfons Braeckmanlaan","highway":"residential","maxspeed":"30","vertex1":19415,"vertex2":19398}},{"type":"Feature","geometry":{"type":"LineString","coordinates":[[3.798598,51.06963],[3.798031,51.06951],[3.796306,51.06913],[3.794289,51.0688],[3.792288,51.0685],[3.788052,51.06756],[3.78544,51.06699]]},"properties":{"name":"Alfons Braeckmanlaan","highway":"residential","maxspeed":"30","vertex1":19415,"vertex2":19352}},{"type":"Feature","geometry":{"type":"LineString","coordinates":[[3.798598,51.06963],[3.798105,51.06911],[3.798575,51.06791]]},"properties":{"highway":"track","vertex1":19415,"vertex2":19414}},{"type":"Feature","geometry":{"type":"LineString","coordinates":[[3.793598,51.06933],[3.792748,51.06913]]},"properties":{"name":"Leon Sarteelstraat","highway":"residential","maxspeed":"30","vertex1":19411,"vertex2":19395}},{"type":"Feature","geometry":{"type":"LineString","coordinates":[[3.793598,51.06933],[3.793706,51.0693],[3.79425,51.06946]]},"properties":{"motorcar":"no","highway":"track","vertex1":19411,"vertex2":19396}},{"type":"Feature","geometry":{"type":"LineString","coordinates":[[3.79512,51.06976],[3.795091,51.06973]]},"properties":{"motorcar":"no","highway":"track","vertex1":19408,"vertex2":19391}},{"type":"Feature","geometry":{"type":"LineString","coordinates":[[3.79506,51.06969],[3.794944,51.06959]]},"properties":{"motorcar":"no","highway":"track","vertex1":19402,"vertex2":19400}},{"type":"Feature","geometry":{"type":"LineString","coordinates":[[3.79506,51.06969],[3.795091,51.06973]]},"properties":{"bridge":"yes","motorcar":"no","highway":"track","vertex1":19402,"vertex2":19391}},{"type":"Feature","geometry":{"type":"LineString","coordinates":[[3.794944,51.06959],[3.794532,51.06948],[3.794287,51.0694]]},"properties":{"name":"Raaktstraat","highway":"living_street","maxspeed":"20","vertex1":19400,"vertex2":19386}},{"type":"Feature","geometry":{"type":"LineString","coordinates":[[3.79425,51.06946],[3.794287,51.0694]]},"properties":{"name":"Raaktstraat","highway":"living_street","maxspeed":"20","vertex1":19396,"vertex2":19386}},{"type":"Feature","geometry":{"type":"LineString","coordinates":[[3.792748,51.06913],[3.792642,51.0691],[3.792556,51.06911],[3.791886,51.06964]]},"properties":{"name":"Leon Sarteelstraat","highway":"residential","maxspeed":"30","vertex1":19395,"vertex2":19380}},{"type":"Feature","geometry":{"type":"LineString","coordinates":[[3.792748,51.06913],[3.792791,51.06902],[3.792764,51.06895],[3.79272,51.0689],[3.792548,51.06886],[3.792298,51.06882],[3.792222,51.06879],[3.792159,51.06878]]},"properties":{"highway":"path","vertex1":19395,"vertex2":19388}},{"type":"Feature","geometry":{"type":"LineString","coordinates":[[3.794287,51.0694],[3.794424,51.06919]]},"properties":{"name":"Raaktstraat","highway":"living_street","maxspeed":"20","vertex1":19386,"vertex2":19377}},{"type":"Feature","geometry":{"type":"LineString","coordinates":[[3.788578,51.06953],[3.788684,51.06855],[3.788651,51.06849]]},"properties":{"name":"Ketshage","highway":"residential","maxspeed":"30","vertex1":19360,"vertex2":19375}}]}