{"type":"FeatureCollection","features":[{"type":"Feature","geometry":{"type":"LineString","coordinates":[[3.779297,51.06902],[3.80127,51.06902],[3.80127,51.05521],[3.779297,51.05521],[3.779297,51.06902]]},"properties":{"id":"89792684","zoom":"14"}},{"type":"Feature","geometry":{"type":"LineString","coordinates":[[3.786627,51.06411],[3.786829,51.06414],[3.787591,51.06429],[3.787728,51.06435],[3.78782,51.06444]]},"properties":{"highway":"track","vertex1":5270,"vertex2":5258}},{"type":"Feature","geometry":{"type":"LineString","coordinates":[[3.781154,51.06309],[3.78053,51.06306],[3.779058,51.063],[3.77862,51.06301],[3.7781,51.06308],[3.777746,51.06316],[3.777619,51.06318]]},"properties":{"name":"Kwadenplasstraat","highway":"residential","vertex1":5269,"vertex2":5297}},{"type":"Feature","geometry":{"type":"LineString","coordinates":[[3.781154,51.06309],[3.782001,51.06316],[3.782773,51.06329],[3.7846,51.06361]]},"properties":{"name":"Kwadenplasstraat","highway":"residential","vertex1":5269,"vertex2":5260}},{"type":"Feature","geometry":{"type":"LineString","coordinates":[[3.781154,51.06309],[3.781026,51.06297],[3.780873,51.06291]]},"properties":{"highway":"track","vertex1":5269,"vertex2":5263}},{"type":"Feature","geometry":{"type":"LineString","coordinates":[[3.784196,51.06054],[3.784675,51.06362]]},"properties":{"name":"Zevensterrede","cyclenetwork":"yes","highway":"residential","vertex1":5268,"vertex2":5264}},{"type":"Feature","geometry":{"type":"LineString","coordinates":[[3.784196,51.06054],[3.784101,51.05984],[3.784019,51.05913],[3.783988,51.05899],[3.783934,51.05889],[3.783912,51.05864],[3.783944,51.05849],[3.784182,51.05774]]},"properties":{"name":"Zevensterrede","cyclenetwork":"yes","highway":"residential","vertex1":5268,"vertex2":5160}},{"type":"Feature","geometry":{"type":"LineString","coordinates":[[3.784196,51.06054],[3.786036,51.06047],[3.787875,51.06038],[3.78844,51.06029],[3.788489,51.06023]]},"properties":{"name":"Kromrede","highway":"residential","vertex1":5268,"vertex2":5261}},{"type":"Feature","geometry":{"type":"LineString","coordinates":[[3.784196,51.06054],[3.784118,51.06068],[3.784431,51.06254]]},"properties":{"highway":"path","vertex1":5268,"vertex2":5266}},{"type":"Feature","geometry":{"type":"LineString","coordinates":[[3.788041,51.06424],[3.792382,51.06369]]},"properties":{"name":"Gentwegel","motorcar":"no","highway":"track","vertex1":5267,"vertex2":5238}},{"type":"Feature","geometry":{"type":"LineString","coordinates":[[3.788041,51.06424],[3.787945,51.06422]]},"properties":{"name":"Kwadenplasstraat","cyclenetwork":"yes","highway":"residential","vertex1":5267,"vertex2":5254}},{"type":"Feature","geometry":{"type":"LineString","coordinates":[[3.788041,51.06424],[3.791001,51.06472],[3.791764,51.06487],[3.792106,51.0649],[3.792285,51.0649]]},"properties":{"name":"Kwadenplasstraat","cyclenetwork":"yes","motorcar":"no","highway":"track","vertex1":5267,"vertex2":19413}},{"type":"Feature","geometry":{"type":"LineString","coordinates":[[3.784431,51.06254],[3.7846,51.06361]]},"properties":{"highway":"path","vertex1":5266,"vertex2":5260}},{"type":"Feature","geometry":{"type":"LineString","coordinates":[[3.784431,51.06254],[3.78262,51.06217]]},"properties":{"name":"Roodakkerrede","highway":"track","vertex1":5266,"vertex2":5257}},{"type":"Feature","geometry":{"type":"LineString","coordinates":[[3.782183,51.06311],[3.782,51.06308],[3.781237,51.06297],[3.781112,51.06295],[3.780873,51.06291]]},"properties":{"highway":"track","vertex1":5265,"vertex2":5263}},{"type":"Feature","geometry":{"type":"LineString","coordinates":[[3.784675,51.06362],[3.7846,51.06361]]},"properties":{"name":"Kwadenplasstraat","highway":"residential","vertex1":5264,"vertex2":5260}},{"type":"Feature","geometry":{"type":"LineString","coordinates":[[3.784675,51.06362],[3.787945,51.06422]]},"properties":{"name":"Kwadenplasstraat","cyclenetwork":"yes","highway":"residential","vertex1":5264,"vertex2":5254}},{"type":"Feature","geometry":{"type":"LineString","coordinates":[[3.784675,51.06362],[3.784759,51.06393],[3.785199,51.0651],[3.78537,51.06559],[3.785414,51.06569],[3.785439,51.06575],[3.785472,51.0658]]},"properties":{"highway":"track","vertex1":5264,"vertex2":19371}},{"type":"Feature","geometry":{"type":"LineString","coordinates":[[3.780873,51.06291],[3.780752,51.06284],[3.780398,51.06244],[3.780376,51.06234],[3.780305,51.06224],[3.780824,51.06181],[3.780863,51.06181]]},"properties":{"highway":"track","vertex1":5263,"vertex2":5259}},{"type":"Feature","geometry":{"type":"LineString","coordinates":[[3.785658,51.0594],[3.785533,51.05913]]},"properties":{"name":"Leeuweriklaan","highway":"residential","vertex1":5262,"vertex2":5256}},{"type":"Feature","geometry":{"type":"LineString","coordinates":[[3.785658,51.0594],[3.78563,51.05944],[3.785534,51.05945],[3.785472,51.05943],[3.78546,51.0594]]},"properties":{"name":"Leeuweriklaan","highway":"residential","vertex1":5262,"vertex2":5255}},{"type":"Feature","geometry":{"type":"LineString","coordinates":[[3.788489,51.06023],[3.788073,51.05803]]},"properties":{"name":"Kromrede","highway":"residential","vertex1":5261,"vertex2":5156}},{"type":"Feature","geometry":{"type":"LineString","coordinates":[[3.788489,51.06023],[3.790178,51.05983],[3.791466,51.05972],[3.791373,51.05926]]},"properties":{"highway":"path","vertex1":5261,"vertex2":5223}},{"type":"Feature","geometry":{"type":"LineString","coordinates":[[3.780863,51.06181],[3.78262,51.06217]]},"properties":{"name":"Roodakkerrede","highway":"track","vertex1":5259,"vertex2":5257}},{"type":"Feature","geometry":{"type":"LineString","coordinates":[[3.78782,51.06444],[3.787745,51.06467],[3.787643,51.06503],[3.787555,51.0653],[3.787529,51.06543]]},"properties":{"highway":"track","vertex1":5258,"vertex2":19368}},{"type":"Feature","geometry":{"type":"LineString","coordinates":[[3.78782,51.06444],[3.78783,51.06441],[3.787868,51.06433],[3.787945,51.06422]]},"properties":{"highway":"track","vertex1":5258,"vertex2":5254}},{"type":"Feature","geometry":{"type":"LineString","coordinates":[[3.785533,51.05913],[3.785616,51.05834],[3.785688,51.05787]]},"properties":{"name":"Leeuweriklaan","highway":"residential","vertex1":5256,"vertex2":5162}},{"type":"Feature","geometry":{"type":"LineString","coordinates":[[3.785533,51.05913],[3.78546,51.0594]]},"properties":{"name":"Leeuweriklaan","highway":"residential","vertex1":5256,"vertex2":5255}},{"type":"Feature","geometry":{"type":"LineString","coordinates":[[3.794817,51.06113],[3.794676,51.06117]]},"properties":{"name":"Lindenlaan","maxspeed":"50","highway":"residential","vertex1":5253,"vertex2":5249}},{"type":"Feature","geometry":{"type":"LineString","coordinates":[[3.794817,51.06113],[3.794971,51.06111],[3.795095,51.06115],[3.795121,51.0612],[3.795127,51.06124],[3.795024,51.0613],[3.794908,51.06131],[3.79476,51.0613],[3.794708,51.06125]]},"properties":{"name":"Lindenlaan","maxspeed":"50","highway":"residential","vertex1":5253,"vertex2":5232}},{"type":"Feature","geometry":{"type":"LineString","coordinates":[[3.797747,51.06071],[3.797713,51.06077]]},"properties":{"name":"Stationsstraat","maxspeed":"50","highway":"residential","cycleway":"lane","vertex1":5252,"vertex2":5236}},{"type":"Feature","geometry":{"type":"LineString","coordinates":[[3.797747,51.06071],[3.798,51.06014],[3.79824,51.05956],[3.798312,51.0593],[3.798362,51.05905]]},"properties":{"name":"Burgemeester J. Cardonstraat","highway":"residential","vertex1":5252,"vertex2":5214}},{"type":"Feature","geometry":{"type":"LineString","coordinates":[[3.797747,51.06071],[3.79888,51.06055],[3.798995,51.06054]]},"properties":{"name":"Kouterstraat","maxspeed":"50","highway":"residential","vertex1":5252,"vertex2":5244}},{"type":"Feature","geometry":{"type":"LineString","coordinates":[[3.792892,51.06003],[3.792626,51.06048]]},"properties":{"name":"Volderrede","highway":"residential","vertex1":5251,"vertex2":5239}},{"type":"Feature","geometry":{"type":"LineString","coordinates":[[3.792892,51.06003],[3.792717,51.05991],[3.79246,51.05976],[3.791967,51.05951]]},"properties":{"name":"Kerkkouterrede","highway":"residential","vertex1":5251,"vertex2":5220}},{"type":"Feature","geometry":{"type":"LineString","coordinates":[[3.792892,51.06003],[3.793368,51.06016],[3.793828,51.06023]]},"properties":{"name":"Kerkkouterrede","highway":"residential","vertex1":5251,"vertex2":5243}},{"type":"Feature","geometry":{"type":"LineString","coordinates":[[3.792892,51.06003],[3.793201,51.05958]]},"properties":{"highway":"path","vertex1":5251,"vertex2":5226}},{"type":"Feature","geometry":{"type":"LineString","coordinates":[[3.800381,51.0593],[3.800408,51.05931],[3.800452,51.05933]]},"properties":{"name":"Adrien De Grootestraat","cyclenetwork":"yes","highway":"residential","junction":"roundabout","vertex1":5250,"vertex2":5219}},{"type":"Feature","geometry":{"type":"LineString","coordinates":[[3.800381,51.0593],[3.800363,51.05927],[3.80036,51.05924],[3.800369,51.05922],[3.800392,51.0592]]},"properties":{"name":"Adrien De Grootestraat","cyclenetwork":"yes","highway":"residential","junction":"roundabout","vertex1":5250,"vertex2":5230}},{"type":"Feature","geometry":{"type":"LineString","coordinates":[[3.800381,51.0593],[3.800498,51.0597]]},"properties":{"highway":"service","vertex1":5250,"vertex2":5231}},{"type":"Feature","geometry":{"type":"LineString","coordinates":[[3.794676,51.06117],[3.79372,51.06113]]},"properties":{"name":"Lindenlaan","maxspeed":"50","highway":"residential","vertex1":5249,"vertex2":5241}},{"type":"Feature","geometry":{"type":"LineString","coordinates":[[3.794676,51.06117],[3.794708,51.06125]]},"properties":{"name":"Lindenlaan","maxspeed":"50","highway":"residential","vertex1":5249,"vertex2":5232}},{"type":"Feature","geometry":{"type":"LineString","coordinates":[[3.791979,51.06082],[3.792,51.06078],[3.792051,51.06075],[3.792626,51.06048]]},"properties":{"name":"Voldererede","highway":"residential","vertex1":5248,"vertex2":5239}},{"type":"Feature","geometry":{"type":"LineString","coordinates":[[3.796314,51.05962],[3.796425,51.0604],[3.796431,51.06046]]},"properties":{"name":"Kerkstraat","highway":"residential","vertex1":5247,"vertex2":5246}},{"type":"Feature","geometry":{"type":"LineString","coordinates":[[3.796314,51.05962],[3.796236,51.0591],[3.796091,51.05809]]},"properties":{"name":"Kerkstraat","cyclenetwork":"yes","highway":"residential","vertex1":5247,"vertex2":5193}},{"type":"Feature","geometry":{"type":"LineString","coordinates":[[3.796314,51.05962],[3.794366,51.05957],[3.793735,51.05959],[3.793201,51.05958]]},"properties":{"cyclenetwork":"yes","highway":"path","vertex1":5247,"vertex2":5226}},{"type":"Feature","geometry":{"type":"LineString","coordinates":[[3.796431,51.06046],[3.795994,51.06053],[3.795763,51.06055],[3.795004,51.06044],[3.793828,51.06023]]},"properties":{"name":"Kerkkouterrede","highway":"residential","vertex1":5246,"vertex2":5243}},{"type":"Feature","geometry":{"type":"LineString","coordinates":[[3.796431,51.06046],[3.796493,51.0605],[3.796673,51.06055]]},"properties":{"name":"Kerkstraat","maxspeed":"50","highway":"residential","vertex1":5246,"vertex2":5221}},{"type":"Feature","geometry":{"type":"LineString","coordinates":[[3.792369,51.06329],[3.792382,51.06369]]},"properties":{"name":"Volderrede","highway":"residential","vertex1":5245,"vertex2":5238}},{"type":"Feature","geometry":{"type":"LineString","coordinates":[[3.792369,51.06329],[3.795088,51.06334]]},"properties":{"name":"Succalaan","highway":"residential","vertex1":5245,"vertex2":5235}},{"type":"Feature","geometry":{"type":"LineString","coordinates":[[3.792369,51.06329],[3.792304,51.06318],[3.792497,51.06086],[3.792531,51.06067],[3.792626,51.06048]]},"properties":{"name":"Volderrede","highway":"residential","vertex1":5245,"vertex2":5239}},{"type":"Feature","geometry":{"type":"LineString","coordinates":[[3.798995,51.06054],[3.799015,51.06018],[3.799485,51.0591]]},"properties":{"name":"Burgemeester Libbrechtstraat","highway":"residential","vertex1":5244,"vertex2":5228}},{"type":"Feature","geometry":{"type":"LineString","coordinates":[[3.798995,51.06054],[3.801567,51.06055]]},"properties":{"name":"Kouterstraat","maxspeed":"50","highway":"residential","vertex1":5244,"vertex2":4899}},{"type":"Feature","geometry":{"type":"LineString","coordinates":[[3.801567,51.06055],[3.800448,51.05939],[3.800452,51.05933]]},"properties":{"cyclenetwork":"yes","highway":"footway","vertex1":4899,"vertex2":5219}},{"type":"Feature","geometry":{"type":"LineString","coordinates":[[3.793828,51.06023],[3.79372,51.06113]]},"properties":{"name":"Eikenlaan","maxspeed":"50","highway":"residential","vertex1":5243,"vertex2":5241}},{"type":"Feature","geometry":{"type":"LineString","coordinates":[[3.798224,51.06345],[3.795088,51.06334]]},"properties":{"name":"Succalaan","highway":"residential","vertex1":5242,"vertex2":5235}},{"type":"Feature","geometry":{"type":"LineString","coordinates":[[3.798224,51.06345],[3.79817,51.06312]]},"properties":{"name":"Stationsstraat","maxspeed":"50","highway":"residential","vertex1":5242,"vertex2":5227}},{"type":"Feature","geometry":{"type":"LineString","coordinates":[[3.798224,51.06345],[3.798346,51.0646]]},"properties":{"name":"Stationsstraat","maxspeed":"50","highway":"residential","vertex1":5242,"vertex2":19397}},{"type":"Feature","geometry":{"type":"LineString","coordinates":[[3.79372,51.06113],[3.793621,51.06194]]},"properties":{"name":"Eikenlaan","maxspeed":"50","highway":"residential","vertex1":5241,"vertex2":5237}},{"type":"Feature","geometry":{"type":"LineString","coordinates":[[3.792418,51.06429],[3.795067,51.06431]]},"properties":{"name":"Bergenkruislaan","highway":"residential","vertex1":5240,"vertex2":5218}},{"type":"Feature","geometry":{"type":"LineString","coordinates":[[3.792418,51.06429],[3.792382,51.06369]]},"properties":{"name":"Volderrede","highway":"residential","vertex1":5240,"vertex2":5238}},{"type":"Feature","geometry":{"type":"LineString","coordinates":[[3.792418,51.06429],[3.792436,51.0649]]},"properties":{"name":"Volderrede","highway":"residential","vertex1":5240,"vertex2":19394}},{"type":"Feature","geometry":{"type":"LineString","coordinates":[[3.793621,51.06194],[3.793608,51.06205],[3.793629,51.0625],[3.793797,51.06261],[3.794152,51.06266],[3.794879,51.06268],[3.795048,51.06274],[3.795116,51.06284],[3.795088,51.06334]]},"properties":{"name":"Eikenlaan","maxspeed":"50","highway":"residential","vertex1":5237,"vertex2":5235}},{"type":"Feature","geometry":{"type":"LineString","coordinates":[[3.793621,51.06194],[3.794245,51.06195],[3.794798,51.06197],[3.795186,51.06198],[3.795718,51.06197],[3.796067,51.06195]]},"properties":{"name":"Olmenlaan","maxspeed":"50","highway":"residential","vertex1":5237,"vertex2":5222}},{"type":"Feature","geometry":{"type":"LineString","coordinates":[[3.797713,51.06077],[3.797717,51.06085],[3.79778,51.06117]]},"properties":{"name":"Stationsstraat","maxspeed":"50","highway":"residential","cycleway":"lane","vertex1":5236,"vertex2":5224}},{"type":"Feature","geometry":{"type":"LineString","coordinates":[[3.797713,51.06077],[3.7975,51.06074],[3.796673,51.06055]]},"properties":{"name":"Kerkstraat","maxspeed":"50","highway":"residential","vertex1":5236,"vertex2":5221}},{"type":"Feature","geometry":{"type":"LineString","coordinates":[[3.796329,51.06171],[3.796242,51.06172],[3.796189,51.06176],[3.796067,51.06195]]},"properties":{"name":"Olmenlaan","oneway":"yes","maxspeed":"50","highway":"residential","vertex1":5234,"vertex2":5222}},{"type":"Feature","geometry":{"type":"LineString","coordinates":[[3.796329,51.06171],[3.796408,51.06174]]},"properties":{"name":"Olmenlaan","oneway":"yes","maxspeed":"50","highway":"residential","vertex1":5234,"vertex2":5215}},{"type":"Feature","geometry":{"type":"LineString","coordinates":[[3.796329,51.06171],[3.79629,51.06158],[3.796292,51.06148],[3.796673,51.06055]]},"properties":{"name":"Olmenlaan","maxspeed":"50","highway":"residential","vertex1":5234,"vertex2":5221}},{"type":"Feature","geometry":{"type":"LineString","coordinates":[[3.80042,51.05919],[3.800392,51.0592]]},"properties":{"name":"Adrien De Grootestraat","cyclenetwork":"yes","highway":"residential","junction":"roundabout","vertex1":5233,"vertex2":5230}},{"type":"Feature","geometry":{"type":"LineString","coordinates":[[3.80042,51.05919],[3.800474,51.05918],[3.800522,51.05918],[3.80056,51.0592],[3.800583,51.05921],[3.800595,51.05923],[3.800598,51.05926],[3.800584,51.05929],[3.800567,51.0593],[3.800537,51.05931],[3.8005,51.05933],[3.800452,51.05933]]},"properties":{"name":"Adrien De Grootestraat","cyclenetwork":"yes","highway":"residential","junction":"roundabout","vertex1":5233,"vertex2":5219}},{"type":"Feature","geometry":{"type":"LineString","coordinates":[[3.80042,51.05919],[3.800383,51.05914],[3.800374,51.05909],[3.800426,51.05893]]},"properties":{"name":"Adrien De Grootestraat","highway":"service","vertex1":5233,"vertex2":5197}},{"type":"Feature","geometry":{"type":"LineString","coordinates":[[3.800392,51.0592],[3.799485,51.0591]]},"properties":{"name":"Adrien De Grootestraat","cyclenetwork":"yes","highway":"residential","vertex1":5230,"vertex2":5228}},{"type":"Feature","geometry":{"type":"LineString","coordinates":[[3.799998,51.06322],[3.799012,51.0631],[3.798904,51.06309],[3.798764,51.06308],[3.798644,51.06308],[3.798559,51.06309],[3.79817,51.06312]]},"properties":{"name":"Kleingentstraat","highway":"residential","vertex1":5229,"vertex2":5227}},{"type":"Feature","geometry":{"type":"LineString","coordinates":[[3.799998,51.06322],[3.801708,51.06343],[3.801903,51.06346],[3.802279,51.0635]]},"properties":{"name":"Kleingentstraat","highway":"residential","vertex1":5229,"vertex2":4900}},{"type":"Feature","geometry":{"type":"LineString","coordinates":[[3.799998,51.06322],[3.799901,51.0637],[3.799853,51.06371],[3.799346,51.06365]]},"properties":{"highway":"service","vertex1":5229,"vertex2":5225}},{"type":"Feature","geometry":{"type":"LineString","coordinates":[[3.799485,51.0591],[3.799469,51.05896],[3.799169,51.05755],[3.79914,51.05751],[3.7991,51.05748]]},"properties":{"name":"Burgemeester Libbrechtstraat","cyclenetwork":"yes","highway":"residential","vertex1":5228,"vertex2":5177}},{"type":"Feature","geometry":{"type":"LineString","coordinates":[[3.799485,51.0591],[3.798362,51.05905]]},"properties":{"name":"Adrien De Grootestraat","highway":"residential","vertex1":5228,"vertex2":5214}},{"type":"Feature","geometry":{"type":"LineString","coordinates":[[3.79817,51.06312],[3.79778,51.06117]]},"properties":{"name":"Stationsstraat","maxspeed":"50","highway":"residential","vertex1":5227,"vertex2":5224}},{"type":"Feature","geometry":{"type":"LineString","coordinates":[[3.793201,51.05958],[3.793059,51.05957],[3.792414,51.05957],[3.791967,51.05951]]},"properties":{"cyclenetwork":"yes","highway":"path","vertex1":5226,"vertex2":5220}},{"type":"Feature","geometry":{"type":"LineString","coordinates":[[3.791373,51.05926],[3.790529,51.05891],[3.789495,51.05854],[3.788073,51.05803]]},"properties":{"name":"Kerkkouterrede","cyclenetwork":"yes","highway":"residential","vertex1":5223,"vertex2":5156}},{"type":"Feature","geometry":{"type":"LineString","coordinates":[[3.791373,51.05926],[3.791967,51.05951]]},"properties":{"name":"Kerkkouterrede","cyclenetwork":"yes","highway":"residential","vertex1":5223,"vertex2":5220}},{"type":"Feature","geometry":{"type":"LineString","coordinates":[[3.796067,51.06195],[3.79632,51.06194],[3.796375,51.06192],[3.796412,51.0619],[3.796443,51.06186],[3.796444,51.0618],[3.796436,51.06177],[3.796408,51.06174]]},"properties":{"name":"Olmenlaan","oneway":"yes","maxspeed":"50","highway":"residential","vertex1":5222,"vertex2":5215}},{"type":"Feature","geometry":{"type":"LineString","coordinates":[[3.795067,51.06431],[3.795892,51.06431],[3.79688,51.06457],[3.798346,51.0646]]},"properties":{"name":"Bergenkruislaan","highway":"residential","vertex1":5218,"vertex2":19397}},{"type":"Feature","geometry":{"type":"LineString","coordinates":[[3.795067,51.06431],[3.795055,51.06488],[3.795683,51.06612],[3.795613,51.06623],[3.794535,51.06651]]},"properties":{"name":"Heibosstraat","highway":"residential","vertex1":5218,"vertex2":19399}},{"type":"Feature","geometry":{"type":"LineString","coordinates":[[3.800796,51.05898],[3.800914,51.05895],[3.800936,51.05887],[3.80088,51.05881],[3.800486,51.05875]]},"properties":{"name":"Adrien De Grootestraat","highway":"service","vertex1":5217,"vertex2":5171}},{"type":"Feature","geometry":{"type":"LineString","coordinates":[[3.800796,51.05898],[3.800426,51.05893]]},"properties":{"name":"Adrien De Grootestraat","highway":"service","vertex1":5217,"vertex2":5197}},{"type":"Feature","geometry":{"type":"LineString","coordinates":[[3.800794,51.06417],[3.80024,51.06411],[3.799991,51.06411],[3.799851,51.06413],[3.799748,51.0642],[3.799608,51.0644],[3.799562,51.06453],[3.799551,51.06492],[3.79956,51.06501]]},"properties":{"name":"Malpertuussingel","highway":"residential","vertex1":5216,"vertex2":19403}},{"type":"Feature","geometry":{"type":"LineString","coordinates":[[3.800794,51.06417],[3.801045,51.06421],[3.801793,51.0643]]},"properties":{"name":"Malpertuussingel","highway":"residential","vertex1":5216,"vertex2":4905}},{"type":"Feature","geometry":{"type":"LineString","coordinates":[[3.800794,51.06417],[3.800554,51.0649]]},"properties":{"name":"Hersindehof","highway":"residential","vertex1":5216,"vertex2":19384}},{"type":"Feature","geometry":{"type":"LineString","coordinates":[[3.798362,51.05905],[3.798355,51.05853],[3.798374,51.05806],[3.798424,51.05769],[3.798501,51.0575],[3.798558,51.05744]]},"properties":{"name":"Burgemeester J. Cardonstraat","highway":"residential","vertex1":5214,"vertex2":5175}},{"type":"Feature","geometry":{"type":"LineString","coordinates":[[3.800532,51.05775],[3.800503,51.05771],[3.800329,51.05765],[3.800096,51.0576],[3.79942,51.05749],[3.7991,51.05748]]},"properties":{"name":"Burgemeester Libbrechthof","highway":"residential","vertex1":5213,"vertex2":5177}},{"type":"Feature","geometry":{"type":"LineString","coordinates":[[3.800532,51.05775],[3.800318,51.0581],[3.800307,51.05814],[3.800338,51.05817],[3.800854,51.05832],[3.800924,51.05833],[3.80097,51.05832],[3.801292,51.05799]]},"properties":{"highway":"service","vertex1":5213,"vertex2":4965}},{"type":"Feature","geometry":{"type":"LineString","coordinates":[[3.796312,51.05665],[3.796323,51.0564],[3.79631,51.05637],[3.796255,51.05632],[3.796229,51.05629],[3.796298,51.05594]]},"properties":{"highway":"service","vertex1":5212,"vertex2":5170}},{"type":"Feature","geometry":{"type":"LineString","coordinates":[[3.794291,51.05592],[3.794232,51.05539]]},"properties":{"name":"Walbosdreef","highway":"residential","vertex1":5207,"vertex2":5189}},{"type":"Feature","geometry":{"type":"LineString","coordinates":[[3.794291,51.05592],[3.794627,51.05587],[3.794856,51.05585],[3.795033,51.05584]]},"properties":{"name":"Dendermondesteenweg","maxspeed":"50","highway":"secondary","vertex1":5207,"vertex2":5200}},{"type":"Feature","geometry":{"type":"LineString","coordinates":[[3.794291,51.05592],[3.793584,51.05604]]},"properties":{"name":"Dendermondesteenweg","maxspeed":"50","highway":"secondary","vertex1":5207,"vertex2":5203}},{"type":"Feature","geometry":{"type":"LineString","coordinates":[[3.797527,51.05583],[3.797794,51.05584],[3.7978,51.05573],[3.797886,51.05573]]},"properties":{"highway":"service","vertex1":5206,"vertex2":5174}},{"type":"Feature","geometry":{"type":"LineString","coordinates":[[3.798342,51.05574],[3.798142,51.05573]]},"properties":{"highway":"service","vertex1":5204,"vertex2":5202}},{"type":"Feature","geometry":{"type":"LineString","coordinates":[[3.798342,51.05574],[3.798407,51.05574],[3.798415,51.05563],[3.798408,51.05547],[3.798384,51.05545],[3.798356,51.05544],[3.797949,51.05544],[3.797916,51.05545],[3.797897,51.05547],[3.797886,51.05573]]},"properties":{"highway":"service","vertex1":5204,"vertex2":5174}},{"type":"Feature","geometry":{"type":"LineString","coordinates":[[3.798342,51.05574],[3.798338,51.05589]]},"properties":{"highway":"service","vertex1":5204,"vertex2":5186}},{"type":"Feature","geometry":{"type":"LineString","coordinates":[[3.793584,51.05604],[3.79398,51.05708]]},"properties":{"name":"Beukendreef","highway":"residential","oneway":"-1","vertex1":5203,"vertex2":5194}},{"type":"Feature","geometry":{"type":"LineString","coordinates":[[3.793584,51.05604],[3.792548,51.05623],[3.791968,51.05634],[3.791632,51.0564]]},"properties":{"name":"Dendermondesteenweg","maxspeed":"50","highway":"secondary","vertex1":5203,"vertex2":5185}},{"type":"Feature","geometry":{"type":"LineString","coordinates":[[3.798142,51.05573],[3.797886,51.05573]]},"properties":{"highway":"service","vertex1":5202,"vertex2":5174}},{"type":"Feature","geometry":{"type":"LineString","coordinates":[[3.798142,51.05573],[3.798133,51.05603]]},"properties":{"highway":"service","vertex1":5202,"vertex2":5196}},{"type":"Feature","geometry":{"type":"LineString","coordinates":[[3.795033,51.05584],[3.795547,51.05588],[3.796298,51.05594]]},"properties":{"name":"Dendermondesteenweg","maxspeed":"50","highway":"secondary","vertex1":5200,"vertex2":5170}},{"type":"Feature","geometry":{"type":"LineString","coordinates":[[3.795033,51.05584],[3.79517,51.05429],[3.795305,51.05319],[3.795678,51.05129]]},"properties":{"name":"Reinaertweg","highway":"secondary","cycleway":"lane","vertex1":5200,"vertex2":5085}},{"type":"Feature","geometry":{"type":"LineString","coordinates":[[3.79459,51.0587],[3.794446,51.05857],[3.794382,51.05847],[3.794355,51.05835],[3.794334,51.05833],[3.794304,51.05832],[3.794187,51.0583],[3.793911,51.05828],[3.793736,51.05825],[3.793616,51.0582],[3.793573,51.05815],[3.793582,51.05807],[3.79364,51.058],[3.793712,51.05792],[3.793727,51.05783],[3.793682,51.05773],[3.793499,51.05739],[3.793468,51.05728],[3.793474,51.05722],[3.793576,51.05718],[3.79398,51.05708]]},"properties":{"highway":"service","vertex1":5199,"vertex2":5194}},{"type":"Feature","geometry":{"type":"LineString","coordinates":[[3.800426,51.05893],[3.800486,51.05875]]},"properties":{"name":"Adrien De Grootestraat","highway":"service","vertex1":5197,"vertex2":5171}},{"type":"Feature","geometry":{"type":"LineString","coordinates":[[3.798133,51.05603],[3.798604,51.05605]]},"properties":{"name":"Dendermondesteenweg","maxspeed":"50","highway":"secondary","vertex1":5196,"vertex2":5173}},{"type":"Feature","geometry":{"type":"LineString","coordinates":[[3.798133,51.05603],[3.798014,51.05603],[3.797136,51.05599],[3.796382,51.05595]]},"properties":{"name":"Dendermondesteenweg","maxspeed":"50","highway":"secondary","vertex1":5196,"vertex2":5182}},{"type":"Feature","geometry":{"type":"LineString","coordinates":[[3.791462,51.05642],[3.79129,51.05651],[3.788732,51.0577],[3.788073,51.05803]]},"properties":{"name":"Eenbeekstraat","highway":"residential","maxspeed":"30","vertex1":5195,"vertex2":5156}},{"type":"Feature","geometry":{"type":"LineString","coordinates":[[3.791462,51.05642],[3.791632,51.0564]]},"properties":{"name":"Dendermondesteenweg","maxspeed":"50","highway":"secondary","vertex1":5195,"vertex2":5185}},{"type":"Feature","geometry":{"type":"LineString","coordinates":[[3.791462,51.05642],[3.79121,51.05644],[3.791015,51.05645],[3.790734,51.05643],[3.79058,51.05642],[3.790424,51.0564]]},"properties":{"name":"Dendermondesteenweg","maxspeed":"50","highway":"secondary","vertex1":5195,"vertex2":5176}},{"type":"Feature","geometry":{"type":"LineString","coordinates":[[3.79398,51.05708],[3.79404,51.0571],[3.794194,51.05714],[3.795992,51.05746]]},"properties":{"name":"Beukendreef","highway":"residential","oneway":"-1","vertex1":5194,"vertex2":5184}},{"type":"Feature","geometry":{"type":"LineString","coordinates":[[3.796091,51.05809],[3.795992,51.05746]]},"properties":{"name":"Kerkstraat","cyclenetwork":"yes","highway":"residential","vertex1":5193,"vertex2":5184}},{"type":"Feature","geometry":{"type":"LineString","coordinates":[[3.796091,51.05809],[3.79643,51.05798],[3.796961,51.05782],[3.79714,51.05775],[3.797344,51.05763],[3.79757,51.05751]]},"properties":{"name":"Kerkstraat","cyclenetwork":"yes","highway":"residential","vertex1":5193,"vertex2":5188}},{"type":"Feature","geometry":{"type":"LineString","coordinates":[[3.801149,51.05672],[3.801299,51.05639]]},"properties":{"highway":"service","vertex1":5190,"vertex2":4945}},{"type":"Feature","geometry":{"type":"LineString","coordinates":[[3.794232,51.05539],[3.794519,51.05387],[3.794551,51.05367]]},"properties":{"name":"Walbosdreef","highway":"residential","vertex1":5189,"vertex2":5187}},{"type":"Feature","geometry":{"type":"LineString","coordinates":[[3.794232,51.05539],[3.791768,51.05526],[3.789136,51.05486]]},"properties":{"name":"Walbosstraat","highway":"residential","vertex1":5189,"vertex2":5153}},{"type":"Feature","geometry":{"type":"LineString","coordinates":[[3.789136,51.05486],[3.788679,51.05605]]},"properties":{"name":"Hellegatstraat","highway":"residential","vertex1":5153,"vertex2":5166}},{"type":"Feature","geometry":{"type":"LineString","coordinates":[[3.79757,51.05751],[3.796837,51.05752],[3.795992,51.05746]]},"properties":{"name":"Pastorijstraat","oneway":"yes","cyclenetwork":"yes","highway":"residential","vertex1":5188,"vertex2":5184}},{"type":"Feature","geometry":{"type":"LineString","coordinates":[[3.79757,51.05751],[3.798558,51.05744]]},"properties":{"name":"Kerkstraat","cyclenetwork":"yes","highway":"residential","vertex1":5188,"vertex2":5175}},{"type":"Feature","geometry":{"type":"LineString","coordinates":[[3.791632,51.0564],[3.791732,51.05679],[3.791732,51.05688],[3.791715,51.05697],[3.791047,51.05844]]},"properties":{"name":"Ter Ramenlaan","highway":"residential","vertex1":5185,"vertex2":5172}},{"type":"Feature","geometry":{"type":"LineString","coordinates":[[3.798622,51.05568],[3.799414,51.05567],[3.799432,51.0561]]},"properties":{"name":"Kerkham","oneway":"yes","highway":"residential","vertex1":5183,"vertex2":5181}},{"type":"Feature","geometry":{"type":"LineString","coordinates":[[3.798622,51.05568],[3.79864,51.05556],[3.798679,51.05543],[3.798801,51.05505],[3.798917,51.05475]]},"properties":{"name":"Kerkham","highway":"residential","vertex1":5183,"vertex2":5211}},{"type":"Feature","geometry":{"type":"LineString","coordinates":[[3.798622,51.05568],[3.798604,51.05605]]},"properties":{"name":"Kerkham","highway":"residential","vertex1":5183,"vertex2":5173}},{"type":"Feature","geometry":{"type":"LineString","coordinates":[[3.796382,51.05595],[3.796298,51.05594]]},"properties":{"name":"Dendermondesteenweg","maxspeed":"50","highway":"secondary","vertex1":5182,"vertex2":5170}},{"type":"Feature","geometry":{"type":"LineString","coordinates":[[3.796382,51.05595],[3.796498,51.0552]]},"properties":{"highway":"service","vertex1":5182,"vertex2":5201}},{"type":"Feature","geometry":{"type":"LineString","coordinates":[[3.799432,51.0561],[3.800213,51.05618],[3.800923,51.05628],[3.802378,51.05651],[3.803595,51.05671]]},"properties":{"name":"Dendermondesteenweg","highway":"secondary","vertex1":5181,"vertex2":4952}},{"type":"Feature","geometry":{"type":"LineString","coordinates":[[3.799432,51.0561],[3.798604,51.05605]]},"properties":{"name":"Dendermondesteenweg","highway":"secondary","vertex1":5181,"vertex2":5173}},{"type":"Feature","geometry":{"type":"LineString","coordinates":[[3.798678,51.05731],[3.798714,51.05722],[3.798733,51.05713],[3.798696,51.05681],[3.798604,51.05605]]},"properties":{"name":"Kerkstraat","highway":"residential","vertex1":5179,"vertex2":5173}},{"type":"Feature","geometry":{"type":"LineString","coordinates":[[3.798678,51.05731],[3.798618,51.05738],[3.798558,51.05744]]},"properties":{"name":"Kerkstraat","highway":"residential","vertex1":5179,"vertex2":5175}},{"type":"Feature","geometry":{"type":"LineString","coordinates":[[3.7991,51.05748],[3.799042,51.05747],[3.798832,51.05746],[3.798558,51.05744]]},"properties":{"name":"Burgemeester Libbrechtstraat","cyclenetwork":"yes","highway":"residential","vertex1":5177,"vertex2":5175}},{"type":"Feature","geometry":{"type":"LineString","coordinates":[[3.790424,51.0564],[3.790481,51.0563],[3.789208,51.05608],[3.788679,51.05605]]},"properties":{"name":"Dendermondesteenweg","highway":"residential","vertex1":5176,"vertex2":5166}},{"type":"Feature","geometry":{"type":"LineString","coordinates":[[3.790424,51.0564],[3.789512,51.05625],[3.789119,51.05619],[3.788928,51.05617],[3.788657,51.05615]]},"properties":{"name":"Dendermondesteenweg","maxspeed":"50","highway":"secondary","vertex1":5176,"vertex2":5164}},{"type":"Feature","geometry":{"type":"LineString","coordinates":[[3.787545,51.05617],[3.787685,51.05717],[3.787879,51.05761],[3.788073,51.05803]]},"properties":{"name":"Kerkkouterrede","highway":"residential","maxspeed":"30","vertex1":5169,"vertex2":5156}},{"type":"Feature","geometry":{"type":"LineString","coordinates":[[3.787545,51.05617],[3.788104,51.05615],[3.788657,51.05615]]},"properties":{"name":"Dendermondesteenweg","maxspeed":"50","highway":"secondary","vertex1":5169,"vertex2":5164}},{"type":"Feature","geometry":{"type":"LineString","coordinates":[[3.787545,51.05617],[3.786568,51.05618],[3.786228,51.05618],[3.785854,51.05613],[3.785239,51.05604]]},"properties":{"name":"Dendermondesteenweg","maxspeed":"50","highway":"secondary","vertex1":5169,"vertex2":5158}},{"type":"Feature","geometry":{"type":"LineString","coordinates":[[3.788679,51.05605],[3.788657,51.05615]]},"properties":{"name":"Hellegatstraat","highway":"residential","vertex1":5166,"vertex2":5164}},{"type":"Feature","geometry":{"type":"LineString","coordinates":[[3.785688,51.05787],[3.784182,51.05774]]},"properties":{"name":"Eenbeekstraat","cyclenetwork":"yes","highway":"residential","vertex1":5162,"vertex2":5160}},{"type":"Feature","geometry":{"type":"LineString","coordinates":[[3.785688,51.05787],[3.787346,51.05803],[3.78772,51.05805],[3.788073,51.05803]]},"properties":{"name":"Eenbeekstraat","cyclenetwork":"yes","highway":"residential","vertex1":5162,"vertex2":5156}},{"type":"Feature","geometry":{"type":"LineString","coordinates":[[3.784182,51.05774],[3.782161,51.05745],[3.780296,51.05697],[3.779207,51.05666],[3.778623,51.05655]]},"properties":{"name":"Eenbeekstraat","highway":"residential","vertex1":5160,"vertex2":5354}},{"type":"Feature","geometry":{"type":"LineString","coordinates":[[3.784182,51.05774],[3.785239,51.05604]]},"properties":{"name":"Frans Heynderycxrede","highway":"residential","vertex1":5160,"vertex2":5158}},{"type":"Feature","geometry":{"type":"LineString","coordinates":[[3.785239,51.05604],[3.783951,51.05585],[3.782556,51.05566],[3.782116,51.05558],[3.781612,51.05544]]},"properties":{"name":"Dendermondesteenweg","maxspeed":"50","highway":"secondary","vertex1":5158,"vertex2":5157}},{"type":"Feature","geometry":{"type":"LineString","coordinates":[[3.781612,51.05544],[3.781866,51.05439]]},"properties":{"name":"Zenderstraat","oneway":"yes","highway":"residential","vertex1":5157,"vertex2":5154}},{"type":"Feature","geometry":{"type":"LineString","coordinates":[[3.781612,51.05544],[3.780295,51.05506]]},"properties":{"name":"Dendermondesteenweg","maxspeed":"50","highway":"secondary","vertex1":5157,"vertex2":5167}},{"type":"Feature","geometry":{"type":"LineString","coordinates":[[3.796838,51.06556],[3.796769,51.06549]]},"properties":{"name":"Borrestraat","highway":"unclassified","vertex1":19419,"vertex2":19404}},{"type":"Feature","geometry":{"type":"LineString","coordinates":[[3.796838,51.06556],[3.79679,51.06561]]},"properties":{"name":"Borrestraat","highway":"unclassified","vertex1":19419,"vertex2":19382}},{"type":"Feature","geometry":{"type":"LineString","coordinates":[[3.796838,51.06556],[3.798337,51.06557]]},"properties":{"name":"Borrestraat","highway":"unclassified","vertex1":19419,"vertex2":19410}},{"type":"Feature","geometry":{"type":"LineString","coordinates":[[3.791634,51.06883],[3.791536,51.06882],[3.791246,51.06879]]},"properties":{"highway":"path","vertex1":19417,"vertex2":19409}},{"type":"Feature","geometry":{"type":"LineString","coordinates":[[3.791634,51.06883],[3.791666,51.06883],[3.792023,51.06887],[3.792068,51.06881],[3.792094,51.06876]]},"properties":{"highway":"path","vertex1":19417,"vertex2":19406}},{"type":"Feature","geometry":{"type":"LineString","coordinates":[[3.791634,51.06883],[3.791786,51.0687]]},"properties":{"highway":"path","vertex1":19417,"vertex2":19392}},{"type":"Feature","geometry":{"type":"LineString","coordinates":[[3.798575,51.06791],[3.796278,51.06758],[3.795318,51.06744],[3.795257,51.06742],[3.795197,51.06738],[3.795135,51.06733],[3.794804,51.06691],[3.794535,51.06651]]},"properties":{"name":"Volderrede","cyclenetwork":"yes","highway":"residential","vertex1":19414,"vertex2":19399}},{"type":"Feature","geometry":{"type":"LineString","coordinates":[[3.798575,51.06791],[3.798656,51.06791]]},"properties":{"name":"Volderrede","cyclenetwork":"yes","highway":"residential","vertex1":19414,"vertex2":19378}},{"type":"Feature","geometry":{"type":"LineString","coordinates":[[3.798575,51.06791],[3.798105,51.06911],[3.798598,51.06963]]},"properties":{"highway":"track","vertex1":19414,"vertex2":19415}},{"type":"Feature","geometry":{"type":"LineString","coordinates":[[3.798598,51.06963],[3.798031,51.06951],[3.796306,51.06913],[3.794289,51.0688],[3.792288,51.0685],[3.788052,51.06756],[3.78544,51.06699]]},"properties":{"name":"Alfons Braeckmanlaan","highway":"residential","maxspeed":"30","vertex1":19415,"vertex2":19352}},{"type":"Feature","geometry":{"type":"LineString","coordinates":[[3.792285,51.0649],[3.792436,51.0649]]},"properties":{"name":"Kwadenplasstraat","cyclenetwork":"yes","highway":"residential","vertex1":19413,"vertex2":19394}},{"type":"Feature","geometry":{"type":"LineString","coordinates":[[3.792285,51.0649],[3.792211,51.06496],[3.792097,51.0653],[3.791934,51.06581],[3.791915,51.06589]]},"properties":{"highway":"track","vertex1":19413,"vertex2":19387}},{"type":"Feature","geometry":{"type":"LineString","coordinates":[[3.792114,51.06876],[3.792094,51.06876]]},"properties":{"highway":"path","vertex1":19412,"vertex2":19406}},{"type":"Feature","geometry":{"type":"LineString","coordinates":[[3.792114,51.06876],[3.792159,51.06878]]},"properties":{"bridge":"yes","highway":"path","vertex1":19412,"vertex2":19388}},{"type":"Feature","geometry":{"type":"LineString","coordinates":[[3.798337,51.06557],[3.798346,51.0646]]},"properties":{"name":"Stationsstraat","maxspeed":"50","highway":"residential","vertex1":19410,"vertex2":19397}},{"type":"Feature","geometry":{"type":"LineString","coordinates":[[3.798337,51.06557],[3.798356,51.06589]]},"properties":{"name":"Stationsstraat","maxspeed":"50","highway":"residential","vertex1":19410,"vertex2":19407}},{"type":"Feature","geometry":{"type":"LineString","coordinates":[[3.791246,51.06879],[3.791213,51.06879],[3.790754,51.06874],[3.790259,51.0687],[3.790148,51.06875]]},"properties":{"highway":"path","vertex1":19409,"vertex2":19356}},{"type":"Feature","geometry":{"type":"LineString","coordinates":[[3.791246,51.06879],[3.791138,51.06863]]},"properties":{"highway":"path","vertex1":19409,"vertex2":19390}},{"type":"Feature","geometry":{"type":"LineString","coordinates":[[3.798356,51.06589],[3.799005,51.06591],[3.799579,51.06593]]},"properties":{"name":"Malpertuussingel","highway":"residential","vertex1":19407,"vertex2":19401}},{"type":"Feature","geometry":{"type":"LineString","coordinates":[[3.798356,51.06589],[3.798388,51.06633],[3.798465,51.06673]]},"properties":{"name":"Stationsstraat","maxspeed":"50","highway":"residential","vertex1":19407,"vertex2":19379}},{"type":"Feature","geometry":{"type":"LineString","coordinates":[[3.792094,51.06876],[3.792069,51.06876],[3.791795,51.06871],[3.791786,51.0687]]},"properties":{"highway":"path","vertex1":19406,"vertex2":19392}},{"type":"Feature","geometry":{"type":"LineString","coordinates":[[3.800495,51.06602],[3.801506,51.06614]]},"properties":{"name":"Malpertuussingel","highway":"residential","vertex1":19405,"vertex2":19781}},{"type":"Feature","geometry":{"type":"LineString","coordinates":[[3.800495,51.06602],[3.800125,51.06598],[3.799579,51.06593]]},"properties":{"name":"Malpertuussingel","highway":"residential","vertex1":19405,"vertex2":19401}},{"type":"Feature","geometry":{"type":"LineString","coordinates":[[3.800495,51.06602],[3.800718,51.0652]]},"properties":{"name":"Izegrimhof","maxspeed":"50","highway":"residential","vertex1":19405,"vertex2":19381}},{"type":"Feature","geometry":{"type":"LineString","coordinates":[[3.796769,51.06549],[3.796696,51.06547],[3.796607,51.06547],[3.796532,51.06551],[3.796506,51.06556],[3.796516,51.0656],[3.796602,51.06565],[3.796717,51.06564],[3.79679,51.06561]]},"properties":{"name":"Borrestraat","highway":"unclassified","vertex1":19404,"vertex2":19382}},{"type":"Feature","geometry":{"type":"LineString","coordinates":[[3.79956,51.06501],[3.799579,51.06593]]},"properties":{"name":"Malpertuussingel","highway":"residential","vertex1":19403,"vertex2":19401}},{"type":"Feature","geometry":{"type":"LineString","coordinates":[[3.79956,51.06501],[3.80016,51.06503],[3.800562,51.06508]]},"properties":{"highway":"footway","vertex1":19403,"vertex2":19389}},{"type":"Feature","geometry":{"type":"LineString","coordinates":[[3.794535,51.06651],[3.794445,51.06637],[3.79421,51.06603],[3.794111,51.06593],[3.793586,51.06553],[3.792881,51.06504],[3.792675,51.06497],[3.792436,51.0649]]},"properties":{"name":"Volderrede","cyclenetwork":"yes","highway":"residential","vertex1":19399,"vertex2":19394}},{"type":"Feature","geometry":{"type":"LineString","coordinates":[[3.800712,51.0651],[3.801584,51.06522]]},"properties":{"highway":"footway","vertex1":19393,"vertex2":19784}},{"type":"Feature","geometry":{"type":"LineString","coordinates":[[3.800712,51.0651],[3.800562,51.06508]]},"properties":{"highway":"footway","vertex1":19393,"vertex2":19389}},{"type":"Feature","geometry":{"type":"LineString","coordinates":[[3.800712,51.0651],[3.800718,51.0652]]},"properties":{"highway":"footway","vertex1":19393,"vertex2":19381}},{"type":"Feature","geometry":{"type":"LineString","coordinates":[[3.791786,51.0687],[3.791474,51.06866],[3.79116,51.06863],[3.791138,51.06863]]},"properties":{"highway":"path","vertex1":19392,"vertex2":19390}},{"type":"Feature","geometry":{"type":"LineString","coordinates":[[3.791138,51.06863],[3.79078,51.06859],[3.790609,51.06857],[3.790334,51.06854],[3.790107,51.06853],[3.790066,51.06855]]},"properties":{"highway":"path","vertex1":19390,"vertex2":19365}},{"type":"Feature","geometry":{"type":"LineString","coordinates":[[3.800562,51.06508],[3.800554,51.0649]]},"properties":{"highway":"footway","vertex1":19389,"vertex2":19384}},{"type":"Feature","geometry":{"type":"LineString","coordinates":[[3.792159,51.06878],[3.792222,51.06879],[3.792298,51.06882],[3.792548,51.06886],[3.79272,51.0689],[3.792764,51.06895],[3.792791,51.06902],[3.792748,51.06913]]},"properties":{"highway":"path","vertex1":19388,"vertex2":19395}},{"type":"Feature","geometry":{"type":"LineString","coordinates":[[3.799014,51.06799],[3.799423,51.06805]]},"properties":{"cyclenetwork":"yes","highway":"path","vertex1":19385,"vertex2":19383}},{"type":"Feature","geometry":{"type":"LineString","coordinates":[[3.799014,51.06799],[3.798756,51.06795],[3.798656,51.06791]]},"properties":{"name":"Stationsstraat","cyclenetwork":"yes","highway":"residential","vertex1":19385,"vertex2":19378}},{"type":"Feature","geometry":{"type":"LineString","coordinates":[[3.799014,51.06799],[3.80124,51.06881]]},"properties":{"name":"Stationsstraat","maxspeed":"50","highway":"residential","vertex1":19385,"vertex2":19376}},{"type":"Feature","geometry":{"type":"LineString","coordinates":[[3.799423,51.06805],[3.801722,51.0685]]},"properties":{"name":"Verbindingsstraat","cyclenetwork":"yes","highway":"residential","vertex1":19383,"vertex2":19764}},{"type":"Feature","geometry":{"type":"LineString","coordinates":[[3.801722,51.0685],[3.80124,51.06881]]},"properties":{"name":"Houtstraat","highway":"residential","vertex1":19764,"vertex2":19376}},{"type":"Feature","geometry":{"type":"LineString","coordinates":[[3.801722,51.0685],[3.802246,51.06819],[3.802703,51.06798],[3.802869,51.06794],[3.803133,51.06792],[3.803962,51.06787],[3.804546,51.06783],[3.804803,51.06778],[3.805078,51.06765],[3.805239,51.06747],[3.805272,51.06708]]},"properties":{"name":"Vossenberglaan","highway":"residential","vertex1":19764,"vertex2":19777}},{"type":"Feature","geometry":{"type":"LineString","coordinates":[[3.798465,51.06673],[3.798901,51.06675],[3.802279,51.06723],[3.802667,51.06727],[3.802908,51.06727],[3.803056,51.06725],[3.803492,51.06707],[3.803761,51.06704],[3.804109,51.06704],[3.805272,51.06708]]},"properties":{"name":"Eyloschlaan","highway":"residential","vertex1":19379,"vertex2":19777}},{"type":"Feature","geometry":{"type":"LineString","coordinates":[[3.798465,51.06673],[3.798548,51.06726],[3.798602,51.0678],[3.798613,51.06786],[3.798656,51.06791]]},"properties":{"name":"Stationsstraat","maxspeed":"50","highway":"residential","vertex1":19379,"vertex2":19378}},{"type":"Feature","geometry":{"type":"LineString","coordinates":[[3.80124,51.06881],[3.805491,51.07122]]},"properties":{"name":"Spoorwegstraat","highway":"residential","vertex1":19376,"vertex2":19746}},{"type":"Feature","geometry":{"type":"LineString","coordinates":[[3.80124,51.06881],[3.799774,51.06973]]},"properties":{"name":"Stationsstraat","maxspeed":"50","highway":"residential","vertex1":19376,"vertex2":19416}},{"type":"Feature","geometry":{"type":"LineString","coordinates":[[3.788651,51.06849],[3.788623,51.06847],[3.788504,51.06845],[3.787082,51.06846],[3.785916,51.0685],[3.785828,51.06849],[3.785747,51.06847]]},"properties":{"name":"Ketshage","highway":"residential","maxspeed":"30","vertex1":19375,"vertex2":19358}},{"type":"Feature","geometry":{"type":"LineString","coordinates":[[3.788651,51.06849],[3.788684,51.06855],[3.788578,51.06953]]},"properties":{"name":"Ketshage","highway":"residential","maxspeed":"30","vertex1":19375,"vertex2":19360}},{"type":"Feature","geometry":{"type":"LineString","coordinates":[[3.788651,51.06849],[3.788703,51.06847]]},"properties":{"motorcar":"no","highway":"track","vertex1":19375,"vertex2":19359}},{"type":"Feature","geometry":{"type":"LineString","coordinates":[[3.782365,51.06633],[3.781975,51.06767]]},"properties":{"name":"Kasteelwegel","highway":"path","vertex1":19374,"vertex2":19361}},{"type":"Feature","geometry":{"type":"LineString","coordinates":[[3.782365,51.06633],[3.777966,51.06533]]},"properties":{"name":"Alfons Braeckmanlaan","highway":"residential","vertex1":19374,"vertex2":19302}},{"type":"Feature","geometry":{"type":"LineString","coordinates":[[3.782365,51.06633],[3.784799,51.06684]]},"properties":{"name":"Alfons Braeckmanlaan","highway":"residential","vertex1":19374,"vertex2":19367}},{"type":"Feature","geometry":{"type":"LineString","coordinates":[[3.784155,51.06756],[3.784088,51.06753],[3.784028,51.06748],[3.783868,51.06726],[3.783827,51.0672],[3.783763,51.06717],[3.783083,51.06702],[3.782876,51.06702]]},"properties":{"name":"Speerdistelstraat","highway":"residential","maxspeed":"30","vertex1":19373,"vertex2":19366}},{"type":"Feature","geometry":{"type":"LineString","coordinates":[[3.784155,51.06756],[3.784334,51.06758],[3.784721,51.06766],[3.784939,51.06767],[3.785537,51.06763]]},"properties":{"name":"Kasteelwegel","highway":"residential","maxspeed":"30","vertex1":19373,"vertex2":19363}},{"type":"Feature","geometry":{"type":"LineString","coordinates":[[3.784155,51.06756],[3.783875,51.06768],[3.783254,51.06786],[3.783186,51.06788],[3.7831,51.06789],[3.782988,51.06789],[3.782387,51.06776],[3.781975,51.06767]]},"properties":{"name":"Kasteelwegel","highway":"residential","maxspeed":"30","vertex1":19373,"vertex2":19361}},{"type":"Feature","geometry":{"type":"LineString","coordinates":[[3.78663,51.06573],[3.786134,51.06585],[3.786036,51.06594],[3.785727,51.06596],[3.785534,51.06593],[3.785472,51.0658]]},"properties":{"highway":"track","vertex1":19372,"vertex2":19371}},{"type":"Feature","geometry":{"type":"LineString","coordinates":[[3.785472,51.0658],[3.78533,51.06583],[3.785264,51.0659],[3.785228,51.06601],[3.78519,51.06606]]},"properties":{"highway":"track","vertex1":19371,"vertex2":19369}},{"type":"Feature","geometry":{"type":"LineString","coordinates":[[3.78519,51.06606],[3.785152,51.06611],[3.784799,51.06684]]},"properties":{"highway":"track","vertex1":19369,"vertex2":19367}},{"type":"Feature","geometry":{"type":"LineString","coordinates":[[3.78519,51.06606],[3.785308,51.06605],[3.785648,51.06609],[3.785869,51.0661],[3.786386,51.0662],[3.786576,51.0662],[3.786713,51.06614],[3.78687,51.06608],[3.787042,51.066],[3.787208,51.06599],[3.787241,51.06597],[3.787411,51.06565],[3.787529,51.06543]]},"properties":{"highway":"track","vertex1":19369,"vertex2":19368}},{"type":"Feature","geometry":{"type":"LineString","coordinates":[[3.787529,51.06543],[3.787583,51.06539],[3.787652,51.06539],[3.78791,51.06543],[3.788278,51.06554],[3.788358,51.06556],[3.788511,51.06557]]},"properties":{"highway":"track","vertex1":19368,"vertex2":19355}},{"type":"Feature","geometry":{"type":"LineString","coordinates":[[3.784799,51.06684],[3.78544,51.06699]]},"properties":{"name":"Alfons Braeckmanlaan","highway":"residential","vertex1":19367,"vertex2":19352}},{"type":"Feature","geometry":{"type":"LineString","coordinates":[[3.790066,51.06855],[3.79011,51.0686],[3.790106,51.06871]]},"properties":{"motorcar":"no","highway":"track","vertex1":19365,"vertex2":19357}},{"type":"Feature","geometry":{"type":"LineString","coordinates":[[3.790066,51.06855],[3.789973,51.06854],[3.78931,51.06849],[3.788703,51.06847]]},"properties":{"motorcar":"no","highway":"track","vertex1":19365,"vertex2":19359}},{"type":"Feature","geometry":{"type":"LineString","coordinates":[[3.790104,51.06874],[3.790148,51.06875]]},"properties":{"name":"Beelbroekhof","highway":"residential","maxspeed":"30","vertex1":19364,"vertex2":19356}},{"type":"Feature","geometry":{"type":"LineString","coordinates":[[3.790104,51.06874],[3.790024,51.06874],[3.789978,51.06877],[3.789957,51.0688],[3.789938,51.0689],[3.789947,51.06894],[3.789984,51.06897],[3.790038,51.06898],[3.790176,51.06899]]},"properties":{"name":"Beelbroekhof","highway":"residential","maxspeed":"30","vertex1":19364,"vertex2":19362}},{"type":"Feature","geometry":{"type":"LineString","coordinates":[[3.790104,51.06874],[3.790106,51.06871]]},"properties":{"motorcar":"no","highway":"track","vertex1":19364,"vertex2":19357}},{"type":"Feature","geometry":{"type":"LineString","coordinates":[[3.785537,51.06763],[3.78544,51.06699]]},"properties":{"name":"Ketshage","highway":"residential","maxspeed":"30","vertex1":19363,"vertex2":19352}},{"type":"Feature","geometry":{"type":"LineString","coordinates":[[3.785537,51.06763],[3.785686,51.06843],[3.785747,51.06847]]},"properties":{"name":"Ketshage","highway":"residential","maxspeed":"30","vertex1":19363,"vertex2":19358}},{"type":"Feature","geometry":{"type":"LineString","coordinates":[[3.790176,51.06899],[3.790196,51.06881],[3.790184,51.06877],[3.790148,51.06875]]},"properties":{"name":"Beelbroekhof","highway":"residential","maxspeed":"30","vertex1":19362,"vertex2":19356}},{"type":"Feature","geometry":{"type":"LineString","coordinates":[[3.790176,51.06899],[3.790555,51.06902],[3.790644,51.06905],[3.791432,51.06942],[3.79159,51.0695]]},"properties":{"name":"Beelbroekhof","highway":"residential","maxspeed":"30","vertex1":19362,"vertex2":19418}},{"type":"Feature","geometry":{"type":"LineString","coordinates":[[3.781975,51.06767],[3.781668,51.06759],[3.780279,51.06727],[3.778656,51.06692],[3.778082,51.06681],[3.777941,51.0668]]},"properties":{"name":"Kasteelwegel","highway":"residential","maxspeed":"30","vertex1":19361,"vertex2":19350}},{"type":"Feature","geometry":{"type":"LineString","coordinates":[[3.785747,51.06847],[3.785666,51.06849],[3.785399,51.06851],[3.785102,51.0685],[3.783878,51.06861],[3.783255,51.06869],[3.782661,51.06878],[3.781886,51.06889],[3.781804,51.06894],[3.781723,51.069],[3.781679,51.06907],[3.781681,51.06919],[3.781838,51.06948],[3.781905,51.0696],[3.781768,51.07022]]},"properties":{"motorcar":"no","highway":"track","vertex1":19358,"vertex2":19499}}]}