{"type":"FeatureCollection","features":[{"type":"Feature","geometry":{"type":"LineString","coordinates":[[3.779297,51.01376],[3.80127,51.01376],[3.80127,50.99993],[3.779297,50.99993],[3.779297,51.01376]]},"properties":{"id":"89858220","zoom":"14"}},{"type":"Feature","geometry":{"type":"LineString","coordinates":[[3.794135,51.01019],[3.793888,51.01043]]},"properties":{"highway":"service","vertex1":4062,"vertex2":4035}},{"type":"Feature","geometry":{"type":"LineString","coordinates":[[3.79067,51.01043],[3.791334,51.00988]]},"properties":{"name":"Brusselsesteenweg","oneway":"yes","highway":"primary","maxspeed":"70","vertex1":4060,"vertex2":4023}},{"type":"Feature","geometry":{"type":"LineString","coordinates":[[3.79067,51.01043],[3.790613,51.01053]]},"properties":{"name":"Brusselsesteenweg","oneway":"yes","highway":"primary","maxspeed":"70","vertex1":4060,"vertex2":4030}},{"type":"Feature","geometry":{"type":"LineString","coordinates":[[3.794644,51.01353],[3.793285,51.01274]]},"properties":{"bridge":"yes","highway":"motorway","maxspeed":"120","oneway":"yes","vertex1":4059,"vertex2":4020}},{"type":"Feature","geometry":{"type":"LineString","coordinates":[[3.794644,51.01353],[3.796579,51.01465],[3.798568,51.01575],[3.800099,51.01655],[3.800892,51.01694],[3.801711,51.01733],[3.803274,51.01803],[3.804093,51.01837],[3.804946,51.01871],[3.806848,51.01941],[3.808795,51.02009],[3.810608,51.02071],[3.81151,51.02104],[3.812394,51.02138],[3.813862,51.02198],[3.814507,51.02227],[3.815172,51.02258],[3.815819,51.0229],[3.816717,51.02338],[3.818024,51.02417],[3.818677,51.02462],[3.819287,51.02508],[3.8199,51.02556],[3.820467,51.02604],[3.82129,51.02686]]},"properties":{"highway":"motorway","maxspeed":"120","oneway":"yes","vertex1":4059,"vertex2":4567}},{"type":"Feature","geometry":{"type":"LineString","coordinates":[[3.794177,51.01054],[3.794419,51.0103]]},"properties":{"highway":"service","vertex1":4058,"vertex2":4048}},{"type":"Feature","geometry":{"type":"LineString","coordinates":[[3.794177,51.01054],[3.794382,51.01063]]},"properties":{"highway":"service","vertex1":4058,"vertex2":4043}},{"type":"Feature","geometry":{"type":"LineString","coordinates":[[3.794177,51.01054],[3.793888,51.01043]]},"properties":{"highway":"service","vertex1":4058,"vertex2":4035}},{"type":"Feature","geometry":{"type":"LineString","coordinates":[[3.790532,51.01123],[3.790714,51.01126]]},"properties":{"oneway":"yes","highway":"motorway_link","vertex1":4057,"vertex2":4014}},{"type":"Feature","geometry":{"type":"LineString","coordinates":[[3.790532,51.01123],[3.790221,51.01105],[3.789844,51.01088],[3.789426,51.01071]]},"properties":{"bridge":"yes","oneway":"yes","highway":"motorway_link","vertex1":4057,"vertex2":3972}},{"type":"Feature","geometry":{"type":"LineString","coordinates":[[3.790687,51.01163],[3.790612,51.01197],[3.79063,51.01208],[3.790887,51.01237],[3.790876,51.01252],[3.79058,51.01293],[3.79064,51.01302],[3.790745,51.01311],[3.791458,51.01335]]},"properties":{"name":"Ruitersdreef","highway":"residential","vertex1":4056,"vertex2":4054}},{"type":"Feature","geometry":{"type":"LineString","coordinates":[[3.790687,51.01163],[3.789952,51.01122]]},"properties":{"name":"Ruitersdreef","highway":"residential","vertex1":4056,"vertex2":3992}},{"type":"Feature","geometry":{"type":"LineString","coordinates":[[3.790687,51.01163],[3.793255,51.01305]]},"properties":{"highway":"footway","vertex1":4056,"vertex2":4015}},{"type":"Feature","geometry":{"type":"LineString","coordinates":[[3.791536,51.00981],[3.791578,51.00993]]},"properties":{"name":"Akkerstraat","highway":"residential","oneway":"-1","vertex1":4055,"vertex2":4053}},{"type":"Feature","geometry":{"type":"LineString","coordinates":[[3.791536,51.00981],[3.791334,51.00988]]},"properties":{"highway":"primary_link","vertex1":4055,"vertex2":4023}},{"type":"Feature","geometry":{"type":"LineString","coordinates":[[3.791536,51.00981],[3.791462,51.00978]]},"properties":{"name":"Akkerstraat","highway":"residential","oneway":"-1","vertex1":4055,"vertex2":4027}},{"type":"Feature","geometry":{"type":"LineString","coordinates":[[3.791536,51.00981],[3.791848,51.00966],[3.791904,51.00964],[3.791962,51.00962]]},"properties":{"highway":"primary_link","vertex1":4055,"vertex2":4049}},{"type":"Feature","geometry":{"type":"LineString","coordinates":[[3.791578,51.00993],[3.791962,51.00962]]},"properties":{"name":"Brusselsesteenweg","oneway":"yes","highway":"primary","maxspeed":"70","vertex1":4053,"vertex2":4049}},{"type":"Feature","geometry":{"type":"LineString","coordinates":[[3.791578,51.00993],[3.791467,51.01003],[3.791332,51.01014]]},"properties":{"name":"Brusselsesteenweg","oneway":"yes","highway":"primary","maxspeed":"70","vertex1":4053,"vertex2":4018}},{"type":"Feature","geometry":{"type":"LineString","coordinates":[[3.799683,51.01365],[3.800223,51.01357]]},"properties":{"highway":"track","vertex1":4052,"vertex2":4047}},{"type":"Feature","geometry":{"type":"LineString","coordinates":[[3.799683,51.01365],[3.799607,51.01367],[3.79864,51.01393]]},"properties":{"highway":"track","vertex1":4052,"vertex2":4050}},{"type":"Feature","geometry":{"type":"LineString","coordinates":[[3.799683,51.01365],[3.799704,51.01429]]},"properties":{"highway":"path","vertex1":4052,"vertex2":4039}},{"type":"Feature","geometry":{"type":"LineString","coordinates":[[3.79864,51.01393],[3.797511,51.01361]]},"properties":{"highway":"track","vertex1":4050,"vertex2":4040}},{"type":"Feature","geometry":{"type":"LineString","coordinates":[[3.799704,51.01429],[3.800028,51.01429]]},"properties":{"highway":"path","vertex1":4039,"vertex2":4029}},{"type":"Feature","geometry":{"type":"LineString","coordinates":[[3.794621,51.01037],[3.794382,51.01063]]},"properties":{"highway":"service","vertex1":4051,"vertex2":4043}},{"type":"Feature","geometry":{"type":"LineString","coordinates":[[3.791962,51.00962],[3.792118,51.0097],[3.793252,51.01014]]},"properties":{"highway":"service","vertex1":4049,"vertex2":4019}},{"type":"Feature","geometry":{"type":"LineString","coordinates":[[3.791962,51.00962],[3.791931,51.00957]]},"properties":{"oneway":"yes","highway":"service","vertex1":4049,"vertex2":4021}},{"type":"Feature","geometry":{"type":"LineString","coordinates":[[3.791962,51.00962],[3.792067,51.00953]]},"properties":{"name":"Brusselsesteenweg","oneway":"yes","highway":"primary","maxspeed":"70","vertex1":4049,"vertex2":4033}},{"type":"Feature","geometry":{"type":"LineString","coordinates":[[3.800223,51.01357],[3.800118,51.01361],[3.800097,51.01364],[3.800031,51.01388],[3.80002,51.01405],[3.800006,51.01424],[3.800028,51.01429]]},"properties":{"name":"Kalverbosstraat","highway":"residential","vertex1":4047,"vertex2":4029}},{"type":"Feature","geometry":{"type":"LineString","coordinates":[[3.800223,51.01357],[3.800339,51.01353]]},"properties":{"name":"Kalverbosstraat","highway":"residential","vertex1":4047,"vertex2":4025}},{"type":"Feature","geometry":{"type":"LineString","coordinates":[[3.790752,51.01074],[3.791273,51.01107],[3.793187,51.01242],[3.793349,51.01253]]},"properties":{"oneway":"yes","highway":"motorway_link","vertex1":4045,"vertex2":4034}},{"type":"Feature","geometry":{"type":"LineString","coordinates":[[3.790752,51.01074],[3.790682,51.01063]]},"properties":{"oneway":"yes","highway":"motorway_link","vertex1":4045,"vertex2":4032}},{"type":"Feature","geometry":{"type":"LineString","coordinates":[[3.790752,51.01074],[3.790514,51.01075]]},"properties":{"oneway":"yes","highway":"motorway_link","vertex1":4045,"vertex2":4026}},{"type":"Feature","geometry":{"type":"LineString","coordinates":[[3.798308,51.01294],[3.79812,51.01305],[3.797511,51.01361]]},"properties":{"highway":"path","vertex1":4044,"vertex2":4040}},{"type":"Feature","geometry":{"type":"LineString","coordinates":[[3.798308,51.01294],[3.799692,51.01336]]},"properties":{"highway":"track","vertex1":4044,"vertex2":4038}},{"type":"Feature","geometry":{"type":"LineString","coordinates":[[3.794382,51.01063],[3.794427,51.01064]]},"properties":{"highway":"service","vertex1":4043,"vertex2":4013}},{"type":"Feature","geometry":{"type":"LineString","coordinates":[[3.794342,51.01327],[3.794489,51.01305],[3.794515,51.01282],[3.794965,51.01211],[3.795538,51.0114],[3.796291,51.01062],[3.797183,51.00985],[3.797985,51.00925],[3.79836,51.00898],[3.798787,51.0087],[3.800307,51.00792],[3.8006,51.00778]]},"properties":{"name":"Scheldetragel","cyclenetwork":"yes","highway":"track","vertex1":4042,"vertex2":3871}},{"type":"Feature","geometry":{"type":"LineString","coordinates":[[3.794342,51.01327],[3.794211,51.01343],[3.794034,51.0136],[3.792809,51.01607],[3.792261,51.01712],[3.791637,51.01813]]},"properties":{"name":"Scheldetragel","cyclenetwork":"yes","highway":"track","vertex1":4042,"vertex2":4067}},{"type":"Feature","geometry":{"type":"LineString","coordinates":[[3.794342,51.01327],[3.794368,51.01331]]},"properties":{"highway":"cycleway","vertex1":4042,"vertex2":4017}},{"type":"Feature","geometry":{"type":"LineString","coordinates":[[3.790979,51.01124],[3.789668,51.01048]]},"properties":{"bridge":"yes","highway":"motorway","maxspeed":"120","oneway":"yes","vertex1":4041,"vertex2":3994}},{"type":"Feature","geometry":{"type":"LineString","coordinates":[[3.790979,51.01124],[3.793203,51.01253],[3.793417,51.01265]]},"properties":{"highway":"motorway","maxspeed":"120","oneway":"yes","vertex1":4041,"vertex2":4024}},{"type":"Feature","geometry":{"type":"LineString","coordinates":[[3.797511,51.01361],[3.796796,51.01426]]},"properties":{"highway":"path","vertex1":4040,"vertex2":4061}},{"type":"Feature","geometry":{"type":"LineString","coordinates":[[3.796796,51.01426],[3.796421,51.01403],[3.794758,51.013],[3.794634,51.01299],[3.794564,51.01305],[3.794408,51.01331]]},"properties":{"highway":"track","vertex1":4061,"vertex2":4016}},{"type":"Feature","geometry":{"type":"LineString","coordinates":[[3.799692,51.01336],[3.800339,51.01353]]},"properties":{"name":"Kalverbosdreef","highway":"residential","vertex1":4038,"vertex2":4025}},{"type":"Feature","geometry":{"type":"LineString","coordinates":[[3.790604,51.01119],[3.789561,51.01059]]},"properties":{"bridge":"yes","highway":"motorway","maxspeed":"120","oneway":"yes","vertex1":4037,"vertex2":3974}},{"type":"Feature","geometry":{"type":"LineString","coordinates":[[3.790604,51.01119],[3.790714,51.01126]]},"properties":{"highway":"motorway","maxspeed":"120","oneway":"yes","vertex1":4037,"vertex2":4014}},{"type":"Feature","geometry":{"type":"LineString","coordinates":[[3.793888,51.01043],[3.793355,51.01023],[3.793252,51.01014]]},"properties":{"highway":"service","vertex1":4035,"vertex2":4019}},{"type":"Feature","geometry":{"type":"LineString","coordinates":[[3.793349,51.01253],[3.793417,51.01265]]},"properties":{"oneway":"yes","highway":"motorway_link","vertex1":4034,"vertex2":4024}},{"type":"Feature","geometry":{"type":"LineString","coordinates":[[3.792067,51.00953],[3.791931,51.00957]]},"properties":{"highway":"primary_link","vertex1":4033,"vertex2":4021}},{"type":"Feature","geometry":{"type":"LineString","coordinates":[[3.792067,51.00953],[3.792198,51.00941]]},"properties":{"name":"Brusselsesteenweg","oneway":"yes","highway":"primary","maxspeed":"70","vertex1":4033,"vertex2":3799}},{"type":"Feature","geometry":{"type":"LineString","coordinates":[[3.790682,51.01063],[3.790613,51.01053]]},"properties":{"oneway":"yes","highway":"motorway_link","vertex1":4032,"vertex2":4030}},{"type":"Feature","geometry":{"type":"LineString","coordinates":[[3.790682,51.01063],[3.790514,51.01075]]},"properties":{"name":"Brusselsesteenweg","oneway":"yes","highway":"primary","maxspeed":"70","vertex1":4032,"vertex2":4026}},{"type":"Feature","geometry":{"type":"LineString","coordinates":[[3.790682,51.01063],[3.790919,51.01047],[3.791332,51.01014]]},"properties":{"name":"Brusselsesteenweg","oneway":"yes","highway":"primary","maxspeed":"70","vertex1":4032,"vertex2":4018}},{"type":"Feature","geometry":{"type":"LineString","coordinates":[[3.790293,51.01035],[3.788349,51.00954],[3.787603,51.00924]]},"properties":{"oneway":"yes","highway":"motorway_link","vertex1":4031,"vertex2":3943}},{"type":"Feature","geometry":{"type":"LineString","coordinates":[[3.790293,51.01035],[3.790613,51.01053]]},"properties":{"oneway":"yes","highway":"motorway_link","vertex1":4031,"vertex2":4030}},{"type":"Feature","geometry":{"type":"LineString","coordinates":[[3.790613,51.01053],[3.790176,51.01088]]},"properties":{"name":"Brusselsesteenweg","oneway":"yes","highway":"primary","maxspeed":"70","vertex1":4030,"vertex2":4004}},{"type":"Feature","geometry":{"type":"LineString","coordinates":[[3.794687,51.01339],[3.793417,51.01265]]},"properties":{"bridge":"yes","highway":"motorway","maxspeed":"120","oneway":"yes","vertex1":4028,"vertex2":4024}},{"type":"Feature","geometry":{"type":"LineString","coordinates":[[3.794687,51.01339],[3.796631,51.01451]]},"properties":{"highway":"motorway","maxspeed":"120","oneway":"yes","vertex1":4028,"vertex2":4046}},{"type":"Feature","geometry":{"type":"LineString","coordinates":[[3.791462,51.00978],[3.791334,51.00988]]},"properties":{"name":"Brusselsesteenweg","oneway":"yes","highway":"primary","maxspeed":"70","vertex1":4027,"vertex2":4023}},{"type":"Feature","geometry":{"type":"LineString","coordinates":[[3.791462,51.00978],[3.791918,51.00945]]},"properties":{"name":"Brusselsesteenweg","oneway":"yes","highway":"primary","maxspeed":"70","vertex1":4027,"vertex2":3866}},{"type":"Feature","geometry":{"type":"LineString","coordinates":[[3.791462,51.00978],[3.790567,51.00946],[3.790186,51.0093],[3.789832,51.00911],[3.789467,51.00893],[3.789149,51.00877],[3.788793,51.00863],[3.788617,51.00855],[3.788414,51.00851],[3.788244,51.0085],[3.788096,51.00854],[3.787961,51.0086],[3.787225,51.00902],[3.786677,51.00931]]},"properties":{"name":"Akkerstraat","highway":"residential","vertex1":4027,"vertex2":3959}},{"type":"Feature","geometry":{"type":"LineString","coordinates":[[3.791462,51.00978],[3.79157,51.00975],[3.791692,51.00967],[3.791931,51.00957]]},"properties":{"highway":"primary_link","vertex1":4027,"vertex2":4021}},{"type":"Feature","geometry":{"type":"LineString","coordinates":[[3.790514,51.01075],[3.790176,51.01088]]},"properties":{"oneway":"yes","highway":"motorway_link","vertex1":4026,"vertex2":4004}},{"type":"Feature","geometry":{"type":"LineString","coordinates":[[3.790514,51.01075],[3.789952,51.01122]]},"properties":{"name":"Brusselsesteenweg","oneway":"yes","highway":"primary","maxspeed":"70","vertex1":4026,"vertex2":3992}},{"type":"Feature","geometry":{"type":"LineString","coordinates":[[3.800339,51.01353],[3.800485,51.0135],[3.801048,51.01327],[3.801229,51.01318],[3.801385,51.01308],[3.801591,51.01292],[3.801728,51.01284],[3.80189,51.01278],[3.802123,51.01273]]},"properties":{"name":"Kalverbosstraat","highway":"residential","vertex1":4025,"vertex2":3702}},{"type":"Feature","geometry":{"type":"LineString","coordinates":[[3.792055,51.01203],[3.792722,51.01242],[3.793285,51.01274]]},"properties":{"highway":"motorway","maxspeed":"120","oneway":"yes","vertex1":4022,"vertex2":4020}},{"type":"Feature","geometry":{"type":"LineString","coordinates":[[3.792055,51.01203],[3.790714,51.01126]]},"properties":{"highway":"motorway","maxspeed":"120","oneway":"yes","vertex1":4022,"vertex2":4014}},{"type":"Feature","geometry":{"type":"LineString","coordinates":[[3.791931,51.00957],[3.791914,51.00954],[3.791916,51.00948],[3.791918,51.00945]]},"properties":{"oneway":"yes","highway":"service","vertex1":4021,"vertex2":3866}},{"type":"Feature","geometry":{"type":"LineString","coordinates":[[3.793252,51.01014],[3.793333,51.01007],[3.793974,51.00937]]},"properties":{"highway":"service","vertex1":4019,"vertex2":3830}},{"type":"Feature","geometry":{"type":"LineString","coordinates":[[3.794368,51.01331],[3.794408,51.01331]]},"properties":{"highway":"cycleway","vertex1":4017,"vertex2":4016}},{"type":"Feature","geometry":{"type":"LineString","coordinates":[[3.794408,51.01331],[3.794225,51.01348],[3.794211,51.01358],[3.794268,51.01368],[3.795532,51.01437],[3.796184,51.01472],[3.796534,51.01491],[3.796749,51.01505],[3.796779,51.01512],[3.796528,51.01542],[3.796046,51.01635],[3.795633,51.01709]]},"properties":{"highway":"track","vertex1":4016,"vertex2":4063}},{"type":"Feature","geometry":{"type":"LineString","coordinates":[[3.793255,51.01305],[3.792753,51.01382],[3.792481,51.0144],[3.792252,51.01486],[3.791728,51.01605],[3.791315,51.01682],[3.791011,51.01737],[3.790852,51.01767],[3.790745,51.01784],[3.790506,51.01809],[3.790273,51.01833],[3.789903,51.01863],[3.789065,51.01932],[3.788296,51.01992],[3.787782,51.02035],[3.787676,51.02047],[3.787573,51.02059],[3.787477,51.02079],[3.787397,51.02097],[3.787342,51.02114],[3.787316,51.02131],[3.787308,51.02155],[3.787314,51.02168],[3.787339,51.02179],[3.787378,51.02203],[3.78745,51.02225],[3.787538,51.02258],[3.78766,51.02288],[3.787968,51.02354],[3.788053,51.02376],[3.78813,51.02398],[3.788182,51.0242],[3.788193,51.02435],[3.788191,51.0245],[3.788164,51.02465],[3.7881,51.0248],[3.78794,51.02504],[3.787798,51.02524],[3.787621,51.02547],[3.787434,51.02567],[3.787037,51.02615],[3.786908,51.02633],[3.786805,51.02655],[3.786655,51.02684]]},"properties":{"name":"Scheldekaai","highway":"track","vertex1":4015,"vertex2":4212}},{"type":"Feature","geometry":{"type":"LineString","coordinates":[[3.793255,51.01305],[3.793491,51.01287],[3.793653,51.01261],[3.79413,51.01174],[3.794337,51.01134],[3.794537,51.01097],[3.794783,51.01068],[3.795145,51.01038],[3.795642,51.01001],[3.796068,51.0097],[3.796366,51.00945],[3.796575,51.00923],[3.796739,51.00898],[3.796779,51.0089],[3.796796,51.00883],[3.796793,51.00874],[3.796777,51.00867],[3.796733,51.00859],[3.79665,51.00849],[3.79653,51.00839],[3.796389,51.00832],[3.796215,51.00826],[3.796129,51.00823]]},"properties":{"name":"Scheldekaai","highway":"track","vertex1":4015,"vertex2":3787}},{"type":"Feature","geometry":{"type":"LineString","coordinates":[[3.787092,51.01312],[3.787277,51.01318]]},"properties":{"oneway":"yes","highway":"motorway_link","vertex1":4012,"vertex2":3980}},{"type":"Feature","geometry":{"type":"LineString","coordinates":[[3.787092,51.01312],[3.786555,51.01274],[3.786352,51.01253],[3.786219,51.01233],[3.786138,51.01211],[3.786118,51.01191],[3.786115,51.01176],[3.786163,51.01158],[3.786231,51.01142],[3.786348,51.01125],[3.786527,51.01106]]},"properties":{"oneway":"yes","highway":"motorway_link","vertex1":4012,"vertex2":4011}},{"type":"Feature","geometry":{"type":"LineString","coordinates":[[3.787092,51.01312],[3.787109,51.0132],[3.787112,51.0133]]},"properties":{"oneway":"yes","highway":"motorway_link","vertex1":4012,"vertex2":3977}},{"type":"Feature","geometry":{"type":"LineString","coordinates":[[3.786527,51.01106],[3.786566,51.01102],[3.786919,51.01073],[3.78713,51.01054],[3.787251,51.0104],[3.78731,51.01031],[3.78735,51.01023],[3.787388,51.01014],[3.787396,51.01006],[3.787371,51.00988],[3.78731,51.00973]]},"properties":{"oneway":"yes","highway":"motorway_link","vertex1":4011,"vertex2":4009}},{"type":"Feature","geometry":{"type":"LineString","coordinates":[[3.786527,51.01106],[3.786493,51.0108],[3.786896,51.01034],[3.787056,51.01005],[3.786935,51.00975],[3.786788,51.00953],[3.786677,51.00931]]},"properties":{"bicycle":"no","motorcar":"no","foot":"no","highway":"service","vertex1":4011,"vertex2":3959}},{"type":"Feature","geometry":{"type":"LineString","coordinates":[[3.787587,51.01312],[3.787422,51.01316],[3.787344,51.01318]]},"properties":{"oneway":"yes","highway":"motorway_link","vertex1":4010,"vertex2":4008}},{"type":"Feature","geometry":{"type":"LineString","coordinates":[[3.787587,51.01312],[3.787344,51.01332]]},"properties":{"name":"Brusselsesteenweg","oneway":"yes","highway":"primary","maxspeed":"50","vertex1":4010,"vertex2":3975}},{"type":"Feature","geometry":{"type":"LineString","coordinates":[[3.787587,51.01312],[3.789491,51.01159]]},"properties":{"name":"Brusselsesteenweg","oneway":"yes","highway":"primary","maxspeed":"50","vertex1":4010,"vertex2":4002}},{"type":"Feature","geometry":{"type":"LineString","coordinates":[[3.78731,51.00973],[3.787199,51.00957]]},"properties":{"oneway":"yes","highway":"motorway_link","vertex1":4009,"vertex2":3987}},{"type":"Feature","geometry":{"type":"LineString","coordinates":[[3.78731,51.00973],[3.787573,51.00984],[3.788759,51.01048],[3.788938,51.01059]]},"properties":{"highway":"service","vertex1":4009,"vertex2":4006}},{"type":"Feature","geometry":{"type":"LineString","coordinates":[[3.787344,51.01318],[3.787277,51.01318]]},"properties":{"oneway":"yes","highway":"motorway_link","vertex1":4008,"vertex2":3980}},{"type":"Feature","geometry":{"type":"LineString","coordinates":[[3.787344,51.01318],[3.787344,51.01332]]},"properties":{"oneway":"yes","highway":"motorway_link","vertex1":4008,"vertex2":3975}},{"type":"Feature","geometry":{"type":"LineString","coordinates":[[3.787344,51.01318],[3.787327,51.01313]]},"properties":{"oneway":"yes","highway":"motorway_link","vertex1":4008,"vertex2":3995}},{"type":"Feature","geometry":{"type":"LineString","coordinates":[[3.788938,51.01059],[3.789065,51.01061],[3.789426,51.01071]]},"properties":{"oneway":"yes","highway":"motorway_link","vertex1":4006,"vertex2":3972}},{"type":"Feature","geometry":{"type":"LineString","coordinates":[[3.788938,51.01059],[3.788702,51.01056],[3.788266,51.01054],[3.787895,51.01057],[3.787566,51.01063],[3.78731,51.01071],[3.787076,51.0108],[3.78684,51.01094],[3.786642,51.0111],[3.7865,51.01124],[3.786371,51.01143],[3.786283,51.01163],[3.786244,51.01184],[3.78625,51.01205],[3.786301,51.01223],[3.786394,51.0124],[3.786487,51.01252],[3.786605,51.01262]]},"properties":{"oneway":"yes","highway":"motorway_link","vertex1":4006,"vertex2":3986}},{"type":"Feature","geometry":{"type":"LineString","coordinates":[[3.790176,51.01088],[3.789714,51.01124]]},"properties":{"name":"Brusselsesteenweg","oneway":"yes","highway":"primary","maxspeed":"70","vertex1":4004,"vertex2":3999}},{"type":"Feature","geometry":{"type":"LineString","coordinates":[[3.786755,51.01274],[3.786925,51.01281],[3.787089,51.01287],[3.787224,51.01289],[3.787391,51.01289],[3.787529,51.01286],[3.787665,51.01281],[3.787754,51.01274]]},"properties":{"oneway":"yes","highway":"motorway_link","vertex1":4003,"vertex2":3983}},{"type":"Feature","geometry":{"type":"LineString","coordinates":[[3.786755,51.01274],[3.786605,51.01262]]},"properties":{"oneway":"yes","highway":"motorway_link","vertex1":4003,"vertex2":3986}},{"type":"Feature","geometry":{"type":"LineString","coordinates":[[3.786755,51.01274],[3.787327,51.01313]]},"properties":{"oneway":"yes","highway":"motorway_link","vertex1":4003,"vertex2":3995}},{"type":"Feature","geometry":{"type":"LineString","coordinates":[[3.789491,51.01159],[3.789952,51.01122]]},"properties":{"name":"Brusselsesteenweg","oneway":"yes","highway":"primary","maxspeed":"70","vertex1":4002,"vertex2":3992}},{"type":"Feature","geometry":{"type":"LineString","coordinates":[[3.786644,51.01368],[3.786554,51.01375],[3.786168,51.01408]]},"properties":{"name":"Brusselsesteenweg","oneway":"yes","highway":"primary","vertex1":4000,"vertex2":3970}},{"type":"Feature","geometry":{"type":"LineString","coordinates":[[3.786644,51.01368],[3.787112,51.0133]]},"properties":{"name":"Brusselsesteenweg","oneway":"yes","highway":"primary","vertex1":4000,"vertex2":3977}},{"type":"Feature","geometry":{"type":"LineString","coordinates":[[3.786168,51.01408],[3.786232,51.01413]]},"properties":{"highway":"residential","vertex1":3970,"vertex2":4005}},{"type":"Feature","geometry":{"type":"LineString","coordinates":[[3.789714,51.01124],[3.789571,51.01135]]},"properties":{"name":"Brusselsesteenweg","oneway":"yes","highway":"primary","maxspeed":"70","vertex1":3999,"vertex2":3990}},{"type":"Feature","geometry":{"type":"LineString","coordinates":[[3.785976,51.00974],[3.785893,51.00959],[3.78583,51.00952],[3.785753,51.00946]]},"properties":{"name":"Zwaantjesstraat","highway":"residential","vertex1":3996,"vertex2":3935}},{"type":"Feature","geometry":{"type":"LineString","coordinates":[[3.785976,51.00974],[3.785966,51.00982],[3.78584,51.01014],[3.785646,51.01043],[3.785525,51.01059],[3.785379,51.01075],[3.785083,51.011],[3.783446,51.01204],[3.783427,51.01208],[3.783554,51.01254],[3.783647,51.01271],[3.783774,51.01287]]},"properties":{"name":"Zwaantjesstraat","highway":"residential","vertex1":3996,"vertex2":3988}},{"type":"Feature","geometry":{"type":"LineString","coordinates":[[3.785976,51.00974],[3.786066,51.00972],[3.786169,51.00963],[3.786389,51.00945],[3.786677,51.00931]]},"properties":{"name":"Akkerstraat","highway":"residential","vertex1":3996,"vertex2":3959}},{"type":"Feature","geometry":{"type":"LineString","coordinates":[[3.787327,51.01313],[3.787277,51.01318]]},"properties":{"name":"Brusselsesteenweg","oneway":"yes","highway":"primary","maxspeed":"70","vertex1":3995,"vertex2":3980}},{"type":"Feature","geometry":{"type":"LineString","coordinates":[[3.787327,51.01313],[3.787862,51.01271]]},"properties":{"name":"Brusselsesteenweg","oneway":"yes","highway":"primary","maxspeed":"70","vertex1":3995,"vertex2":3989}},{"type":"Feature","geometry":{"type":"LineString","coordinates":[[3.789668,51.01048],[3.788308,51.00971],[3.787482,51.00933]]},"properties":{"highway":"motorway","maxspeed":"120","oneway":"yes","vertex1":3994,"vertex2":3968}},{"type":"Feature","geometry":{"type":"LineString","coordinates":[[3.789571,51.01135],[3.788926,51.01184],[3.787862,51.01271]]},"properties":{"name":"Brusselsesteenweg","oneway":"yes","highway":"primary","maxspeed":"70","vertex1":3990,"vertex2":3989}},{"type":"Feature","geometry":{"type":"LineString","coordinates":[[3.787862,51.01271],[3.787754,51.01274]]},"properties":{"oneway":"yes","highway":"motorway_link","vertex1":3989,"vertex2":3983}},{"type":"Feature","geometry":{"type":"LineString","coordinates":[[3.783774,51.01287],[3.783126,51.01339],[3.782529,51.01388],[3.782448,51.01398],[3.782366,51.0141],[3.782106,51.01451],[3.78175,51.01511]]},"properties":{"name":"Nonnenwegel","maxspeed":"50","highway":"unclassified","vertex1":3988,"vertex2":4097}},{"type":"Feature","geometry":{"type":"LineString","coordinates":[[3.783774,51.01287],[3.785217,51.01382]]},"properties":{"name":"Zwaantjesstraat","highway":"residential","vertex1":3988,"vertex2":3997}},{"type":"Feature","geometry":{"type":"LineString","coordinates":[[3.787199,51.00957],[3.787061,51.00942],[3.786878,51.00929],[3.786757,51.00924]]},"properties":{"bridge":"yes","oneway":"yes","highway":"motorway_link","vertex1":3987,"vertex2":3947}},{"type":"Feature","geometry":{"type":"LineString","coordinates":[[3.783467,51.00956],[3.783456,51.00952],[3.78337,51.00929],[3.783359,51.00924],[3.783363,51.00918]]},"properties":{"name":"Varingstraat","highway":"residential","vertex1":3984,"vertex2":3919}},{"type":"Feature","geometry":{"type":"LineString","coordinates":[[3.783467,51.00956],[3.783443,51.00962],[3.7834,51.00968],[3.783265,51.0098],[3.783064,51.00992],[3.782604,51.01017],[3.782131,51.01042],[3.781872,51.01059],[3.781645,51.01076],[3.781572,51.0108]]},"properties":{"name":"Varingstraat","highway":"residential","vertex1":3984,"vertex2":3976}},{"type":"Feature","geometry":{"type":"LineString","coordinates":[[3.783467,51.00956],[3.783986,51.00899]]},"properties":{"name":"Varingstraat","highway":"residential","vertex1":3984,"vertex2":3921}},{"type":"Feature","geometry":{"type":"LineString","coordinates":[[3.787277,51.01318],[3.787112,51.0133]]},"properties":{"name":"Brusselsesteenweg","oneway":"yes","highway":"primary","vertex1":3980,"vertex2":3977}},{"type":"Feature","geometry":{"type":"LineString","coordinates":[[3.786931,51.01363],[3.787344,51.01332]]},"properties":{"name":"Brusselsesteenweg","oneway":"yes","highway":"primary","maxspeed":"50","vertex1":3979,"vertex2":3975}},{"type":"Feature","geometry":{"type":"LineString","coordinates":[[3.786931,51.01363],[3.786813,51.01371],[3.786505,51.01392],[3.786232,51.01413]]},"properties":{"name":"Brusselsesteenweg","oneway":"yes","highway":"primary","maxspeed":"50","vertex1":3979,"vertex2":4005}},{"type":"Feature","geometry":{"type":"LineString","coordinates":[[3.781572,51.0108],[3.78148,51.01081],[3.781146,51.01078],[3.779971,51.01062],[3.779628,51.01059],[3.779054,51.01061]]},"properties":{"name":"Varingstraat","highway":"residential","vertex1":3976,"vertex2":3376}},{"type":"Feature","geometry":{"type":"LineString","coordinates":[[3.781572,51.0108],[3.781585,51.0109],[3.781521,51.011],[3.778426,51.01264],[3.776578,51.01361]]},"properties":{"name":"Vijverwegel","oneway:bicycle":"no","highway":"residential","oneway":"-1","vertex1":3976,"vertex2":3359}},{"type":"Feature","geometry":{"type":"LineString","coordinates":[[3.789561,51.01059],[3.789027,51.01028],[3.788068,51.00977],[3.787364,51.00943]]},"properties":{"highway":"motorway","maxspeed":"120","oneway":"yes","vertex1":3974,"vertex2":3954}},{"type":"Feature","geometry":{"type":"LineString","coordinates":[[3.788615,51.00533],[3.789028,51.00531]]},"properties":{"highway":"service","vertex1":3969,"vertex2":3960}},{"type":"Feature","geometry":{"type":"LineString","coordinates":[[3.788615,51.00533],[3.788588,51.00529],[3.788448,51.00524],[3.78855,51.00497]]},"properties":{"highway":"service","vertex1":3969,"vertex2":3933}},{"type":"Feature","geometry":{"type":"LineString","coordinates":[[3.788615,51.00533],[3.788696,51.00584]]},"properties":{"highway":"service","vertex1":3969,"vertex2":3966}},{"type":"Feature","geometry":{"type":"LineString","coordinates":[[3.787482,51.00933],[3.786973,51.00911],[3.786453,51.0089]]},"properties":{"bridge":"yes","highway":"motorway","maxspeed":"120","oneway":"yes","vertex1":3968,"vertex2":3940}},{"type":"Feature","geometry":{"type":"LineString","coordinates":[[3.785514,51.00536],[3.78539,51.00531]]},"properties":{"name":"Poel","maxspeed":"30","highway":"living_street","vertex1":3967,"vertex2":3936}},{"type":"Feature","geometry":{"type":"LineString","coordinates":[[3.788696,51.00584],[3.789877,51.00576]]},"properties":{"name":"Kruisstraat","highway":"residential","vertex1":3966,"vertex2":3950}},{"type":"Feature","geometry":{"type":"LineString","coordinates":[[3.788696,51.00584],[3.788551,51.00585]]},"properties":{"name":"Kruisstraat","highway":"residential","vertex1":3966,"vertex2":3937}},{"type":"Feature","geometry":{"type":"LineString","coordinates":[[3.787767,51.00462],[3.787212,51.00441]]},"properties":{"highway":"service","vertex1":3965,"vertex2":3957}},{"type":"Feature","geometry":{"type":"LineString","coordinates":[[3.787767,51.00462],[3.787653,51.00473]]},"properties":{"name":"Driesstraat","highway":"residential","vertex1":3965,"vertex2":3953}},{"type":"Feature","geometry":{"type":"LineString","coordinates":[[3.787767,51.00462],[3.787868,51.00456],[3.787979,51.00451],[3.788103,51.00447],[3.788253,51.00443],[3.788768,51.00433],[3.788902,51.00429],[3.789039,51.00425],[3.789187,51.00418],[3.789349,51.00411],[3.78953,51.00401]]},"properties":{"name":"Driesstraat","highway":"residential","vertex1":3965,"vertex2":3899}},{"type":"Feature","geometry":{"type":"LineString","coordinates":[[3.788406,51.00679],[3.788312,51.00702]]},"properties":{"highway":"track","vertex1":3964,"vertex2":3958}},{"type":"Feature","geometry":{"type":"LineString","coordinates":[[3.788406,51.00679],[3.788467,51.00661],[3.788567,51.00605]]},"properties":{"name":"Kleine Driessstraat","highway":"residential","vertex1":3964,"vertex2":3945}},{"type":"Feature","geometry":{"type":"LineString","coordinates":[[3.786424,51.00841],[3.787017,51.00797],[3.78718,51.00787],[3.787172,51.00784],[3.787128,51.00783],[3.786889,51.00783],[3.785929,51.00782],[3.78436,51.00775],[3.780742,51.00757],[3.779438,51.00751],[3.777934,51.00736],[3.77753,51.0073]]},"properties":{"highway":"track","vertex1":3963,"vertex2":3420}},{"type":"Feature","geometry":{"type":"LineString","coordinates":[[3.780511,51.00851],[3.781464,51.00874]]},"properties":{"highway":"service","vertex1":3962,"vertex2":3914}},{"type":"Feature","geometry":{"type":"LineString","coordinates":[[3.783299,51.00528],[3.783925,51.00483]]},"properties":{"name":"Boterbloemstraat","maxspeed":"30","highway":"living_street","vertex1":3961,"vertex2":3944}},{"type":"Feature","geometry":{"type":"LineString","coordinates":[[3.783299,51.00528],[3.781846,51.0045],[3.781782,51.00447],[3.781716,51.00445],[3.781681,51.00444]]},"properties":{"name":"Begijnenwegel","highway":"residential","vertex1":3961,"vertex2":3925}},{"type":"Feature","geometry":{"type":"LineString","coordinates":[[3.783299,51.00528],[3.784617,51.00598],[3.785779,51.0066],[3.785832,51.00662],[3.785902,51.00663]]},"properties":{"name":"Begijnenwegel","highway":"residential","vertex1":3961,"vertex2":3928}},{"type":"Feature","geometry":{"type":"LineString","coordinates":[[3.788312,51.00702],[3.787082,51.0069],[3.785941,51.00677],[3.785901,51.00676]]},"properties":{"motorcar":"no","highway":"track","vertex1":3958,"vertex2":3915}},{"type":"Feature","geometry":{"type":"LineString","coordinates":[[3.788312,51.00702],[3.788538,51.00705]]},"properties":{"motorcar":"no","highway":"track","vertex1":3958,"vertex2":3922}},{"type":"Feature","geometry":{"type":"LineString","coordinates":[[3.78548,51.00521],[3.785476,51.00519],[3.785892,51.00471]]},"properties":{"bicycle":"yes","highway":"pedestrian","vertex1":3956,"vertex2":3934}},{"type":"Feature","geometry":{"type":"LineString","coordinates":[[3.78548,51.00521],[3.78539,51.00531]]},"properties":{"name":"Poel","maxspeed":"30","highway":"living_street","vertex1":3956,"vertex2":3936}},{"type":"Feature","geometry":{"type":"LineString","coordinates":[[3.786638,51.00912],[3.786059,51.00891],[3.785397,51.00871]]},"properties":{"bridge":"yes","highway":"motorway","maxspeed":"120","oneway":"yes","vertex1":3955,"vertex2":3951}},{"type":"Feature","geometry":{"type":"LineString","coordinates":[[3.786638,51.00912],[3.786922,51.00924],[3.787364,51.00943]]},"properties":{"bridge":"yes","highway":"motorway","maxspeed":"120","oneway":"yes","vertex1":3955,"vertex2":3954}},{"type":"Feature","geometry":{"type":"LineString","coordinates":[[3.786638,51.00912],[3.786757,51.00924]]},"properties":{"bridge":"yes","oneway":"yes","highway":"motorway_link","vertex1":3955,"vertex2":3947}},{"type":"Feature","geometry":{"type":"LineString","coordinates":[[3.787653,51.00473],[3.787563,51.00485],[3.787426,51.00512]]},"properties":{"name":"Driesstraat","highway":"residential","vertex1":3953,"vertex2":3952}},{"type":"Feature","geometry":{"type":"LineString","coordinates":[[3.787653,51.00473],[3.787512,51.00468],[3.787113,51.00456],[3.786968,51.0045],[3.786986,51.00433],[3.78707,51.00401],[3.786589,51.00394]]},"properties":{"highway":"pedestrian","vertex1":3953,"vertex2":3901}},{"type":"Feature","geometry":{"type":"LineString","coordinates":[[3.787426,51.00512],[3.786795,51.00498],[3.786388,51.00485],[3.786322,51.00481]]},"properties":{"name":"Boterbloemstraat","maxspeed":"30","highway":"living_street","vertex1":3952,"vertex2":3932}},{"type":"Feature","geometry":{"type":"LineString","coordinates":[[3.787426,51.00512],[3.787246,51.00543],[3.787114,51.00565]]},"properties":{"name":"Driesstraat","highway":"residential","vertex1":3952,"vertex2":3930}},{"type":"Feature","geometry":{"type":"LineString","coordinates":[[3.785397,51.00871],[3.784944,51.00858],[3.784485,51.00847],[3.783718,51.00832],[3.783342,51.00825]]},"properties":{"highway":"motorway","maxspeed":"120","oneway":"yes","vertex1":3951,"vertex2":3941}},{"type":"Feature","geometry":{"type":"LineString","coordinates":[[3.789877,51.00576],[3.789882,51.00513],[3.789783,51.00498]]},"properties":{"name":"Boomgaardstraat","highway":"residential","vertex1":3950,"vertex2":3916}},{"type":"Feature","geometry":{"type":"LineString","coordinates":[[3.789877,51.00576],[3.790346,51.00572],[3.790813,51.00563]]},"properties":{"name":"Kruisstraat","highway":"residential","vertex1":3950,"vertex2":3789}},{"type":"Feature","geometry":{"type":"LineString","coordinates":[[3.787862,51.00586],[3.788056,51.00587],[3.788551,51.00585]]},"properties":{"name":"Kruisstraat","highway":"residential","vertex1":3949,"vertex2":3937}},{"type":"Feature","geometry":{"type":"LineString","coordinates":[[3.787862,51.00586],[3.787114,51.00565]]},"properties":{"name":"Kruisstraat","highway":"residential","vertex1":3949,"vertex2":3930}},{"type":"Feature","geometry":{"type":"LineString","coordinates":[[3.787862,51.00586],[3.788031,51.00592],[3.788567,51.00605]]},"properties":{"name":"Kleine Driesstraat","oneway":"yes","highway":"residential","vertex1":3949,"vertex2":3945}},{"type":"Feature","geometry":{"type":"LineString","coordinates":[[3.789328,51.00483],[3.789567,51.00486],[3.789783,51.00498]]},"properties":{"name":"Boomgaardstraat","highway":"residential","vertex1":3948,"vertex2":3916}},{"type":"Feature","geometry":{"type":"LineString","coordinates":[[3.787394,51.00643],[3.786791,51.00615]]},"properties":{"highway":"service","vertex1":3946,"vertex2":3920}},{"type":"Feature","geometry":{"type":"LineString","coordinates":[[3.788567,51.00605],[3.788551,51.00585]]},"properties":{"name":"Kleine Driesstraat","oneway":"yes","highway":"residential","vertex1":3945,"vertex2":3937}},{"type":"Feature","geometry":{"type":"LineString","coordinates":[[3.783925,51.00483],[3.78334,51.00452],[3.783236,51.00446],[3.783192,51.00439],[3.783175,51.00431],[3.783193,51.00423],[3.783236,51.00417],[3.783303,51.00409],[3.783369,51.00403],[3.783428,51.00399],[3.78352,51.00394]]},"properties":{"name":"Boterbloemstraat","maxspeed":"30","highway":"living_street","vertex1":3944,"vertex2":3890}},{"type":"Feature","geometry":{"type":"LineString","coordinates":[[3.783925,51.00483],[3.78397,51.00485],[3.78401,51.00484],[3.784048,51.00483],[3.784095,51.00479],[3.78413,51.00478],[3.78418,51.00478],[3.784215,51.0048],[3.784579,51.00499],[3.784631,51.00502],[3.784702,51.00505],[3.78539,51.00531]]},"properties":{"name":"Poel","maxspeed":"30","highway":"living_street","vertex1":3944,"vertex2":3936}},{"type":"Feature","geometry":{"type":"LineString","coordinates":[[3.787603,51.00924],[3.786776,51.00895]]},"properties":{"bridge":"yes","oneway":"yes","highway":"motorway_link","vertex1":3943,"vertex2":3926}},{"type":"Feature","geometry":{"type":"LineString","coordinates":[[3.781215,51.00917],[3.781464,51.00874]]},"properties":{"highway":"service","vertex1":3942,"vertex2":3914}},{"type":"Feature","geometry":{"type":"LineString","coordinates":[[3.783342,51.00825],[3.7825,51.00814]]},"properties":{"highway":"motorway","maxspeed":"120","oneway":"yes","vertex1":3941,"vertex2":3924}},{"type":"Feature","geometry":{"type":"LineString","coordinates":[[3.786453,51.0089],[3.786776,51.00895]]},"properties":{"bridge":"yes","oneway":"yes","highway":"motorway_link","vertex1":3940,"vertex2":3926}},{"type":"Feature","geometry":{"type":"LineString","coordinates":[[3.786453,51.0089],[3.786028,51.00876],[3.785593,51.00862]]},"properties":{"bridge":"yes","highway":"motorway","maxspeed":"120","oneway":"yes","vertex1":3940,"vertex2":3939}},{"type":"Feature","geometry":{"type":"LineString","coordinates":[[3.785593,51.00862],[3.785101,51.00848],[3.784614,51.00836]]},"properties":{"highway":"motorway","maxspeed":"120","oneway":"yes","vertex1":3939,"vertex2":3918}},{"type":"Feature","geometry":{"type":"LineString","coordinates":[[3.786026,51.00597],[3.786791,51.00615]]},"properties":{"bicycle":"no","motorcar":"no","foot":"no","highway":"service","vertex1":3938,"vertex2":3920}},{"type":"Feature","geometry":{"type":"LineString","coordinates":[[3.785753,51.00946],[3.785473,51.00927],[3.785253,51.00909]]},"properties":{"name":"Varingstraat","bridge":"yes","highway":"residential","vertex1":3935,"vertex2":3917}},{"type":"Feature","geometry":{"type":"LineString","coordinates":[[3.785892,51.00471],[3.786322,51.00481]]},"properties":{"name":"Boterbloemstraat","maxspeed":"30","highway":"living_street","vertex1":3934,"vertex2":3932}},{"type":"Feature","geometry":{"type":"LineString","coordinates":[[3.785892,51.00471],[3.784738,51.00433],[3.784658,51.0043],[3.784618,51.00428],[3.784584,51.00425],[3.784335,51.00406],[3.784013,51.00378]]},"properties":{"name":"Boterbloemstraat","maxspeed":"30","highway":"living_street","vertex1":3934,"vertex2":3910}},{"type":"Feature","geometry":{"type":"LineString","coordinates":[[3.786322,51.00481],[3.786294,51.00476],[3.786302,51.0047],[3.786521,51.00412]]},"properties":{"name":"Klaverstraat","maxspeed":"30","highway":"living_street","vertex1":3932,"vertex2":3927}},{"type":"Feature","geometry":{"type":"LineString","coordinates":[[3.781576,51.00437],[3.781681,51.00444]]},"properties":{"highway":"cycleway","vertex1":3931,"vertex2":3925}},{"type":"Feature","geometry":{"type":"LineString","coordinates":[[3.781576,51.00437],[3.780155,51.00502],[3.77935,51.00544]]},"properties":{"cyclenetwork":"yes","highway":"cycleway","vertex1":3931,"vertex2":3929}},{"type":"Feature","geometry":{"type":"LineString","coordinates":[[3.781576,51.00437],[3.781683,51.00432],[3.783181,51.00362]]},"properties":{"cyclenetwork":"yes","highway":"cycleway","vertex1":3931,"vertex2":3908}},{"type":"Feature","geometry":{"type":"LineString","coordinates":[[3.787114,51.00565],[3.786865,51.00605],[3.786822,51.0061],[3.786791,51.00615]]},"properties":{"name":"Driesstraat","highway":"residential","vertex1":3930,"vertex2":3920}},{"type":"Feature","geometry":{"type":"LineString","coordinates":[[3.77935,51.00544],[3.779349,51.00548]]},"properties":{"oneway":"yes","cyclenetwork":"yes","highway":"cycleway","vertex1":3929,"vertex2":3923}},{"type":"Feature","geometry":{"type":"LineString","coordinates":[[3.77935,51.00544],[3.7792,51.0055],[3.779022,51.0055],[3.778927,51.00549]]},"properties":{"oneway":"yes","cyclenetwork":"yes","highway":"cycleway","vertex1":3929,"vertex2":3405}},{"type":"Feature","geometry":{"type":"LineString","coordinates":[[3.778927,51.00549],[3.778884,51.0057]]},"properties":{"name":"Gontrode Heirweg","cyclenetwork":"yes","highway":"tertiary","vertex1":3405,"vertex2":3428}},{"type":"Feature","geometry":{"type":"LineString","coordinates":[[3.785902,51.00663],[3.785972,51.00662],[3.786028,51.0066],[3.786724,51.00621],[3.786757,51.00618],[3.786791,51.00615]]},"properties":{"name":"Driesstraat","highway":"residential","vertex1":3928,"vertex2":3920}},{"type":"Feature","geometry":{"type":"LineString","coordinates":[[3.785902,51.00663],[3.785892,51.00674],[3.785901,51.00676]]},"properties":{"motorcar":"no","highway":"track","vertex1":3928,"vertex2":3915}},{"type":"Feature","geometry":{"type":"LineString","coordinates":[[3.786521,51.00412],[3.78604,51.00405],[3.785931,51.00403],[3.785326,51.00382],[3.785187,51.00375],[3.784811,51.00344]]},"properties":{"name":"Klaverstraat","maxspeed":"30","highway":"living_street","vertex1":3927,"vertex2":3902}},{"type":"Feature","geometry":{"type":"LineString","coordinates":[[3.786521,51.00412],[3.786589,51.00394]]},"properties":{"name":"Klaverstraat","maxspeed":"30","highway":"living_street","vertex1":3927,"vertex2":3901}},{"type":"Feature","geometry":{"type":"LineString","coordinates":[[3.781681,51.00444],[3.781588,51.00444],[3.781506,51.00446],[3.781437,51.00449],[3.779349,51.00548]]},"properties":{"name":"Begijnenwegel","highway":"residential","vertex1":3925,"vertex2":3923}},{"type":"Feature","geometry":{"type":"LineString","coordinates":[[3.7825,51.00814],[3.781682,51.00808],[3.781184,51.00806],[3.780682,51.00805],[3.779683,51.00805],[3.779153,51.00806],[3.778624,51.00807],[3.777908,51.00808]]},"properties":{"highway":"motorway","maxspeed":"120","oneway":"yes","vertex1":3924,"vertex2":3406}},{"type":"Feature","geometry":{"type":"LineString","coordinates":[[3.779349,51.00548],[3.778884,51.0057]]},"properties":{"name":"Begijnenwegel","highway":"residential","vertex1":3923,"vertex2":3428}},{"type":"Feature","geometry":{"type":"LineString","coordinates":[[3.779349,51.00548],[3.779353,51.00556],[3.779233,51.00562],[3.778981,51.00571],[3.778851,51.00581]]},"properties":{"oneway":"yes","cyclenetwork":"yes","highway":"cycleway","vertex1":3923,"vertex2":3413}},{"type":"Feature","geometry":{"type":"LineString","coordinates":[[3.778884,51.0057],[3.778851,51.00581]]},"properties":{"name":"Gontrode Heirweg","cyclenetwork":"yes","highway":"tertiary","vertex1":3428,"vertex2":3413}},{"type":"Feature","geometry":{"type":"LineString","coordinates":[[3.788538,51.00705],[3.788612,51.00705],[3.789423,51.00711],[3.790169,51.00716],[3.790604,51.00718],[3.790935,51.00717]]},"properties":{"motorcar":"no","highway":"track","vertex1":3922,"vertex2":3876}},{"type":"Feature","geometry":{"type":"LineString","coordinates":[[3.788538,51.00705],[3.788317,51.0071],[3.786131,51.00702],[3.785558,51.007],[3.784986,51.00697],[3.78381,51.00692],[3.781463,51.00682],[3.779747,51.00665],[3.779338,51.00662],[3.77848,51.00653]]},"properties":{"highway":"footway","vertex1":3922,"vertex2":3408}},{"type":"Feature","geometry":{"type":"LineString","coordinates":[[3.783363,51.00918],[3.783376,51.00914],[3.783399,51.00907],[3.783442,51.009],[3.783569,51.00888],[3.783692,51.0088],[3.783848,51.00874],[3.783994,51.00871],[3.784124,51.00869],[3.784236,51.00869],[3.784368,51.0087],[3.784527,51.00873],[3.784743,51.0088],[3.784917,51.00887],[3.785025,51.00893],[3.785071,51.00896],[3.785253,51.00909]]},"properties":{"name":"Varingstraat","highway":"residential","vertex1":3919,"vertex2":3917}},{"type":"Feature","geometry":{"type":"LineString","coordinates":[[3.783363,51.00918],[3.781464,51.00874]]},"properties":{"highway":"service","vertex1":3919,"vertex2":3914}},{"type":"Feature","geometry":{"type":"LineString","coordinates":[[3.784614,51.00836],[3.78389,51.00821],[3.783103,51.00808],[3.78244,51.00801],[3.78177,51.00795],[3.781251,51.00793],[3.780732,51.00792],[3.779705,51.00792],[3.777562,51.00797],[3.777079,51.00797]]},"properties":{"highway":"motorway","maxspeed":"120","oneway":"yes","vertex1":3918,"vertex2":3427}},{"type":"Feature","geometry":{"type":"LineString","coordinates":[[3.789783,51.00498],[3.789976,51.00489],[3.790124,51.00483],[3.790505,51.00496]]},"properties":{"highway":"service","vertex1":3916,"vertex2":3828}},{"type":"Feature","geometry":{"type":"LineString","coordinates":[[3.785901,51.00676],[3.785544,51.00678],[3.785287,51.00677],[3.783344,51.00666],[3.78159,51.00657],[3.780355,51.00648],[3.779219,51.00637],[3.778781,51.00632],[3.778527,51.00629]]},"properties":{"bicycle":"no","highway":"path","vertex1":3915,"vertex2":3417}},{"type":"Feature","geometry":{"type":"LineString","coordinates":[[3.790108,51.00332],[3.790559,51.00344],[3.790717,51.00345],[3.790841,51.00344],[3.791538,51.0033],[3.791647,51.00328],[3.791725,51.00325],[3.791788,51.00322],[3.791913,51.00314]]},"properties":{"name":"Hof Ten Dries","highway":"residential","vertex1":3913,"vertex2":3882}},{"type":"Feature","geometry":{"type":"LineString","coordinates":[[3.790108,51.00332],[3.789846,51.00375],[3.789772,51.00382],[3.789701,51.00389],[3.789616,51.00395],[3.78953,51.00401]]},"properties":{"name":"Driesstraat","highway":"residential","vertex1":3913,"vertex2":3899}},{"type":"Feature","geometry":{"type":"LineString","coordinates":[[3.790108,51.00332],[3.790214,51.00314],[3.790468,51.00272]]},"properties":{"name":"Driesstraat","highway":"residential","vertex1":3913,"vertex2":3881}},{"type":"Feature","geometry":{"type":"LineString","coordinates":[[3.783228,51.00212],[3.783056,51.00203],[3.782646,51.00186],[3.782413,51.00172],[3.781915,51.00141],[3.781188,51.00092]]},"properties":{"name":"Gontrode Heirweg","highway":"residential","vertex1":3912,"vertex2":3904}},{"type":"Feature","geometry":{"type":"LineString","coordinates":[[3.786868,51.0032],[3.787413,51.00327]]},"properties":{"name":"Grote Elsdries","maxspeed":"30","highway":"living_street","vertex1":3911,"vertex2":3893}},{"type":"Feature","geometry":{"type":"LineString","coordinates":[[3.786868,51.0032],[3.786966,51.00282]]},"properties":{"highway":"pedestrian","vertex1":3911,"vertex2":3892}},{"type":"Feature","geometry":{"type":"LineString","coordinates":[[3.786868,51.0032],[3.786732,51.00354]]},"properties":{"name":"Klaverstraat","maxspeed":"30","highway":"living_street","vertex1":3911,"vertex2":3907}},{"type":"Feature","geometry":{"type":"LineString","coordinates":[[3.784013,51.00378],[3.783856,51.00384],[3.783763,51.00388],[3.783642,51.00391],[3.78352,51.00394]]},"properties":{"name":"Boterbloemstraat","maxspeed":"30","highway":"living_street","vertex1":3910,"vertex2":3890}},{"type":"Feature","geometry":{"type":"LineString","coordinates":[[3.784013,51.00378],[3.7843,51.00364]]},"properties":{"name":"Boterbloemstraat","maxspeed":"30","highway":"living_street","vertex1":3910,"vertex2":3900}},{"type":"Feature","geometry":{"type":"LineString","coordinates":[[3.784422,51.0036],[3.784811,51.00344]]},"properties":{"name":"Pinksterbloemstraat","maxspeed":"30","highway":"living_street","vertex1":3909,"vertex2":3902}},{"type":"Feature","geometry":{"type":"LineString","coordinates":[[3.784422,51.0036],[3.784411,51.0036],[3.784333,51.00364],[3.7843,51.00364]]},"properties":{"highway":"path","vertex1":3909,"vertex2":3900}},{"type":"Feature","geometry":{"type":"LineString","coordinates":[[3.783181,51.00362],[3.78352,51.00394]]},"properties":{"bicycle":"yes","highway":"pedestrian","vertex1":3908,"vertex2":3890}},{"type":"Feature","geometry":{"type":"LineString","coordinates":[[3.786732,51.00354],[3.786312,51.00345],[3.786033,51.00334],[3.785813,51.00323],[3.785603,51.00309]]},"properties":{"name":"Klaverstraat","maxspeed":"30","highway":"living_street","vertex1":3907,"vertex2":3897}},{"type":"Feature","geometry":{"type":"LineString","coordinates":[[3.786732,51.00354],[3.786589,51.00394]]},"properties":{"name":"Klaverstraat","maxspeed":"30","highway":"living_street","vertex1":3907,"vertex2":3901}},{"type":"Feature","geometry":{"type":"LineString","coordinates":[[3.781765,51.00329],[3.781508,51.00319],[3.781262,51.00309],[3.781063,51.00302],[3.780887,51.00294],[3.780664,51.00278],[3.78036,51.00254],[3.780167,51.00239],[3.779652,51.00211],[3.779249,51.0019],[3.779094,51.0018],[3.778617,51.0015],[3.778454,51.0014],[3.777864,51.00141],[3.77764,51.00121],[3.777419,51.00108],[3.777359,51.00107]]},"properties":{"highway":"track","vertex1":3906,"vertex2":3584}},{"type":"Feature","geometry":{"type":"LineString","coordinates":[[3.788055,51.00334],[3.788031,51.00327],[3.78803,51.00317],[3.78803,51.00277]]},"properties":{"name":"Koningin Fabiolalaan","highway":"residential","vertex1":3905,"vertex2":3891}},{"type":"Feature","geometry":{"type":"LineString","coordinates":[[3.788055,51.00334],[3.787413,51.00327]]},"properties":{"name":"Grote Elsdries","highway":"residential","maxspeed":"30","vertex1":3905,"vertex2":3893}},{"type":"Feature","geometry":{"type":"LineString","coordinates":[[3.788055,51.00334],[3.788103,51.00339],[3.788189,51.00342],[3.788303,51.00344],[3.788504,51.00349],[3.788685,51.00354]]},"properties":{"name":"Grote Elsdries","highway":"residential","maxspeed":"30","vertex1":3905,"vertex2":3889}},{"type":"Feature","geometry":{"type":"LineString","coordinates":[[3.784947,51.00338],[3.784811,51.00344]]},"properties":{"name":"Pinksterbloemstraat","maxspeed":"30","highway":"living_street","vertex1":3903,"vertex2":3902}},{"type":"Feature","geometry":{"type":"LineString","coordinates":[[3.784947,51.00338],[3.785603,51.00309]]},"properties":{"highway":"pedestrian","vertex1":3903,"vertex2":3897}},{"type":"Feature","geometry":{"type":"LineString","coordinates":[[3.78953,51.00401],[3.788923,51.00365],[3.788807,51.00359],[3.788685,51.00354]]},"properties":{"name":"Grote Elsdries","highway":"residential","maxspeed":"30","vertex1":3899,"vertex2":3889}},{"type":"Feature","geometry":{"type":"LineString","coordinates":[[3.780642,51.00129],[3.781624,51.00187],[3.782429,51.00234],[3.782703,51.0025]]},"properties":{"name":"Gontrode Heirweg","highway":"residential","vertex1":3898,"vertex2":3896}},{"type":"Feature","geometry":{"type":"LineString","coordinates":[[3.785603,51.00309],[3.785554,51.00304],[3.786451,51.00264],[3.786584,51.00261],[3.786698,51.00262],[3.78681,51.00265],[3.786891,51.00269],[3.78695,51.00274],[3.786972,51.00279],[3.786966,51.00282]]},"properties":{"name":"Pinksterbloemstraat","maxspeed":"30","highway":"living_street","vertex1":3897,"vertex2":3892}},{"type":"Feature","geometry":{"type":"LineString","coordinates":[[3.788989,51.00298],[3.788981,51.00305],[3.788685,51.00354]]},"properties":{"name":"Klein-Begijnhof-Straat","highway":"residential","maxspeed":"30","vertex1":3895,"vertex2":3889}},{"type":"Feature","geometry":{"type":"LineString","coordinates":[[3.788989,51.00298],[3.78893,51.00289],[3.788481,51.00277],[3.78803,51.00277]]},"properties":{"highway":"pedestrian","vertex1":3895,"vertex2":3891}},{"type":"Feature","geometry":{"type":"LineString","coordinates":[[3.788474,51.00203],[3.790468,51.00272]]},"properties":{"name":"Meelbessenlaan","highway":"residential","maxspeed":"30","vertex1":3894,"vertex2":3881}},{"type":"Feature","geometry":{"type":"LineString","coordinates":[[3.788474,51.00203],[3.788155,51.00241],[3.788108,51.00248],[3.788072,51.00254],[3.788043,51.00261],[3.788031,51.00268],[3.78803,51.00277]]},"properties":{"name":"Koningin Fabiolalaan","highway":"residential","vertex1":3894,"vertex2":3891}},{"type":"Feature","geometry":{"type":"LineString","coordinates":[[3.795793,51.00315],[3.791381,51.0054],[3.790813,51.00563]]},"properties":{"name":"Kruisstraat","highway":"residential","vertex1":3888,"vertex2":3789}},{"type":"Feature","geometry":{"type":"LineString","coordinates":[[3.79213,51.00306],[3.792136,51.00304]]},"properties":{"name":"Hof Ten Dries","highway":"residential","vertex1":3887,"vertex2":3886}},{"type":"Feature","geometry":{"type":"LineString","coordinates":[[3.79213,51.00306],[3.792101,51.0031],[3.792047,51.00312],[3.791988,51.00314],[3.791913,51.00314]]},"properties":{"name":"Hof Ten Dries","highway":"residential","vertex1":3887,"vertex2":3882}},{"type":"Feature","geometry":{"type":"LineString","coordinates":[[3.792136,51.00304],[3.792144,51.00302],[3.792122,51.00299],[3.79206,51.00298],[3.791988,51.00299],[3.79195,51.00303],[3.791932,51.00306],[3.791916,51.0031],[3.791913,51.00314]]},"properties":{"name":"Hof Ten Dries","highway":"residential","vertex1":3886,"vertex2":3882}},{"type":"Feature","geometry":{"type":"LineString","coordinates":[[3.792136,51.00304],[3.792303,51.00301],[3.792901,51.00302],[3.793352,51.00303],[3.793403,51.00303]]},"properties":{"highway":"pedestrian","vertex1":3886,"vertex2":3883}},{"type":"Feature","geometry":{"type":"LineString","coordinates":[[3.79975,51.00381],[3.79958,51.00372]]},"properties":{"highway":"service","vertex1":3885,"vertex2":3879}},{"type":"Feature","geometry":{"type":"LineString","coordinates":[[3.79975,51.00381],[3.799786,51.00383]]},"properties":{"highway":"service","vertex1":3885,"vertex2":3880}},{"type":"Feature","geometry":{"type":"LineString","coordinates":[[3.79975,51.00381],[3.798091,51.00472],[3.797974,51.00478],[3.797963,51.00479]]},"properties":{"highway":"cycleway","vertex1":3885,"vertex2":3869}},{"type":"Feature","geometry":{"type":"LineString","coordinates":[[3.799852,51.00386],[3.798848,51.00439],[3.798487,51.0046]]},"properties":{"name":"Brusselsesteenweg","highway":"primary","bicycle":"no","maxspeed":"50","vertex1":3884,"vertex2":3812}},{"type":"Feature","geometry":{"type":"LineString","coordinates":[[3.799852,51.00386],[3.799786,51.00383]]},"properties":{"highway":"service","vertex1":3884,"vertex2":3880}},{"type":"Feature","geometry":{"type":"LineString","coordinates":[[3.799786,51.00383],[3.798216,51.00468],[3.798096,51.00479]]},"properties":{"oneway":"yes","highway":"service","vertex1":3880,"vertex2":3806}},{"type":"Feature","geometry":{"type":"LineString","coordinates":[[3.800814,51.00465],[3.800687,51.00457]]},"properties":{"tunnel":"building_passage","highway":"unclassified","vertex1":3878,"vertex2":3791}},{"type":"Feature","geometry":{"type":"LineString","coordinates":[[3.800814,51.00465],[3.800839,51.00467]]},"properties":{"highway":"unclassified","vertex1":3878,"vertex2":3860}},{"type":"Feature","geometry":{"type":"LineString","coordinates":[[3.794019,51.00799],[3.795022,51.00722]]},"properties":{"bridge":"yes","highway":"cycleway","vertex1":3877,"vertex2":3875}},{"type":"Feature","geometry":{"type":"LineString","coordinates":[[3.794019,51.00799],[3.793769,51.00817]]},"properties":{"highway":"cycleway","vertex1":3877,"vertex2":3849}},{"type":"Feature","geometry":{"type":"LineString","coordinates":[[3.790935,51.00717],[3.791065,51.00721],[3.791337,51.00723],[3.791957,51.00724],[3.792983,51.00726],[3.795132,51.00727],[3.795902,51.00725],[3.796776,51.00725],[3.797441,51.00724],[3.798527,51.00718],[3.798814,51.00714],[3.799045,51.00709],[3.799465,51.00693]]},"properties":{"motorcar":"no","highway":"track","vertex1":3876,"vertex2":3865}},{"type":"Feature","geometry":{"type":"LineString","coordinates":[[3.790935,51.00717],[3.791478,51.00713],[3.792064,51.00711],[3.792664,51.00706],[3.793249,51.00705],[3.794721,51.007],[3.794917,51.00698],[3.795099,51.00703]]},"properties":{"motorcar":"no","highway":"track","vertex1":3876,"vertex2":3823}},{"type":"Feature","geometry":{"type":"LineString","coordinates":[[3.795022,51.00722],[3.795264,51.00702]]},"properties":{"highway":"cycleway","vertex1":3875,"vertex2":3827}},{"type":"Feature","geometry":{"type":"LineString","coordinates":[[3.80126,51.00623],[3.801367,51.0062],[3.802155,51.00589],[3.802772,51.00562],[3.802534,51.00539]]},"properties":{"highway":"footway","vertex1":3874,"vertex2":3756}},{"type":"Feature","geometry":{"type":"LineString","coordinates":[[3.80126,51.00623],[3.801034,51.00603]]},"properties":{"highway":"footway","vertex1":3874,"vertex2":3831}},{"type":"Feature","geometry":{"type":"LineString","coordinates":[[3.80126,51.00623],[3.801344,51.00631]]},"properties":{"highway":"footway","vertex1":3874,"vertex2":3751}},{"type":"Feature","geometry":{"type":"LineString","coordinates":[[3.802534,51.00539],[3.802332,51.0052]]},"properties":{"highway":"footway","vertex1":3756,"vertex2":3730}},{"type":"Feature","geometry":{"type":"LineString","coordinates":[[3.802534,51.00539],[3.801034,51.00603]]},"properties":{"highway":"footway","vertex1":3756,"vertex2":3831}},{"type":"Feature","geometry":{"type":"LineString","coordinates":[[3.798063,51.00483],[3.797927,51.00491]]},"properties":{"highway":"footway","vertex1":3873,"vertex2":3790}},{"type":"Feature","geometry":{"type":"LineString","coordinates":[[3.798063,51.00483],[3.798097,51.00485],[3.79796,51.00493]]},"properties":{"highway":"footway","vertex1":3873,"vertex2":3796}},{"type":"Feature","geometry":{"type":"LineString","coordinates":[[3.798141,51.00482],[3.798109,51.0048]]},"properties":{"highway":"footway","vertex1":3872,"vertex2":3798}},{"type":"Feature","geometry":{"type":"LineString","coordinates":[[3.798141,51.00482],[3.798251,51.00475],[3.798226,51.00473]]},"properties":{"highway":"footway","vertex1":3872,"vertex2":3788}},{"type":"Feature","geometry":{"type":"LineString","coordinates":[[3.8006,51.00778],[3.802392,51.00686],[3.803122,51.00647],[3.803685,51.00614],[3.803733,51.0061]]},"properties":{"name":"Scheldetragel","cyclenetwork":"yes","highway":"track","vertex1":3871,"vertex2":3785}},{"type":"Feature","geometry":{"type":"LineString","coordinates":[[3.8006,51.00778],[3.801136,51.00812]]},"properties":{"highway":"track","vertex1":3871,"vertex2":3807}},{"type":"Feature","geometry":{"type":"LineString","coordinates":[[3.794773,51.00829],[3.79543,51.00829]]},"properties":{"highway":"service","vertex1":3870,"vertex2":3864}},{"type":"Feature","geometry":{"type":"LineString","coordinates":[[3.794773,51.00829],[3.794476,51.00829]]},"properties":{"highway":"service","vertex1":3870,"vertex2":3822}},{"type":"Feature","geometry":{"type":"LineString","coordinates":[[3.794773,51.00829],[3.794238,51.00883]]},"properties":{"highway":"service","vertex1":3870,"vertex2":3848}},{"type":"Feature","geometry":{"type":"LineString","coordinates":[[3.797963,51.00479],[3.797944,51.00478],[3.797874,51.00475],[3.797785,51.00471],[3.797688,51.00468],[3.797568,51.00465],[3.797433,51.00464],[3.797295,51.00464],[3.797169,51.00466],[3.797031,51.00469],[3.796927,51.00473],[3.796822,51.00479],[3.796804,51.0048]]},"properties":{"bicycle":"no","motorcar":"no","foot":"no","highway":"service","vertex1":3869,"vertex2":3809}},{"type":"Feature","geometry":{"type":"LineString","coordinates":[[3.797963,51.00479],[3.797883,51.00484],[3.797646,51.005],[3.797572,51.00506]]},"properties":{"highway":"cycleway","vertex1":3869,"vertex2":3810}},{"type":"Feature","geometry":{"type":"LineString","coordinates":[[3.797963,51.00479],[3.798003,51.00481]]},"properties":{"highway":"cycleway","vertex1":3869,"vertex2":3804}},{"type":"Feature","geometry":{"type":"LineString","coordinates":[[3.792305,51.00917],[3.791918,51.00945]]},"properties":{"name":"Brusselsesteenweg","oneway":"yes","highway":"primary","maxspeed":"70","vertex1":3868,"vertex2":3866}},{"type":"Feature","geometry":{"type":"LineString","coordinates":[[3.792305,51.00917],[3.79292,51.00874]]},"properties":{"name":"Brusselsesteenweg","oneway":"yes","highway":"primary","maxspeed":"70","vertex1":3868,"vertex2":3793}},{"type":"Feature","geometry":{"type":"LineString","coordinates":[[3.792305,51.00917],[3.792404,51.00922]]},"properties":{"highway":"primary_link","vertex1":3868,"vertex2":3845}},{"type":"Feature","geometry":{"type":"LineString","coordinates":[[3.798708,51.00518],[3.799067,51.00545]]},"properties":{"name":"Kapellestraat","oneway":"yes","highway":"residential","vertex1":3867,"vertex2":3805}},{"type":"Feature","geometry":{"type":"LineString","coordinates":[[3.798708,51.00518],[3.798198,51.00481]]},"properties":{"name":"Kapellestraat","oneway":"yes","highway":"residential","vertex1":3867,"vertex2":3825}},{"type":"Feature","geometry":{"type":"LineString","coordinates":[[3.798708,51.00518],[3.798769,51.00515]]},"properties":{"bicycle":"no","motorcar":"no","foot":"no","highway":"service","vertex1":3867,"vertex2":3801}},{"type":"Feature","geometry":{"type":"LineString","coordinates":[[3.799465,51.00693],[3.799965,51.00684],[3.801107,51.00658],[3.801689,51.00638],[3.802218,51.0061],[3.803053,51.00565],[3.803469,51.00555],[3.803608,51.00547],[3.803675,51.00533]]},"properties":{"motorcar":"no","highway":"track","vertex1":3865,"vertex2":3766}},{"type":"Feature","geometry":{"type":"LineString","coordinates":[[3.799465,51.00693],[3.798823,51.00699],[3.798223,51.00702],[3.797561,51.00703],[3.796917,51.00703],[3.796727,51.00698]]},"properties":{"highway":"cycleway","vertex1":3865,"vertex2":3853}},{"type":"Feature","geometry":{"type":"LineString","coordinates":[[3.793749,51.00797],[3.794727,51.0072]]},"properties":{"bridge":"yes","oneway":"yes","highway":"cycleway","vertex1":3863,"vertex2":3861}},{"type":"Feature","geometry":{"type":"LineString","coordinates":[[3.793749,51.00797],[3.793334,51.00841]]},"properties":{"oneway":"yes","highway":"cycleway","vertex1":3863,"vertex2":3855}},{"type":"Feature","geometry":{"type":"LineString","coordinates":[[3.800404,51.00486],[3.799067,51.00545]]},"properties":{"name":"Wezenstraat","highway":"residential","vertex1":3862,"vertex2":3805}},{"type":"Feature","geometry":{"type":"LineString","coordinates":[[3.800404,51.00486],[3.800839,51.00467]]},"properties":{"name":"Wezenstraat","highway":"residential","vertex1":3862,"vertex2":3860}},{"type":"Feature","geometry":{"type":"LineString","coordinates":[[3.800404,51.00486],[3.800542,51.00497]]},"properties":{"highway":"service","vertex1":3862,"vertex2":3837}},{"type":"Feature","geometry":{"type":"LineString","coordinates":[[3.794727,51.0072],[3.79509,51.00694]]},"properties":{"oneway":"yes","highway":"cycleway","vertex1":3861,"vertex2":3838}},{"type":"Feature","geometry":{"type":"LineString","coordinates":[[3.800839,51.00467],[3.801613,51.00432]]},"properties":{"name":"Wezenstraat","highway":"residential","vertex1":3860,"vertex2":3737}},{"type":"Feature","geometry":{"type":"LineString","coordinates":[[3.794488,51.00752],[3.794962,51.00714]]},"properties":{"bridge":"yes","name":"Brusselsesteenweg","highway":"primary","maxspeed":"70","bicycle":"no","vertex1":3859,"vertex2":3803}},{"type":"Feature","geometry":{"type":"LineString","coordinates":[[3.794488,51.00752],[3.793885,51.00799]]},"properties":{"bridge":"yes","name":"Brusselsesteenweg","highway":"primary","maxspeed":"70","bicycle":"no","vertex1":3859,"vertex2":3821}},{"type":"Feature","geometry":{"type":"LineString","coordinates":[[3.79368,51.00857],[3.793869,51.00866]]},"properties":{"highway":"service","vertex1":3858,"vertex2":3856}},{"type":"Feature","geometry":{"type":"LineString","coordinates":[[3.79368,51.00857],[3.793334,51.00841]]},"properties":{"highway":"service","vertex1":3858,"vertex2":3855}},{"type":"Feature","geometry":{"type":"LineString","coordinates":[[3.79368,51.00857],[3.793969,51.00829]]},"properties":{"highway":"service","vertex1":3858,"vertex2":3847}},{"type":"Feature","geometry":{"type":"LineString","coordinates":[[3.79366,51.00817],[3.793885,51.00799]]},"properties":{"name":"Brusselsesteenweg","highway":"primary","maxspeed":"70","bicycle":"no","vertex1":3857,"vertex2":3821}},{"type":"Feature","geometry":{"type":"LineString","coordinates":[[3.79366,51.00817],[3.793334,51.00841]]},"properties":{"name":"Brusselsesteenweg","highway":"primary","maxspeed":"70","bicycle":"no","vertex1":3857,"vertex2":3855}},{"type":"Feature","geometry":{"type":"LineString","coordinates":[[3.79366,51.00817],[3.793769,51.00817]]},"properties":{"name":"Scheldekaai","highway":"track","vertex1":3857,"vertex2":3849}},{"type":"Feature","geometry":{"type":"LineString","coordinates":[[3.793869,51.00866],[3.794048,51.00875]]},"properties":{"highway":"service","vertex1":3856,"vertex2":3824}},{"type":"Feature","geometry":{"type":"LineString","coordinates":[[3.793869,51.00866],[3.794213,51.00829]]},"properties":{"highway":"service","vertex1":3856,"vertex2":3815}},{"type":"Feature","geometry":{"type":"LineString","coordinates":[[3.793334,51.00841],[3.793157,51.00854],[3.79292,51.00874]]},"properties":{"name":"Brusselsesteenweg","highway":"primary","maxspeed":"70","bicycle":"no","vertex1":3855,"vertex2":3793}},{"type":"Feature","geometry":{"type":"LineString","coordinates":[[3.796472,51.00471],[3.796371,51.00485],[3.796348,51.00489],[3.796346,51.00494],[3.796373,51.00497],[3.79643,51.005],[3.796483,51.005],[3.796552,51.005],[3.796619,51.00497],[3.796682,51.00492],[3.796753,51.00484],[3.796804,51.0048]]},"properties":{"bicycle":"no","motorcar":"no","foot":"no","highway":"service","vertex1":3854,"vertex2":3809}},{"type":"Feature","geometry":{"type":"LineString","coordinates":[[3.796472,51.00471],[3.79653,51.0047]]},"properties":{"bicycle":"no","motorcar":"no","foot":"no","highway":"service","vertex1":3854,"vertex2":3852}},{"type":"Feature","geometry":{"type":"LineString","coordinates":[[3.796727,51.00698],[3.796811,51.00685],[3.797983,51.00611],[3.798666,51.0057]]},"properties":{"name":"Wezenstraat","highway":"residential","vertex1":3853,"vertex2":3819}},{"type":"Feature","geometry":{"type":"LineString","coordinates":[[3.796727,51.00698],[3.796589,51.00693],[3.796532,51.00692],[3.796336,51.00698],[3.796216,51.00699],[3.796146,51.00698],[3.796068,51.00695],[3.795978,51.00688],[3.795896,51.00686],[3.795781,51.00686],[3.795581,51.00687],[3.795504,51.00683]]},"properties":{"highway":"service","vertex1":3853,"vertex2":3835}},{"type":"Feature","geometry":{"type":"LineString","coordinates":[[3.796727,51.00698],[3.79645,51.00704],[3.796246,51.00706],[3.795076,51.00705]]},"properties":{"bicycle":"no","highway":"path","vertex1":3853,"vertex2":3816}},{"type":"Feature","geometry":{"type":"LineString","coordinates":[[3.79653,51.0047],[3.796613,51.00472],[3.7967,51.00474],[3.796766,51.00478],[3.796804,51.0048]]},"properties":{"bicycle":"no","motorcar":"no","foot":"no","highway":"service","vertex1":3852,"vertex2":3809}},{"type":"Feature","geometry":{"type":"LineString","coordinates":[[3.799153,51.00497],[3.799188,51.005],[3.799217,51.00501],[3.799259,51.00501],[3.799308,51.005],[3.799692,51.00482]]},"properties":{"bicycle":"no","motorcar":"no","foot":"no","highway":"service","vertex1":3851,"vertex2":3841}},{"type":"Feature","geometry":{"type":"LineString","coordinates":[[3.799153,51.00497],[3.799124,51.00495]]},"properties":{"tunnel":"building_passage","bicycle":"no","motorcar":"no","foot":"no","highway":"service","vertex1":3851,"vertex2":3795}},{"type":"Feature","geometry":{"type":"LineString","coordinates":[[3.79252,51.00684],[3.794618,51.0068],[3.794779,51.00681],[3.794854,51.00683],[3.79509,51.00694]]},"properties":{"highway":"service","vertex1":3850,"vertex2":3838}},{"type":"Feature","geometry":{"type":"LineString","coordinates":[[3.793769,51.00817],[3.794608,51.00817],[3.795151,51.00817]]},"properties":{"name":"Scheldekaai","highway":"track","vertex1":3849,"vertex2":3829}},{"type":"Feature","geometry":{"type":"LineString","coordinates":[[3.794238,51.00883],[3.794422,51.00892]]},"properties":{"highway":"service","vertex1":3848,"vertex2":3802}},{"type":"Feature","geometry":{"type":"LineString","coordinates":[[3.794238,51.00883],[3.794048,51.00875]]},"properties":{"highway":"service","vertex1":3848,"vertex2":3824}},{"type":"Feature","geometry":{"type":"LineString","coordinates":[[3.794238,51.00883],[3.793805,51.00928]]},"properties":{"highway":"service","vertex1":3848,"vertex2":3817}},{"type":"Feature","geometry":{"type":"LineString","coordinates":[[3.793969,51.00829],[3.794213,51.00829]]},"properties":{"highway":"service","vertex1":3847,"vertex2":3815}},{"type":"Feature","geometry":{"type":"LineString","coordinates":[[3.794988,51.00863],[3.794606,51.00901]]},"properties":{"highway":"service","vertex1":3846,"vertex2":3800}},{"type":"Feature","geometry":{"type":"LineString","coordinates":[[3.794988,51.00863],[3.794796,51.00855],[3.794422,51.00892]]},"properties":{"highway":"service","vertex1":3846,"vertex2":3802}},{"type":"Feature","geometry":{"type":"LineString","coordinates":[[3.792404,51.00922],[3.79292,51.00874]]},"properties":{"name":"Brusselsesteenweg","oneway":"yes","highway":"primary","maxspeed":"70","vertex1":3845,"vertex2":3793}},{"type":"Feature","geometry":{"type":"LineString","coordinates":[[3.792404,51.00922],[3.792198,51.00941]]},"properties":{"name":"Brusselsesteenweg","oneway":"yes","highway":"primary","maxspeed":"70","vertex1":3845,"vertex2":3799}},{"type":"Feature","geometry":{"type":"LineString","coordinates":[[3.797849,51.00801],[3.797539,51.00806],[3.797124,51.00809],[3.796568,51.0081],[3.796296,51.00814],[3.796129,51.00823]]},"properties":{"highway":"path","vertex1":3844,"vertex2":3787}},{"type":"Feature","geometry":{"type":"LineString","coordinates":[[3.797849,51.00801],[3.798029,51.00795],[3.79819,51.00794],[3.798379,51.00793],[3.79853,51.00791]]},"properties":{"highway":"path","vertex1":3844,"vertex2":3842}},{"type":"Feature","geometry":{"type":"LineString","coordinates":[[3.797849,51.00801],[3.797772,51.00796],[3.7977,51.00795],[3.797404,51.00795],[3.796056,51.00793],[3.794094,51.00789],[3.793825,51.00788]]},"properties":{"highway":"path","vertex1":3844,"vertex2":3820}},{"type":"Feature","geometry":{"type":"LineString","coordinates":[[3.80026,51.00609],[3.80082,51.00584]]},"properties":{"highway":"footway","vertex1":3843,"vertex2":3839}},{"type":"Feature","geometry":{"type":"LineString","coordinates":[[3.798948,51.00481],[3.799095,51.00492]]},"properties":{"bicycle":"no","motorcar":"no","foot":"no","highway":"service","vertex1":3840,"vertex2":3826}},{"type":"Feature","geometry":{"type":"LineString","coordinates":[[3.80082,51.00584],[3.801034,51.00603]]},"properties":{"highway":"footway","vertex1":3839,"vertex2":3831}},{"type":"Feature","geometry":{"type":"LineString","coordinates":[[3.80082,51.00584],[3.800608,51.00565]]},"properties":{"highway":"footway","vertex1":3839,"vertex2":3813}},{"type":"Feature","geometry":{"type":"LineString","coordinates":[[3.80082,51.00584],[3.802332,51.0052]]},"properties":{"highway":"footway","vertex1":3839,"vertex2":3730}},{"type":"Feature","geometry":{"type":"LineString","coordinates":[[3.79509,51.00694],[3.795166,51.00698]]},"properties":{"highway":"service","vertex1":3838,"vertex2":3836}},{"type":"Feature","geometry":{"type":"LineString","coordinates":[[3.79509,51.00694],[3.795723,51.00644],[3.796419,51.00588],[3.796968,51.00547],[3.797542,51.00508],[3.797572,51.00506]]},"properties":{"highway":"cycleway","vertex1":3838,"vertex2":3810}},{"type":"Feature","geometry":{"type":"LineString","coordinates":[[3.795166,51.00698],[3.795413,51.00678]]},"properties":{"name":"Brusselsesteenweg","highway":"primary","maxspeed":"70","bicycle":"no","vertex1":3836,"vertex2":3833}},{"type":"Feature","geometry":{"type":"LineString","coordinates":[[3.795166,51.00698],[3.795099,51.00703]]},"properties":{"name":"Brusselsesteenweg","highway":"primary","maxspeed":"70","bicycle":"no","vertex1":3836,"vertex2":3823}},{"type":"Feature","geometry":{"type":"LineString","coordinates":[[3.795166,51.00698],[3.795264,51.00702]]},"properties":{"highway":"cycleway","vertex1":3836,"vertex2":3827}},{"type":"Feature","geometry":{"type":"LineString","coordinates":[[3.795504,51.00683],[3.795413,51.00678]]},"properties":{"highway":"service","vertex1":3835,"vertex2":3833}},{"type":"Feature","geometry":{"type":"LineString","coordinates":[[3.795504,51.00683],[3.79565,51.00671],[3.796329,51.00618],[3.796866,51.00574],[3.797096,51.00558],[3.797687,51.00519],[3.798127,51.00489]]},"properties":{"highway":"cycleway","vertex1":3835,"vertex2":3792}},{"type":"Feature","geometry":{"type":"LineString","coordinates":[[3.795504,51.00683],[3.795264,51.00702]]},"properties":{"highway":"cycleway","vertex1":3835,"vertex2":3827}},{"type":"Feature","geometry":{"type":"LineString","coordinates":[[3.79362,51.0092],[3.794048,51.00875]]},"properties":{"highway":"service","vertex1":3834,"vertex2":3824}},{"type":"Feature","geometry":{"type":"LineString","coordinates":[[3.79362,51.0092],[3.793805,51.00928]]},"properties":{"highway":"service","vertex1":3834,"vertex2":3817}},{"type":"Feature","geometry":{"type":"LineString","coordinates":[[3.795413,51.00678],[3.796593,51.00586],[3.796773,51.00571],[3.79732,51.00532]]},"properties":{"name":"Brusselsesteenweg","highway":"primary","maxspeed":"70","bicycle":"no","vertex1":3833,"vertex2":3814}},{"type":"Feature","geometry":{"type":"LineString","coordinates":[[3.800564,51.00561],[3.800608,51.00565]]},"properties":{"highway":"footway","vertex1":3832,"vertex2":3813}},{"type":"Feature","geometry":{"type":"LineString","coordinates":[[3.793974,51.00937],[3.794422,51.00892]]},"properties":{"highway":"service","vertex1":3830,"vertex2":3802}},{"type":"Feature","geometry":{"type":"LineString","coordinates":[[3.793974,51.00937],[3.794167,51.00946]]},"properties":{"highway":"service","vertex1":3830,"vertex2":3818}},{"type":"Feature","geometry":{"type":"LineString","coordinates":[[3.793974,51.00937],[3.793805,51.00928]]},"properties":{"highway":"service","vertex1":3830,"vertex2":3817}},{"type":"Feature","geometry":{"type":"LineString","coordinates":[[3.795151,51.00817],[3.795655,51.00817],[3.795933,51.00819],[3.796129,51.00823]]},"properties":{"name":"Scheldekaai","highway":"track","vertex1":3829,"vertex2":3787}},{"type":"Feature","geometry":{"type":"LineString","coordinates":[[3.799095,51.00492],[3.799124,51.00495]]},"properties":{"tunnel":"building_passage","bicycle":"no","motorcar":"no","foot":"no","highway":"service","vertex1":3826,"vertex2":3795}},{"type":"Feature","geometry":{"type":"LineString","coordinates":[[3.798198,51.00481],[3.7984,51.00467],[3.798487,51.0046]]},"properties":{"name":"Brusselsesteenweg","oneway":"yes","highway":"primary","maxspeed":"50","vertex1":3825,"vertex2":3812}},{"type":"Feature","geometry":{"type":"LineString","coordinates":[[3.798198,51.00481],[3.798127,51.00489]]},"properties":{"highway":"cycleway","vertex1":3825,"vertex2":3792}},{"type":"Feature","geometry":{"type":"LineString","coordinates":[[3.798198,51.00481],[3.798094,51.00487]]},"properties":{"name":"Brusselsesteenweg","oneway":"yes","highway":"primary","bicycle":"no","maxspeed":"50","vertex1":3825,"vertex2":3794}},{"type":"Feature","geometry":{"type":"LineString","coordinates":[[3.794048,51.00875],[3.794476,51.00829]]},"properties":{"highway":"service","vertex1":3824,"vertex2":3822}},{"type":"Feature","geometry":{"type":"LineString","coordinates":[[3.795099,51.00703],[3.795076,51.00705]]},"properties":{"name":"Brusselsesteenweg","highway":"primary","maxspeed":"70","bicycle":"no","vertex1":3823,"vertex2":3816}},{"type":"Feature","geometry":{"type":"LineString","coordinates":[[3.794476,51.00829],[3.794213,51.00829]]},"properties":{"highway":"service","vertex1":3822,"vertex2":3815}},{"type":"Feature","geometry":{"type":"LineString","coordinates":[[3.798666,51.0057],[3.798675,51.00569],[3.799067,51.00545]]},"properties":{"name":"Wezenstraat","highway":"residential","vertex1":3819,"vertex2":3805}},{"type":"Feature","geometry":{"type":"LineString","coordinates":[[3.798666,51.0057],[3.798834,51.00579],[3.799244,51.00599]]},"properties":{"highway":"service","vertex1":3819,"vertex2":3797}},{"type":"Feature","geometry":{"type":"LineString","coordinates":[[3.794167,51.00946],[3.794606,51.00901]]},"properties":{"highway":"service","vertex1":3818,"vertex2":3800}},{"type":"Feature","geometry":{"type":"LineString","coordinates":[[3.795076,51.00705],[3.794962,51.00714]]},"properties":{"name":"Brusselsesteenweg","highway":"primary","maxspeed":"70","bicycle":"no","vertex1":3816,"vertex2":3803}},{"type":"Feature","geometry":{"type":"LineString","coordinates":[[3.79732,51.00532],[3.797435,51.00522],[3.798027,51.00483]]},"properties":{"name":"Brusselsesteenweg","oneway":"yes","highway":"primary","bicycle":"no","vertex1":3814,"vertex2":3808}},{"type":"Feature","geometry":{"type":"LineString","coordinates":[[3.79732,51.00532],[3.797469,51.00525],[3.798094,51.00487]]},"properties":{"name":"Brusselsesteenweg","oneway":"yes","highway":"primary","bicycle":"no","maxspeed":"50","vertex1":3814,"vertex2":3794}},{"type":"Feature","geometry":{"type":"LineString","coordinates":[[3.800608,51.00565],[3.801408,51.00531],[3.801567,51.00525]]},"properties":{"highway":"footway","vertex1":3813,"vertex2":3743}},{"type":"Feature","geometry":{"type":"LineString","coordinates":[[3.798487,51.0046],[3.79836,51.00464],[3.798096,51.00479]]},"properties":{"name":"Brusselsesteenweg","oneway":"yes","highway":"primary","bicycle":"no","vertex1":3812,"vertex2":3806}},{"type":"Feature","geometry":{"type":"LineString","coordinates":[[3.800317,51.00432],[3.800687,51.00457]]},"properties":{"name":"Koning Boudewijnstraat","highway":"unclassified","vertex1":3811,"vertex2":3791}},{"type":"Feature","geometry":{"type":"LineString","coordinates":[[3.797572,51.00506],[3.797659,51.00502],[3.797754,51.00497],[3.797925,51.00486],[3.798003,51.00481]]},"properties":{"oneway":"yes","highway":"cycleway","vertex1":3810,"vertex2":3804}},{"type":"Feature","geometry":{"type":"LineString","coordinates":[[3.798027,51.00483],[3.798096,51.00479]]},"properties":{"name":"Brusselsesteenweg","oneway":"yes","highway":"primary","bicycle":"no","vertex1":3808,"vertex2":3806}},{"type":"Feature","geometry":{"type":"LineString","coordinates":[[3.798027,51.00483],[3.798003,51.00481]]},"properties":{"highway":"cycleway","vertex1":3808,"vertex2":3804}},{"type":"Feature","geometry":{"type":"LineString","coordinates":[[3.798027,51.00483],[3.798094,51.00487]]},"properties":{"highway":"cycleway","vertex1":3808,"vertex2":3794}},{"type":"Feature","geometry":{"type":"LineString","coordinates":[[3.794422,51.00892],[3.794606,51.00901]]},"properties":{"highway":"service","vertex1":3802,"vertex2":3800}},{"type":"Feature","geometry":{"type":"LineString","coordinates":[[3.798769,51.00515],[3.799124,51.00495]]},"properties":{"tunnel":"building_passage","bicycle":"no","motorcar":"no","foot":"no","highway":"service","vertex1":3801,"vertex2":3795}},{"type":"Feature","geometry":{"type":"LineString","coordinates":[[3.798109,51.0048],[3.798226,51.00473]]},"properties":{"highway":"footway","vertex1":3798,"vertex2":3788}},{"type":"Feature","geometry":{"type":"LineString","coordinates":[[3.79796,51.00493],[3.797927,51.00491]]},"properties":{"highway":"footway","vertex1":3796,"vertex2":3790}},{"type":"Feature","geometry":{"type":"LineString","coordinates":[[3.798094,51.00487],[3.798127,51.00489]]},"properties":{"highway":"cycleway","vertex1":3794,"vertex2":3792}}]}