{"type":"FeatureCollection","features":[{"type":"Feature","geometry":{"type":"LineString","coordinates":[[3.735352,51.11042],[3.757324,51.11042],[3.757324,51.09662],[3.735352,51.09662],[3.735352,51.11042]]},"properties":{"id":"89743530","zoom":"14"}},{"type":"Feature","geometry":{"type":"LineString","coordinates":[[3.752402,51.0975],[3.752465,51.09752]]},"properties":{"highway":"footway","vertex1":17980,"vertex2":17906}},{"type":"Feature","geometry":{"type":"LineString","coordinates":[[3.752402,51.0975],[3.751962,51.09811],[3.752006,51.09812],[3.751836,51.09835],[3.751865,51.09836]]},"properties":{"highway":"footway","vertex1":17980,"vertex2":17904}},{"type":"Feature","geometry":{"type":"LineString","coordinates":[[3.750787,51.09991],[3.751865,51.09836]]},"properties":{"bicycle":"no","motorcar":"no","foot":"no","maxspeed":"30","highway":"service","vertex1":17979,"vertex2":17904}},{"type":"Feature","geometry":{"type":"LineString","coordinates":[[3.750787,51.09991],[3.750585,51.10004],[3.750176,51.10065],[3.750166,51.10082],[3.75,51.10108]]},"properties":{"bicycle":"no","motorcar":"no","foot":"no","maxspeed":"30","highway":"service","vertex1":17979,"vertex2":17977}},{"type":"Feature","geometry":{"type":"LineString","coordinates":[[3.750787,51.09991],[3.750835,51.09992],[3.751973,51.09838]]},"properties":{"highway":"footway","vertex1":17979,"vertex2":17970}},{"type":"Feature","geometry":{"type":"LineString","coordinates":[[3.750787,51.09991],[3.750578,51.09985],[3.750121,51.10046],[3.749811,51.10088],[3.749949,51.10093],[3.74996,51.10098],[3.749906,51.10106]]},"properties":{"highway":"footway","vertex1":17979,"vertex2":17961}},{"type":"Feature","geometry":{"type":"LineString","coordinates":[[3.751969,51.10183],[3.751756,51.10177]]},"properties":{"highway":"footway","vertex1":17978,"vertex2":17914}},{"type":"Feature","geometry":{"type":"LineString","coordinates":[[3.751969,51.10183],[3.752219,51.1019]]},"properties":{"highway":"footway","vertex1":17978,"vertex2":17976}},{"type":"Feature","geometry":{"type":"LineString","coordinates":[[3.751969,51.10183],[3.751944,51.10186]]},"properties":{"highway":"footway","vertex1":17978,"vertex2":17963}},{"type":"Feature","geometry":{"type":"LineString","coordinates":[[3.75,51.10108],[3.749888,51.10125]]},"properties":{"bicycle":"no","motorcar":"no","foot":"no","maxspeed":"30","highway":"service","vertex1":17977,"vertex2":17975}},{"type":"Feature","geometry":{"type":"LineString","coordinates":[[3.75,51.10108],[3.749906,51.10106]]},"properties":{"highway":"footway","vertex1":17977,"vertex2":17961}},{"type":"Feature","geometry":{"type":"LineString","coordinates":[[3.75,51.10108],[3.750028,51.1011],[3.749967,51.10118],[3.749969,51.10123],[3.749979,51.10125],[3.750007,51.10126]]},"properties":{"highway":"footway","vertex1":17977,"vertex2":17955}},{"type":"Feature","geometry":{"type":"LineString","coordinates":[[3.752219,51.1019],[3.753511,51.10228]]},"properties":{"highway":"footway","vertex1":17976,"vertex2":17925}},{"type":"Feature","geometry":{"type":"LineString","coordinates":[[3.752219,51.1019],[3.752194,51.10193]]},"properties":{"highway":"footway","vertex1":17976,"vertex2":17915}},{"type":"Feature","geometry":{"type":"LineString","coordinates":[[3.749888,51.10125],[3.75094,51.10157]]},"properties":{"bicycle":"no","motorcar":"no","foot":"no","maxspeed":"30","highway":"service","vertex1":17975,"vertex2":17971}},{"type":"Feature","geometry":{"type":"LineString","coordinates":[[3.749888,51.10125],[3.749679,51.10135],[3.748951,51.10234]]},"properties":{"bicycle":"no","motorcar":"no","foot":"no","maxspeed":"30","highway":"service","vertex1":17975,"vertex2":17964}},{"type":"Feature","geometry":{"type":"LineString","coordinates":[[3.750514,51.10141],[3.750962,51.10154]]},"properties":{"highway":"footway","vertex1":17974,"vertex2":17932}},{"type":"Feature","geometry":{"type":"LineString","coordinates":[[3.755276,51.09922],[3.755331,51.09924]]},"properties":{"highway":"footway","vertex1":17973,"vertex2":17919}},{"type":"Feature","geometry":{"type":"LineString","coordinates":[[3.750872,51.10165],[3.75094,51.10157]]},"properties":{"highway":"footway","vertex1":17972,"vertex2":17971}},{"type":"Feature","geometry":{"type":"LineString","coordinates":[[3.75094,51.10157],[3.751371,51.10169]]},"properties":{"bicycle":"no","motorcar":"no","foot":"no","maxspeed":"30","highway":"service","vertex1":17971,"vertex2":17969}},{"type":"Feature","geometry":{"type":"LineString","coordinates":[[3.75094,51.10157],[3.750962,51.10154]]},"properties":{"highway":"footway","vertex1":17971,"vertex2":17932}},{"type":"Feature","geometry":{"type":"LineString","coordinates":[[3.751973,51.09838],[3.751865,51.09836]]},"properties":{"highway":"footway","vertex1":17970,"vertex2":17904}},{"type":"Feature","geometry":{"type":"LineString","coordinates":[[3.751371,51.10169],[3.751729,51.1018]]},"properties":{"bicycle":"no","motorcar":"no","foot":"no","maxspeed":"30","highway":"service","vertex1":17969,"vertex2":17965}},{"type":"Feature","geometry":{"type":"LineString","coordinates":[[3.751371,51.10169],[3.751396,51.10166]]},"properties":{"highway":"footway","vertex1":17969,"vertex2":17934}},{"type":"Feature","geometry":{"type":"LineString","coordinates":[[3.751371,51.10169],[3.751292,51.10179]]},"properties":{"highway":"footway","vertex1":17969,"vertex2":17929}},{"type":"Feature","geometry":{"type":"LineString","coordinates":[[3.757067,51.09879],[3.75765,51.09894],[3.759148,51.09944]]},"properties":{"name":"Ledergemstraat","highway":"residential","maxspeed":"30","vertex1":17968,"vertex2":18000}},{"type":"Feature","geometry":{"type":"LineString","coordinates":[[3.757067,51.09879],[3.75701,51.09878]]},"properties":{"name":"Ledergemstraat","highway":"residential","maxspeed":"30","vertex1":17968,"vertex2":17958}},{"type":"Feature","geometry":{"type":"LineString","coordinates":[[3.755165,51.10287],[3.754825,51.10277]]},"properties":{"highway":"footway","vertex1":17967,"vertex2":17949}},{"type":"Feature","geometry":{"type":"LineString","coordinates":[[3.755165,51.10287],[3.75503,51.10305],[3.755108,51.10307]]},"properties":{"highway":"footway","vertex1":17967,"vertex2":17827}},{"type":"Feature","geometry":{"type":"LineString","coordinates":[[3.755165,51.10287],[3.755193,51.10283]]},"properties":{"highway":"footway","vertex1":17967,"vertex2":17922}},{"type":"Feature","geometry":{"type":"LineString","coordinates":[[3.754313,51.10251],[3.754334,51.10248]]},"properties":{"highway":"footway","vertex1":17966,"vertex2":17930}},{"type":"Feature","geometry":{"type":"LineString","coordinates":[[3.754313,51.10251],[3.753511,51.10228]]},"properties":{"highway":"footway","vertex1":17966,"vertex2":17925}},{"type":"Feature","geometry":{"type":"LineString","coordinates":[[3.754313,51.10251],[3.754282,51.10255]]},"properties":{"highway":"footway","vertex1":17966,"vertex2":17899}},{"type":"Feature","geometry":{"type":"LineString","coordinates":[[3.751729,51.1018],[3.751944,51.10186]]},"properties":{"bicycle":"no","motorcar":"no","foot":"no","maxspeed":"30","highway":"service","vertex1":17965,"vertex2":17963}},{"type":"Feature","geometry":{"type":"LineString","coordinates":[[3.751729,51.1018],[3.751756,51.10177]]},"properties":{"highway":"footway","vertex1":17965,"vertex2":17914}},{"type":"Feature","geometry":{"type":"LineString","coordinates":[[3.751729,51.1018],[3.751649,51.10189]]},"properties":{"highway":"footway","vertex1":17965,"vertex2":17951}},{"type":"Feature","geometry":{"type":"LineString","coordinates":[[3.748951,51.10234],[3.748863,51.10247]]},"properties":{"bicycle":"no","motorcar":"no","foot":"no","maxspeed":"30","highway":"service","vertex1":17964,"vertex2":17902}},{"type":"Feature","geometry":{"type":"LineString","coordinates":[[3.748951,51.10234],[3.74888,51.10233]]},"properties":{"highway":"footway","vertex1":17964,"vertex2":17953}},{"type":"Feature","geometry":{"type":"LineString","coordinates":[[3.748951,51.10234],[3.749952,51.10263]]},"properties":{"highway":"footway","vertex1":17964,"vertex2":17946}},{"type":"Feature","geometry":{"type":"LineString","coordinates":[[3.751944,51.10186],[3.752194,51.10193]]},"properties":{"bicycle":"no","motorcar":"no","foot":"no","maxspeed":"30","highway":"service","vertex1":17963,"vertex2":17915}},{"type":"Feature","geometry":{"type":"LineString","coordinates":[[3.751944,51.10186],[3.75187,51.10196]]},"properties":{"highway":"footway","vertex1":17963,"vertex2":17931}},{"type":"Feature","geometry":{"type":"LineString","coordinates":[[3.754727,51.10259],[3.754672,51.10266]]},"properties":{"bicycle":"no","motorcar":"no","foot":"no","maxspeed":"30","highway":"service","vertex1":17962,"vertex2":17948}},{"type":"Feature","geometry":{"type":"LineString","coordinates":[[3.754727,51.10259],[3.754961,51.10227]]},"properties":{"bicycle":"no","motorcar":"no","foot":"no","maxspeed":"30","highway":"service","vertex1":17962,"vertex2":17896}},{"type":"Feature","geometry":{"type":"LineString","coordinates":[[3.754727,51.10259],[3.754334,51.10248]]},"properties":{"highway":"footway","vertex1":17962,"vertex2":17930}},{"type":"Feature","geometry":{"type":"LineString","coordinates":[[3.754727,51.10259],[3.754848,51.10262]]},"properties":{"highway":"footway","vertex1":17962,"vertex2":17928}},{"type":"Feature","geometry":{"type":"LineString","coordinates":[[3.749906,51.10106],[3.749841,51.10117],[3.749694,51.10126],[3.749617,51.10132],[3.74888,51.10233]]},"properties":{"highway":"footway","vertex1":17961,"vertex2":17953}},{"type":"Feature","geometry":{"type":"LineString","coordinates":[[3.754906,51.10225],[3.754961,51.10227]]},"properties":{"highway":"footway","vertex1":17960,"vertex2":17896}},{"type":"Feature","geometry":{"type":"LineString","coordinates":[[3.748969,51.1025],[3.748863,51.10247]]},"properties":{"highway":"footway","vertex1":17959,"vertex2":17902}},{"type":"Feature","geometry":{"type":"LineString","coordinates":[[3.75701,51.09878],[3.757096,51.09863]]},"properties":{"highway":"service","vertex1":17958,"vertex2":17926}},{"type":"Feature","geometry":{"type":"LineString","coordinates":[[3.75701,51.09878],[3.756813,51.09874]]},"properties":{"name":"Ledergemstraat","highway":"residential","maxspeed":"30","vertex1":17958,"vertex2":17944}},{"type":"Feature","geometry":{"type":"LineString","coordinates":[[3.75638,51.10157],[3.756442,51.10159],[3.75648,51.10168]]},"properties":{"highway":"service","vertex1":17957,"vertex2":17897}},{"type":"Feature","geometry":{"type":"LineString","coordinates":[[3.75638,51.10157],[3.756263,51.10153]]},"properties":{"highway":"service","vertex1":17957,"vertex2":17916}},{"type":"Feature","geometry":{"type":"LineString","coordinates":[[3.75638,51.10157],[3.756232,51.10122],[3.756071,51.10116]]},"properties":{"highway":"service","vertex1":17957,"vertex2":17939}},{"type":"Feature","geometry":{"type":"LineString","coordinates":[[3.754608,51.10096],[3.75455,51.10104],[3.755521,51.10132],[3.755561,51.10136],[3.755586,51.10141],[3.754961,51.10227]]},"properties":{"bicycle":"no","motorcar":"no","foot":"no","maxspeed":"30","highway":"service","vertex1":17956,"vertex2":17896}},{"type":"Feature","geometry":{"type":"LineString","coordinates":[[3.754608,51.10096],[3.7551,51.10027],[3.7555,51.09972],[3.755494,51.0996],[3.755457,51.09933]]},"properties":{"bicycle":"no","motorcar":"no","foot":"no","maxspeed":"30","highway":"service","vertex1":17956,"vertex2":17924}},{"type":"Feature","geometry":{"type":"LineString","coordinates":[[3.754608,51.10096],[3.75451,51.10094],[3.755028,51.10021],[3.754754,51.10013],[3.754717,51.10004],[3.755256,51.09927],[3.755331,51.09924]]},"properties":{"highway":"footway","vertex1":17956,"vertex2":17919}},{"type":"Feature","geometry":{"type":"LineString","coordinates":[[3.754608,51.10096],[3.754675,51.10098],[3.754659,51.10102],[3.754706,51.10105],[3.755658,51.10133]]},"properties":{"highway":"footway","vertex1":17956,"vertex2":17952}},{"type":"Feature","geometry":{"type":"LineString","coordinates":[[3.752489,51.09749],[3.752675,51.09728],[3.755487,51.09344],[3.755643,51.09324],[3.755658,51.09319],[3.75564,51.09314],[3.755419,51.09304]]},"properties":{"bicycle":"no","motorcar":"no","foot":"no","maxspeed":"30","highway":"service","vertex1":17954,"vertex2":17789}},{"type":"Feature","geometry":{"type":"LineString","coordinates":[[3.752489,51.09749],[3.752465,51.09752]]},"properties":{"bicycle":"no","motorcar":"no","foot":"no","maxspeed":"30","highway":"service","vertex1":17954,"vertex2":17906}},{"type":"Feature","geometry":{"type":"LineString","coordinates":[[3.752489,51.09749],[3.752875,51.0976]]},"properties":{"bicycle":"no","motorcar":"no","foot":"no","maxspeed":"30","highway":"service","vertex1":17954,"vertex2":17907}},{"type":"Feature","geometry":{"type":"LineString","coordinates":[[3.755419,51.09304],[3.755344,51.09301]]},"properties":{"bicycle":"no","motorcar":"no","foot":"no","maxspeed":"30","highway":"service","vertex1":17789,"vertex2":17790}},{"type":"Feature","geometry":{"type":"LineString","coordinates":[[3.755419,51.09304],[3.754775,51.09378],[3.750843,51.09913],[3.750268,51.10006],[3.7468,51.10478]]},"properties":{"highway":"cycleway","vertex1":17789,"vertex2":17858}},{"type":"Feature","geometry":{"type":"LineString","coordinates":[[3.74888,51.10233],[3.748794,51.10245],[3.748863,51.10247]]},"properties":{"highway":"footway","vertex1":17953,"vertex2":17902}},{"type":"Feature","geometry":{"type":"LineString","coordinates":[[3.755658,51.10133],[3.755774,51.10136],[3.755795,51.10138],[3.75582,51.1014]]},"properties":{"highway":"footway","vertex1":17952,"vertex2":17947}},{"type":"Feature","geometry":{"type":"LineString","coordinates":[[3.755658,51.10133],[3.755672,51.10138],[3.755658,51.10143],[3.755023,51.10229]]},"properties":{"highway":"footway","vertex1":17952,"vertex2":17908}},{"type":"Feature","geometry":{"type":"LineString","coordinates":[[3.754858,51.10273],[3.754764,51.1027]]},"properties":{"bicycle":"no","motorcar":"no","foot":"no","maxspeed":"30","highway":"service","vertex1":17950,"vertex2":17900}},{"type":"Feature","geometry":{"type":"LineString","coordinates":[[3.754858,51.10273],[3.755193,51.10283]]},"properties":{"bicycle":"no","motorcar":"no","foot":"no","maxspeed":"30","highway":"service","vertex1":17950,"vertex2":17922}},{"type":"Feature","geometry":{"type":"LineString","coordinates":[[3.754858,51.10273],[3.754825,51.10277]]},"properties":{"highway":"footway","vertex1":17950,"vertex2":17949}},{"type":"Feature","geometry":{"type":"LineString","coordinates":[[3.754858,51.10273],[3.754894,51.10267]]},"properties":{"highway":"footway","vertex1":17950,"vertex2":17941}},{"type":"Feature","geometry":{"type":"LineString","coordinates":[[3.754825,51.10277],[3.75473,51.10275]]},"properties":{"highway":"footway","vertex1":17949,"vertex2":17905}},{"type":"Feature","geometry":{"type":"LineString","coordinates":[[3.754825,51.10277],[3.754473,51.10324]]},"properties":{"highway":"footway","vertex1":17949,"vertex2":17821}},{"type":"Feature","geometry":{"type":"LineString","coordinates":[[3.754672,51.10266],[3.754635,51.10265]]},"properties":{"bicycle":"no","motorcar":"no","foot":"no","maxspeed":"30","highway":"service","vertex1":17948,"vertex2":17898}},{"type":"Feature","geometry":{"type":"LineString","coordinates":[[3.754672,51.10266],[3.754764,51.1027]]},"properties":{"bicycle":"no","motorcar":"no","foot":"no","maxspeed":"30","highway":"service","vertex1":17948,"vertex2":17900}},{"type":"Feature","geometry":{"type":"LineString","coordinates":[[3.75582,51.1014],[3.756058,51.10147]]},"properties":{"highway":"service","vertex1":17947,"vertex2":17918}},{"type":"Feature","geometry":{"type":"LineString","coordinates":[[3.75582,51.1014],[3.755042,51.10249],[3.755085,51.10254],[3.755147,51.10257],[3.755236,51.1026]]},"properties":{"highway":"service","vertex1":17947,"vertex2":17942}},{"type":"Feature","geometry":{"type":"LineString","coordinates":[[3.75567,51.10289],[3.755598,51.10274]]},"properties":{"highway":"service","vertex1":17945,"vertex2":17940}},{"type":"Feature","geometry":{"type":"LineString","coordinates":[[3.75567,51.10289],[3.755726,51.103]]},"properties":{"highway":"service","vertex1":17945,"vertex2":17862}},{"type":"Feature","geometry":{"type":"LineString","coordinates":[[3.75567,51.10289],[3.755554,51.10286]]},"properties":{"highway":"footway","vertex1":17945,"vertex2":17910}},{"type":"Feature","geometry":{"type":"LineString","coordinates":[[3.75567,51.10289],[3.755788,51.10292],[3.755929,51.10297]]},"properties":{"highway":"footway","vertex1":17945,"vertex2":17832}},{"type":"Feature","geometry":{"type":"LineString","coordinates":[[3.756813,51.09874],[3.756638,51.09787],[3.756464,51.09669],[3.756408,51.0955],[3.75644,51.09461],[3.756441,51.09457],[3.756464,51.09394],[3.756685,51.0912]]},"properties":{"name":"John Kennedylaan","oneway":"yes","highway":"trunk","maxspeed":"90","vertex1":17944,"vertex2":17786}},{"type":"Feature","geometry":{"type":"LineString","coordinates":[[3.756813,51.09874],[3.756966,51.09949],[3.75728,51.10057],[3.757692,51.10167],[3.75826,51.10279],[3.758349,51.10297],[3.758435,51.10314]]},"properties":{"name":"John Kennedylaan","oneway":"yes","highway":"trunk","maxspeed":"90","vertex1":17944,"vertex2":18055}},{"type":"Feature","geometry":{"type":"LineString","coordinates":[[3.755247,51.10277],[3.755193,51.10283]]},"properties":{"highway":"footway","vertex1":17943,"vertex2":17922}},{"type":"Feature","geometry":{"type":"LineString","coordinates":[[3.755247,51.10277],[3.754894,51.10267]]},"properties":{"highway":"footway","vertex1":17943,"vertex2":17941}},{"type":"Feature","geometry":{"type":"LineString","coordinates":[[3.755247,51.10277],[3.755554,51.10286]]},"properties":{"highway":"footway","vertex1":17943,"vertex2":17910}},{"type":"Feature","geometry":{"type":"LineString","coordinates":[[3.755236,51.1026],[3.756058,51.10147]]},"properties":{"highway":"service","vertex1":17942,"vertex2":17918}},{"type":"Feature","geometry":{"type":"LineString","coordinates":[[3.755236,51.1026],[3.755442,51.10266]]},"properties":{"highway":"service","vertex1":17942,"vertex2":17938}},{"type":"Feature","geometry":{"type":"LineString","coordinates":[[3.754894,51.10267],[3.754848,51.10262]]},"properties":{"highway":"footway","vertex1":17941,"vertex2":17928}},{"type":"Feature","geometry":{"type":"LineString","coordinates":[[3.755598,51.10274],[3.755656,51.1027],[3.756383,51.10171],[3.75648,51.10168]]},"properties":{"highway":"service","vertex1":17940,"vertex2":17897}},{"type":"Feature","geometry":{"type":"LineString","coordinates":[[3.755598,51.10274],[3.755578,51.1027],[3.755442,51.10266]]},"properties":{"highway":"service","vertex1":17940,"vertex2":17938}},{"type":"Feature","geometry":{"type":"LineString","coordinates":[[3.755442,51.10266],[3.756263,51.10153]]},"properties":{"highway":"service","vertex1":17938,"vertex2":17916}},{"type":"Feature","geometry":{"type":"LineString","coordinates":[[3.756709,51.10199],[3.756575,51.10223]]},"properties":{"name":"Volvo Test Track","bicycle":"no","motorcar":"no","foot":"no","highway":"road","vertex1":17937,"vertex2":17935}},{"type":"Feature","geometry":{"type":"LineString","coordinates":[[3.756709,51.10199],[3.756725,51.10184],[3.756414,51.1011],[3.755746,51.09879]]},"properties":{"name":"Volvo Test Track","bicycle":"no","motorcar":"no","foot":"no","highway":"road","vertex1":17937,"vertex2":17936}},{"type":"Feature","geometry":{"type":"LineString","coordinates":[[3.755746,51.09879],[3.755454,51.09917],[3.755449,51.09927],[3.755457,51.09933]]},"properties":{"bicycle":"no","motorcar":"no","foot":"no","maxspeed":"30","highway":"service","vertex1":17936,"vertex2":17924}},{"type":"Feature","geometry":{"type":"LineString","coordinates":[[3.755746,51.09879],[3.755786,51.09845],[3.755566,51.09673],[3.755465,51.09606],[3.75532,51.09561],[3.755148,51.09538],[3.755212,51.09522],[3.755422,51.09519],[3.755602,51.09525],[3.755624,51.0954],[3.755604,51.09563],[3.7557,51.0968],[3.755797,51.09793],[3.75593,51.09871],[3.757182,51.10238],[3.757208,51.10266],[3.757063,51.10281]]},"properties":{"name":"Volvo Test Track","bicycle":"no","motorcar":"no","foot":"no","highway":"road","vertex1":17936,"vertex2":17923}},{"type":"Feature","geometry":{"type":"LineString","coordinates":[[3.756575,51.10223],[3.756484,51.10238],[3.756409,51.10265],[3.756473,51.10278],[3.756607,51.10286],[3.756876,51.10289],[3.757063,51.10281]]},"properties":{"name":"Volvo Test Track","bicycle":"no","motorcar":"no","foot":"no","highway":"road","vertex1":17935,"vertex2":17923}},{"type":"Feature","geometry":{"type":"LineString","coordinates":[[3.756575,51.10223],[3.756854,51.10278]]},"properties":{"bicycle":"no","motorcar":"no","foot":"no","highway":"road","vertex1":17935,"vertex2":17921}},{"type":"Feature","geometry":{"type":"LineString","coordinates":[[3.751396,51.10166],[3.750962,51.10154]]},"properties":{"highway":"footway","vertex1":17934,"vertex2":17932}},{"type":"Feature","geometry":{"type":"LineString","coordinates":[[3.751396,51.10166],[3.751756,51.10177]]},"properties":{"highway":"footway","vertex1":17934,"vertex2":17914}},{"type":"Feature","geometry":{"type":"LineString","coordinates":[[3.75225,51.10207],[3.752288,51.10202],[3.752155,51.10198],[3.752194,51.10193]]},"properties":{"highway":"footway","vertex1":17933,"vertex2":17915}},{"type":"Feature","geometry":{"type":"LineString","coordinates":[[3.754334,51.10248],[3.754343,51.10247]]},"properties":{"highway":"footway","vertex1":17930,"vertex2":17912}},{"type":"Feature","geometry":{"type":"LineString","coordinates":[[3.754848,51.10262],[3.754836,51.10261],[3.754812,51.10259],[3.755023,51.10229]]},"properties":{"highway":"footway","vertex1":17928,"vertex2":17908}},{"type":"Feature","geometry":{"type":"LineString","coordinates":[[3.754252,51.1026],[3.754282,51.10255]]},"properties":{"highway":"footway","vertex1":17927,"vertex2":17899}},{"type":"Feature","geometry":{"type":"LineString","coordinates":[[3.754252,51.1026],[3.754031,51.10254],[3.754002,51.10258],[3.753412,51.10241],[3.753481,51.10231]]},"properties":{"highway":"footway","vertex1":17927,"vertex2":17913}},{"type":"Feature","geometry":{"type":"LineString","coordinates":[[3.753511,51.10228],[3.753481,51.10231]]},"properties":{"highway":"footway","vertex1":17925,"vertex2":17913}},{"type":"Feature","geometry":{"type":"LineString","coordinates":[[3.755457,51.09933],[3.754913,51.10007]]},"properties":{"bicycle":"no","motorcar":"no","foot":"no","maxspeed":"30","highway":"service","vertex1":17924,"vertex2":17911}},{"type":"Feature","geometry":{"type":"LineString","coordinates":[[3.757063,51.10281],[3.756924,51.10281],[3.756854,51.10278]]},"properties":{"bicycle":"no","motorcar":"no","foot":"no","highway":"road","vertex1":17923,"vertex2":17921}},{"type":"Feature","geometry":{"type":"LineString","coordinates":[[3.755193,51.10283],[3.75541,51.10291]]},"properties":{"bicycle":"no","motorcar":"no","foot":"no","maxspeed":"30","highway":"service","vertex1":17922,"vertex2":17838}},{"type":"Feature","geometry":{"type":"LineString","coordinates":[[3.752852,51.09764],[3.752465,51.09752]]},"properties":{"highway":"footway","vertex1":17920,"vertex2":17906}},{"type":"Feature","geometry":{"type":"LineString","coordinates":[[3.755331,51.09924],[3.75568,51.09876],[3.755596,51.09836],[3.755149,51.09823],[3.754997,51.09819],[3.754958,51.09806],[3.754158,51.09785],[3.753999,51.09773],[3.753917,51.09785],[3.753509,51.09774],[3.753495,51.09777]]},"properties":{"highway":"footway","vertex1":17919,"vertex2":17903}},{"type":"Feature","geometry":{"type":"LineString","coordinates":[[3.756058,51.10147],[3.756263,51.10153]]},"properties":{"highway":"service","vertex1":17918,"vertex2":17916}},{"type":"Feature","geometry":{"type":"LineString","coordinates":[[3.753414,51.09789],[3.753495,51.09777]]},"properties":{"highway":"footway","vertex1":17917,"vertex2":17903}},{"type":"Feature","geometry":{"type":"LineString","coordinates":[[3.752194,51.10193],[3.753481,51.10231]]},"properties":{"bicycle":"no","motorcar":"no","foot":"no","maxspeed":"30","highway":"service","vertex1":17915,"vertex2":17913}},{"type":"Feature","geometry":{"type":"LineString","coordinates":[[3.753481,51.10231],[3.754282,51.10255]]},"properties":{"bicycle":"no","motorcar":"no","foot":"no","maxspeed":"30","highway":"service","vertex1":17913,"vertex2":17899}},{"type":"Feature","geometry":{"type":"LineString","coordinates":[[3.755554,51.10286],[3.755504,51.10293]]},"properties":{"highway":"footway","vertex1":17910,"vertex2":17873}},{"type":"Feature","geometry":{"type":"LineString","coordinates":[[3.754354,51.098],[3.753495,51.09777]]},"properties":{"bicycle":"no","motorcar":"no","foot":"no","maxspeed":"30","highway":"service","vertex1":17909,"vertex2":17903}},{"type":"Feature","geometry":{"type":"LineString","coordinates":[[3.755023,51.10229],[3.754961,51.10227]]},"properties":{"highway":"footway","vertex1":17908,"vertex2":17896}},{"type":"Feature","geometry":{"type":"LineString","coordinates":[[3.752875,51.0976],[3.753147,51.09767]]},"properties":{"tunnel":"yes","bicycle":"no","motorcar":"no","foot":"no","maxspeed":"30","highway":"service","vertex1":17907,"vertex2":17901}},{"type":"Feature","geometry":{"type":"LineString","coordinates":[[3.752465,51.09752],[3.752396,51.09759],[3.751865,51.09836]]},"properties":{"bicycle":"no","motorcar":"no","foot":"no","maxspeed":"30","highway":"service","vertex1":17906,"vertex2":17904}},{"type":"Feature","geometry":{"type":"LineString","coordinates":[[3.75473,51.10275],[3.754764,51.1027]]},"properties":{"bicycle":"no","motorcar":"no","foot":"no","maxspeed":"30","highway":"service","vertex1":17905,"vertex2":17900}},{"type":"Feature","geometry":{"type":"LineString","coordinates":[[3.75473,51.10275],[3.754426,51.10319]]},"properties":{"bicycle":"no","motorcar":"no","foot":"no","maxspeed":"30","highway":"service","vertex1":17905,"vertex2":17861}},{"type":"Feature","geometry":{"type":"LineString","coordinates":[[3.75473,51.10275],[3.75433,51.10263],[3.753858,51.1033]]},"properties":{"highway":"footway","vertex1":17905,"vertex2":17863}},{"type":"Feature","geometry":{"type":"LineString","coordinates":[[3.753495,51.09777],[3.753147,51.09767]]},"properties":{"bicycle":"no","motorcar":"no","foot":"no","maxspeed":"30","highway":"service","vertex1":17903,"vertex2":17901}},{"type":"Feature","geometry":{"type":"LineString","coordinates":[[3.748863,51.10247],[3.748451,51.10303],[3.747346,51.10452],[3.747399,51.10458],[3.74761,51.10463]]},"properties":{"bicycle":"no","motorcar":"no","foot":"no","maxspeed":"30","highway":"service","vertex1":17902,"vertex2":17878}},{"type":"Feature","geometry":{"type":"LineString","coordinates":[[3.754282,51.10255],[3.754635,51.10265]]},"properties":{"bicycle":"no","motorcar":"no","foot":"no","maxspeed":"30","highway":"service","vertex1":17899,"vertex2":17898}},{"type":"Feature","geometry":{"type":"LineString","coordinates":[[3.75648,51.10168],[3.756546,51.10185],[3.755726,51.103]]},"properties":{"highway":"service","vertex1":17897,"vertex2":17862}},{"type":"Feature","geometry":{"type":"LineString","coordinates":[[3.751223,51.1065],[3.751314,51.10658]]},"properties":{"oneway":"yes","bicycle":"no","motorcar":"no","foot":"no","maxspeed":"30","highway":"service","vertex1":17895,"vertex2":17846}},{"type":"Feature","geometry":{"type":"LineString","coordinates":[[3.751223,51.1065],[3.75117,51.10645],[3.751065,51.10641],[3.750719,51.10632],[3.750616,51.1064],[3.750593,51.10643]]},"properties":{"oneway":"yes","bicycle":"no","motorcar":"no","foot":"no","maxspeed":"30","highway":"service","vertex1":17895,"vertex2":17849}},{"type":"Feature","geometry":{"type":"LineString","coordinates":[[3.751223,51.1065],[3.751398,51.10642],[3.751406,51.10638],[3.751389,51.10636],[3.750548,51.10612]]},"properties":{"oneway":"yes","bicycle":"no","motorcar":"no","foot":"no","maxspeed":"30","highway":"service","vertex1":17895,"vertex2":17856}},{"type":"Feature","geometry":{"type":"LineString","coordinates":[[3.751223,51.1065],[3.751043,51.10655]]},"properties":{"oneway":"yes","bicycle":"no","motorcar":"no","foot":"no","maxspeed":"30","highway":"service","vertex1":17895,"vertex2":17854}},{"type":"Feature","geometry":{"type":"LineString","coordinates":[[3.750651,51.10598],[3.750548,51.10612]]},"properties":{"bicycle":"no","motorcar":"no","foot":"no","maxspeed":"30","highway":"service","vertex1":17894,"vertex2":17856}},{"type":"Feature","geometry":{"type":"LineString","coordinates":[[3.75656,51.10334],[3.756766,51.1034]]},"properties":{"oneway":"yes","highway":"service","vertex1":17893,"vertex2":17822}},{"type":"Feature","geometry":{"type":"LineString","coordinates":[[3.75656,51.10334],[3.756362,51.10328]]},"properties":{"oneway":"yes","highway":"service","vertex1":17893,"vertex2":17820}},{"type":"Feature","geometry":{"type":"LineString","coordinates":[[3.75656,51.10334],[3.756539,51.10337]]},"properties":{"highway":"service","vertex1":17893,"vertex2":17886}},{"type":"Feature","geometry":{"type":"LineString","coordinates":[[3.755838,51.10432],[3.756267,51.10374],[3.756278,51.10372]]},"properties":{"highway":"service","vertex1":17892,"vertex2":17888}},{"type":"Feature","geometry":{"type":"LineString","coordinates":[[3.755838,51.10432],[3.755533,51.10443]]},"properties":{"oneway":"yes","highway":"service","vertex1":17892,"vertex2":17831}},{"type":"Feature","geometry":{"type":"LineString","coordinates":[[3.756747,51.10343],[3.756766,51.1034]]},"properties":{"highway":"service","vertex1":17891,"vertex2":17822}},{"type":"Feature","geometry":{"type":"LineString","coordinates":[[3.756747,51.10343],[3.756495,51.10379]]},"properties":{"highway":"service","vertex1":17891,"vertex2":17833}},{"type":"Feature","geometry":{"type":"LineString","coordinates":[[3.756747,51.10343],[3.756539,51.10337]]},"properties":{"highway":"footway","vertex1":17891,"vertex2":17886}},{"type":"Feature","geometry":{"type":"LineString","coordinates":[[3.756747,51.10343],[3.756959,51.10349]]},"properties":{"highway":"footway","vertex1":17891,"vertex2":17889}},{"type":"Feature","geometry":{"type":"LineString","coordinates":[[3.74822,51.10479],[3.74761,51.10463]]},"properties":{"bicycle":"no","motorcar":"no","foot":"no","maxspeed":"30","highway":"service","vertex1":17890,"vertex2":17878}},{"type":"Feature","geometry":{"type":"LineString","coordinates":[[3.756959,51.10349],[3.756968,51.10348]]},"properties":{"highway":"service","vertex1":17889,"vertex2":17824}},{"type":"Feature","geometry":{"type":"LineString","coordinates":[[3.756959,51.10349],[3.756697,51.10384],[3.756495,51.10379]]},"properties":{"highway":"service","vertex1":17889,"vertex2":17833}},{"type":"Feature","geometry":{"type":"LineString","coordinates":[[3.756959,51.10349],[3.757067,51.10358],[3.757106,51.10362]]},"properties":{"highway":"footway","vertex1":17889,"vertex2":17852}},{"type":"Feature","geometry":{"type":"LineString","coordinates":[[3.756278,51.10372],[3.756539,51.10337]]},"properties":{"highway":"service","vertex1":17888,"vertex2":17886}},{"type":"Feature","geometry":{"type":"LineString","coordinates":[[3.756278,51.10372],[3.756495,51.10379]]},"properties":{"highway":"service","vertex1":17888,"vertex2":17833}},{"type":"Feature","geometry":{"type":"LineString","coordinates":[[3.750379,51.10637],[3.750593,51.10643]]},"properties":{"oneway":"yes","bicycle":"no","motorcar":"no","foot":"no","maxspeed":"30","highway":"service","vertex1":17887,"vertex2":17849}},{"type":"Feature","geometry":{"type":"LineString","coordinates":[[3.750379,51.10637],[3.750548,51.10612]]},"properties":{"bicycle":"no","motorcar":"no","foot":"no","maxspeed":"30","highway":"service","vertex1":17887,"vertex2":17856}},{"type":"Feature","geometry":{"type":"LineString","coordinates":[[3.750379,51.10637],[3.750299,51.10648]]},"properties":{"bicycle":"no","motorcar":"no","foot":"no","maxspeed":"30","highway":"service","vertex1":17887,"vertex2":17845}},{"type":"Feature","geometry":{"type":"LineString","coordinates":[[3.756539,51.10337],[3.756339,51.10331]]},"properties":{"highway":"footway","vertex1":17886,"vertex2":17847}},{"type":"Feature","geometry":{"type":"LineString","coordinates":[[3.755076,51.10459],[3.755188,51.10455]]},"properties":{"oneway":"yes","highway":"service","vertex1":17885,"vertex2":17879}},{"type":"Feature","geometry":{"type":"LineString","coordinates":[[3.755076,51.10459],[3.754851,51.10467]]},"properties":{"highway":"service","oneway":"-1","vertex1":17885,"vertex2":17836}},{"type":"Feature","geometry":{"type":"LineString","coordinates":[[3.754497,51.10483],[3.754742,51.10512],[3.754887,51.10529]]},"properties":{"highway":"service","vertex1":17884,"vertex2":17840}},{"type":"Feature","geometry":{"type":"LineString","coordinates":[[3.754497,51.10483],[3.754508,51.1048]]},"properties":{"highway":"service","vertex1":17884,"vertex2":17882}},{"type":"Feature","geometry":{"type":"LineString","coordinates":[[3.754497,51.10483],[3.754361,51.10464]]},"properties":{"bicycle":"no","motorcar":"no","foot":"no","maxspeed":"30","highway":"service","vertex1":17884,"vertex2":17867}},{"type":"Feature","geometry":{"type":"LineString","coordinates":[[3.750209,51.10661],[3.750549,51.1067]]},"properties":{"oneway":"yes","bicycle":"no","motorcar":"no","foot":"no","maxspeed":"30","highway":"service","vertex1":17883,"vertex2":17881}},{"type":"Feature","geometry":{"type":"LineString","coordinates":[[3.750209,51.10661],[3.750299,51.10648]]},"properties":{"bicycle":"no","motorcar":"no","foot":"no","maxspeed":"30","highway":"service","vertex1":17883,"vertex2":17845}},{"type":"Feature","geometry":{"type":"LineString","coordinates":[[3.750209,51.10661],[3.750122,51.10673]]},"properties":{"bicycle":"no","motorcar":"no","foot":"no","maxspeed":"30","highway":"service","vertex1":17883,"vertex2":17872}},{"type":"Feature","geometry":{"type":"LineString","coordinates":[[3.754508,51.1048],[3.754529,51.10473],[3.755063,51.10398],[3.755744,51.1031]]},"properties":{"highway":"service","vertex1":17882,"vertex2":17880}},{"type":"Feature","geometry":{"type":"LineString","coordinates":[[3.754508,51.1048],[3.754851,51.10467]]},"properties":{"highway":"service","oneway":"-1","vertex1":17882,"vertex2":17836}},{"type":"Feature","geometry":{"type":"LineString","coordinates":[[3.750549,51.1067],[3.750663,51.10659],[3.750299,51.10648]]},"properties":{"oneway":"yes","bicycle":"no","motorcar":"no","foot":"no","maxspeed":"30","highway":"service","vertex1":17881,"vertex2":17845}},{"type":"Feature","geometry":{"type":"LineString","coordinates":[[3.750549,51.1067],[3.75048,51.10681],[3.750438,51.10682],[3.750122,51.10673]]},"properties":{"oneway":"yes","bicycle":"no","motorcar":"no","foot":"no","maxspeed":"30","highway":"service","vertex1":17881,"vertex2":17872}},{"type":"Feature","geometry":{"type":"LineString","coordinates":[[3.755744,51.1031],[3.755824,51.1031],[3.755916,51.10314],[3.755953,51.10316]]},"properties":{"highway":"service","vertex1":17880,"vertex2":17876}},{"type":"Feature","geometry":{"type":"LineString","coordinates":[[3.755744,51.1031],[3.755714,51.10305],[3.755465,51.10299],[3.755504,51.10293]]},"properties":{"highway":"footway","vertex1":17880,"vertex2":17873}},{"type":"Feature","geometry":{"type":"LineString","coordinates":[[3.755744,51.1031],[3.755761,51.10315],[3.755928,51.10319]]},"properties":{"highway":"footway","vertex1":17880,"vertex2":17874}},{"type":"Feature","geometry":{"type":"LineString","coordinates":[[3.755188,51.10455],[3.756119,51.10324]]},"properties":{"highway":"service","vertex1":17879,"vertex2":17855}},{"type":"Feature","geometry":{"type":"LineString","coordinates":[[3.755188,51.10455],[3.755533,51.10443]]},"properties":{"oneway":"yes","highway":"service","vertex1":17879,"vertex2":17831}},{"type":"Feature","geometry":{"type":"LineString","coordinates":[[3.74761,51.10463],[3.747785,51.10483],[3.750767,51.10569]]},"properties":{"bicycle":"no","motorcar":"no","foot":"no","highway":"service","vertex1":17878,"vertex2":17835}},{"type":"Feature","geometry":{"type":"LineString","coordinates":[[3.751548,51.10606],[3.750759,51.10584]]},"properties":{"bicycle":"no","motorcar":"no","foot":"no","maxspeed":"30","highway":"service","vertex1":17877,"vertex2":17829}},{"type":"Feature","geometry":{"type":"LineString","coordinates":[[3.755953,51.10316],[3.755928,51.10319]]},"properties":{"highway":"service","vertex1":17876,"vertex2":17874}},{"type":"Feature","geometry":{"type":"LineString","coordinates":[[3.755953,51.10316],[3.756142,51.10321]]},"properties":{"oneway":"yes","highway":"service","vertex1":17876,"vertex2":17868}},{"type":"Feature","geometry":{"type":"LineString","coordinates":[[3.754856,51.1036],[3.755002,51.1034],[3.75501,51.10336],[3.754426,51.10319]]},"properties":{"bicycle":"no","motorcar":"no","foot":"no","maxspeed":"30","highway":"service","vertex1":17875,"vertex2":17861}},{"type":"Feature","geometry":{"type":"LineString","coordinates":[[3.755928,51.10319],[3.754851,51.10467]]},"properties":{"highway":"service","vertex1":17874,"vertex2":17836}},{"type":"Feature","geometry":{"type":"LineString","coordinates":[[3.755928,51.10319],[3.756119,51.10324]]},"properties":{"highway":"footway","vertex1":17874,"vertex2":17855}},{"type":"Feature","geometry":{"type":"LineString","coordinates":[[3.755504,51.10293],[3.75541,51.10291]]},"properties":{"highway":"service","vertex1":17873,"vertex2":17838}},{"type":"Feature","geometry":{"type":"LineString","coordinates":[[3.755504,51.10293],[3.755726,51.103]]},"properties":{"highway":"service","vertex1":17873,"vertex2":17862}},{"type":"Feature","geometry":{"type":"LineString","coordinates":[[3.750122,51.10673],[3.750038,51.10685]]},"properties":{"bicycle":"no","motorcar":"no","foot":"no","maxspeed":"30","highway":"service","vertex1":17872,"vertex2":17860}},{"type":"Feature","geometry":{"type":"LineString","coordinates":[[3.754506,51.10359],[3.754345,51.10354],[3.754277,51.10351]]},"properties":{"highway":"footway","vertex1":17871,"vertex2":17869}},{"type":"Feature","geometry":{"type":"LineString","coordinates":[[3.748563,51.10526],[3.747027,51.10484],[3.7468,51.10478]]},"properties":{"bicycle":"no","motorcar":"no","foot":"no","highway":"service","vertex1":17870,"vertex2":17858}},{"type":"Feature","geometry":{"type":"LineString","coordinates":[[3.754277,51.10351],[3.7541,51.10378],[3.754134,51.10382],[3.754494,51.10395],[3.754545,51.10397],[3.754673,51.10401],[3.754733,51.10408],[3.754748,51.10415],[3.7547,51.10425],[3.754411,51.10462],[3.754361,51.10464]]},"properties":{"highway":"footway","vertex1":17869,"vertex2":17867}},{"type":"Feature","geometry":{"type":"LineString","coordinates":[[3.754277,51.10351],[3.754473,51.10324]]},"properties":{"highway":"footway","vertex1":17869,"vertex2":17821}},{"type":"Feature","geometry":{"type":"LineString","coordinates":[[3.754277,51.10351],[3.754225,51.10349]]},"properties":{"highway":"footway","vertex1":17869,"vertex2":17830}},{"type":"Feature","geometry":{"type":"LineString","coordinates":[[3.756142,51.10321],[3.756362,51.10328]]},"properties":{"oneway":"yes","highway":"service","vertex1":17868,"vertex2":17820}},{"type":"Feature","geometry":{"type":"LineString","coordinates":[[3.756142,51.10321],[3.756119,51.10324]]},"properties":{"highway":"service","vertex1":17868,"vertex2":17855}},{"type":"Feature","geometry":{"type":"LineString","coordinates":[[3.754361,51.10464],[3.754339,51.10461]]},"properties":{"bicycle":"no","motorcar":"no","foot":"no","maxspeed":"30","highway":"service","vertex1":17867,"vertex2":17865}},{"type":"Feature","geometry":{"type":"LineString","coordinates":[[3.754361,51.10464],[3.754231,51.10469],[3.754161,51.10463],[3.754067,51.1046],[3.753649,51.10448],[3.753617,51.10445],[3.753357,51.10437],[3.753303,51.10437],[3.753182,51.10433],[3.753096,51.10432],[3.752638,51.10495],[3.752584,51.10501],[3.752509,51.10505],[3.752428,51.10505],[3.751704,51.10484],[3.751688,51.10486],[3.751655,51.10481]]},"properties":{"highway":"footway","vertex1":17867,"vertex2":17857}},{"type":"Feature","geometry":{"type":"LineString","coordinates":[[3.75702,51.1034],[3.757156,51.10328],[3.757152,51.10323],[3.755985,51.10289],[3.75587,51.10304]]},"properties":{"highway":"service","vertex1":17866,"vertex2":17864}},{"type":"Feature","geometry":{"type":"LineString","coordinates":[[3.75702,51.1034],[3.756997,51.10339],[3.756803,51.10331]]},"properties":{"highway":"service","vertex1":17866,"vertex2":17818}},{"type":"Feature","geometry":{"type":"LineString","coordinates":[[3.75702,51.1034],[3.757081,51.10344],[3.757178,51.10351],[3.75728,51.10362],[3.757343,51.10376]]},"properties":{"highway":"service","vertex1":17866,"vertex2":18059}},{"type":"Feature","geometry":{"type":"LineString","coordinates":[[3.757343,51.10376],[3.757393,51.10401],[3.757436,51.10409],[3.757499,51.10415],[3.757644,51.10422]]},"properties":{"oneway":"yes","highway":"service","vertex1":18059,"vertex2":18070}},{"type":"Feature","geometry":{"type":"LineString","coordinates":[[3.757343,51.10376],[3.757246,51.10376],[3.757133,51.1036],[3.757123,51.10359]]},"properties":{"oneway":"yes","highway":"service","vertex1":18059,"vertex2":17834}},{"type":"Feature","geometry":{"type":"LineString","coordinates":[[3.754339,51.10461],[3.754709,51.10416],[3.75465,51.10406],[3.754317,51.10394],[3.754081,51.10384],[3.754044,51.10375],[3.754225,51.10349]]},"properties":{"bicycle":"no","motorcar":"no","foot":"no","maxspeed":"30","highway":"service","vertex1":17865,"vertex2":17830}},{"type":"Feature","geometry":{"type":"LineString","coordinates":[[3.754339,51.10461],[3.753107,51.10426],[3.752512,51.10501],[3.75171,51.10477],[3.751655,51.10481]]},"properties":{"oneway":"yes","bicycle":"no","motorcar":"no","foot":"no","highway":"service","vertex1":17865,"vertex2":17857}},{"type":"Feature","geometry":{"type":"LineString","coordinates":[[3.75587,51.10304],[3.755726,51.103]]},"properties":{"highway":"service","vertex1":17864,"vertex2":17862}},{"type":"Feature","geometry":{"type":"LineString","coordinates":[[3.75587,51.10304],[3.756803,51.10331]]},"properties":{"highway":"service","vertex1":17864,"vertex2":17818}},{"type":"Feature","geometry":{"type":"LineString","coordinates":[[3.754426,51.10319],[3.75439,51.10324]]},"properties":{"bicycle":"no","motorcar":"no","foot":"no","maxspeed":"30","highway":"service","vertex1":17861,"vertex2":17819}},{"type":"Feature","geometry":{"type":"LineString","coordinates":[[3.750038,51.10685],[3.75001,51.10695]]},"properties":{"highway":"service","vertex1":17860,"vertex2":17850}},{"type":"Feature","geometry":{"type":"LineString","coordinates":[[3.750669,51.10596],[3.750759,51.10584]]},"properties":{"bicycle":"no","motorcar":"no","foot":"no","maxspeed":"30","highway":"service","vertex1":17859,"vertex2":17829}},{"type":"Feature","geometry":{"type":"LineString","coordinates":[[3.7468,51.10478],[3.746714,51.10476]]},"properties":{"bicycle":"no","motorcar":"no","foot":"no","highway":"service","vertex1":17858,"vertex2":17853}},{"type":"Feature","geometry":{"type":"LineString","coordinates":[[3.7468,51.10478],[3.746054,51.10579]]},"properties":{"highway":"cycleway","vertex1":17858,"vertex2":17816}},{"type":"Feature","geometry":{"type":"LineString","coordinates":[[3.751655,51.10481],[3.751592,51.10486],[3.751433,51.10506]]},"properties":{"oneway":"yes","bicycle":"no","motorcar":"no","foot":"no","highway":"service","vertex1":17857,"vertex2":17837}},{"type":"Feature","geometry":{"type":"LineString","coordinates":[[3.751655,51.10481],[3.751637,51.10476],[3.751661,51.10472]]},"properties":{"highway":"footway","vertex1":17857,"vertex2":17841}},{"type":"Feature","geometry":{"type":"LineString","coordinates":[[3.756119,51.10324],[3.756339,51.10331]]},"properties":{"highway":"footway","vertex1":17855,"vertex2":17847}},{"type":"Feature","geometry":{"type":"LineString","coordinates":[[3.751043,51.10655],[3.750593,51.10643]]},"properties":{"oneway":"yes","bicycle":"no","motorcar":"no","foot":"no","maxspeed":"30","highway":"service","vertex1":17854,"vertex2":17849}},{"type":"Feature","geometry":{"type":"LineString","coordinates":[[3.746714,51.10476],[3.74597,51.10577]]},"properties":{"name":"Geeraard van den Daelelaan","highway":"unclassified","vertex1":17853,"vertex2":17809}},{"type":"Feature","geometry":{"type":"LineString","coordinates":[[3.746714,51.10476],[3.750183,51.10003],[3.750758,51.09911],[3.754692,51.09375],[3.755344,51.09301]]},"properties":{"name":"Geeraard van den Daelelaan","highway":"unclassified","vertex1":17853,"vertex2":17790}},{"type":"Feature","geometry":{"type":"LineString","coordinates":[[3.757106,51.10362],[3.757123,51.10359]]},"properties":{"highway":"service","vertex1":17852,"vertex2":17834}},{"type":"Feature","geometry":{"type":"LineString","coordinates":[[3.757106,51.10362],[3.756874,51.10398],[3.757069,51.10403],[3.757168,51.10387]]},"properties":{"highway":"service","vertex1":17852,"vertex2":17826}},{"type":"Feature","geometry":{"type":"LineString","coordinates":[[3.74983,51.10741],[3.7467,51.10654],[3.745617,51.10625]]},"properties":{"name":"Canadastraat","highway":"unclassified","vertex1":17851,"vertex2":17813}},{"type":"Feature","geometry":{"type":"LineString","coordinates":[[3.74983,51.10741],[3.748732,51.10819]]},"properties":{"name":"Langerbruggestraat","cyclenetwork":"yes","maxspeed":"50","highway":"unclassified","vertex1":17851,"vertex2":17828}},{"type":"Feature","geometry":{"type":"LineString","coordinates":[[3.74983,51.10741],[3.750356,51.10704]]},"properties":{"name":"Langerbruggestraat","cyclenetwork":"yes","maxspeed":"50","highway":"unclassified","vertex1":17851,"vertex2":17848}},{"type":"Feature","geometry":{"type":"LineString","coordinates":[[3.75001,51.10695],[3.750356,51.10704]]},"properties":{"name":"Göteborgstraat","highway":"unclassified","vertex1":17850,"vertex2":17848}},{"type":"Feature","geometry":{"type":"LineString","coordinates":[[3.75001,51.10695],[3.746054,51.10579]]},"properties":{"name":"Göteborgstraat","highway":"unclassified","vertex1":17850,"vertex2":17816}},{"type":"Feature","geometry":{"type":"LineString","coordinates":[[3.750356,51.10704],[3.751034,51.10668],[3.751314,51.10658]]},"properties":{"name":"Langerbruggestraat","cyclenetwork":"yes","maxspeed":"50","highway":"unclassified","vertex1":17848,"vertex2":17846}},{"type":"Feature","geometry":{"type":"LineString","coordinates":[[3.756339,51.10331],[3.756362,51.10328]]},"properties":{"highway":"service","vertex1":17847,"vertex2":17820}},{"type":"Feature","geometry":{"type":"LineString","coordinates":[[3.756339,51.10331],[3.755533,51.10443]]},"properties":{"highway":"service","vertex1":17847,"vertex2":17831}},{"type":"Feature","geometry":{"type":"LineString","coordinates":[[3.751314,51.10658],[3.751699,51.10644]]},"properties":{"name":"Langerbruggestraat","cyclenetwork":"yes","maxspeed":"50","highway":"unclassified","vertex1":17846,"vertex2":17844}},{"type":"Feature","geometry":{"type":"LineString","coordinates":[[3.751699,51.10644],[3.752286,51.10623]]},"properties":{"name":"Langerbruggestraat","cyclenetwork":"yes","maxspeed":"50","highway":"unclassified","vertex1":17844,"vertex2":17842}},{"type":"Feature","geometry":{"type":"LineString","coordinates":[[3.751699,51.10644],[3.751594,51.1063],[3.750895,51.10611]]},"properties":{"highway":"service","vertex1":17844,"vertex2":17823}},{"type":"Feature","geometry":{"type":"LineString","coordinates":[[3.75415,51.10346],[3.754225,51.10349]]},"properties":{"highway":"footway","vertex1":17843,"vertex2":17830}},{"type":"Feature","geometry":{"type":"LineString","coordinates":[[3.75415,51.10346],[3.754112,51.10345]]},"properties":{"highway":"footway","vertex1":17843,"vertex2":17817}},{"type":"Feature","geometry":{"type":"LineString","coordinates":[[3.75415,51.10346],[3.75431,51.10324],[3.75439,51.10324]]},"properties":{"highway":"footway","vertex1":17843,"vertex2":17819}},{"type":"Feature","geometry":{"type":"LineString","coordinates":[[3.752286,51.10623],[3.754704,51.10536],[3.754887,51.10529]]},"properties":{"name":"Langerbruggestraat","cyclenetwork":"yes","maxspeed":"50","highway":"unclassified","vertex1":17842,"vertex2":17840}},{"type":"Feature","geometry":{"type":"LineString","coordinates":[[3.752286,51.10623],[3.751868,51.10601]]},"properties":{"highway":"service","vertex1":17842,"vertex2":17825}},{"type":"Feature","geometry":{"type":"LineString","coordinates":[[3.754887,51.10529],[3.755133,51.1052],[3.75704,51.10451],[3.757318,51.1044],[3.757598,51.10426],[3.757644,51.10422]]},"properties":{"name":"Langerbruggestraat","cyclenetwork":"yes","maxspeed":"50","highway":"unclassified","vertex1":17840,"vertex2":18070}},{"type":"Feature","geometry":{"type":"LineString","coordinates":[[3.750961,51.10575],[3.751433,51.10506]]},"properties":{"oneway":"yes","bicycle":"no","motorcar":"no","foot":"no","highway":"service","vertex1":17839,"vertex2":17837}},{"type":"Feature","geometry":{"type":"LineString","coordinates":[[3.750961,51.10575],[3.751868,51.10601]]},"properties":{"bicycle":"no","motorcar":"no","foot":"no","maxspeed":"30","highway":"service","vertex1":17839,"vertex2":17825}},{"type":"Feature","geometry":{"type":"LineString","coordinates":[[3.750961,51.10575],[3.750767,51.10569]]},"properties":{"bicycle":"no","motorcar":"no","foot":"no","highway":"service","vertex1":17839,"vertex2":17835}},{"type":"Feature","geometry":{"type":"LineString","coordinates":[[3.750767,51.10569],[3.7507,51.10578],[3.750759,51.10584]]},"properties":{"bicycle":"no","motorcar":"no","foot":"no","maxspeed":"30","highway":"service","vertex1":17835,"vertex2":17829}},{"type":"Feature","geometry":{"type":"LineString","coordinates":[[3.757123,51.10359],[3.757024,51.1035],[3.756968,51.10348]]},"properties":{"oneway":"yes","highway":"service","vertex1":17834,"vertex2":17824}},{"type":"Feature","geometry":{"type":"LineString","coordinates":[[3.754225,51.10349],[3.75439,51.10324]]},"properties":{"bicycle":"no","motorcar":"no","foot":"no","maxspeed":"30","highway":"service","vertex1":17830,"vertex2":17819}},{"type":"Feature","geometry":{"type":"LineString","coordinates":[[3.748732,51.10819],[3.75365,51.1109]]},"properties":{"name":"Kanazawastraat","highway":"unclassified","vertex1":17828,"vertex2":19999}},{"type":"Feature","geometry":{"type":"LineString","coordinates":[[3.748732,51.10819],[3.746828,51.1096]]},"properties":{"name":"Langerbruggestraat","cyclenetwork":"yes","maxspeed":"50","highway":"unclassified","vertex1":17828,"vertex2":20000}},{"type":"Feature","geometry":{"type":"LineString","coordinates":[[3.746828,51.1096],[3.746547,51.10977]]},"properties":{"name":"Langerbruggestraat","cyclenetwork":"yes","maxspeed":"50","highway":"unclassified","vertex1":20000,"vertex2":19998}},{"type":"Feature","geometry":{"type":"LineString","coordinates":[[3.746828,51.1096],[3.745608,51.10983],[3.744842,51.10996],[3.74456,51.10973],[3.744278,51.10949],[3.744176,51.10941],[3.744129,51.10933],[3.74404,51.1092],[3.742972,51.10823],[3.742935,51.10801]]},"properties":{"name":"Langerbruggestraat","highway":"unclassified","vertex1":20000,"vertex2":17810}},{"type":"Feature","geometry":{"type":"LineString","coordinates":[[3.756968,51.10348],[3.756814,51.10341],[3.756766,51.1034]]},"properties":{"oneway":"yes","highway":"service","vertex1":17824,"vertex2":17822}},{"type":"Feature","geometry":{"type":"LineString","coordinates":[[3.754473,51.10324],[3.75439,51.10324]]},"properties":{"highway":"footway","vertex1":17821,"vertex2":17819}},{"type":"Feature","geometry":{"type":"LineString","coordinates":[[3.746054,51.10579],[3.74597,51.10577]]},"properties":{"name":"Göteborgstraat","highway":"unclassified","vertex1":17816,"vertex2":17809}},{"type":"Feature","geometry":{"type":"LineString","coordinates":[[3.737785,51.1071],[3.737839,51.10717]]},"properties":{"highway":"service","vertex1":17815,"vertex2":17807}},{"type":"Feature","geometry":{"type":"LineString","coordinates":[[3.737785,51.1071],[3.73688,51.10598],[3.736797,51.10588],[3.736235,51.10521]]},"properties":{"highway":"service","vertex1":17815,"vertex2":17803}},{"type":"Feature","geometry":{"type":"LineString","coordinates":[[3.737785,51.1071],[3.735897,51.10765],[3.73569,51.10767],[3.735401,51.10772],[3.735258,51.10772]]},"properties":{"highway":"service","vertex1":17815,"vertex2":17553}},{"type":"Feature","geometry":{"type":"LineString","coordinates":[[3.738424,51.10487],[3.737705,51.10389]]},"properties":{"name":"Scheepzatestraat","highway":"unclassified","vertex1":17814,"vertex2":17812}},{"type":"Feature","geometry":{"type":"LineString","coordinates":[[3.745617,51.10625],[3.745428,51.10651]]},"properties":{"name":"Geeraard van den Daelelaan","highway":"unclassified","vertex1":17813,"vertex2":17805}},{"type":"Feature","geometry":{"type":"LineString","coordinates":[[3.745617,51.10625],[3.74597,51.10577]]},"properties":{"name":"Geeraard van den Daelelaan","highway":"unclassified","vertex1":17813,"vertex2":17809}},{"type":"Feature","geometry":{"type":"LineString","coordinates":[[3.737705,51.10389],[3.735817,51.10134],[3.735795,51.10118],[3.73587,51.10103],[3.735988,51.10089],[3.736117,51.10077],[3.736224,51.10058],[3.736482,51.10006]]},"properties":{"name":"Scheepzatestraat","highway":"unclassified","vertex1":17812,"vertex2":17799}},{"type":"Feature","geometry":{"type":"LineString","coordinates":[[3.737705,51.10389],[3.739132,51.10334],[3.739314,51.10321],[3.741192,51.10084]]},"properties":{"name":"Scheepzatestraat","highway":"unclassified","vertex1":17812,"vertex2":17801}},{"type":"Feature","geometry":{"type":"LineString","coordinates":[[3.73556,51.10423],[3.734787,51.10316],[3.734039,51.10213],[3.733897,51.10202],[3.733764,51.10197],[3.733092,51.10218],[3.732411,51.10239]]},"properties":{"highway":"service","vertex1":17811,"vertex2":17564}},{"type":"Feature","geometry":{"type":"LineString","coordinates":[[3.738581,51.108],[3.738413,51.10793],[3.738267,51.10788],[3.738054,51.1079],[3.737923,51.10796],[3.737862,51.10803],[3.737654,51.10822],[3.737531,51.10828]]},"properties":{"highway":"service","vertex1":17808,"vertex2":17804}},{"type":"Feature","geometry":{"type":"LineString","coordinates":[[3.738581,51.108],[3.738549,51.10795],[3.737944,51.10728]]},"properties":{"highway":"service","vertex1":17808,"vertex2":17806}},{"type":"Feature","geometry":{"type":"LineString","coordinates":[[3.738581,51.108],[3.738948,51.10845],[3.738963,51.10852],[3.738914,51.10857]]},"properties":{"highway":"service","vertex1":17808,"vertex2":20028}},{"type":"Feature","geometry":{"type":"LineString","coordinates":[[3.737839,51.10717],[3.737944,51.10728]]},"properties":{"highway":"service","vertex1":17807,"vertex2":17806}},{"type":"Feature","geometry":{"type":"LineString","coordinates":[[3.737944,51.10728],[3.73799,51.10751],[3.737906,51.10777],[3.737871,51.10791],[3.737761,51.10802],[3.737477,51.10823],[3.737315,51.10831],[3.737066,51.1084],[3.736998,51.10842]]},"properties":{"highway":"service","vertex1":17806,"vertex2":20044}},{"type":"Feature","geometry":{"type":"LineString","coordinates":[[3.737531,51.10828],[3.737477,51.10831],[3.73737,51.10836],[3.73727,51.10843],[3.73725,51.10849],[3.737273,51.10856],[3.737448,51.10881],[3.737652,51.10908]]},"properties":{"highway":"service","vertex1":17804,"vertex2":20037}},{"type":"Feature","geometry":{"type":"LineString","coordinates":[[3.737531,51.10828],[3.737903,51.10851],[3.738207,51.1089],[3.738259,51.10897],[3.738705,51.10956],[3.739079,51.10946]]},"properties":{"highway":"service","vertex1":17804,"vertex2":20026}},{"type":"Feature","geometry":{"type":"LineString","coordinates":[[3.742017,51.10109],[3.741192,51.10084]]},"properties":{"name":"Bronsstraat","highway":"unclassified","vertex1":17802,"vertex2":17801}},{"type":"Feature","geometry":{"type":"LineString","coordinates":[[3.741192,51.10084],[3.740989,51.10078],[3.739191,51.10027],[3.738827,51.10017],[3.73844,51.10012],[3.736482,51.10006]]},"properties":{"name":"Bronsstraat","highway":"unclassified","vertex1":17801,"vertex2":17799}},{"type":"Feature","geometry":{"type":"LineString","coordinates":[[3.741192,51.10084],[3.742264,51.09936],[3.743198,51.09807]]},"properties":{"name":"Scheepzatestraat","highway":"unclassified","vertex1":17801,"vertex2":17800}},{"type":"Feature","geometry":{"type":"LineString","coordinates":[[3.736482,51.10006],[3.737329,51.0983],[3.737544,51.09803],[3.737909,51.09769],[3.74116,51.09519],[3.742276,51.0943],[3.742554,51.09398],[3.74279,51.09361],[3.742935,51.09309],[3.742977,51.09299],[3.74303,51.09291],[3.743121,51.09281]]},"properties":{"name":"Scheepzatestraat","highway":"unclassified","vertex1":17799,"vertex2":17794}},{"type":"Feature","geometry":{"type":"LineString","coordinates":[[3.746547,51.10977],[3.745505,51.11024]]},"properties":{"cyclenetwork":"yes","highway":"unclassified","vertex1":19998,"vertex2":20035}},{"type":"Feature","geometry":{"type":"LineString","coordinates":[[3.73608,51.10991],[3.735931,51.10996],[3.73574,51.10993]]},"properties":{"oneway":"yes","highway":"service","vertex1":20001,"vertex2":20054}},{"type":"Feature","geometry":{"type":"LineString","coordinates":[[3.73608,51.10991],[3.736308,51.10984]]},"properties":{"oneway":"yes","highway":"service","vertex1":20001,"vertex2":20011}},{"type":"Feature","geometry":{"type":"LineString","coordinates":[[3.73608,51.10991],[3.735938,51.10972]]},"properties":{"highway":"service","vertex1":20001,"vertex2":20042}}]}