{"type":"FeatureCollection","features":[{"type":"Feature","geometry":{"type":"LineString","coordinates":[[3.669434,51.08282],[3.691406,51.08282],[3.691406,51.06902],[3.669434,51.06902],[3.669434,51.08282]]},"properties":{"id":"89776295","zoom":"14"}},{"type":"Feature","geometry":{"type":"LineString","coordinates":[[3.670442,51.07522],[3.670363,51.07533],[3.669916,51.07571],[3.669338,51.07633],[3.669005,51.07675],[3.668187,51.07769]]},"properties":{"name":"Rodonkstraat","highway":"residential","maxspeed":"30","vertex1":20897,"vertex2":21103}},{"type":"Feature","geometry":{"type":"LineString","coordinates":[[3.670442,51.07522],[3.67041,51.07511],[3.669902,51.0745]]},"properties":{"name":"Rodonkstraat","highway":"residential","maxspeed":"30","vertex1":20897,"vertex2":20840}},{"type":"Feature","geometry":{"type":"LineString","coordinates":[[3.670442,51.07522],[3.671474,51.07551]]},"properties":{"name":"Kasteeldreef","highway":"residential","maxspeed":"30","vertex1":20897,"vertex2":20468}},{"type":"Feature","geometry":{"type":"LineString","coordinates":[[3.668187,51.07769],[3.669877,51.07866]]},"properties":{"name":"Zuidbroek","cyclenetwork":"yes","highway":"residential","maxspeed":"30","vertex1":21103,"vertex2":20501}},{"type":"Feature","geometry":{"type":"LineString","coordinates":[[3.6764,51.07098],[3.676495,51.07101],[3.677338,51.07132],[3.677891,51.07153]]},"properties":{"name":"Zandloperstraat","oneway":"yes","oneway:bicycle":"no","highway":"residential","maxspeed":"30","vertex1":20896,"vertex2":20894}},{"type":"Feature","geometry":{"type":"LineString","coordinates":[[3.6764,51.07098],[3.675796,51.07076]]},"properties":{"name":"Zandloperstraat","oneway":"yes","oneway:bicycle":"no","highway":"residential","maxspeed":"30","vertex1":20896,"vertex2":20823}},{"type":"Feature","geometry":{"type":"LineString","coordinates":[[3.6764,51.07098],[3.676355,51.07105],[3.676244,51.07122]]},"properties":{"highway":"path","vertex1":20896,"vertex2":20847}},{"type":"Feature","geometry":{"type":"LineString","coordinates":[[3.675378,51.07266],[3.675265,51.07263],[3.675246,51.07257],[3.67511,51.07249],[3.674943,51.07241],[3.674754,51.07234]]},"properties":{"highway":"track","vertex1":20895,"vertex2":20889}},{"type":"Feature","geometry":{"type":"LineString","coordinates":[[3.675378,51.07266],[3.675455,51.07268],[3.675735,51.07274],[3.67596,51.07277],[3.676029,51.07282]]},"properties":{"highway":"track","vertex1":20895,"vertex2":20852}},{"type":"Feature","geometry":{"type":"LineString","coordinates":[[3.675378,51.07266],[3.675414,51.07256]]},"properties":{"highway":"track","vertex1":20895,"vertex2":20816}},{"type":"Feature","geometry":{"type":"LineString","coordinates":[[3.675378,51.07266],[3.675317,51.07268],[3.675275,51.07274],[3.675234,51.07278],[3.67505,51.07282],[3.674878,51.07278],[3.674651,51.07288]]},"properties":{"highway":"track","vertex1":20895,"vertex2":20870}},{"type":"Feature","geometry":{"type":"LineString","coordinates":[[3.677891,51.07153],[3.678481,51.07175],[3.679191,51.07203],[3.679496,51.07209],[3.679925,51.07216]]},"properties":{"name":"Zandloperstraat","oneway":"yes","oneway:bicycle":"no","highway":"residential","maxspeed":"30","vertex1":20894,"vertex2":20865}},{"type":"Feature","geometry":{"type":"LineString","coordinates":[[3.677891,51.07153],[3.678454,51.07094]]},"properties":{"name":"Rene Van De Puttestraat","highway":"residential","maxspeed":"30","vertex1":20894,"vertex2":20861}},{"type":"Feature","geometry":{"type":"LineString","coordinates":[[3.674667,51.07293],[3.674632,51.07293],[3.674395,51.07299]]},"properties":{"name":"Mariakerkeplein","cyclenetwork":"yes","maxspeed":"30","highway":"tertiary","vertex1":20893,"vertex2":20891}},{"type":"Feature","geometry":{"type":"LineString","coordinates":[[3.674667,51.07293],[3.674836,51.0729],[3.674994,51.07289],[3.675185,51.0729],[3.675387,51.07289],[3.676029,51.07282]]},"properties":{"name":"Mariakerkeplein","cyclenetwork":"yes","maxspeed":"30","highway":"tertiary","vertex1":20893,"vertex2":20852}},{"type":"Feature","geometry":{"type":"LineString","coordinates":[[3.674667,51.07293],[3.674651,51.07288]]},"properties":{"highway":"track","vertex1":20893,"vertex2":20870}},{"type":"Feature","geometry":{"type":"LineString","coordinates":[[3.670571,51.07026],[3.6707,51.07014],[3.670329,51.07005],[3.670001,51.07]]},"properties":{"name":"De Campagne","highway":"residential","maxspeed":"30","vertex1":20892,"vertex2":20829}},{"type":"Feature","geometry":{"type":"LineString","coordinates":[[3.670571,51.07026],[3.670224,51.07018]]},"properties":{"name":"De Campagne","highway":"residential","maxspeed":"30","vertex1":20892,"vertex2":20817}},{"type":"Feature","geometry":{"type":"LineString","coordinates":[[3.670571,51.07026],[3.670474,51.07038],[3.670335,51.07052],[3.670217,51.07066],[3.670077,51.07087]]},"properties":{"highway":"track","vertex1":20892,"vertex2":20883}},{"type":"Feature","geometry":{"type":"LineString","coordinates":[[3.674395,51.07299],[3.674378,51.07285],[3.674448,51.07267],[3.674603,51.0725],[3.674721,51.07241],[3.674754,51.07234]]},"properties":{"name":"Edgard Blancquaertstraat","highway":"residential","maxspeed":"30","vertex1":20891,"vertex2":20889}},{"type":"Feature","geometry":{"type":"LineString","coordinates":[[3.674395,51.07299],[3.674269,51.07306],[3.674148,51.0731],[3.670666,51.07424]]},"properties":{"name":"Amand Casier de ter Bekenlaan","maxspeed":"50","highway":"tertiary","vertex1":20891,"vertex2":20818}},{"type":"Feature","geometry":{"type":"LineString","coordinates":[[3.674395,51.07299],[3.674196,51.07294],[3.674004,51.07293],[3.673436,51.07294],[3.672595,51.07295],[3.672056,51.07296],[3.671468,51.07297],[3.670714,51.07294],[3.670453,51.07293],[3.670169,51.0729]]},"properties":{"name":"Rijakker","highway":"residential","maxspeed":"30","vertex1":20891,"vertex2":20822}},{"type":"Feature","geometry":{"type":"LineString","coordinates":[[3.674395,51.07299],[3.674406,51.07319],[3.674372,51.07333],[3.673683,51.0743]]},"properties":{"name":"Notenstraat","highway":"residential","maxspeed":"30","vertex1":20891,"vertex2":20834}},{"type":"Feature","geometry":{"type":"LineString","coordinates":[[3.674659,51.07542],[3.6745,51.07535]]},"properties":{"name":"Kasteeldreef","highway":"unclassified","vertex1":20890,"vertex2":20880}},{"type":"Feature","geometry":{"type":"LineString","coordinates":[[3.674659,51.07542],[3.67481,51.07548],[3.675265,51.07562]]},"properties":{"name":"Kasteeldreef","highway":"unclassified","vertex1":20890,"vertex2":20477}},{"type":"Feature","geometry":{"type":"LineString","coordinates":[[3.674659,51.07542],[3.674638,51.0753]]},"properties":{"name":"Alphonse Claeys-Bouüaertdreef","highway":"unclassified","vertex1":20890,"vertex2":20830}},{"type":"Feature","geometry":{"type":"LineString","coordinates":[[3.674754,51.07234],[3.674721,51.07227],[3.674592,51.0722]]},"properties":{"name":"Edgard Blancquaertstraat","highway":"residential","maxspeed":"30","vertex1":20889,"vertex2":20819}},{"type":"Feature","geometry":{"type":"LineString","coordinates":[[3.676488,51.07313],[3.675582,51.07418],[3.674638,51.0753]]},"properties":{"name":"Alphonse Claeys-Bouüaertdreef","highway":"unclassified","vertex1":20888,"vertex2":20830}},{"type":"Feature","geometry":{"type":"LineString","coordinates":[[3.676488,51.07313],[3.676123,51.07283]]},"properties":{"name":"Alphonse Claeys-Bouüaertlaan","cyclenetwork":"yes","highway":"residential","vertex1":20888,"vertex2":20832}},{"type":"Feature","geometry":{"type":"LineString","coordinates":[[3.676488,51.07313],[3.676541,51.07318]]},"properties":{"name":"Alphonse Claeys-Bouüaertlaan","cyclenetwork":"yes","highway":"residential","vertex1":20888,"vertex2":20882}},{"type":"Feature","geometry":{"type":"LineString","coordinates":[[3.67387,51.07192],[3.673675,51.07187],[3.672557,51.07155]]},"properties":{"name":"Edgard Blancquaertstraat","highway":"residential","maxspeed":"30","vertex1":20887,"vertex2":20885}},{"type":"Feature","geometry":{"type":"LineString","coordinates":[[3.67387,51.07192],[3.674147,51.07201],[3.674592,51.0722]]},"properties":{"name":"Edgard Blancquaertstraat","highway":"residential","maxspeed":"30","vertex1":20887,"vertex2":20819}},{"type":"Feature","geometry":{"type":"LineString","coordinates":[[3.67387,51.07192],[3.673717,51.07212],[3.673541,51.0724],[3.673348,51.07232],[3.673122,51.07227],[3.672814,51.07224],[3.672306,51.07228],[3.671955,51.07232],[3.67185,51.07235],[3.671687,51.07245],[3.671352,51.07238],[3.670832,51.07227],[3.670599,51.07218],[3.670588,51.07225],[3.670531,51.07235],[3.670404,51.07254],[3.670169,51.0729]]},"properties":{"name":"Korte Rijakkerstraat","highway":"residential","maxspeed":"30","vertex1":20887,"vertex2":20822}},{"type":"Feature","geometry":{"type":"LineString","coordinates":[[3.677313,51.0738],[3.67757,51.07271]]},"properties":{"name":"Henricus Bracqstraat","highway":"residential","maxspeed":"30","vertex1":20886,"vertex2":20838}},{"type":"Feature","geometry":{"type":"LineString","coordinates":[[3.677313,51.0738],[3.677306,51.07383],[3.677295,51.07386],[3.67726,51.07389]]},"properties":{"name":"Henricus Bracqstraat","highway":"residential","maxspeed":"30","vertex1":20886,"vertex2":20862}},{"type":"Feature","geometry":{"type":"LineString","coordinates":[[3.677313,51.0738],[3.676891,51.07342],[3.676672,51.07328]]},"properties":{"name":"Alphonse Claeys-Bouüaertlaan","oneway":"yes","cyclenetwork":"yes","maxspeed":"50","highway":"residential","vertex1":20886,"vertex2":20846}},{"type":"Feature","geometry":{"type":"LineString","coordinates":[[3.677313,51.0738],[3.677526,51.074]]},"properties":{"name":"Alphonse Claeys-Bouüaertlaan","oneway":"yes","cyclenetwork":"yes","maxspeed":"50","highway":"residential","vertex1":20886,"vertex2":20820}},{"type":"Feature","geometry":{"type":"LineString","coordinates":[[3.672557,51.07155],[3.671044,51.07111]]},"properties":{"name":"Edgard Blancquaertstraat","highway":"residential","maxspeed":"30","vertex1":20885,"vertex2":20831}},{"type":"Feature","geometry":{"type":"LineString","coordinates":[[3.672557,51.07155],[3.673826,51.06995]]},"properties":{"name":"Tussen Heerwegen","highway":"residential","maxspeed":"30","vertex1":20885,"vertex2":20873}},{"type":"Feature","geometry":{"type":"LineString","coordinates":[[3.679175,51.07468],[3.678113,51.07421]]},"properties":{"name":"Sint-Corneliusstraat","cyclenetwork":"yes","highway":"residential","maxspeed":"30","vertex1":20884,"vertex2":20814}},{"type":"Feature","geometry":{"type":"LineString","coordinates":[[3.679175,51.07468],[3.67967,51.07489]]},"properties":{"name":"Sint-Corneliusstraat","cyclenetwork":"yes","highway":"residential","maxspeed":"30","vertex1":20884,"vertex2":20848}},{"type":"Feature","geometry":{"type":"LineString","coordinates":[[3.679175,51.07468],[3.679423,51.07447]]},"properties":{"oneway":"yes","highway":"service","vertex1":20884,"vertex2":20863}},{"type":"Feature","geometry":{"type":"LineString","coordinates":[[3.670077,51.07087],[3.669952,51.07084]]},"properties":{"name":"Edgard Blancquaertstraat","highway":"residential","maxspeed":"30","vertex1":20883,"vertex2":20855}},{"type":"Feature","geometry":{"type":"LineString","coordinates":[[3.670077,51.07087],[3.671044,51.07111]]},"properties":{"name":"Edgard Blancquaertstraat","highway":"residential","maxspeed":"30","vertex1":20883,"vertex2":20831}},{"type":"Feature","geometry":{"type":"LineString","coordinates":[[3.676541,51.07318],[3.67658,51.07322]]},"properties":{"name":"Alphonse Claeys-Bouüaertlaan","cyclenetwork":"yes","highway":"residential","vertex1":20882,"vertex2":20824}},{"type":"Feature","geometry":{"type":"LineString","coordinates":[[3.677012,51.07433],[3.677504,51.07412]]},"properties":{"highway":"service","vertex1":20881,"vertex2":20836}},{"type":"Feature","geometry":{"type":"LineString","coordinates":[[3.6745,51.07535],[3.674369,51.07528]]},"properties":{"name":"Kasteeldreef","highway":"unclassified","vertex1":20880,"vertex2":20828}},{"type":"Feature","geometry":{"type":"LineString","coordinates":[[3.6745,51.07535],[3.674638,51.0753]]},"properties":{"highway":"track","vertex1":20880,"vertex2":20830}},{"type":"Feature","geometry":{"type":"LineString","coordinates":[[3.679099,51.07389],[3.678854,51.0738],[3.678248,51.07373]]},"properties":{"highway":"service","vertex1":20879,"vertex2":20876}},{"type":"Feature","geometry":{"type":"LineString","coordinates":[[3.673674,51.07507],[3.673418,51.07499]]},"properties":{"name":"Notenstraat","highway":"unclassified","vertex1":20878,"vertex2":20844}},{"type":"Feature","geometry":{"type":"LineString","coordinates":[[3.673674,51.07507],[3.674369,51.07528]]},"properties":{"name":"Kasteeldreef","highway":"unclassified","vertex1":20878,"vertex2":20828}},{"type":"Feature","geometry":{"type":"LineString","coordinates":[[3.673674,51.07507],[3.674169,51.07444],[3.673886,51.07436]]},"properties":{"highway":"service","vertex1":20878,"vertex2":20850}},{"type":"Feature","geometry":{"type":"LineString","coordinates":[[3.671183,51.07522],[3.670774,51.07471],[3.670661,51.07464],[3.670408,51.07433]]},"properties":{"highway":"service","vertex1":20877,"vertex2":20868}},{"type":"Feature","geometry":{"type":"LineString","coordinates":[[3.678248,51.07373],[3.678113,51.07421]]},"properties":{"name":"Juliaan Brakeleirsstraat","highway":"residential","maxspeed":"30","vertex1":20876,"vertex2":20814}},{"type":"Feature","geometry":{"type":"LineString","coordinates":[[3.678248,51.07373],[3.678566,51.07261]]},"properties":{"name":"Juliaan Brakeleirsstraat","highway":"residential","maxspeed":"30","vertex1":20876,"vertex2":20866}},{"type":"Feature","geometry":{"type":"LineString","coordinates":[[3.672312,51.0751],[3.672599,51.075],[3.672881,51.07501],[3.67306,51.07495]]},"properties":{"highway":"service","vertex1":20875,"vertex2":20856}},{"type":"Feature","geometry":{"type":"LineString","coordinates":[[3.677959,51.07438],[3.677864,51.07445]]},"properties":{"name":"Juliaan Brakeleirsstraat","highway":"residential","maxspeed":"30","vertex1":20874,"vertex2":20860}},{"type":"Feature","geometry":{"type":"LineString","coordinates":[[3.677959,51.07438],[3.678113,51.07421]]},"properties":{"name":"Juliaan Brakeleirsstraat","highway":"residential","maxspeed":"30","vertex1":20874,"vertex2":20814}},{"type":"Feature","geometry":{"type":"LineString","coordinates":[[3.677959,51.07438],[3.677526,51.074]]},"properties":{"name":"Alphonse Claeys-Bouüaertlaan","oneway":"yes","maxspeed":"50","highway":"residential","vertex1":20874,"vertex2":20820}},{"type":"Feature","geometry":{"type":"LineString","coordinates":[[3.677959,51.07438],[3.678404,51.07478]]},"properties":{"name":"Alphonse Claeys-Bouüaertlaan","oneway":"yes","maxspeed":"50","highway":"residential","vertex1":20874,"vertex2":20867}},{"type":"Feature","geometry":{"type":"LineString","coordinates":[[3.673826,51.06995],[3.673902,51.06998]]},"properties":{"name":"Zandloperstraat","oneway":"yes","oneway:bicycle":"no","highway":"residential","maxspeed":"30","vertex1":20873,"vertex2":20871}},{"type":"Feature","geometry":{"type":"LineString","coordinates":[[3.673826,51.06995],[3.672829,51.06949]]},"properties":{"name":"Zandloperstraat","oneway":"yes","oneway:bicycle":"no","highway":"residential","maxspeed":"30","vertex1":20873,"vertex2":20793}},{"type":"Feature","geometry":{"type":"LineString","coordinates":[[3.675589,51.07232],[3.675553,51.07235],[3.675485,51.07241],[3.675439,51.07251],[3.675414,51.07256]]},"properties":{"highway":"track","vertex1":20872,"vertex2":20816}},{"type":"Feature","geometry":{"type":"LineString","coordinates":[[3.675589,51.07232],[3.675682,51.07232]]},"properties":{"highway":"track","vertex1":20872,"vertex2":20826}},{"type":"Feature","geometry":{"type":"LineString","coordinates":[[3.675589,51.07232],[3.675581,51.07225],[3.676019,51.07155]]},"properties":{"highway":"path","vertex1":20872,"vertex2":20849}},{"type":"Feature","geometry":{"type":"LineString","coordinates":[[3.673902,51.06998],[3.674786,51.07035]]},"properties":{"name":"Zandloperstraat","oneway":"yes","oneway:bicycle":"no","highway":"residential","maxspeed":"30","vertex1":20871,"vertex2":20825}},{"type":"Feature","geometry":{"type":"LineString","coordinates":[[3.673902,51.06998],[3.674361,51.0696]]},"properties":{"name":"Volkshaardstraat","highway":"residential","maxspeed":"30","vertex1":20871,"vertex2":20796}},{"type":"Feature","geometry":{"type":"LineString","coordinates":[[3.679474,51.07501],[3.679588,51.07494],[3.67967,51.07489]]},"properties":{"name":"Brugsesteenweg","cyclenetwork":"yes","maxspeed":"50","highway":"tertiary","cycleway":"lane","vertex1":20869,"vertex2":20848}},{"type":"Feature","geometry":{"type":"LineString","coordinates":[[3.679474,51.07501],[3.679386,51.07507],[3.679117,51.07528],[3.67905,51.07534]]},"properties":{"name":"Brugsesteenweg","cyclenetwork":"yes","maxspeed":"50","highway":"tertiary","cycleway":"lane","vertex1":20869,"vertex2":20835}},{"type":"Feature","geometry":{"type":"LineString","coordinates":[[3.670408,51.07433],[3.670666,51.07424]]},"properties":{"name":"Amand Casier de ter Bekenlaan","maxspeed":"50","highway":"tertiary","vertex1":20868,"vertex2":20818}},{"type":"Feature","geometry":{"type":"LineString","coordinates":[[3.670408,51.07433],[3.669902,51.0745]]},"properties":{"name":"Amand Casier de ter Bekenlaan","maxspeed":"50","highway":"tertiary","vertex1":20868,"vertex2":20840}},{"type":"Feature","geometry":{"type":"LineString","coordinates":[[3.678404,51.07478],[3.678266,51.07484]]},"properties":{"highway":"residential","vertex1":20867,"vertex2":20815}},{"type":"Feature","geometry":{"type":"LineString","coordinates":[[3.678404,51.07478],[3.679001,51.07529],[3.67905,51.07534]]},"properties":{"name":"Alphonse Claeys-Bouüaertlaan","oneway":"yes","maxspeed":"50","highway":"residential","vertex1":20867,"vertex2":20835}},{"type":"Feature","geometry":{"type":"LineString","coordinates":[[3.678566,51.07261],[3.67757,51.07271]]},"properties":{"name":"Elfnovemberstraat","oneway":"yes","oneway:bicycle":"no","maxspeed":"30","highway":"tertiary","vertex1":20866,"vertex2":20838}},{"type":"Feature","geometry":{"type":"LineString","coordinates":[[3.678566,51.07261],[3.679235,51.07254],[3.679925,51.07216]]},"properties":{"name":"Elfnovemberstraat","oneway":"yes","oneway:bicycle":"no","maxspeed":"30","highway":"tertiary","vertex1":20866,"vertex2":20865}},{"type":"Feature","geometry":{"type":"LineString","coordinates":[[3.678566,51.07261],[3.678821,51.07272],[3.680642,51.07297],[3.680697,51.07298]]},"properties":{"name":"André de Bruynestraat","highway":"residential","maxspeed":"30","vertex1":20866,"vertex2":20625}},{"type":"Feature","geometry":{"type":"LineString","coordinates":[[3.679925,51.07216],[3.680714,51.07228]]},"properties":{"name":"Maurice Claeysplein","oneway":"yes","highway":"residential","maxspeed":"30","vertex1":20865,"vertex2":20659}},{"type":"Feature","geometry":{"type":"LineString","coordinates":[[3.679925,51.07216],[3.680534,51.0718],[3.680745,51.07164]]},"properties":{"name":"Maurice Claeysplein","oneway":"yes","maxspeed":"30","highway":"tertiary","vertex1":20865,"vertex2":20592}},{"type":"Feature","geometry":{"type":"LineString","coordinates":[[3.676543,51.0728],[3.67757,51.07271]]},"properties":{"name":"Elfnovemberstraat","oneway":"yes","oneway:bicycle":"no","maxspeed":"30","highway":"tertiary","vertex1":20864,"vertex2":20838}},{"type":"Feature","geometry":{"type":"LineString","coordinates":[[3.676543,51.0728],[3.676123,51.07283]]},"properties":{"name":"Mariakerkeplein","maxspeed":"30","highway":"tertiary","vertex1":20864,"vertex2":20832}},{"type":"Feature","geometry":{"type":"LineString","coordinates":[[3.679423,51.07447],[3.679708,51.07423],[3.679928,51.07428]]},"properties":{"oneway":"yes","highway":"service","vertex1":20863,"vertex2":20854}},{"type":"Feature","geometry":{"type":"LineString","coordinates":[[3.679423,51.07447],[3.679607,51.07452]]},"properties":{"oneway":"yes","highway":"service","vertex1":20863,"vertex2":20845}},{"type":"Feature","geometry":{"type":"LineString","coordinates":[[3.67726,51.07389],[3.677504,51.07412]]},"properties":{"name":"Alphonse Claeys-Bouüaertlaan","oneway":"yes","cyclenetwork":"yes","maxspeed":"50","highway":"residential","vertex1":20862,"vertex2":20836}},{"type":"Feature","geometry":{"type":"LineString","coordinates":[[3.67726,51.07389],[3.676784,51.07347],[3.67658,51.07322]]},"properties":{"name":"Alphonse Claeys-Bouüaertlaan","oneway":"yes","cyclenetwork":"yes","maxspeed":"50","highway":"residential","vertex1":20862,"vertex2":20824}},{"type":"Feature","geometry":{"type":"LineString","coordinates":[[3.678454,51.07094],[3.677536,51.07056],[3.677119,51.07041],[3.676734,51.07024],[3.675489,51.06969],[3.675282,51.06961],[3.675131,51.06952],[3.674971,51.06938],[3.674819,51.06928]]},"properties":{"name":"Aloïs Van de Vyverestraat","highway":"residential","maxspeed":"30","vertex1":20861,"vertex2":20792}},{"type":"Feature","geometry":{"type":"LineString","coordinates":[[3.678454,51.07094],[3.679113,51.07029]]},"properties":{"name":"Rene Van De Puttestraat","highway":"residential","maxspeed":"30","vertex1":20861,"vertex2":20833}},{"type":"Feature","geometry":{"type":"LineString","coordinates":[[3.678454,51.07094],[3.678842,51.07113],[3.679204,51.07133]]},"properties":{"name":"Mariakerkegeest","highway":"residential","maxspeed":"30","vertex1":20861,"vertex2":20839}},{"type":"Feature","geometry":{"type":"LineString","coordinates":[[3.677864,51.07445],[3.678266,51.07484]]},"properties":{"name":"Alphonse Claeys-Bouüaertlaan","oneway":"yes","cyclenetwork":"yes","maxspeed":"50","highway":"residential","vertex1":20860,"vertex2":20815}},{"type":"Feature","geometry":{"type":"LineString","coordinates":[[3.677864,51.07445],[3.677504,51.07412]]},"properties":{"name":"Alphonse Claeys-Bouüaertlaan","oneway":"yes","cyclenetwork":"yes","maxspeed":"50","highway":"residential","vertex1":20860,"vertex2":20836}},{"type":"Feature","geometry":{"type":"LineString","coordinates":[[3.678243,51.06995],[3.678841,51.06932]]},"properties":{"name":"Schaatsmeers","highway":"residential","maxspeed":"30","vertex1":20859,"vertex2":20807}},{"type":"Feature","geometry":{"type":"LineString","coordinates":[[3.678243,51.06995],[3.677342,51.0696]]},"properties":{"name":"Oranjerielaan","highway":"residential","maxspeed":"30","vertex1":20859,"vertex2":20803}},{"type":"Feature","geometry":{"type":"LineString","coordinates":[[3.678243,51.06995],[3.679113,51.07029]]},"properties":{"name":"Oranjerielaan","highway":"residential","maxspeed":"30","vertex1":20859,"vertex2":20833}},{"type":"Feature","geometry":{"type":"LineString","coordinates":[[3.678911,51.07543],[3.678874,51.0754],[3.678266,51.07484]]},"properties":{"name":"Alphonse Claeys-Bouüaertlaan","oneway":"yes","cyclenetwork":"yes","maxspeed":"50","highway":"residential","vertex1":20858,"vertex2":20815}},{"type":"Feature","geometry":{"type":"LineString","coordinates":[[3.678911,51.07543],[3.678792,51.07553]]},"properties":{"name":"Brugsesteenweg","maxspeed":"50","highway":"tertiary","cycleway":"lane","vertex1":20858,"vertex2":20445}},{"type":"Feature","geometry":{"type":"LineString","coordinates":[[3.678911,51.07543],[3.67905,51.07534]]},"properties":{"name":"Brugsesteenweg","cyclenetwork":"yes","maxspeed":"50","highway":"tertiary","cycleway":"lane","vertex1":20858,"vertex2":20835}},{"type":"Feature","geometry":{"type":"LineString","coordinates":[[3.675842,51.07206],[3.677239,51.07233],[3.67751,51.07225],[3.677596,51.07209],[3.677574,51.07199],[3.67722,51.07189],[3.676373,51.07166],[3.676019,51.07155]]},"properties":{"highway":"path","vertex1":20857,"vertex2":20849}},{"type":"Feature","geometry":{"type":"LineString","coordinates":[[3.67306,51.07495],[3.672543,51.07556],[3.672364,51.07574],[3.67217,51.07569],[3.671474,51.07551]]},"properties":{"name":"Kasteeldreef","highway":"path","vertex1":20856,"vertex2":20468}},{"type":"Feature","geometry":{"type":"LineString","coordinates":[[3.67306,51.07495],[3.673249,51.07491]]},"properties":{"name":"Kasteeldreef","highway":"residential","vertex1":20856,"vertex2":20842}},{"type":"Feature","geometry":{"type":"LineString","coordinates":[[3.669952,51.07084],[3.66981,51.07083]]},"properties":{"name":"Oranjeboomstraat","highway":"residential","maxspeed":"30","vertex1":20855,"vertex2":20853}},{"type":"Feature","geometry":{"type":"LineString","coordinates":[[3.669952,51.07084],[3.668711,51.07007],[3.668177,51.06988],[3.666628,51.06927]]},"properties":{"name":"Vliegpleinkouter","highway":"residential","maxspeed":"30","vertex1":20855,"vertex2":20958}},{"type":"Feature","geometry":{"type":"LineString","coordinates":[[3.679928,51.07428],[3.680033,51.07421],[3.680381,51.0743],[3.680441,51.07431]]},"properties":{"oneway":"yes","highway":"service","vertex1":20854,"vertex2":20614}},{"type":"Feature","geometry":{"type":"LineString","coordinates":[[3.679928,51.07428],[3.679607,51.07452]]},"properties":{"oneway":"yes","highway":"service","vertex1":20854,"vertex2":20845}},{"type":"Feature","geometry":{"type":"LineString","coordinates":[[3.66981,51.07083],[3.669469,51.07082],[3.668393,51.07083]]},"properties":{"name":"Oranjeboomstraat","highway":"residential","maxspeed":"30","vertex1":20853,"vertex2":20947}},{"type":"Feature","geometry":{"type":"LineString","coordinates":[[3.66981,51.07083],[3.669766,51.07106],[3.669633,51.07122],[3.669513,51.0714],[3.669352,51.07166],[3.669252,51.07195],[3.669139,51.07236],[3.669012,51.07274]]},"properties":{"name":"Verschansingsstraat","highway":"residential","maxspeed":"30","vertex1":20853,"vertex2":20928}},{"type":"Feature","geometry":{"type":"LineString","coordinates":[[3.669012,51.07274],[3.669683,51.07283],[3.670169,51.0729]]},"properties":{"name":"Rijakker","highway":"residential","maxspeed":"30","vertex1":20928,"vertex2":20822}},{"type":"Feature","geometry":{"type":"LineString","coordinates":[[3.669012,51.07274],[3.668821,51.07312]]},"properties":{"name":"Verschansingsstraat","highway":"residential","maxspeed":"30","vertex1":20928,"vertex2":20912}},{"type":"Feature","geometry":{"type":"LineString","coordinates":[[3.676029,51.07282],[3.676123,51.07283]]},"properties":{"name":"Mariakerkeplein","cyclenetwork":"yes","maxspeed":"30","highway":"tertiary","vertex1":20852,"vertex2":20832}},{"type":"Feature","geometry":{"type":"LineString","coordinates":[[3.675656,51.07106],[3.676244,51.07122]]},"properties":{"highway":"path","vertex1":20851,"vertex2":20847}},{"type":"Feature","geometry":{"type":"LineString","coordinates":[[3.673886,51.07436],[3.673683,51.0743]]},"properties":{"highway":"service","vertex1":20850,"vertex2":20834}},{"type":"Feature","geometry":{"type":"LineString","coordinates":[[3.673886,51.07436],[3.673418,51.07499]]},"properties":{"highway":"service","vertex1":20850,"vertex2":20844}},{"type":"Feature","geometry":{"type":"LineString","coordinates":[[3.676019,51.07155],[3.676244,51.07122]]},"properties":{"highway":"path","vertex1":20849,"vertex2":20847}},{"type":"Feature","geometry":{"type":"LineString","coordinates":[[3.676019,51.07155],[3.675284,51.07137]]},"properties":{"highway":"path","vertex1":20849,"vertex2":20821}},{"type":"Feature","geometry":{"type":"LineString","coordinates":[[3.67967,51.07489],[3.680218,51.07451],[3.680441,51.07431]]},"properties":{"name":"Brugsesteenweg","cyclenetwork":"yes","maxspeed":"50","highway":"tertiary","cycleway":"lane","vertex1":20848,"vertex2":20614}},{"type":"Feature","geometry":{"type":"LineString","coordinates":[[3.676672,51.07328],[3.67658,51.07322]]},"properties":{"name":"Alphonse Claeys-Bouüaertlaan","oneway":"yes","cyclenetwork":"yes","maxspeed":"50","highway":"residential","vertex1":20846,"vertex2":20824}},{"type":"Feature","geometry":{"type":"LineString","coordinates":[[3.673418,51.07499],[3.673353,51.07497],[3.673249,51.07491]]},"properties":{"name":"Notenstraat","highway":"unclassified","vertex1":20844,"vertex2":20842}},{"type":"Feature","geometry":{"type":"LineString","coordinates":[[3.679272,51.07129],[3.679343,51.07127],[3.679403,51.07127],[3.679448,51.0713],[3.679487,51.07134],[3.679404,51.07139],[3.679324,51.07143],[3.679242,51.07139]]},"properties":{"name":"Mariakerkegeest","highway":"residential","maxspeed":"30","vertex1":20843,"vertex2":20841}},{"type":"Feature","geometry":{"type":"LineString","coordinates":[[3.679272,51.07129],[3.679204,51.07133]]},"properties":{"name":"Mariakerkegeest","highway":"residential","maxspeed":"30","vertex1":20843,"vertex2":20839}},{"type":"Feature","geometry":{"type":"LineString","coordinates":[[3.673249,51.07491],[3.673265,51.07486],[3.673683,51.0743]]},"properties":{"name":"Notenstraat","highway":"unclassified","vertex1":20842,"vertex2":20834}},{"type":"Feature","geometry":{"type":"LineString","coordinates":[[3.679242,51.07139],[3.679204,51.07133]]},"properties":{"name":"Mariakerkegeest","highway":"residential","maxspeed":"30","vertex1":20841,"vertex2":20839}},{"type":"Feature","geometry":{"type":"LineString","coordinates":[[3.669902,51.0745],[3.667961,51.07515]]},"properties":{"name":"Amand Casier de ter Bekenlaan","maxspeed":"50","highway":"tertiary","vertex1":20840,"vertex2":20930}},{"type":"Feature","geometry":{"type":"LineString","coordinates":[[3.667961,51.07515],[3.667897,51.07504],[3.668022,51.07472],[3.668597,51.07355],[3.668821,51.07312]]},"properties":{"name":"Verschansingsstraat","highway":"residential","maxspeed":"30","vertex1":20930,"vertex2":20912}},{"type":"Feature","geometry":{"type":"LineString","coordinates":[[3.68021,51.07078],[3.679113,51.07029]]},"properties":{"name":"Oranjerielaan","highway":"residential","maxspeed":"30","vertex1":20837,"vertex2":20833}},{"type":"Feature","geometry":{"type":"LineString","coordinates":[[3.68021,51.07078],[3.681162,51.07119]]},"properties":{"name":"Oranjerielaan","highway":"residential","maxspeed":"30","vertex1":20837,"vertex2":20588}},{"type":"Feature","geometry":{"type":"LineString","coordinates":[[3.68021,51.07078],[3.68049,51.07053]]},"properties":{"highway":"service","vertex1":20837,"vertex2":20596}},{"type":"Feature","geometry":{"type":"LineString","coordinates":[[3.67905,51.07534],[3.679083,51.07537],[3.679077,51.07542],[3.678951,51.07557]]},"properties":{"name":"Brugsesteenweg","oneway":"yes","highway":"residential","vertex1":20835,"vertex2":20478}},{"type":"Feature","geometry":{"type":"LineString","coordinates":[[3.679113,51.07029],[3.679714,51.06966],[3.679754,51.06963],[3.67979,51.06963],[3.679829,51.0696],[3.679848,51.06958],[3.679848,51.06955],[3.679746,51.06953],[3.67966,51.06951],[3.678933,51.06934],[3.678841,51.06932]]},"properties":{"name":"Rene Van De Puttestraat","highway":"residential","maxspeed":"30","vertex1":20833,"vertex2":20807}},{"type":"Feature","geometry":{"type":"LineString","coordinates":[[3.671044,51.07111],[3.671361,51.07068],[3.671854,51.07035],[3.672018,51.07014],[3.671971,51.06995],[3.671713,51.0698],[3.671043,51.06959],[3.670735,51.0694],[3.670164,51.06913]]},"properties":{"name":"De Campagne","highway":"residential","maxspeed":"30","vertex1":20831,"vertex2":20797}},{"type":"Feature","geometry":{"type":"LineString","coordinates":[[3.670001,51.07],[3.66972,51.0698],[3.669628,51.06953],[3.669883,51.06931],[3.670164,51.06913]]},"properties":{"name":"De Campagne","highway":"residential","maxspeed":"30","vertex1":20829,"vertex2":20797}},{"type":"Feature","geometry":{"type":"LineString","coordinates":[[3.670001,51.07],[3.670224,51.07018]]},"properties":{"name":"De Campagne","highway":"residential","maxspeed":"30","vertex1":20829,"vertex2":20817}},{"type":"Feature","geometry":{"type":"LineString","coordinates":[[3.674369,51.07528],[3.674273,51.07543],[3.674372,51.07559]]},"properties":{"name":"Beukendreef","highway":"unclassified","vertex1":20828,"vertex2":20446}},{"type":"Feature","geometry":{"type":"LineString","coordinates":[[3.674176,51.07108],[3.674786,51.07035]]},"properties":{"name":"Regenboog","highway":"residential","maxspeed":"30","vertex1":20827,"vertex2":20825}},{"type":"Feature","geometry":{"type":"LineString","coordinates":[[3.675682,51.07232],[3.675872,51.07236],[3.676092,51.07241],[3.676145,51.07242],[3.676169,51.07246],[3.676136,51.07257],[3.67611,51.07266],[3.676085,51.07273],[3.675957,51.0727],[3.675803,51.07266],[3.67564,51.07262],[3.675512,51.07258],[3.675414,51.07256]]},"properties":{"highway":"track","vertex1":20826,"vertex2":20816}},{"type":"Feature","geometry":{"type":"LineString","coordinates":[[3.674786,51.07035],[3.675796,51.07076]]},"properties":{"name":"Zandloperstraat","oneway":"yes","oneway:bicycle":"no","highway":"residential","maxspeed":"30","vertex1":20825,"vertex2":20823}},{"type":"Feature","geometry":{"type":"LineString","coordinates":[[3.675796,51.07076],[3.675284,51.07137]]},"properties":{"name":"Kerkhofstraat","highway":"residential","maxspeed":"30","vertex1":20823,"vertex2":20821}},{"type":"Feature","geometry":{"type":"LineString","coordinates":[[3.675284,51.07137],[3.674592,51.0722]]},"properties":{"name":"Kerkhofstraat","highway":"residential","maxspeed":"30","vertex1":20821,"vertex2":20819}},{"type":"Feature","geometry":{"type":"LineString","coordinates":[[3.677526,51.074],[3.678113,51.07421]]},"properties":{"name":"Sint-Corneliusstraat","cyclenetwork":"yes","highway":"residential","maxspeed":"30","vertex1":20820,"vertex2":20814}},{"type":"Feature","geometry":{"type":"LineString","coordinates":[[3.670666,51.07424],[3.670474,51.07398],[3.670163,51.07364],[3.670032,51.0735],[3.669823,51.07339],[3.669582,51.0733],[3.669222,51.07322],[3.668821,51.07312]]},"properties":{"name":"Alfons Minoodtlaan","highway":"residential","maxspeed":"30","vertex1":20818,"vertex2":20912}},{"type":"Feature","geometry":{"type":"LineString","coordinates":[[3.678266,51.07484],[3.677492,51.07568],[3.677247,51.07602]]},"properties":{"name":"Zomerliefstraat","highway":"unclassified","vertex1":20815,"vertex2":20505}},{"type":"Feature","geometry":{"type":"LineString","coordinates":[[3.676615,51.06931],[3.677027,51.0689],[3.677046,51.06884],[3.677049,51.06881],[3.677029,51.06877],[3.67698,51.06873],[3.676404,51.06845],[3.675575,51.06802]]},"properties":{"name":"Bieslookstraat","highway":"residential","maxspeed":"30","vertex1":20811,"vertex2":20809}},{"type":"Feature","geometry":{"type":"LineString","coordinates":[[3.676615,51.06931],[3.676376,51.06956]]},"properties":{"name":"Oranjerielaan","highway":"residential","maxspeed":"30","vertex1":20811,"vertex2":20788}},{"type":"Feature","geometry":{"type":"LineString","coordinates":[[3.676615,51.06931],[3.67587,51.06897],[3.675605,51.06885],[3.675492,51.06883],[3.675386,51.06884],[3.675278,51.0689],[3.674819,51.06928]]},"properties":{"name":"Oranjerielaan","highway":"residential","maxspeed":"30","vertex1":20811,"vertex2":20792}},{"type":"Feature","geometry":{"type":"LineString","coordinates":[[3.676615,51.06931],[3.677342,51.0696]]},"properties":{"name":"Oranjerielaan","highway":"residential","maxspeed":"30","vertex1":20811,"vertex2":20803}},{"type":"Feature","geometry":{"type":"LineString","coordinates":[[3.678841,51.06932],[3.679557,51.06854]]},"properties":{"name":"Schaatsmeers","highway":"residential","maxspeed":"30","vertex1":20807,"vertex2":20810}},{"type":"Feature","geometry":{"type":"LineString","coordinates":[[3.679557,51.06854],[3.680267,51.06893],[3.681157,51.0694],[3.681742,51.06973],[3.682365,51.07]]},"properties":{"name":"Raymond de Hemptinnelaan","highway":"residential","maxspeed":"30","vertex1":20810,"vertex2":20598}},{"type":"Feature","geometry":{"type":"LineString","coordinates":[[3.679557,51.06854],[3.679258,51.06838],[3.679092,51.06829],[3.678979,51.06825],[3.678872,51.06823],[3.67877,51.06823],[3.678662,51.06824]]},"properties":{"name":"Raymond de Hemptinnelaan","highway":"residential","maxspeed":"30","vertex1":20810,"vertex2":20812}},{"type":"Feature","geometry":{"type":"LineString","coordinates":[[3.677342,51.0696],[3.677933,51.06894],[3.678389,51.06848],[3.678577,51.06831],[3.678662,51.06824]]},"properties":{"name":"Rietgracht","highway":"residential","maxspeed":"30","vertex1":20803,"vertex2":20812}},{"type":"Feature","geometry":{"type":"LineString","coordinates":[[3.671963,51.0691],[3.672331,51.06926],[3.672829,51.06949]]},"properties":{"name":"Zandloperstraat","oneway":"yes","oneway:bicycle":"no","highway":"residential","maxspeed":"30","vertex1":20801,"vertex2":20793}},{"type":"Feature","geometry":{"type":"LineString","coordinates":[[3.671963,51.0691],[3.671033,51.0687],[3.670656,51.06854]]},"properties":{"name":"Zandloperstraat","oneway":"yes","oneway:bicycle":"no","highway":"residential","maxspeed":"30","vertex1":20801,"vertex2":20787}},{"type":"Feature","geometry":{"type":"LineString","coordinates":[[3.671963,51.0691],[3.672472,51.06845],[3.670739,51.06773]]},"properties":{"highway":"track","vertex1":20801,"vertex2":20800}},{"type":"Feature","geometry":{"type":"LineString","coordinates":[[3.670656,51.06854],[3.67044,51.06874],[3.670268,51.06893],[3.670164,51.06913]]},"properties":{"highway":"track","vertex1":20787,"vertex2":20797}},{"type":"Feature","geometry":{"type":"LineString","coordinates":[[3.674361,51.0696],[3.674577,51.06945]]},"properties":{"name":"Volkshaardstraat","highway":"residential","maxspeed":"30","vertex1":20796,"vertex2":20794}},{"type":"Feature","geometry":{"type":"LineString","coordinates":[[3.674361,51.0696],[3.674368,51.06942],[3.674245,51.0693]]},"properties":{"name":"Volkshaardstraat","highway":"residential","maxspeed":"30","vertex1":20796,"vertex2":20791}},{"type":"Feature","geometry":{"type":"LineString","coordinates":[[3.673316,51.0691],[3.673451,51.06906],[3.673675,51.06902]]},"properties":{"name":"Volkshaardstraat","highway":"residential","maxspeed":"30","vertex1":20795,"vertex2":20799}},{"type":"Feature","geometry":{"type":"LineString","coordinates":[[3.673316,51.0691],[3.673131,51.06924],[3.672829,51.06949]]},"properties":{"name":"Volkshaardstraat","highway":"residential","maxspeed":"30","vertex1":20795,"vertex2":20793}},{"type":"Feature","geometry":{"type":"LineString","coordinates":[[3.673316,51.0691],[3.673374,51.06902],[3.673423,51.06894],[3.673442,51.06889]]},"properties":{"name":"Volkshaardstraat","highway":"residential","vertex1":20795,"vertex2":20805}},{"type":"Feature","geometry":{"type":"LineString","coordinates":[[3.673675,51.06902],[3.673927,51.06916],[3.674245,51.0693]]},"properties":{"name":"Volkshaardstraat","highway":"residential","maxspeed":"30","vertex1":20799,"vertex2":20791}},{"type":"Feature","geometry":{"type":"LineString","coordinates":[[3.673675,51.06902],[3.673545,51.06894],[3.673442,51.06889]]},"properties":{"name":"Volkshaardstraat","highway":"residential","vertex1":20799,"vertex2":20805}},{"type":"Feature","geometry":{"type":"LineString","coordinates":[[3.674577,51.06945],[3.674819,51.06928]]},"properties":{"name":"Volkshaardstraat","highway":"residential","maxspeed":"30","vertex1":20794,"vertex2":20792}},{"type":"Feature","geometry":{"type":"LineString","coordinates":[[3.674577,51.06945],[3.674245,51.0693]]},"properties":{"name":"Volkshaardstraat","highway":"residential","vertex1":20794,"vertex2":20791}},{"type":"Feature","geometry":{"type":"LineString","coordinates":[[3.688799,51.06912],[3.68829,51.06991],[3.688285,51.07002]]},"properties":{"name":"Werkstraat","highway":"living_street","maxspeed":"20","vertex1":20782,"vertex2":20644}},{"type":"Feature","geometry":{"type":"LineString","coordinates":[[3.688799,51.06912],[3.688969,51.06889],[3.689254,51.06863],[3.689719,51.06838]]},"properties":{"name":"Werkstraat","highway":"living_street","maxspeed":"20","vertex1":20782,"vertex2":20784}},{"type":"Feature","geometry":{"type":"LineString","coordinates":[[3.688799,51.06912],[3.689991,51.06943]]},"properties":{"name":"Drapierstraat","highway":"residential","maxspeed":"30","vertex1":20782,"vertex2":20725}},{"type":"Feature","geometry":{"type":"LineString","coordinates":[[3.688799,51.06912],[3.687108,51.06865],[3.686026,51.0682],[3.685811,51.06808]]},"properties":{"name":"Lijnwaadstraat","highway":"residential","maxspeed":"30","vertex1":20782,"vertex2":20733}},{"type":"Feature","geometry":{"type":"LineString","coordinates":[[3.689719,51.06838],[3.690343,51.06877],[3.690369,51.06881],[3.690351,51.06884],[3.689991,51.06943]]},"properties":{"name":"Scharlakenstraat","highway":"residential","maxspeed":"30","vertex1":20784,"vertex2":20725}},{"type":"Feature","geometry":{"type":"LineString","coordinates":[[3.691339,51.06914],[3.691184,51.06952],[3.691121,51.0698]]},"properties":{"highway":"service","vertex1":20766,"vertex2":20760}},{"type":"Feature","geometry":{"type":"LineString","coordinates":[[3.691121,51.0698],[3.690854,51.0698],[3.690527,51.06981],[3.690324,51.06983]]},"properties":{"name":"Weefselstraat","highway":"residential","maxspeed":"30","vertex1":20760,"vertex2":20756}},{"type":"Feature","geometry":{"type":"LineString","coordinates":[[3.691121,51.0698],[3.69117,51.0698],[3.691499,51.06984],[3.691839,51.0699],[3.692303,51.07008]]},"properties":{"name":"Weefselstraat","highway":"residential","maxspeed":"30","vertex1":20760,"vertex2":15729}},{"type":"Feature","geometry":{"type":"LineString","coordinates":[[3.692303,51.07008],[3.690906,51.0708]]},"properties":{"name":"Gerard Willemotstraat","bicycle":"no","maxspeed":"50","highway":"residential","vertex1":15729,"vertex2":20574}},{"type":"Feature","geometry":{"type":"LineString","coordinates":[[3.692303,51.07008],[3.692341,51.0701]]},"properties":{"foot":"no","highway":"cycleway","vertex1":15729,"vertex2":15780}},{"type":"Feature","geometry":{"type":"LineString","coordinates":[[3.690324,51.06983],[3.689906,51.06986]]},"properties":{"name":"Weefselstraat","highway":"residential","maxspeed":"30","vertex1":20756,"vertex2":20730}},{"type":"Feature","geometry":{"type":"LineString","coordinates":[[3.690324,51.06983],[3.690914,51.06892],[3.690937,51.06889]]},"properties":{"bicycle":"no","motorcar":"no","foot":"no","highway":"service","vertex1":20756,"vertex2":20786}},{"type":"Feature","geometry":{"type":"LineString","coordinates":[[3.689844,51.06987],[3.688984,51.06994]]},"properties":{"name":"Weefselstraat","highway":"residential","maxspeed":"30","vertex1":20754,"vertex2":20750}},{"type":"Feature","geometry":{"type":"LineString","coordinates":[[3.689844,51.06987],[3.689906,51.06986]]},"properties":{"name":"Weefselstraat","highway":"residential","maxspeed":"30","vertex1":20754,"vertex2":20730}},{"type":"Feature","geometry":{"type":"LineString","coordinates":[[3.689844,51.06987],[3.689837,51.06971],[3.689928,51.06955],[3.689991,51.06943]]},"properties":{"name":"Scharlakenstraat","highway":"residential","maxspeed":"30","vertex1":20754,"vertex2":20725}},{"type":"Feature","geometry":{"type":"LineString","coordinates":[[3.688984,51.06994],[3.688488,51.06998],[3.688285,51.07002]]},"properties":{"name":"Weefselstraat","highway":"residential","maxspeed":"30","vertex1":20750,"vertex2":20644}},{"type":"Feature","geometry":{"type":"LineString","coordinates":[[3.688984,51.06994],[3.688757,51.07096],[3.688703,51.07103],[3.688626,51.07106]]},"properties":{"name":"Vlasstraat","oneway":"yes","oneway:bicycle":"no","highway":"residential","maxspeed":"30","vertex1":20750,"vertex2":20586}},{"type":"Feature","geometry":{"type":"LineString","coordinates":[[3.682774,51.06974],[3.682951,51.06985],[3.683074,51.0699],[3.683491,51.07006]]},"properties":{"bicycle":"no","motorcar":"no","foot":"no","highway":"track","vertex1":20749,"vertex2":20612}},{"type":"Feature","geometry":{"type":"LineString","coordinates":[[3.682774,51.06974],[3.683089,51.06955]]},"properties":{"name":"Brugsesteenweg","maxspeed":"50","highway":"tertiary","cycleway":"lane","vertex1":20749,"vertex2":20715}},{"type":"Feature","geometry":{"type":"LineString","coordinates":[[3.682774,51.06974],[3.682518,51.0699],[3.682365,51.07]]},"properties":{"name":"Brugsesteenweg","maxspeed":"50","highway":"tertiary","cycleway":"lane","vertex1":20749,"vertex2":20598}},{"type":"Feature","geometry":{"type":"LineString","coordinates":[[3.689906,51.06986],[3.689977,51.07016]]},"properties":{"highway":"footway","vertex1":20730,"vertex2":20665}},{"type":"Feature","geometry":{"type":"LineString","coordinates":[[3.683923,51.0691],[3.684093,51.06921],[3.6849,51.06956]]},"properties":{"name":"Damaststraat","oneway":"yes","oneway:bicycle":"no","highway":"residential","maxspeed":"30","vertex1":20722,"vertex2":20720}},{"type":"Feature","geometry":{"type":"LineString","coordinates":[[3.683923,51.0691],[3.684764,51.06864]]},"properties":{"name":"Brugsesteenweg","maxspeed":"50","highway":"tertiary","cycleway":"lane","vertex1":20722,"vertex2":20765}},{"type":"Feature","geometry":{"type":"LineString","coordinates":[[3.683923,51.0691],[3.68383,51.06915]]},"properties":{"name":"Brugsesteenweg","maxspeed":"50","highway":"tertiary","cycleway":"lane","vertex1":20722,"vertex2":20721}},{"type":"Feature","geometry":{"type":"LineString","coordinates":[[3.684764,51.06864],[3.686102,51.06919],[3.687152,51.0696],[3.688231,51.07003]]},"properties":{"name":"Jutestraat","oneway":"yes","oneway:bicycle":"no","highway":"residential","maxspeed":"30","vertex1":20765,"vertex2":20646}},{"type":"Feature","geometry":{"type":"LineString","coordinates":[[3.68383,51.06915],[3.683092,51.06858],[3.683507,51.06834],[3.683051,51.06803]]},"properties":{"highway":"service","vertex1":20721,"vertex2":20777}},{"type":"Feature","geometry":{"type":"LineString","coordinates":[[3.68383,51.06915],[3.683089,51.06955]]},"properties":{"name":"Brugsesteenweg","maxspeed":"50","highway":"tertiary","cycleway":"lane","vertex1":20721,"vertex2":20715}},{"type":"Feature","geometry":{"type":"LineString","coordinates":[[3.6849,51.06956],[3.686544,51.07019],[3.686799,51.07026],[3.686934,51.07028]]},"properties":{"name":"Damaststraat","oneway":"yes","oneway:bicycle":"no","highway":"residential","maxspeed":"30","vertex1":20720,"vertex2":20621}},{"type":"Feature","geometry":{"type":"LineString","coordinates":[[3.6849,51.06956],[3.684444,51.07002]]},"properties":{"name":"Zandekensstraat","highway":"residential","maxspeed":"30","vertex1":20720,"vertex2":20637}},{"type":"Feature","geometry":{"type":"LineString","coordinates":[[3.683089,51.06955],[3.681926,51.06876],[3.681318,51.06834],[3.680567,51.06781],[3.68052,51.06777],[3.680459,51.06771],[3.680406,51.06764]]},"properties":{"name":"Octaaf Van Dammestraat","highway":"residential","maxspeed":"30","vertex1":20715,"vertex2":20813}},{"type":"Feature","geometry":{"type":"LineString","coordinates":[[3.690934,51.07082],[3.690906,51.0708]]},"properties":{"foot":"no","highway":"cycleway","vertex1":20666,"vertex2":20574}},{"type":"Feature","geometry":{"type":"LineString","coordinates":[[3.690934,51.07082],[3.688623,51.072]]},"properties":{"cyclenetwork":"yes","foot":"no","highway":"cycleway","vertex1":20666,"vertex2":20638}},{"type":"Feature","geometry":{"type":"LineString","coordinates":[[3.690934,51.07082],[3.692341,51.0701]]},"properties":{"cyclenetwork":"yes","foot":"no","highway":"cycleway","vertex1":20666,"vertex2":15780}},{"type":"Feature","geometry":{"type":"LineString","coordinates":[[3.689977,51.07016],[3.690116,51.07016],[3.690303,51.07029],[3.690906,51.0708]]},"properties":{"name":"Wolstraat","highway":"residential","maxspeed":"30","vertex1":20665,"vertex2":20574}},{"type":"Feature","geometry":{"type":"LineString","coordinates":[[3.689977,51.07016],[3.689835,51.07018],[3.689783,51.07034],[3.689776,51.07042]]},"properties":{"name":"Wolstraat","highway":"residential","maxspeed":"30","vertex1":20665,"vertex2":20663}},{"type":"Feature","geometry":{"type":"LineString","coordinates":[[3.68606,51.07225],[3.686385,51.0715]]},"properties":{"name":"Flanelstraat","highway":"residential","maxspeed":"30","vertex1":20664,"vertex2":20583}},{"type":"Feature","geometry":{"type":"LineString","coordinates":[[3.68606,51.07225],[3.686512,51.0726]]},"properties":{"name":"Flanelstraat","highway":"residential","maxspeed":"30","vertex1":20664,"vertex2":20662}},{"type":"Feature","geometry":{"type":"LineString","coordinates":[[3.68606,51.07225],[3.686178,51.07225],[3.686366,51.07228],[3.686663,51.07233]]},"properties":{"name":"Flanelstraat","highway":"residential","maxspeed":"30","vertex1":20664,"vertex2":20656}},{"type":"Feature","geometry":{"type":"LineString","coordinates":[[3.689776,51.07042],[3.689667,51.07085]]},"properties":{"name":"Wolstraat","highway":"residential","maxspeed":"30","vertex1":20663,"vertex2":20628}},{"type":"Feature","geometry":{"type":"LineString","coordinates":[[3.689776,51.07042],[3.689817,51.07084],[3.689875,51.0708],[3.689894,51.07076]]},"properties":{"name":"Wolstraat","highway":"residential","maxspeed":"30","vertex1":20663,"vertex2":20617}},{"type":"Feature","geometry":{"type":"LineString","coordinates":[[3.686512,51.0726],[3.68687,51.07285]]},"properties":{"name":"Flanelstraat","highway":"residential","maxspeed":"30","vertex1":20662,"vertex2":20660}},{"type":"Feature","geometry":{"type":"LineString","coordinates":[[3.686512,51.0726],[3.686663,51.07233]]},"properties":{"name":"Flanelstraat","highway":"residential","maxspeed":"30","vertex1":20662,"vertex2":20656}},{"type":"Feature","geometry":{"type":"LineString","coordinates":[[3.688076,51.07181],[3.687031,51.07162]]},"properties":{"name":"Spellewerkstraat","highway":"residential","maxspeed":"30","vertex1":20661,"vertex2":20593}},{"type":"Feature","geometry":{"type":"LineString","coordinates":[[3.688076,51.07181],[3.688455,51.07189],[3.68859,51.07198]]},"properties":{"name":"Spellewerkstraat","highway":"residential","maxspeed":"30","vertex1":20661,"vertex2":20615}},{"type":"Feature","geometry":{"type":"LineString","coordinates":[[3.688076,51.07181],[3.688396,51.07117],[3.688504,51.07108]]},"properties":{"name":"Vlasstraat","oneway":"yes","oneway:bicycle":"no","highway":"residential","maxspeed":"30","vertex1":20661,"vertex2":20626}},{"type":"Feature","geometry":{"type":"LineString","coordinates":[[3.68687,51.07285],[3.68596,51.0733]]},"properties":{"name":"Gerard Willemotstraat","bicycle":"no","maxspeed":"50","highway":"residential","vertex1":20660,"vertex2":20613}},{"type":"Feature","geometry":{"type":"LineString","coordinates":[[3.68687,51.07285],[3.68815,51.0722],[3.68859,51.07198]]},"properties":{"name":"Gerard Willemotstraat","bicycle":"no","maxspeed":"50","highway":"residential","vertex1":20660,"vertex2":20615}},{"type":"Feature","geometry":{"type":"LineString","coordinates":[[3.68687,51.07285],[3.686896,51.07288]]},"properties":{"foot":"no","highway":"cycleway","vertex1":20660,"vertex2":20636}},{"type":"Feature","geometry":{"type":"LineString","coordinates":[[3.680714,51.07228],[3.680712,51.07219]]},"properties":{"name":"Brugsesteenweg","maxspeed":"50","highway":"tertiary","cycleway":"lane","vertex1":20659,"vertex2":20629}},{"type":"Feature","geometry":{"type":"LineString","coordinates":[[3.680714,51.07228],[3.680697,51.07298]]},"properties":{"name":"Brugsesteenweg","maxspeed":"50","highway":"tertiary","cycleway":"lane","vertex1":20659,"vertex2":20625}},{"type":"Feature","geometry":{"type":"LineString","coordinates":[[3.690913,51.07417],[3.690626,51.07508]]},"properties":{"name":"Mazestraat","maxspeed":"50","highway":"residential","vertex1":20658,"vertex2":20631}},{"type":"Feature","geometry":{"type":"LineString","coordinates":[[3.690913,51.07417],[3.690214,51.07406],[3.689643,51.07389]]},"properties":{"name":"Mazestraat","maxspeed":"50","highway":"residential","vertex1":20658,"vertex2":20650}},{"type":"Feature","geometry":{"type":"LineString","coordinates":[[3.690913,51.07417],[3.691396,51.07422],[3.691538,51.07423]]},"properties":{"name":"Mazestraat","maxspeed":"50","highway":"residential","vertex1":20658,"vertex2":15770}},{"type":"Feature","geometry":{"type":"LineString","coordinates":[[3.691538,51.07423],[3.691841,51.07366],[3.69196,51.07345]]},"properties":{"name":"Nieuwkolegemlaan","maxspeed":"50","highway":"residential","vertex1":15770,"vertex2":15773}},{"type":"Feature","geometry":{"type":"LineString","coordinates":[[3.686402,51.07487],[3.686794,51.07433],[3.687044,51.07401]]},"properties":{"name":"Hagewindestraat","maxspeed":"50","highway":"residential","vertex1":20657,"vertex2":20620}},{"type":"Feature","geometry":{"type":"LineString","coordinates":[[3.686402,51.07487],[3.686395,51.07495]]},"properties":{"name":"Hagewindestraat","maxspeed":"50","highway":"residential","vertex1":20657,"vertex2":20584}},{"type":"Feature","geometry":{"type":"LineString","coordinates":[[3.686402,51.07487],[3.686298,51.07493],[3.686071,51.07525]]},"properties":{"name":"Hagewindestraat","maxspeed":"50","highway":"residential","vertex1":20657,"vertex2":20578}},{"type":"Feature","geometry":{"type":"LineString","coordinates":[[3.686663,51.07233],[3.686726,51.07223]]},"properties":{"name":"Flanelstraat","highway":"residential","maxspeed":"30","vertex1":20656,"vertex2":20632}},{"type":"Feature","geometry":{"type":"LineString","coordinates":[[3.688524,51.07269],[3.689038,51.07243],[3.690802,51.07154]]},"properties":{"name":"Brugsevaart","highway":"primary","maxspeed":"70","vertex1":20655,"vertex2":20653}},{"type":"Feature","geometry":{"type":"LineString","coordinates":[[3.688524,51.07269],[3.687459,51.07323],[3.686969,51.07348]]},"properties":{"name":"Brugsevaart","highway":"primary","maxspeed":"70","vertex1":20655,"vertex2":20649}},{"type":"Feature","geometry":{"type":"LineString","coordinates":[[3.68807,51.07432],[3.688269,51.07406],[3.688373,51.07396],[3.688568,51.07385],[3.688882,51.07369],[3.688959,51.07367]]},"properties":{"name":"Molenkouter","maxspeed":"50","highway":"residential","vertex1":20654,"vertex2":20652}},{"type":"Feature","geometry":{"type":"LineString","coordinates":[[3.68807,51.07432],[3.690159,51.07497],[3.690626,51.07508]]},"properties":{"name":"Mazestraat","maxspeed":"50","highway":"residential","vertex1":20654,"vertex2":20631}},{"type":"Feature","geometry":{"type":"LineString","coordinates":[[3.68807,51.07432],[3.687044,51.07401]]},"properties":{"name":"Mazestraat","maxspeed":"50","highway":"residential","vertex1":20654,"vertex2":20620}},{"type":"Feature","geometry":{"type":"LineString","coordinates":[[3.690802,51.07154],[3.691064,51.0714]]},"properties":{"name":"Brugsevaart","highway":"primary","maxspeed":"70","vertex1":20653,"vertex2":20591}},{"type":"Feature","geometry":{"type":"LineString","coordinates":[[3.688959,51.07367],[3.689643,51.07389]]},"properties":{"name":"Molenkouter","maxspeed":"50","highway":"residential","vertex1":20652,"vertex2":20650}},{"type":"Feature","geometry":{"type":"LineString","coordinates":[[3.688959,51.07367],[3.689051,51.0736]]},"properties":{"name":"Molenkouter","maxspeed":"50","highway":"residential","vertex1":20652,"vertex2":20640}},{"type":"Feature","geometry":{"type":"LineString","coordinates":[[3.683572,51.07087],[3.683335,51.07076]]},"properties":{"name":"Spellewerkstraat","highway":"residential","maxspeed":"30","vertex1":20651,"vertex2":20575}},{"type":"Feature","geometry":{"type":"LineString","coordinates":[[3.683572,51.07087],[3.68399,51.07107]]},"properties":{"name":"Spellewerkstraat","highway":"residential","maxspeed":"30","vertex1":20651,"vertex2":20647}},{"type":"Feature","geometry":{"type":"LineString","coordinates":[[3.683572,51.07087],[3.683531,51.0709],[3.683189,51.07116],[3.682975,51.07106],[3.683296,51.07079]]},"properties":{"bicycle":"no","motorcar":"no","foot":"no","highway":"service","vertex1":20651,"vertex2":20602}},{"type":"Feature","geometry":{"type":"LineString","coordinates":[[3.689643,51.07389],[3.689684,51.07381],[3.689718,51.0737],[3.689754,51.07359],[3.689783,51.07344],[3.689784,51.0733],[3.689631,51.07329],[3.689274,51.07348],[3.689051,51.0736]]},"properties":{"name":"Molenkouter","maxspeed":"50","highway":"residential","vertex1":20650,"vertex2":20640}},{"type":"Feature","geometry":{"type":"LineString","coordinates":[[3.686969,51.07348],[3.686379,51.07379]]},"properties":{"name":"Brugsevaart","highway":"primary","maxspeed":"70","vertex1":20649,"vertex2":20594}},{"type":"Feature","geometry":{"type":"LineString","coordinates":[[3.687973,51.07011],[3.688231,51.07003]]},"properties":{"name":"Weefselstraat","highway":"residential","maxspeed":"30","vertex1":20648,"vertex2":20646}},{"type":"Feature","geometry":{"type":"LineString","coordinates":[[3.687973,51.07011],[3.687544,51.07022],[3.68723,51.07026],[3.686934,51.07028]]},"properties":{"name":"Damaststraat","highway":"residential","maxspeed":"30","vertex1":20648,"vertex2":20621}},{"type":"Feature","geometry":{"type":"LineString","coordinates":[[3.687973,51.07011],[3.687838,51.07087]]},"properties":{"name":"Lakenstraat","oneway":"yes","oneway:bicycle":"no","highway":"residential","maxspeed":"30","vertex1":20648,"vertex2":20580}},{"type":"Feature","geometry":{"type":"LineString","coordinates":[[3.68399,51.07107],[3.683559,51.07197]]},"properties":{"name":"Satijnstraat","highway":"residential","maxspeed":"30","vertex1":20647,"vertex2":20579}},{"type":"Feature","geometry":{"type":"LineString","coordinates":[[3.68399,51.07107],[3.6861,51.07145]]},"properties":{"name":"Spellewerkstraat","highway":"residential","maxspeed":"30","vertex1":20647,"vertex2":20645}},{"type":"Feature","geometry":{"type":"LineString","coordinates":[[3.688231,51.07003],[3.688285,51.07002]]},"properties":{"name":"Weefselstraat","highway":"residential","maxspeed":"30","vertex1":20646,"vertex2":20644}},{"type":"Feature","geometry":{"type":"LineString","coordinates":[[3.6861,51.07145],[3.686035,51.07154],[3.684469,51.07192],[3.684116,51.07203]]},"properties":{"name":"Kantstraat","highway":"residential","maxspeed":"30","vertex1":20645,"vertex2":20607}},{"type":"Feature","geometry":{"type":"LineString","coordinates":[[3.6861,51.07145],[3.686385,51.0715]]},"properties":{"name":"Spellewerkstraat","highway":"residential","maxspeed":"30","vertex1":20645,"vertex2":20583}},{"type":"Feature","geometry":{"type":"LineString","coordinates":[[3.685081,51.07253],[3.68536,51.0727],[3.685435,51.07286]]},"properties":{"name":"Julienne De Vetterstraat","highway":"residential","vertex1":20643,"vertex2":20589}},{"type":"Feature","geometry":{"type":"LineString","coordinates":[[3.685081,51.07253],[3.685045,51.07272]]},"properties":{"name":"Julienne De Vetterstraat","highway":"residential","vertex1":20643,"vertex2":20641}},{"type":"Feature","geometry":{"type":"LineString","coordinates":[[3.685081,51.07253],[3.684765,51.07229]]},"properties":{"highway":"service","vertex1":20643,"vertex2":20606}},{"type":"Feature","geometry":{"type":"LineString","coordinates":[[3.690751,51.07207],[3.690674,51.0722],[3.690476,51.07248],[3.690529,51.07261],[3.690596,51.07271],[3.690765,51.07289],[3.690914,51.07301],[3.691049,51.07313],[3.691231,51.07325],[3.691425,51.07333],[3.691601,51.07338],[3.69196,51.07345]]},"properties":{"name":"Gaston Gheldolflaan","maxspeed":"50","highway":"residential","vertex1":20642,"vertex2":15773}},{"type":"Feature","geometry":{"type":"LineString","coordinates":[[3.685045,51.07272],[3.685033,51.07285],[3.685435,51.07286]]},"properties":{"name":"Julienne De Vetterstraat","highway":"residential","vertex1":20641,"vertex2":20589}},{"type":"Feature","geometry":{"type":"LineString","coordinates":[[3.681135,51.07432],[3.681357,51.07383]]},"properties":{"highway":"service","vertex1":20639,"vertex2":20605}},{"type":"Feature","geometry":{"type":"LineString","coordinates":[[3.681135,51.07432],[3.681062,51.07448]]},"properties":{"highway":"service","vertex1":20639,"vertex2":20627}},{"type":"Feature","geometry":{"type":"LineString","coordinates":[[3.681135,51.07432],[3.681698,51.07442],[3.681633,51.07458]]},"properties":{"highway":"service","vertex1":20639,"vertex2":20595}},{"type":"Feature","geometry":{"type":"LineString","coordinates":[[3.688623,51.072],[3.686896,51.07288]]},"properties":{"cyclenetwork":"yes","foot":"no","highway":"cycleway","vertex1":20638,"vertex2":20636}},{"type":"Feature","geometry":{"type":"LineString","coordinates":[[3.688623,51.072],[3.68859,51.07198]]},"properties":{"foot":"no","highway":"cycleway","vertex1":20638,"vertex2":20615}},{"type":"Feature","geometry":{"type":"LineString","coordinates":[[3.684444,51.07002],[3.685742,51.07052]]},"properties":{"name":"Zandekensstraat","highway":"residential","maxspeed":"30","vertex1":20637,"vertex2":20603}},{"type":"Feature","geometry":{"type":"LineString","coordinates":[[3.684444,51.07002],[3.684229,51.07006]]},"properties":{"bicycle":"no","motorcar":"no","foot":"no","maxspeed":"30","highway":"unclassified","vertex1":20637,"vertex2":20635}},{"type":"Feature","geometry":{"type":"LineString","coordinates":[[3.686896,51.07288],[3.685434,51.07359]]},"properties":{"cyclenetwork":"yes","foot":"no","highway":"cycleway","vertex1":20636,"vertex2":20634}},{"type":"Feature","geometry":{"type":"LineString","coordinates":[[3.684229,51.07006],[3.684095,51.07018]]},"properties":{"bicycle":"no","motorcar":"no","foot":"no","maxspeed":"30","highway":"unclassified","vertex1":20635,"vertex2":20573}},{"type":"Feature","geometry":{"type":"LineString","coordinates":[[3.684229,51.07006],[3.684036,51.06998],[3.683838,51.0701]]},"properties":{"bicycle":"no","motorcar":"no","foot":"no","maxspeed":"30","highway":"unclassified","vertex1":20635,"vertex2":20633}},{"type":"Feature","geometry":{"type":"LineString","coordinates":[[3.685434,51.07359],[3.683932,51.07438],[3.67771,51.07755]]},"properties":{"cyclenetwork":"yes","foot":"no","highway":"cycleway","vertex1":20634,"vertex2":20485}},{"type":"Feature","geometry":{"type":"LineString","coordinates":[[3.685434,51.07359],[3.68541,51.07357]]},"properties":{"foot":"no","highway":"cycleway","vertex1":20634,"vertex2":20599}},{"type":"Feature","geometry":{"type":"LineString","coordinates":[[3.690626,51.07508],[3.690528,51.07541],[3.690502,51.0755]]},"properties":{"name":"Ahornlaan","maxspeed":"50","highway":"residential","vertex1":20631,"vertex2":20535}},{"type":"Feature","geometry":{"type":"LineString","coordinates":[[3.687447,51.07084],[3.687692,51.07087],[3.687838,51.07087]]},"properties":{"name":"Lakenstraat","highway":"residential","maxspeed":"30","vertex1":20630,"vertex2":20580}},{"type":"Feature","geometry":{"type":"LineString","coordinates":[[3.687447,51.07084],[3.687343,51.07109]]},"properties":{"highway":"service","vertex1":20630,"vertex2":20622}},{"type":"Feature","geometry":{"type":"LineString","coordinates":[[3.680712,51.07219],[3.683004,51.07201]]},"properties":{"name":"Kantstraat","highway":"residential","maxspeed":"30","vertex1":20629,"vertex2":20587}},{"type":"Feature","geometry":{"type":"LineString","coordinates":[[3.680712,51.07219],[3.680698,51.07191],[3.680745,51.07164]]},"properties":{"name":"Brugsesteenweg","maxspeed":"50","highway":"tertiary","cycleway":"lane","vertex1":20629,"vertex2":20592}},{"type":"Feature","geometry":{"type":"LineString","coordinates":[[3.689667,51.07085],[3.689615,51.07099]]},"properties":{"name":"Wolstraat","highway":"residential","maxspeed":"30","vertex1":20628,"vertex2":20624}},{"type":"Feature","geometry":{"type":"LineString","coordinates":[[3.689667,51.07085],[3.689894,51.07076]]},"properties":{"name":"Wolstraat","highway":"residential","maxspeed":"30","vertex1":20628,"vertex2":20617}},{"type":"Feature","geometry":{"type":"LineString","coordinates":[[3.681062,51.07448],[3.680441,51.07431]]},"properties":{"highway":"service","vertex1":20627,"vertex2":20614}},{"type":"Feature","geometry":{"type":"LineString","coordinates":[[3.681062,51.07448],[3.681633,51.07458]]},"properties":{"highway":"service","vertex1":20627,"vertex2":20595}},{"type":"Feature","geometry":{"type":"LineString","coordinates":[[3.688504,51.07108],[3.688401,51.07103],[3.687838,51.07087]]},"properties":{"name":"Lakenstraat","oneway":"yes","oneway:bicycle":"no","highway":"residential","maxspeed":"30","vertex1":20626,"vertex2":20580}},{"type":"Feature","geometry":{"type":"LineString","coordinates":[[3.688504,51.07108],[3.688626,51.07106]]},"properties":{"name":"Vlasstraat","oneway":"yes","oneway:bicycle":"no","highway":"residential","maxspeed":"30","vertex1":20626,"vertex2":20586}},{"type":"Feature","geometry":{"type":"LineString","coordinates":[[3.680697,51.07298],[3.680954,51.07299],[3.683708,51.07339]]},"properties":{"name":"Marcus Van Vaernewijckstraat","cyclenetwork":"yes","highway":"residential","maxspeed":"30","oneway":"-1","vertex1":20625,"vertex2":20577}},{"type":"Feature","geometry":{"type":"LineString","coordinates":[[3.680697,51.07298],[3.680658,51.07376]]},"properties":{"name":"Brugsesteenweg","cyclenetwork":"yes","maxspeed":"50","highway":"tertiary","cycleway":"lane","vertex1":20625,"vertex2":20618}},{"type":"Feature","geometry":{"type":"LineString","coordinates":[[3.681479,51.07084],[3.682196,51.07115]]},"properties":{"highway":"service","vertex1":20623,"vertex2":20597}},{"type":"Feature","geometry":{"type":"LineString","coordinates":[[3.681479,51.07084],[3.68216,51.07019]]},"properties":{"name":"Brugsesteenweg","maxspeed":"50","highway":"tertiary","vertex1":20623,"vertex2":20609}},{"type":"Feature","geometry":{"type":"LineString","coordinates":[[3.681479,51.07084],[3.681162,51.07119]]},"properties":{"name":"Brugsesteenweg","maxspeed":"50","highway":"tertiary","vertex1":20623,"vertex2":20588}},{"type":"Feature","geometry":{"type":"LineString","coordinates":[[3.686934,51.07028],[3.68668,51.07082],[3.686385,51.0715]]},"properties":{"name":"Adriaan Pietersstraat","oneway":"yes","oneway:bicycle":"no","highway":"residential","maxspeed":"30","vertex1":20621,"vertex2":20583}},{"type":"Feature","geometry":{"type":"LineString","coordinates":[[3.687044,51.07401],[3.686379,51.07379]]},"properties":{"name":"Mazestraat","maxspeed":"50","highway":"residential","vertex1":20620,"vertex2":20594}},{"type":"Feature","geometry":{"type":"LineString","coordinates":[[3.680591,51.0739],[3.680648,51.07391]]},"properties":{"oneway":"yes","highway":"service","vertex1":20619,"vertex2":20616}},{"type":"Feature","geometry":{"type":"LineString","coordinates":[[3.680591,51.0739],[3.680041,51.0738],[3.680101,51.07367],[3.680603,51.07375],[3.680658,51.07376]]},"properties":{"oneway":"yes","highway":"service","vertex1":20619,"vertex2":20618}},{"type":"Feature","geometry":{"type":"LineString","coordinates":[[3.680658,51.07376],[3.680648,51.07391]]},"properties":{"name":"Brugsesteenweg","cyclenetwork":"yes","maxspeed":"50","highway":"tertiary","cycleway":"lane","vertex1":20618,"vertex2":20616}},{"type":"Feature","geometry":{"type":"LineString","coordinates":[[3.680648,51.07391],[3.680647,51.07392],[3.680573,51.07412],[3.680441,51.07431]]},"properties":{"name":"Brugsesteenweg","cyclenetwork":"yes","maxspeed":"50","highway":"tertiary","cycleway":"lane","vertex1":20616,"vertex2":20614}},{"type":"Feature","geometry":{"type":"LineString","coordinates":[[3.68859,51.07198],[3.690906,51.0708]]},"properties":{"name":"Gerard Willemotstraat","bicycle":"no","maxspeed":"50","highway":"residential","vertex1":20615,"vertex2":20574}},{"type":"Feature","geometry":{"type":"LineString","coordinates":[[3.68596,51.0733],[3.68541,51.07357]]},"properties":{"name":"Gerard Willemotstraat","bicycle":"no","maxspeed":"50","highway":"residential","vertex1":20613,"vertex2":20599}},{"type":"Feature","geometry":{"type":"LineString","coordinates":[[3.68596,51.0733],[3.685458,51.07291],[3.685435,51.07286]]},"properties":{"name":"Julienne De Vetterstraat","highway":"residential","vertex1":20613,"vertex2":20589}},{"type":"Feature","geometry":{"type":"LineString","coordinates":[[3.683491,51.07006],[3.683297,51.07028]]},"properties":{"bicycle":"no","motorcar":"no","foot":"no","highway":"track","vertex1":20612,"vertex2":20610}},{"type":"Feature","geometry":{"type":"LineString","coordinates":[[3.683491,51.07006],[3.683626,51.07012],[3.683741,51.07018],[3.683576,51.07035]]},"properties":{"bicycle":"no","motorcar":"no","foot":"no","highway":"track","vertex1":20612,"vertex2":20608}},{"type":"Feature","geometry":{"type":"LineString","coordinates":[[3.685283,51.07435],[3.686379,51.07379]]},"properties":{"name":"Brugsevaart","highway":"primary","maxspeed":"70","vertex1":20611,"vertex2":20594}},{"type":"Feature","geometry":{"type":"LineString","coordinates":[[3.685283,51.07435],[3.684784,51.07462],[3.684162,51.07493],[3.683525,51.07526],[3.682018,51.07602]]},"properties":{"name":"Brugsevaart","highway":"primary","maxspeed":"70","vertex1":20611,"vertex2":20541}},{"type":"Feature","geometry":{"type":"LineString","coordinates":[[3.68216,51.07019],[3.683335,51.07076]]},"properties":{"name":"Spellewerkstraat","highway":"residential","maxspeed":"30","vertex1":20609,"vertex2":20575}},{"type":"Feature","geometry":{"type":"LineString","coordinates":[[3.68216,51.07019],[3.682365,51.07]]},"properties":{"name":"Brugsesteenweg","maxspeed":"50","highway":"tertiary","vertex1":20609,"vertex2":20598}},{"type":"Feature","geometry":{"type":"LineString","coordinates":[[3.684116,51.07203],[3.68388,51.07201],[3.683559,51.07197]]},"properties":{"name":"Kantstraat","highway":"residential","maxspeed":"30","vertex1":20607,"vertex2":20579}},{"type":"Feature","geometry":{"type":"LineString","coordinates":[[3.684116,51.07203],[3.6841,51.07215],[3.684031,51.07237],[3.684026,51.07239]]},"properties":{"name":"Goudbrokaatstraat","highway":"residential","maxspeed":"30","vertex1":20607,"vertex2":20581}},{"type":"Feature","geometry":{"type":"LineString","coordinates":[[3.684765,51.07229],[3.68474,51.07228],[3.684421,51.07243],[3.684026,51.07239]]},"properties":{"highway":"cycleway","vertex1":20606,"vertex2":20581}},{"type":"Feature","geometry":{"type":"LineString","coordinates":[[3.682923,51.0716],[3.683004,51.07201]]},"properties":{"highway":"service","vertex1":20604,"vertex2":20587}},{"type":"Feature","geometry":{"type":"LineString","coordinates":[[3.683296,51.07079],[3.683335,51.07076]]},"properties":{"bicycle":"no","motorcar":"no","foot":"no","highway":"service","vertex1":20602,"vertex2":20575}},{"type":"Feature","geometry":{"type":"LineString","coordinates":[[3.689137,51.07137],[3.688917,51.07134],[3.688626,51.07106]]},"properties":{"bicycle":"no","motorcar":"no","foot":"no","maxspeed":"30","highway":"unclassified","vertex1":20601,"vertex2":20586}},{"type":"Feature","geometry":{"type":"LineString","coordinates":[[3.680634,51.0706],[3.68049,51.07053]]},"properties":{"oneway":"yes","highway":"service","vertex1":20600,"vertex2":20596}},{"type":"Feature","geometry":{"type":"LineString","coordinates":[[3.680634,51.0706],[3.680704,51.07064],[3.680822,51.07066],[3.68095,51.07067],[3.681058,51.07066],[3.681133,51.07061],[3.681219,51.07055],[3.681262,51.0705],[3.681273,51.07044],[3.68124,51.07037],[3.681181,51.07031],[3.68109,51.07028],[3.680982,51.07027],[3.680843,51.07031],[3.680697,51.07037]]},"properties":{"oneway":"yes","highway":"service","vertex1":20600,"vertex2":20590}},{"type":"Feature","geometry":{"type":"LineString","coordinates":[[3.68541,51.07357],[3.685214,51.07354],[3.683708,51.07339]]},"properties":{"name":"Marcus Van Vaernewijckstraat","cyclenetwork":"yes","highway":"residential","maxspeed":"30","oneway":"-1","vertex1":20599,"vertex2":20577}},{"type":"Feature","geometry":{"type":"LineString","coordinates":[[3.68541,51.07357],[3.683904,51.07436],[3.677711,51.07752]]},"properties":{"name":"Gerard Willemotstraat","bicycle":"no","maxspeed":"50","highway":"residential","vertex1":20599,"vertex2":20435}},{"type":"Feature","geometry":{"type":"LineString","coordinates":[[3.68049,51.07053],[3.680697,51.07037]]},"properties":{"highway":"service","vertex1":20596,"vertex2":20590}},{"type":"Feature","geometry":{"type":"LineString","coordinates":[[3.687031,51.07162],[3.686385,51.0715]]},"properties":{"name":"Spellewerkstraat","highway":"residential","maxspeed":"30","vertex1":20593,"vertex2":20583}},{"type":"Feature","geometry":{"type":"LineString","coordinates":[[3.687031,51.07162],[3.687243,51.07116]]},"properties":{"bicycle":"no","motorcar":"no","foot":"no","maxspeed":"30","highway":"unclassified","vertex1":20593,"vertex2":20585}},{"type":"Feature","geometry":{"type":"LineString","coordinates":[[3.680745,51.07164],[3.68088,51.07147],[3.681162,51.07119]]},"properties":{"name":"Brugsesteenweg","maxspeed":"50","highway":"tertiary","vertex1":20592,"vertex2":20588}},{"type":"Feature","geometry":{"type":"LineString","coordinates":[[3.691064,51.0714],[3.692257,51.07082]]},"properties":{"name":"Brugsevaart","highway":"primary","maxspeed":"70","vertex1":20591,"vertex2":15739}},{"type":"Feature","geometry":{"type":"LineString","coordinates":[[3.683004,51.07201],[3.683559,51.07197]]},"properties":{"name":"Kantstraat","highway":"residential","maxspeed":"30","vertex1":20587,"vertex2":20579}},{"type":"Feature","geometry":{"type":"LineString","coordinates":[[3.686395,51.07495],[3.686528,51.07496],[3.68671,51.07501],[3.687306,51.07518],[3.688277,51.0755],[3.68868,51.07539],[3.688951,51.07534],[3.68938,51.07546],[3.689954,51.07565],[3.68998,51.07566]]},"properties":{"name":"Ahornlaan","maxspeed":"50","highway":"residential","vertex1":20584,"vertex2":20558}},{"type":"Feature","geometry":{"type":"LineString","coordinates":[[3.686395,51.07495],[3.686398,51.07499],[3.686418,51.07516],[3.686329,51.07532]]},"properties":{"name":"Hagewindestraat","maxspeed":"50","highway":"residential","vertex1":20584,"vertex2":20576}},{"type":"Feature","geometry":{"type":"LineString","coordinates":[[3.685989,51.07536],[3.686071,51.07525]]},"properties":{"name":"Hagewindestraat","maxspeed":"50","highway":"residential","vertex1":20582,"vertex2":20578}},{"type":"Feature","geometry":{"type":"LineString","coordinates":[[3.684026,51.07239],[3.683708,51.07339]]},"properties":{"name":"Goudbrokaatstraat","highway":"residential","maxspeed":"30","vertex1":20581,"vertex2":20577}},{"type":"Feature","geometry":{"type":"LineString","coordinates":[[3.686071,51.07525],[3.686329,51.07532]]},"properties":{"name":"Hagewindestraat","maxspeed":"50","highway":"residential","vertex1":20578,"vertex2":20576}},{"type":"Feature","geometry":{"type":"LineString","coordinates":[[3.686329,51.07532],[3.686261,51.07544],[3.686061,51.07577]]},"properties":{"name":"Hagewindestraat","maxspeed":"50","highway":"residential","vertex1":20576,"vertex2":20523}},{"type":"Feature","geometry":{"type":"LineString","coordinates":[[3.685682,51.07824],[3.68559,51.07822]]},"properties":{"name":"Kollebloemstraat","maxspeed":"50","highway":"residential","vertex1":20572,"vertex2":20545}},{"type":"Feature","geometry":{"type":"LineString","coordinates":[[3.685682,51.07824],[3.685754,51.07827],[3.68581,51.07835],[3.685784,51.07844],[3.68575,51.07848],[3.685671,51.07847],[3.685588,51.07843],[3.685591,51.07835],[3.685587,51.07828]]},"properties":{"name":"Kollebloemstraat","maxspeed":"50","highway":"residential","vertex1":20572,"vertex2":20570}},{"type":"Feature","geometry":{"type":"LineString","coordinates":[[3.684619,51.07885],[3.685523,51.07919]]},"properties":{"bicycle":"yes","highway":"footway","vertex1":20571,"vertex2":20554}},{"type":"Feature","geometry":{"type":"LineString","coordinates":[[3.684619,51.07885],[3.68458,51.07876],[3.684195,51.0782],[3.684026,51.07793]]},"properties":{"name":"Sierheesterlaan","maxspeed":"50","highway":"residential","vertex1":20571,"vertex2":20538}},{"type":"Feature","geometry":{"type":"LineString","coordinates":[[3.684619,51.07885],[3.684485,51.07893],[3.683329,51.0792]]},"properties":{"name":"Sierheesterlaan","maxspeed":"50","highway":"residential","vertex1":20571,"vertex2":20568}},{"type":"Feature","geometry":{"type":"LineString","coordinates":[[3.685587,51.07828],[3.68559,51.07822]]},"properties":{"name":"Kollebloemstraat","maxspeed":"50","highway":"residential","vertex1":20570,"vertex2":20545}},{"type":"Feature","geometry":{"type":"LineString","coordinates":[[3.684161,51.07629],[3.684364,51.07594],[3.68451,51.07574],[3.684656,51.07566],[3.684831,51.0756],[3.684995,51.07558],[3.685134,51.07558],[3.685262,51.0756],[3.685657,51.07569],[3.686061,51.07577]]},"properties":{"name":"Guldenroedestraat","maxspeed":"50","highway":"residential","vertex1":20569,"vertex2":20523}},{"type":"Feature","geometry":{"type":"LineString","coordinates":[[3.684161,51.07629],[3.683684,51.07619]]},"properties":{"name":"Kollebloemstraat","maxspeed":"50","highway":"residential","vertex1":20569,"vertex2":20559}},{"type":"Feature","geometry":{"type":"LineString","coordinates":[[3.684161,51.07629],[3.68479,51.07644]]},"properties":{"name":"Kollebloemstraat","maxspeed":"50","highway":"residential","vertex1":20569,"vertex2":20527}},{"type":"Feature","geometry":{"type":"LineString","coordinates":[[3.683329,51.0792],[3.682624,51.07843]]},"properties":{"name":"Sierheesterlaan","maxspeed":"50","highway":"residential","vertex1":20568,"vertex2":20511}},{"type":"Feature","geometry":{"type":"LineString","coordinates":[[3.683329,51.0792],[3.682836,51.07932]]},"properties":{"name":"Sierheesterlaan","maxspeed":"50","highway":"residential","vertex1":20568,"vertex2":20564}},{"type":"Feature","geometry":{"type":"LineString","coordinates":[[3.684596,51.07656],[3.683596,51.07634]]},"properties":{"name":"Kollebloemstraat","maxspeed":"50","highway":"residential","vertex1":20567,"vertex2":20560}},{"type":"Feature","geometry":{"type":"LineString","coordinates":[[3.684596,51.07656],[3.684692,51.07655],[3.684742,51.07651],[3.68479,51.07644]]},"properties":{"name":"Kollebloemstraat","maxspeed":"50","highway":"residential","vertex1":20567,"vertex2":20527}},{"type":"Feature","geometry":{"type":"LineString","coordinates":[[3.682555,51.07837],[3.682687,51.07821]]},"properties":{"name":"Sierheesterlaan","maxspeed":"50","highway":"residential","vertex1":20566,"vertex2":20544}},{"type":"Feature","geometry":{"type":"LineString","coordinates":[[3.682555,51.07837],[3.682478,51.07833],[3.682433,51.07829],[3.682546,51.07824],[3.682624,51.07843]]},"properties":{"name":"Sierheesterlaan","maxspeed":"50","highway":"residential","vertex1":20566,"vertex2":20511}},{"type":"Feature","geometry":{"type":"LineString","coordinates":[[3.690563,51.07839],[3.690624,51.0784],[3.692388,51.07876],[3.693265,51.07892]]},"properties":{"name":"Losweg","highway":"residential","vertex1":20565,"vertex2":16950}},{"type":"Feature","geometry":{"type":"LineString","coordinates":[[3.690563,51.07839],[3.691452,51.07664]]},"properties":{"name":"Eeklostraat","maxspeed":"50","highway":"tertiary","vertex1":20565,"vertex2":16936}},{"type":"Feature","geometry":{"type":"LineString","coordinates":[[3.690563,51.07839],[3.690286,51.07895]]},"properties":{"name":"Eeklostraat","maxspeed":"50","highway":"tertiary","vertex1":20565,"vertex2":20556}},{"type":"Feature","geometry":{"type":"LineString","coordinates":[[3.691452,51.07664],[3.691382,51.07664],[3.690349,51.07652],[3.689655,51.07641]]},"properties":{"name":"Guldenroedestraat","oneway":"yes","oneway:bicycle":"no","maxspeed":"50","highway":"residential","vertex1":16936,"vertex2":20551}},{"type":"Feature","geometry":{"type":"LineString","coordinates":[[3.682836,51.07932],[3.682821,51.07952]]},"properties":{"name":"Sierheesterlaan","oneway":"yes","maxspeed":"50","highway":"residential","vertex1":20564,"vertex2":20514}},{"type":"Feature","geometry":{"type":"LineString","coordinates":[[3.682836,51.07932],[3.682561,51.07939],[3.682387,51.07944]]},"properties":{"name":"Sierheesterlaan","oneway":"yes","maxspeed":"50","highway":"residential","vertex1":20564,"vertex2":20532}},{"type":"Feature","geometry":{"type":"LineString","coordinates":[[3.686099,51.0804],[3.685588,51.08124]]},"properties":{"name":"Albrecht Dürerlaan","maxspeed":"50","highway":"residential","vertex1":20563,"vertex2":20362}},{"type":"Feature","geometry":{"type":"LineString","coordinates":[[3.686099,51.0804],[3.686171,51.08027]]},"properties":{"name":"Albrecht Dürerlaan","maxspeed":"50","highway":"residential","vertex1":20563,"vertex2":20520}},{"type":"Feature","geometry":{"type":"LineString","coordinates":[[3.686099,51.0804],[3.68693,51.08063]]},"properties":{"name":"Kollekasteelstraat","maxspeed":"50","highway":"residential","vertex1":20563,"vertex2":20531}},{"type":"Feature","geometry":{"type":"LineString","coordinates":[[3.680611,51.07941],[3.680581,51.07941]]},"properties":{"highway":"service","vertex1":20562,"vertex2":20550}},{"type":"Feature","geometry":{"type":"LineString","coordinates":[[3.680611,51.07941],[3.680717,51.07943],[3.680805,51.07941],[3.680851,51.07932],[3.680905,51.07919],[3.680857,51.07908],[3.680837,51.07905],[3.680815,51.07902]]},"properties":{"highway":"service","vertex1":20562,"vertex2":20546}},{"type":"Feature","geometry":{"type":"LineString","coordinates":[[3.69024,51.07574],[3.68998,51.07566]]},"properties":{"name":"Ahornlaan","maxspeed":"50","highway":"residential","vertex1":20561,"vertex2":20558}},{"type":"Feature","geometry":{"type":"LineString","coordinates":[[3.69024,51.07574],[3.690327,51.07577],[3.690409,51.07574],[3.690457,51.07564],[3.690486,51.07556],[3.690502,51.0755]]},"properties":{"name":"Ahornlaan","oneway":"yes","maxspeed":"50","highway":"residential","vertex1":20561,"vertex2":20535}},{"type":"Feature","geometry":{"type":"LineString","coordinates":[[3.69024,51.07574],[3.690331,51.07566]]},"properties":{"name":"Ahornstraat","oneway":"yes","maxspeed":"50","highway":"residential","vertex1":20561,"vertex2":20526}},{"type":"Feature","geometry":{"type":"LineString","coordinates":[[3.683596,51.07634],[3.683516,51.07648],[3.6834,51.07671],[3.683357,51.07693]]},"properties":{"name":"Anemoonstraat","maxspeed":"50","highway":"residential","vertex1":20560,"vertex2":20521}},{"type":"Feature","geometry":{"type":"LineString","coordinates":[[3.683596,51.07634],[3.683684,51.07619]]},"properties":{"name":"Anemoonstraat","maxspeed":"50","highway":"residential","vertex1":20560,"vertex2":20559}},{"type":"Feature","geometry":{"type":"LineString","coordinates":[[3.683684,51.07619],[3.682876,51.07602],[3.682658,51.07598],[3.682515,51.07598],[3.682158,51.07616]]},"properties":{"name":"Kollebloemstraat","maxspeed":"50","highway":"residential","vertex1":20559,"vertex2":20525}},{"type":"Feature","geometry":{"type":"LineString","coordinates":[[3.68998,51.07566],[3.689947,51.0757],[3.68989,51.07578],[3.689818,51.07589],[3.689765,51.07601],[3.689724,51.07616],[3.689655,51.07641]]},"properties":{"name":"Kollekasteelstraat","highway":"track","vertex1":20558,"vertex2":20551}},{"type":"Feature","geometry":{"type":"LineString","coordinates":[[3.68959,51.0764],[3.689517,51.07665],[3.689223,51.07734],[3.689084,51.07761]]},"properties":{"name":"Kollekasteelstraat","maxspeed":"50","highway":"residential","vertex1":20557,"vertex2":20537}},{"type":"Feature","geometry":{"type":"LineString","coordinates":[[3.68959,51.0764],[3.689304,51.07637],[3.688687,51.07631],[3.688274,51.07626]]},"properties":{"name":"Guldenroedestraat","maxspeed":"50","highway":"residential","vertex1":20557,"vertex2":20515}},{"type":"Feature","geometry":{"type":"LineString","coordinates":[[3.68959,51.0764],[3.689655,51.07641]]},"properties":{"name":"Guldenroedestraat","maxspeed":"50","highway":"residential","vertex1":20557,"vertex2":20551}},{"type":"Feature","geometry":{"type":"LineString","coordinates":[[3.690286,51.07895],[3.690222,51.07894],[3.68874,51.07864]]},"properties":{"name":"Unescolaan","maxspeed":"50","highway":"residential","vertex1":20556,"vertex2":20519}},{"type":"Feature","geometry":{"type":"LineString","coordinates":[[3.690286,51.07895],[3.690082,51.07936],[3.689963,51.07954],[3.689817,51.07972],[3.688638,51.0811]]},"properties":{"name":"Eeklostraat","maxspeed":"50","highway":"tertiary","vertex1":20556,"vertex2":20327}},{"type":"Feature","geometry":{"type":"LineString","coordinates":[[3.680556,51.08046],[3.681105,51.08063],[3.681507,51.08075]]},"properties":{"name":"Verlorensteenstraat","highway":"residential","vertex1":20555,"vertex2":20540}},{"type":"Feature","geometry":{"type":"LineString","coordinates":[[3.680556,51.08046],[3.680331,51.08039],[3.680014,51.0803],[3.67948,51.08014],[3.679054,51.08001],[3.679019,51.07998],[3.679025,51.07991]]},"properties":{"name":"Verlorensteenstraat","highway":"residential","vertex1":20555,"vertex2":20486}},{"type":"Feature","geometry":{"type":"LineString","coordinates":[[3.680556,51.08046],[3.680509,51.08039],[3.680396,51.08026],[3.680349,51.08019]]},"properties":{"highway":"cycleway","vertex1":20555,"vertex2":20479}},{"type":"Feature","geometry":{"type":"LineString","coordinates":[[3.685523,51.07919],[3.685932,51.07935],[3.686229,51.07939],[3.68665,51.0794]]},"properties":{"name":"Albrecht Dürerlaan","maxspeed":"50","highway":"residential","vertex1":20554,"vertex2":20518}},{"type":"Feature","geometry":{"type":"LineString","coordinates":[[3.687182,51.0807],[3.687282,51.08053]]},"properties":{"name":"Kollekasteelstraat","oneway":"yes","maxspeed":"50","highway":"residential","vertex1":20553,"vertex2":20529}},{"type":"Feature","geometry":{"type":"LineString","coordinates":[[3.687182,51.0807],[3.68693,51.08063]]},"properties":{"name":"Kollekasteelstraat","oneway":"yes","maxspeed":"50","highway":"residential","vertex1":20553,"vertex2":20531}},{"type":"Feature","geometry":{"type":"LineString","coordinates":[[3.687182,51.0807],[3.687937,51.081],[3.687447,51.08165]]},"properties":{"highway":"service","vertex1":20553,"vertex2":20360}},{"type":"Feature","geometry":{"type":"LineString","coordinates":[[3.680729,51.07969],[3.680608,51.07966],[3.680519,51.07964],[3.680491,51.07959],[3.680521,51.07951],[3.680581,51.07941]]},"properties":{"name":"Paul Van Tieghemlaan","oneway":"yes","maxspeed":"50","highway":"residential","vertex1":20552,"vertex2":20550}},{"type":"Feature","geometry":{"type":"LineString","coordinates":[[3.680729,51.07969],[3.68098,51.07973]]},"properties":{"name":"Paul Van Tieghemlaan","oneway":"yes","maxspeed":"50","highway":"residential","vertex1":20552,"vertex2":20534}},{"type":"Feature","geometry":{"type":"LineString","coordinates":[[3.680729,51.07969],[3.680588,51.07984],[3.680496,51.07988],[3.680431,51.08002],[3.68038,51.08014]]},"properties":{"highway":"footway","vertex1":20552,"vertex2":20448}},{"type":"Feature","geometry":{"type":"LineString","coordinates":[[3.680581,51.07941],[3.680815,51.07902]]},"properties":{"name":"Paul Van Tieghemlaan","oneway":"yes","maxspeed":"50","highway":"residential","vertex1":20550,"vertex2":20546}},{"type":"Feature","geometry":{"type":"LineString","coordinates":[[3.680865,51.07894],[3.68102,51.0791],[3.681217,51.0792]]},"properties":{"name":"Paul van Tieghemlaan","maxspeed":"50","highway":"residential","vertex1":20549,"vertex2":20512}},{"type":"Feature","geometry":{"type":"LineString","coordinates":[[3.680865,51.07894],[3.680865,51.07871],[3.681008,51.07844]]},"properties":{"name":"Paul van Tieghemlaan","maxspeed":"50","highway":"residential","vertex1":20549,"vertex2":20517}},{"type":"Feature","geometry":{"type":"LineString","coordinates":[[3.680865,51.07894],[3.680815,51.07902]]},"properties":{"name":"Paul Van Tieghemlaan","oneway":"yes","maxspeed":"50","highway":"residential","vertex1":20549,"vertex2":20546}},{"type":"Feature","geometry":{"type":"LineString","coordinates":[[3.680865,51.07894],[3.680794,51.07892],[3.680559,51.07888],[3.68042,51.07885],[3.68018,51.07885],[3.679813,51.07881],[3.67964,51.07879],[3.679251,51.07878],[3.678752,51.07858],[3.678462,51.07848],[3.678142,51.07835],[3.678052,51.07831]]},"properties":{"highway":"path","vertex1":20549,"vertex2":20441}},{"type":"Feature","geometry":{"type":"LineString","coordinates":[[3.689154,51.07799],[3.689084,51.07761]]},"properties":{"name":"Kollekasteelstraat","maxspeed":"50","highway":"residential","vertex1":20548,"vertex2":20537}},{"type":"Feature","geometry":{"type":"LineString","coordinates":[[3.689154,51.07799],[3.68874,51.07864]]},"properties":{"name":"Kollekasteelstraat","maxspeed":"50","highway":"residential","vertex1":20548,"vertex2":20519}},{"type":"Feature","geometry":{"type":"LineString","coordinates":[[3.689154,51.07799],[3.68935,51.07772]]},"properties":{"name":"Kollekasteelstraat","maxspeed":"50","highway":"residential","vertex1":20548,"vertex2":20533}},{"type":"Feature","geometry":{"type":"LineString","coordinates":[[3.686299,51.07729],[3.686207,51.07727],[3.686013,51.07725],[3.685794,51.07725],[3.685681,51.07726],[3.685344,51.07735],[3.683904,51.07772]]},"properties":{"name":"Strobloemstraat","maxspeed":"50","highway":"residential","vertex1":20547,"vertex2":20513}},{"type":"Feature","geometry":{"type":"LineString","coordinates":[[3.686299,51.07729],[3.686523,51.07695],[3.686556,51.07686],[3.686525,51.07681],[3.68647,51.07678],[3.685585,51.0766],[3.68479,51.07644]]},"properties":{"name":"Kollebloemstraat","maxspeed":"50","highway":"residential","vertex1":20547,"vertex2":20527}},{"type":"Feature","geometry":{"type":"LineString","coordinates":[[3.686299,51.07729],[3.686071,51.07766]]},"properties":{"name":"Kollebloemstraat","maxspeed":"50","highway":"residential","vertex1":20547,"vertex2":20530}},{"type":"Feature","geometry":{"type":"LineString","coordinates":[[3.68559,51.07822],[3.685663,51.07812],[3.686071,51.07766]]},"properties":{"name":"Kollebloemstraat","maxspeed":"50","highway":"residential","vertex1":20545,"vertex2":20530}},{"type":"Feature","geometry":{"type":"LineString","coordinates":[[3.682687,51.07821],[3.684026,51.07793]]},"properties":{"bicycle":"yes","highway":"footway","vertex1":20544,"vertex2":20538}},{"type":"Feature","geometry":{"type":"LineString","coordinates":[[3.682687,51.07821],[3.682624,51.07843]]},"properties":{"name":"Sierheesterlaan","maxspeed":"50","highway":"residential","vertex1":20544,"vertex2":20511}},{"type":"Feature","geometry":{"type":"LineString","coordinates":[[3.681464,51.07745],[3.681406,51.07756],[3.681126,51.07819],[3.681008,51.07844]]},"properties":{"name":"Paul van Tieghemlaan","maxspeed":"50","highway":"residential","vertex1":20543,"vertex2":20517}},{"type":"Feature","geometry":{"type":"LineString","coordinates":[[3.681464,51.07745],[3.681809,51.07672],[3.682048,51.07626],[3.682158,51.07616]]},"properties":{"name":"Paul van Tieghemlaan","maxspeed":"50","highway":"residential","vertex1":20543,"vertex2":20525}},{"type":"Feature","geometry":{"type":"LineString","coordinates":[[3.681464,51.07745],[3.683357,51.07693]]},"properties":{"name":"Anemoonstraat","maxspeed":"50","highway":"residential","vertex1":20543,"vertex2":20521}},{"type":"Feature","geometry":{"type":"LineString","coordinates":[[3.681492,51.0808],[3.681195,51.08174],[3.68104,51.08214],[3.680969,51.08231]]},"properties":{"name":"Henry Storystraat","highway":"residential","vertex1":20542,"vertex2":20346}},{"type":"Feature","geometry":{"type":"LineString","coordinates":[[3.681492,51.0808],[3.681507,51.08075]]},"properties":{"name":"Henry Storystraat","highway":"residential","vertex1":20542,"vertex2":20540}},{"type":"Feature","geometry":{"type":"LineString","coordinates":[[3.681492,51.0808],[3.681779,51.08084],[3.682025,51.08089],[3.682199,51.08092],[3.682337,51.08099]]},"properties":{"bicycle":"no","motorcar":"no","foot":"no","highway":"service","vertex1":20542,"vertex2":20310}},{"type":"Feature","geometry":{"type":"LineString","coordinates":[[3.682018,51.07602],[3.682158,51.07616]]},"properties":{"name":"Paul van Tieghemlaan","maxspeed":"50","highway":"residential","vertex1":20541,"vertex2":20525}},{"type":"Feature","geometry":{"type":"LineString","coordinates":[[3.682018,51.07602],[3.681247,51.0764]]},"properties":{"name":"Brugsevaart","highway":"primary","maxspeed":"70","vertex1":20541,"vertex2":20528}},{"type":"Feature","geometry":{"type":"LineString","coordinates":[[3.681507,51.08075],[3.681622,51.08039]]},"properties":{"name":"Henry Storystraat","highway":"residential","vertex1":20540,"vertex2":20522}},{"type":"Feature","geometry":{"type":"LineString","coordinates":[[3.685717,51.08016],[3.685362,51.08007],[3.683852,51.07977],[3.683023,51.07957],[3.682821,51.07952]]},"properties":{"name":"Vijverstraat","maxspeed":"50","highway":"residential","vertex1":20539,"vertex2":20514}},{"type":"Feature","geometry":{"type":"LineString","coordinates":[[3.685717,51.08016],[3.686171,51.08027]]},"properties":{"name":"Vijverstraat","oneway":"yes","maxspeed":"50","highway":"residential","vertex1":20539,"vertex2":20520}},{"type":"Feature","geometry":{"type":"LineString","coordinates":[[3.685717,51.08016],[3.686334,51.07996]]},"properties":{"name":"Vijverstraat","oneway":"yes","maxspeed":"50","highway":"residential","vertex1":20539,"vertex2":20536}},{"type":"Feature","geometry":{"type":"LineString","coordinates":[[3.684026,51.07793],[3.683904,51.07772]]},"properties":{"name":"Sierheesterlaan","maxspeed":"50","highway":"residential","vertex1":20538,"vertex2":20513}},{"type":"Feature","geometry":{"type":"LineString","coordinates":[[3.689084,51.07761],[3.68935,51.07772]]},"properties":{"name":"Kollekasteelstraat","maxspeed":"50","highway":"residential","vertex1":20537,"vertex2":20533}},{"type":"Feature","geometry":{"type":"LineString","coordinates":[[3.686334,51.07996],[3.686171,51.08027]]},"properties":{"name":"Albrecht Dürerlaan","oneway":"yes","maxspeed":"50","highway":"residential","vertex1":20536,"vertex2":20520}},{"type":"Feature","geometry":{"type":"LineString","coordinates":[[3.686334,51.07996],[3.68665,51.0794]]},"properties":{"name":"Albrecht Dürerlaan","maxspeed":"50","highway":"residential","vertex1":20536,"vertex2":20518}},{"type":"Feature","geometry":{"type":"LineString","coordinates":[[3.690502,51.0755],[3.690436,51.07553],[3.690331,51.07566]]},"properties":{"name":"Ahornstraat","oneway":"yes","maxspeed":"50","highway":"residential","vertex1":20535,"vertex2":20526}},{"type":"Feature","geometry":{"type":"LineString","coordinates":[[3.68098,51.07973],[3.681217,51.0792]]},"properties":{"name":"Paul Van Tieghemlaan","maxspeed":"50","highway":"residential","vertex1":20534,"vertex2":20512}},{"type":"Feature","geometry":{"type":"LineString","coordinates":[[3.68098,51.07973],[3.680782,51.08022]]},"properties":{"name":"Paul Van Tieghemlaan","maxspeed":"50","highway":"residential","vertex1":20534,"vertex2":20524}},{"type":"Feature","geometry":{"type":"LineString","coordinates":[[3.682387,51.07944],[3.682821,51.07952]]},"properties":{"name":"Vijverstraat","maxspeed":"50","highway":"residential","vertex1":20532,"vertex2":20514}},{"type":"Feature","geometry":{"type":"LineString","coordinates":[[3.682387,51.07944],[3.681758,51.07931],[3.681217,51.0792]]},"properties":{"name":"Vijverstraat","maxspeed":"50","highway":"residential","vertex1":20532,"vertex2":20512}},{"type":"Feature","geometry":{"type":"LineString","coordinates":[[3.68693,51.08063],[3.687282,51.08053]]},"properties":{"oneway":"yes","maxspeed":"50","highway":"residential","vertex1":20531,"vertex2":20529}},{"type":"Feature","geometry":{"type":"LineString","coordinates":[[3.686071,51.07766],[3.687022,51.07825],[3.687192,51.07832]]},"properties":{"name":"Kollebloemstraat","maxspeed":"50","highway":"residential","vertex1":20530,"vertex2":20516}},{"type":"Feature","geometry":{"type":"LineString","coordinates":[[3.687282,51.08053],[3.687554,51.08012],[3.687878,51.0799],[3.687968,51.07983],[3.688064,51.07972],[3.688359,51.07924],[3.688616,51.07885],[3.68874,51.07864]]},"properties":{"name":"Kollekasteelstraat","maxspeed":"50","highway":"residential","vertex1":20529,"vertex2":20519}},{"type":"Feature","geometry":{"type":"LineString","coordinates":[[3.681247,51.0764],[3.68003,51.07701],[3.677812,51.07812],[3.67748,51.07826],[3.677462,51.07827],[3.677386,51.07831]]},"properties":{"name":"Brugsevaart","highway":"primary","maxspeed":"70","vertex1":20528,"vertex2":20462}},{"type":"Feature","geometry":{"type":"LineString","coordinates":[[3.680782,51.08022],[3.68038,51.08014]]},"properties":{"name":"Groenestaakstraat","maxspeed":"50","highway":"tertiary","vertex1":20524,"vertex2":20448}},{"type":"Feature","geometry":{"type":"LineString","coordinates":[[3.680782,51.08022],[3.681622,51.08039]]},"properties":{"name":"Groenestaakstraat","maxspeed":"50","highway":"tertiary","vertex1":20524,"vertex2":20522}},{"type":"Feature","geometry":{"type":"LineString","coordinates":[[3.686061,51.07577],[3.687191,51.07602],[3.688274,51.07626]]},"properties":{"name":"Guldenroedestraat","maxspeed":"50","highway":"residential","vertex1":20523,"vertex2":20515}},{"type":"Feature","geometry":{"type":"LineString","coordinates":[[3.681622,51.08039],[3.684958,51.08109]]},"properties":{"name":"Groenestaakstraat","maxspeed":"50","highway":"tertiary","vertex1":20522,"vertex2":20375}},{"type":"Feature","geometry":{"type":"LineString","coordinates":[[3.683357,51.07693],[3.683904,51.07772]]},"properties":{"name":"Sierheesterlaan","maxspeed":"50","highway":"residential","vertex1":20521,"vertex2":20513}},{"type":"Feature","geometry":{"type":"LineString","coordinates":[[3.68874,51.07864],[3.687192,51.07832]]},"properties":{"name":"Unescolaan","maxspeed":"50","highway":"residential","vertex1":20519,"vertex2":20516}},{"type":"Feature","geometry":{"type":"LineString","coordinates":[[3.68665,51.0794],[3.686942,51.07881],[3.687192,51.07832]]},"properties":{"name":"Albrecht Dürerlaan","maxspeed":"50","highway":"residential","vertex1":20518,"vertex2":20516}},{"type":"Feature","geometry":{"type":"LineString","coordinates":[[3.681008,51.07844],[3.681816,51.07857],[3.682624,51.07843]]},"properties":{"bicycle":"yes","highway":"footway","vertex1":20517,"vertex2":20511}},{"type":"Feature","geometry":{"type":"LineString","coordinates":[[3.687192,51.07832],[3.687485,51.07772],[3.687844,51.07705],[3.688163,51.07647],[3.688274,51.07626]]},"properties":{"name":"Albrecht Dürerlaan","maxspeed":"50","highway":"residential","vertex1":20516,"vertex2":20515}},{"type":"Feature","geometry":{"type":"LineString","coordinates":[[3.673451,51.07669],[3.673552,51.07656]]},"properties":{"bridge":"yes","highway":"path","vertex1":20510,"vertex2":20491}},{"type":"Feature","geometry":{"type":"LineString","coordinates":[[3.673451,51.07669],[3.673421,51.07673]]},"properties":{"bicycle":"no","highway":"path","vertex1":20510,"vertex2":20503}},{"type":"Feature","geometry":{"type":"LineString","coordinates":[[3.677649,51.07631],[3.67728,51.07619]]},"properties":{"name":"Kasteeldreef","highway":"unclassified","vertex1":20509,"vertex2":20467}},{"type":"Feature","geometry":{"type":"LineString","coordinates":[[3.677649,51.07631],[3.67777,51.07633]]},"properties":{"name":"Kasteeldreef","highway":"unclassified","vertex1":20509,"vertex2":20440}},{"type":"Feature","geometry":{"type":"LineString","coordinates":[[3.677649,51.07631],[3.677521,51.07633],[3.677443,51.0764]]},"properties":{"highway":"path","vertex1":20509,"vertex2":20500}},{"type":"Feature","geometry":{"type":"LineString","coordinates":[[3.672375,51.08022],[3.67123,51.07945]]},"properties":{"name":"Zuidbroek","oneway":"yes","cyclenetwork":"yes","highway":"residential","maxspeed":"30","vertex1":20508,"vertex2":20456}},{"type":"Feature","geometry":{"type":"LineString","coordinates":[[3.672375,51.08022],[3.667761,51.08259]]},"properties":{"name":"Trekweg","oneway":"yes","cyclenetwork":"yes","oneway:bicycle":"no","highway":"residential","maxspeed":"30","vertex1":20508,"vertex2":21141}},{"type":"Feature","geometry":{"type":"LineString","coordinates":[[3.672375,51.08022],[3.673765,51.07954],[3.675523,51.07869]]},"properties":{"name":"Trekweg","oneway":"yes","cyclenetwork":"yes","oneway:bicycle":"no","highway":"residential","maxspeed":"30","cycleway":"cyclestreet","vertex1":20508,"vertex2":20484}},{"type":"Feature","geometry":{"type":"LineString","coordinates":[[3.673835,51.07795],[3.673855,51.07787]]},"properties":{"highway":"track","vertex1":20507,"vertex2":20476}},{"type":"Feature","geometry":{"type":"LineString","coordinates":[[3.673835,51.07795],[3.674034,51.078],[3.674747,51.07833],[3.675523,51.07869]]},"properties":{"name":"Petrus Meirestraat","highway":"residential","maxspeed":"30","oneway":"-1","vertex1":20507,"vertex2":20484}},{"type":"Feature","geometry":{"type":"LineString","coordinates":[[3.673835,51.07795],[3.673648,51.07802],[3.673531,51.07812],[3.673246,51.07833],[3.672972,51.07852],[3.67254,51.07877],[3.672127,51.07899],[3.671695,51.07924],[3.67123,51.07945]]},"properties":{"name":"Petrus Meirestraat","highway":"residential","maxspeed":"30","oneway":"-1","vertex1":20507,"vertex2":20456}},{"type":"Feature","geometry":{"type":"LineString","coordinates":[[3.673124,51.0761],[3.672994,51.07608],[3.672776,51.07606],[3.672403,51.07651],[3.672153,51.07675],[3.671871,51.07698]]},"properties":{"bicycle":"no","highway":"path","vertex1":20506,"vertex2":20489}},{"type":"Feature","geometry":{"type":"LineString","coordinates":[[3.673124,51.0761],[3.673268,51.07614]]},"properties":{"bridge":"yes","highway":"path","vertex1":20506,"vertex2":20447}},{"type":"Feature","geometry":{"type":"LineString","coordinates":[[3.677247,51.07602],[3.677141,51.07609],[3.676998,51.07611]]},"properties":{"highway":"track","vertex1":20505,"vertex2":20469}},{"type":"Feature","geometry":{"type":"LineString","coordinates":[[3.677247,51.07602],[3.677226,51.07613],[3.67728,51.07619]]},"properties":{"highway":"track","vertex1":20505,"vertex2":20467}},{"type":"Feature","geometry":{"type":"LineString","coordinates":[[3.673366,51.07756],[3.673781,51.0772],[3.673947,51.0768],[3.673421,51.07673]]},"properties":{"bicycle":"no","highway":"path","vertex1":20504,"vertex2":20503}},{"type":"Feature","geometry":{"type":"LineString","coordinates":[[3.673366,51.07756],[3.67317,51.07729],[3.672991,51.07724]]},"properties":{"bicycle":"no","highway":"path","vertex1":20504,"vertex2":20474}},{"type":"Feature","geometry":{"type":"LineString","coordinates":[[3.673366,51.07756],[3.673289,51.0778],[3.673149,51.07812],[3.672992,51.07825],[3.672846,51.07834]]},"properties":{"bicycle":"no","highway":"path","vertex1":20504,"vertex2":20482}},{"type":"Feature","geometry":{"type":"LineString","coordinates":[[3.673421,51.07673],[3.673114,51.07706],[3.672991,51.07724]]},"properties":{"bicycle":"no","highway":"path","vertex1":20503,"vertex2":20474}},{"type":"Feature","geometry":{"type":"LineString","coordinates":[[3.674567,51.07587],[3.674372,51.07559]]},"properties":{"name":"Beukendreef","highway":"unclassified","vertex1":20502,"vertex2":20446}},{"type":"Feature","geometry":{"type":"LineString","coordinates":[[3.674567,51.07587],[3.674344,51.07611],[3.674235,51.07614],[3.674114,51.07612],[3.674003,51.07603]]},"properties":{"name":"Beukendreef","highway":"unclassified","vertex1":20502,"vertex2":20483}},{"type":"Feature","geometry":{"type":"LineString","coordinates":[[3.669877,51.07866],[3.669936,51.07869]]},"properties":{"name":"Zuidbroek","cyclenetwork":"yes","highway":"residential","maxspeed":"30","vertex1":20501,"vertex2":20480}},{"type":"Feature","geometry":{"type":"LineString","coordinates":[[3.669877,51.07866],[3.669933,51.07862]]},"properties":{"highway":"path","vertex1":20501,"vertex2":20453}},{"type":"Feature","geometry":{"type":"LineString","coordinates":[[3.677443,51.0764],[3.677304,51.07661],[3.677164,51.07682],[3.677068,51.07705],[3.677025,51.07725],[3.677036,51.07745]]},"properties":{"highway":"path","vertex1":20500,"vertex2":20452}},{"type":"Feature","geometry":{"type":"LineString","coordinates":[[3.677443,51.0764],[3.677395,51.0763],[3.67728,51.07619]]},"properties":{"highway":"track","vertex1":20500,"vertex2":20467}},{"type":"Feature","geometry":{"type":"LineString","coordinates":[[3.678004,51.07963],[3.677786,51.07956],[3.677097,51.07934]]},"properties":{"name":"Groenestaakstraat","maxspeed":"50","highway":"tertiary","vertex1":20499,"vertex2":20497}},{"type":"Feature","geometry":{"type":"LineString","coordinates":[[3.678004,51.07963],[3.67834,51.07973],[3.678857,51.0799]]},"properties":{"name":"Groenestaakstraat","maxspeed":"50","highway":"tertiary","vertex1":20499,"vertex2":20458}},{"type":"Feature","geometry":{"type":"LineString","coordinates":[[3.678004,51.07963],[3.677841,51.07986],[3.677725,51.07997],[3.677601,51.08003],[3.677464,51.08007],[3.677314,51.08008],[3.67686,51.08006],[3.676612,51.08023]]},"properties":{"highway":"track","vertex1":20499,"vertex2":20496}},{"type":"Feature","geometry":{"type":"LineString","coordinates":[[3.67938,51.07988],[3.679624,51.07996]]},"properties":{"name":"Groenestaakstraat","maxspeed":"50","highway":"tertiary","vertex1":20498,"vertex2":20492}},{"type":"Feature","geometry":{"type":"LineString","coordinates":[[3.67938,51.07988],[3.679223,51.0798],[3.678704,51.07955],[3.678318,51.07925],[3.678069,51.079],[3.677926,51.07882]]},"properties":{"name":"Brugsesteenweg","maxspeed":"50","highway":"tertiary","vertex1":20498,"vertex2":20457}},{"type":"Feature","geometry":{"type":"LineString","coordinates":[[3.677097,51.07934],[3.676894,51.07927],[3.676326,51.07907],[3.676032,51.07895]]},"properties":{"name":"Groenestaakstraat","maxspeed":"50","highway":"tertiary","vertex1":20497,"vertex2":20495}},{"type":"Feature","geometry":{"type":"LineString","coordinates":[[3.677097,51.07934],[3.677118,51.07929],[3.677203,51.07909],[3.677343,51.07882],[3.677368,51.07868],[3.677386,51.07831]]},"properties":{"highway":"path","vertex1":20497,"vertex2":20462}},{"type":"Feature","geometry":{"type":"LineString","coordinates":[[3.676032,51.07895],[3.676732,51.07862],[3.677386,51.07831]]},"properties":{"name":"Brugsevaart","highway":"primary","maxspeed":"70","vertex1":20495,"vertex2":20462}},{"type":"Feature","geometry":{"type":"LineString","coordinates":[[3.676032,51.07895],[3.67466,51.07964]]},"properties":{"name":"Brugsevaart","highway":"primary","maxspeed":"70","vertex1":20495,"vertex2":20472}},{"type":"Feature","geometry":{"type":"LineString","coordinates":[[3.677297,51.07774],[3.677465,51.07771]]},"properties":{"highway":"cycleway","vertex1":20494,"vertex2":20434}},{"type":"Feature","geometry":{"type":"LineString","coordinates":[[3.677297,51.07774],[3.677533,51.07762]]},"properties":{"name":"Trekweg","bicycle":"no","highway":"residential","maxspeed":"30","vertex1":20494,"vertex2":20454}},{"type":"Feature","geometry":{"type":"LineString","coordinates":[[3.677297,51.07774],[3.675523,51.07869]]},"properties":{"name":"Trekweg","bicycle":"no","highway":"residential","maxspeed":"30","vertex1":20494,"vertex2":20484}},{"type":"Feature","geometry":{"type":"LineString","coordinates":[[3.677297,51.07774],[3.67723,51.07763],[3.677046,51.07753]]},"properties":{"highway":"residential","vertex1":20494,"vertex2":20466}},{"type":"Feature","geometry":{"type":"LineString","coordinates":[[3.670018,51.07856],[3.670105,51.07861],[3.670362,51.07864],[3.670617,51.07881],[3.670782,51.07894],[3.670986,51.07896],[3.671203,51.07897],[3.671376,51.07892],[3.671776,51.0787],[3.672192,51.07855],[3.672463,51.07843],[3.672715,51.07838],[3.672846,51.07834]]},"properties":{"bicycle":"no","highway":"path","vertex1":20493,"vertex2":20482}},{"type":"Feature","geometry":{"type":"LineString","coordinates":[[3.670018,51.07856],[3.669922,51.0785],[3.670132,51.07831],[3.67057,51.07817],[3.670802,51.07814],[3.671014,51.078],[3.671066,51.0779]]},"properties":{"bicycle":"no","highway":"path","vertex1":20493,"vertex2":20442}},{"type":"Feature","geometry":{"type":"LineString","coordinates":[[3.670018,51.07856],[3.669996,51.07858]]},"properties":{"highway":"path","vertex1":20493,"vertex2":20449}},{"type":"Feature","geometry":{"type":"LineString","coordinates":[[3.679624,51.07996],[3.679436,51.07995],[3.679347,51.07995],[3.679135,51.07993],[3.679025,51.07991]]},"properties":{"name":"Groenestaakstraat","maxspeed":"50","highway":"tertiary","vertex1":20492,"vertex2":20486}},{"type":"Feature","geometry":{"type":"LineString","coordinates":[[3.679624,51.07996],[3.68024,51.08011],[3.680374,51.08014],[3.68038,51.08014]]},"properties":{"name":"Groenestaakstraat","maxspeed":"50","highway":"tertiary","vertex1":20492,"vertex2":20448}},{"type":"Feature","geometry":{"type":"LineString","coordinates":[[3.673552,51.07656],[3.673874,51.07619]]},"properties":{"highway":"path","vertex1":20491,"vertex2":20487}},{"type":"Feature","geometry":{"type":"LineString","coordinates":[[3.67871,51.07559],[3.678816,51.07564],[3.678857,51.07569]]},"properties":{"name":"Brugsesteenweg","oneway":"yes","highway":"residential","vertex1":20490,"vertex2":20460}},{"type":"Feature","geometry":{"type":"LineString","coordinates":[[3.67871,51.07559],[3.678792,51.07553]]},"properties":{"name":"Brugsesteenweg","maxspeed":"50","highway":"tertiary","cycleway":"lane","vertex1":20490,"vertex2":20445}},{"type":"Feature","geometry":{"type":"LineString","coordinates":[[3.67871,51.07559],[3.678439,51.07579]]},"properties":{"name":"Brugsesteenweg","maxspeed":"50","highway":"tertiary","cycleway":"lane","vertex1":20490,"vertex2":20488}},{"type":"Feature","geometry":{"type":"LineString","coordinates":[[3.671871,51.07698],[3.671642,51.07705],[3.671319,51.07729],[3.671061,51.07761],[3.671187,51.07783]]},"properties":{"bicycle":"no","highway":"path","vertex1":20489,"vertex2":20439}},{"type":"Feature","geometry":{"type":"LineString","coordinates":[[3.671871,51.07698],[3.671924,51.07713],[3.672048,51.07728],[3.67223,51.07733],[3.672406,51.07734],[3.672732,51.07733]]},"properties":{"highway":"footway","vertex1":20489,"vertex2":20470}},{"type":"Feature","geometry":{"type":"LineString","coordinates":[[3.678439,51.07579],[3.678545,51.0758],[3.678639,51.07584],[3.678661,51.07588],[3.678691,51.07595]]},"properties":{"name":"Brugsesteenweg","highway":"residential","vertex1":20488,"vertex2":20438}},{"type":"Feature","geometry":{"type":"LineString","coordinates":[[3.678439,51.07579],[3.678399,51.07582],[3.678203,51.07597]]},"properties":{"name":"Brugsesteenweg","maxspeed":"50","highway":"tertiary","vertex1":20488,"vertex2":20443}},{"type":"Feature","geometry":{"type":"LineString","coordinates":[[3.673874,51.07619],[3.674003,51.07603]]},"properties":{"highway":"path","vertex1":20487,"vertex2":20483}},{"type":"Feature","geometry":{"type":"LineString","coordinates":[[3.673874,51.07619],[3.673542,51.07614],[3.673268,51.07614]]},"properties":{"highway":"path","vertex1":20487,"vertex2":20447}},{"type":"Feature","geometry":{"type":"LineString","coordinates":[[3.679025,51.07991],[3.678857,51.0799]]},"properties":{"name":"Groenestaakstraat","maxspeed":"50","highway":"tertiary","vertex1":20486,"vertex2":20458}},{"type":"Feature","geometry":{"type":"LineString","coordinates":[[3.67771,51.07755],[3.677514,51.07766],[3.677465,51.07771]]},"properties":{"cyclenetwork":"yes","foot":"no","highway":"cycleway","vertex1":20485,"vertex2":20434}},{"type":"Feature","geometry":{"type":"LineString","coordinates":[[3.67771,51.07755],[3.677711,51.07752]]},"properties":{"foot":"no","highway":"cycleway","vertex1":20485,"vertex2":20435}},{"type":"Feature","geometry":{"type":"LineString","coordinates":[[3.675523,51.07869],[3.675653,51.07867],[3.677465,51.07771]]},"properties":{"cyclenetwork":"yes","foot":"no","highway":"cycleway","vertex1":20484,"vertex2":20434}},{"type":"Feature","geometry":{"type":"LineString","coordinates":[[3.674003,51.07603],[3.674372,51.07559]]},"properties":{"name":"Beukendreef","highway":"unclassified","vertex1":20483,"vertex2":20446}},{"type":"Feature","geometry":{"type":"LineString","coordinates":[[3.672846,51.07834],[3.672786,51.07828],[3.672728,51.07825],[3.672642,51.07819],[3.672562,51.07814],[3.672409,51.07807],[3.67222,51.07798],[3.672177,51.07794],[3.672138,51.07787],[3.672096,51.07784]]},"properties":{"bicycle":"no","highway":"path","vertex1":20482,"vertex2":20444}},{"type":"Feature","geometry":{"type":"LineString","coordinates":[[3.672586,51.0807],[3.672705,51.08075],[3.673413,51.08106]]},"properties":{"name":"Broekstraat","oneway":"yes","maxspeed":"50","highway":"residential","vertex1":20481,"vertex2":20417}},{"type":"Feature","geometry":{"type":"LineString","coordinates":[[3.672586,51.0807],[3.672904,51.08053]]},"properties":{"name":"Brugsevaart","highway":"primary","maxspeed":"70","vertex1":20481,"vertex2":20450}},{"type":"Feature","geometry":{"type":"LineString","coordinates":[[3.672586,51.0807],[3.671372,51.08133]]},"properties":{"name":"Brugsevaart","highway":"primary","maxspeed":"70","vertex1":20481,"vertex2":20411}},{"type":"Feature","geometry":{"type":"LineString","coordinates":[[3.669936,51.07869],[3.669382,51.07912]]},"properties":{"name":"Marsstraat","highway":"residential","maxspeed":"30","vertex1":20480,"vertex2":21067}},{"type":"Feature","geometry":{"type":"LineString","coordinates":[[3.669936,51.07869],[3.670117,51.0788],[3.670478,51.07903],[3.67123,51.07945]]},"properties":{"name":"Zuidbroek","cyclenetwork":"yes","highway":"residential","maxspeed":"30","vertex1":20480,"vertex2":20456}},{"type":"Feature","geometry":{"type":"LineString","coordinates":[[3.680349,51.08019],[3.68038,51.08014]]},"properties":{"highway":"footway","vertex1":20479,"vertex2":20448}},{"type":"Feature","geometry":{"type":"LineString","coordinates":[[3.678951,51.07557],[3.678857,51.07569]]},"properties":{"name":"Brugsesteenweg","oneway":"yes","highway":"residential","vertex1":20478,"vertex2":20460}},{"type":"Feature","geometry":{"type":"LineString","coordinates":[[3.675265,51.07562],[3.675399,51.07565]]},"properties":{"name":"Kasteeldreef","highway":"unclassified","vertex1":20477,"vertex2":20475}},{"type":"Feature","geometry":{"type":"LineString","coordinates":[[3.675265,51.07562],[3.675268,51.07574]]},"properties":{"highway":"track","vertex1":20477,"vertex2":20459}},{"type":"Feature","geometry":{"type":"LineString","coordinates":[[3.673855,51.07787],[3.67379,51.07774],[3.67379,51.0777],[3.67379,51.07765],[3.6738,51.07755],[3.675268,51.07574]]},"properties":{"highway":"track","vertex1":20476,"vertex2":20459}},{"type":"Feature","geometry":{"type":"LineString","coordinates":[[3.675399,51.07565],[3.676998,51.07611]]},"properties":{"name":"Kasteeldreef","highway":"unclassified","vertex1":20475,"vertex2":20469}},{"type":"Feature","geometry":{"type":"LineString","coordinates":[[3.675399,51.07565],[3.675268,51.07574]]},"properties":{"highway":"track","vertex1":20475,"vertex2":20459}},{"type":"Feature","geometry":{"type":"LineString","coordinates":[[3.672991,51.07724],[3.672857,51.07728],[3.672732,51.07733]]},"properties":{"highway":"footway","vertex1":20474,"vertex2":20470}},{"type":"Feature","geometry":{"type":"LineString","coordinates":[[3.678044,51.08057],[3.67755,51.08096],[3.676544,51.08175]]},"properties":{"name":"Schoubroek","highway":"residential","vertex1":20473,"vertex2":20401}},{"type":"Feature","geometry":{"type":"LineString","coordinates":[[3.678044,51.08057],[3.678776,51.08001],[3.678857,51.0799]]},"properties":{"name":"Schoubroek","highway":"residential","vertex1":20473,"vertex2":20458}},{"type":"Feature","geometry":{"type":"LineString","coordinates":[[3.678044,51.08057],[3.679011,51.0809],[3.679052,51.08091]]},"properties":{"name":"Hoevepoort","highway":"residential","vertex1":20473,"vertex2":20436}},{"type":"Feature","geometry":{"type":"LineString","coordinates":[[3.67466,51.07964],[3.672904,51.08053]]},"properties":{"name":"Brugsevaart","highway":"primary","maxspeed":"70","vertex1":20472,"vertex2":20450}},{"type":"Feature","geometry":{"type":"LineString","coordinates":[[3.679355,51.07923],[3.679013,51.07917],[3.678823,51.07911],[3.678614,51.07902]]},"properties":{"highway":"path","vertex1":20471,"vertex2":20451}},{"type":"Feature","geometry":{"type":"LineString","coordinates":[[3.672732,51.07733],[3.672424,51.07747],[3.672096,51.07784]]},"properties":{"highway":"footway","vertex1":20470,"vertex2":20444}},{"type":"Feature","geometry":{"type":"LineString","coordinates":[[3.676998,51.07611],[3.67728,51.07619]]},"properties":{"name":"Kasteeldreef","highway":"unclassified","vertex1":20469,"vertex2":20467}},{"type":"Feature","geometry":{"type":"LineString","coordinates":[[3.677046,51.07753],[3.677036,51.07745]]},"properties":{"highway":"path","vertex1":20466,"vertex2":20452}},{"type":"Feature","geometry":{"type":"LineString","coordinates":[[3.677046,51.07753],[3.676705,51.07738]]},"properties":{"highway":"residential","vertex1":20466,"vertex2":20455}},{"type":"Feature","geometry":{"type":"LineString","coordinates":[[3.679106,51.07941],[3.678757,51.07928],[3.678482,51.07911],[3.678453,51.07906],[3.678523,51.07901],[3.678614,51.07902]]},"properties":{"highway":"path","vertex1":20465,"vertex2":20451}},{"type":"Feature","geometry":{"type":"LineString","coordinates":[[3.675808,51.07708],[3.676135,51.07719],[3.676486,51.0773],[3.676705,51.07738]]},"properties":{"highway":"service","vertex1":20464,"vertex2":20455}},{"type":"Feature","geometry":{"type":"LineString","coordinates":[[3.677726,51.0774],[3.677534,51.07744],[3.677533,51.07762]]},"properties":{"highway":"footway","vertex1":20463,"vertex2":20454}},{"type":"Feature","geometry":{"type":"LineString","coordinates":[[3.677726,51.0774],[3.677758,51.07731],[3.678691,51.07595]]},"properties":{"name":"Brugsesteenweg","highway":"residential","vertex1":20463,"vertex2":20438}},{"type":"Feature","geometry":{"type":"LineString","coordinates":[[3.677726,51.0774],[3.677712,51.07745],[3.677711,51.07752]]},"properties":{"name":"Brugsesteenweg","highway":"residential","vertex1":20463,"vertex2":20435}},{"type":"Feature","geometry":{"type":"LineString","coordinates":[[3.67736,51.07732],[3.677411,51.07764],[3.677609,51.07812],[3.677689,51.07832],[3.677771,51.07851],[3.677926,51.07882]]},"properties":{"bridge":"yes","name":"Brugsesteenweg","maxspeed":"50","highway":"tertiary","vertex1":20461,"vertex2":20457}},{"type":"Feature","geometry":{"type":"LineString","coordinates":[[3.67736,51.07732],[3.677358,51.07717],[3.677386,51.07701],[3.677452,51.07682],[3.677476,51.07673],[3.677736,51.07637],[3.67777,51.07633]]},"properties":{"name":"Brugsesteenweg","maxspeed":"50","highway":"tertiary","vertex1":20461,"vertex2":20440}},{"type":"Feature","geometry":{"type":"LineString","coordinates":[[3.678857,51.07569],[3.678816,51.07575],[3.678717,51.0759],[3.678691,51.07595]]},"properties":{"name":"Brugsesteenweg","highway":"residential","vertex1":20460,"vertex2":20438}},{"type":"Feature","geometry":{"type":"LineString","coordinates":[[3.677533,51.07762],[3.677711,51.07752]]},"properties":{"name":"Trekweg","bicycle":"no","highway":"residential","maxspeed":"30","vertex1":20454,"vertex2":20435}},{"type":"Feature","geometry":{"type":"LineString","coordinates":[[3.669933,51.07862],[3.669996,51.07858]]},"properties":{"bridge":"yes","highway":"path","vertex1":20453,"vertex2":20449}},{"type":"Feature","geometry":{"type":"LineString","coordinates":[[3.678614,51.07902],[3.678355,51.0787],[3.678115,51.07842],[3.678052,51.07831]]},"properties":{"highway":"path","vertex1":20451,"vertex2":20441}},{"type":"Feature","geometry":{"type":"LineString","coordinates":[[3.672904,51.08053],[3.673528,51.08101]]},"properties":{"name":"Broekstraat","oneway":"yes","maxspeed":"50","highway":"residential","vertex1":20450,"vertex2":20398}},{"type":"Feature","geometry":{"type":"LineString","coordinates":[[3.672096,51.07784],[3.672019,51.07782],[3.671822,51.0778],[3.671633,51.07778],[3.671434,51.07776],[3.671297,51.07779],[3.671187,51.07783]]},"properties":{"bicycle":"no","highway":"path","vertex1":20444,"vertex2":20439}},{"type":"Feature","geometry":{"type":"LineString","coordinates":[[3.678203,51.07597],[3.67777,51.07633]]},"properties":{"name":"Brugsesteenweg","maxspeed":"50","highway":"tertiary","vertex1":20443,"vertex2":20440}},{"type":"Feature","geometry":{"type":"LineString","coordinates":[[3.671066,51.0779],[3.671187,51.07783]]},"properties":{"bridge":"yes","bicycle":"no","highway":"path","vertex1":20442,"vertex2":20439}},{"type":"Feature","geometry":{"type":"LineString","coordinates":[[3.678052,51.07831],[3.677885,51.07824],[3.677846,51.07822]]},"properties":{"highway":"path","vertex1":20441,"vertex2":20437}},{"type":"Feature","geometry":{"type":"LineString","coordinates":[[3.679052,51.08091],[3.678705,51.08124],[3.678404,51.08151],[3.678319,51.08161],[3.678303,51.08166],[3.67834,51.08173],[3.678453,51.08183],[3.67871,51.08196],[3.679065,51.08215],[3.679322,51.0823],[3.67951,51.08244]]},"properties":{"name":"Oudewal","highway":"residential","vertex1":20436,"vertex2":20402}},{"type":"Feature","geometry":{"type":"LineString","coordinates":[[3.679052,51.08091],[3.679751,51.08112],[3.679869,51.08115],[3.67995,51.08119],[3.680003,51.08126],[3.679987,51.08138],[3.679832,51.0817]]},"properties":{"name":"Hoevepoort","highway":"residential","vertex1":20436,"vertex2":20431}},{"type":"Feature","geometry":{"type":"LineString","coordinates":[[3.679832,51.0817],[3.67951,51.08244]]},"properties":{"name":"Hoevepoort","highway":"residential","vertex1":20431,"vertex2":20402}},{"type":"Feature","geometry":{"type":"LineString","coordinates":[[3.672856,51.08147],[3.671343,51.08259]]},"properties":{"name":"Polderkenslaan","oneway":"yes","highway":"residential","vertex1":20424,"vertex2":20409}},{"type":"Feature","geometry":{"type":"LineString","coordinates":[[3.672856,51.08147],[3.673248,51.08118],[3.673413,51.08106]]},"properties":{"name":"Polderkenslaan","oneway":"yes","highway":"residential","vertex1":20424,"vertex2":20417}},{"type":"Feature","geometry":{"type":"LineString","coordinates":[[3.672856,51.08147],[3.672979,51.08153]]},"properties":{"highway":"residential","vertex1":20424,"vertex2":20385}},{"type":"Feature","geometry":{"type":"LineString","coordinates":[[3.675686,51.08235],[3.676544,51.08175]]},"properties":{"name":"Schoubroek","highway":"residential","vertex1":20423,"vertex2":20401}},{"type":"Feature","geometry":{"type":"LineString","coordinates":[[3.675686,51.08235],[3.675067,51.08198]]},"properties":{"name":"Broekstraat","maxspeed":"50","highway":"residential","vertex1":20423,"vertex2":20403}},{"type":"Feature","geometry":{"type":"LineString","coordinates":[[3.675686,51.08235],[3.676235,51.08268]]},"properties":{"name":"Broekstraat","maxspeed":"50","highway":"residential","vertex1":20423,"vertex2":20395}},{"type":"Feature","geometry":{"type":"LineString","coordinates":[[3.673761,51.08118],[3.673555,51.08111]]},"properties":{"name":"Broekstraat","oneway":"yes","maxspeed":"50","highway":"residential","vertex1":20419,"vertex2":20391}},{"type":"Feature","geometry":{"type":"LineString","coordinates":[[3.673761,51.08118],[3.673617,51.08107]]},"properties":{"name":"Broekstraat","oneway":"yes","maxspeed":"50","highway":"residential","vertex1":20419,"vertex2":20405}},{"type":"Feature","geometry":{"type":"LineString","coordinates":[[3.673761,51.08118],[3.675067,51.08198]]},"properties":{"name":"Broekstraat","maxspeed":"50","highway":"residential","vertex1":20419,"vertex2":20403}},{"type":"Feature","geometry":{"type":"LineString","coordinates":[[3.673413,51.08106],[3.673466,51.08109],[3.673555,51.08111]]},"properties":{"name":"Broekstraat","oneway":"yes","maxspeed":"50","highway":"residential","vertex1":20417,"vertex2":20391}},{"type":"Feature","geometry":{"type":"LineString","coordinates":[[3.673413,51.08106],[3.673528,51.08101]]},"properties":{"name":"Polderkenslaan","oneway":"yes","highway":"residential","vertex1":20417,"vertex2":20398}},{"type":"Feature","geometry":{"type":"LineString","coordinates":[[3.674312,51.08253],[3.674412,51.08244],[3.675067,51.08198]]},"properties":{"name":"Noordbroek","highway":"residential","vertex1":20414,"vertex2":20403}},{"type":"Feature","geometry":{"type":"LineString","coordinates":[[3.674312,51.08253],[3.674456,51.08281],[3.674596,51.08307]]},"properties":{"name":"Noordbroek","highway":"residential","vertex1":20414,"vertex2":20412}},{"type":"Feature","geometry":{"type":"LineString","coordinates":[[3.674312,51.08253],[3.673979,51.0825],[3.67356,51.08245]]},"properties":{"name":"Noordbroek","highway":"residential","vertex1":20414,"vertex2":20410}},{"type":"Feature","geometry":{"type":"LineString","coordinates":[[3.671463,51.08265],[3.672979,51.08153]]},"properties":{"name":"Polderkenslaan","oneway":"yes","highway":"residential","vertex1":20413,"vertex2":20385}},{"type":"Feature","geometry":{"type":"LineString","coordinates":[[3.671463,51.08265],[3.670619,51.08326]]},"properties":{"name":"Polderkenslaan","oneway":"yes","highway":"residential","vertex1":20413,"vertex2":20397}},{"type":"Feature","geometry":{"type":"LineString","coordinates":[[3.671463,51.08265],[3.67151,51.08271],[3.672071,51.08365],[3.672109,51.08376],[3.672085,51.08382],[3.671817,51.08402],[3.671672,51.08413],[3.671293,51.08442],[3.671252,51.08446],[3.671281,51.08452],[3.671699,51.08475],[3.67194,51.08488],[3.672028,51.0849],[3.672126,51.08485],[3.672562,51.08451],[3.672733,51.0844],[3.673103,51.08413],[3.673429,51.08392],[3.673507,51.08384],[3.673538,51.08375],[3.673523,51.08366],[3.673432,51.08348],[3.673335,51.08332],[3.673177,51.08307],[3.673085,51.08293],[3.67306,51.08286],[3.673088,51.08277],[3.673174,51.08271],[3.673394,51.08256],[3.67356,51.08245]]},"properties":{"name":"Hooiland","highway":"residential","vertex1":20413,"vertex2":20410}},{"type":"Feature","geometry":{"type":"LineString","coordinates":[[3.671463,51.08265],[3.671343,51.08259]]},"properties":{"name":"Hooiland","highway":"residential","vertex1":20413,"vertex2":20409}},{"type":"Feature","geometry":{"type":"LineString","coordinates":[[3.670619,51.08326],[3.670504,51.08321],[3.671343,51.08259]]},"properties":{"name":"Polderkenslaan","oneway":"yes","highway":"residential","vertex1":20397,"vertex2":20409}},{"type":"Feature","geometry":{"type":"LineString","coordinates":[[3.671372,51.08133],[3.669333,51.08236]]},"properties":{"name":"Brugsevaart","highway":"primary","maxspeed":"70","vertex1":20411,"vertex2":21145}},{"type":"Feature","geometry":{"type":"LineString","coordinates":[[3.67356,51.08245],[3.673438,51.08225],[3.673183,51.08183],[3.673061,51.08165],[3.672979,51.08153]]},"properties":{"name":"Hooiland","highway":"residential","vertex1":20410,"vertex2":20385}},{"type":"Feature","geometry":{"type":"LineString","coordinates":[[3.673617,51.08107],[3.673528,51.08101]]},"properties":{"name":"Broekstraat","oneway":"yes","maxspeed":"50","highway":"residential","vertex1":20405,"vertex2":20398}},{"type":"Feature","geometry":{"type":"LineString","coordinates":[[3.673617,51.08107],[3.673555,51.08111]]},"properties":{"name":"Polderkenslaan","oneway":"yes","highway":"residential","vertex1":20405,"vertex2":20391}},{"type":"Feature","geometry":{"type":"LineString","coordinates":[[3.67951,51.08244],[3.679499,51.08247],[3.679268,51.08303],[3.679128,51.08328]]},"properties":{"name":"Hoevepoort","highway":"residential","vertex1":20402,"vertex2":20421}},{"type":"Feature","geometry":{"type":"LineString","coordinates":[[3.679128,51.08328],[3.679714,51.08362],[3.680213,51.08394]]},"properties":{"name":"Melkweide","highway":"residential","vertex1":20421,"vertex2":20387}},{"type":"Feature","geometry":{"type":"LineString","coordinates":[[3.679128,51.08328],[3.678248,51.08276],[3.676544,51.08175]]},"properties":{"name":"Melkweide","highway":"residential","vertex1":20421,"vertex2":20401}},{"type":"Feature","geometry":{"type":"LineString","coordinates":[[3.676235,51.08268],[3.677655,51.08354]]},"properties":{"name":"Broekstraat","maxspeed":"50","highway":"residential","vertex1":20395,"vertex2":20406}},{"type":"Feature","geometry":{"type":"LineString","coordinates":[[3.676235,51.08268],[3.675147,51.0835]]},"properties":{"name":"Madelonstraat","highway":"residential","vertex1":20395,"vertex2":20425}},{"type":"Feature","geometry":{"type":"LineString","coordinates":[[3.673555,51.08111],[3.67335,51.08125],[3.672979,51.08153]]},"properties":{"name":"Polderkenslaan","oneway":"yes","highway":"residential","vertex1":20391,"vertex2":20385}},{"type":"Feature","geometry":{"type":"LineString","coordinates":[[3.691102,51.08102],[3.691155,51.08105]]},"properties":{"name":"Adolf Kervynstraat","highway":"residential","vertex1":20382,"vertex2":20309}},{"type":"Feature","geometry":{"type":"LineString","coordinates":[[3.691102,51.08102],[3.69107,51.08097],[3.691065,51.08092],[3.6911,51.08086],[3.691166,51.08083],[3.691239,51.08083],[3.691302,51.08084],[3.691349,51.08085],[3.691396,51.08089],[3.691395,51.08096],[3.691348,51.08102],[3.691249,51.08106]]},"properties":{"name":"Adolf Kervynstraat","highway":"residential","vertex1":20382,"vertex2":20380}},{"type":"Feature","geometry":{"type":"LineString","coordinates":[[3.691249,51.08106],[3.691155,51.08105]]},"properties":{"name":"Adolf Kervynstraat","highway":"residential","vertex1":20380,"vertex2":20309}},{"type":"Feature","geometry":{"type":"LineString","coordinates":[[3.684958,51.08109],[3.683652,51.08262]]},"properties":{"name":"Pinksterbloemstraat","highway":"residential","vertex1":20375,"vertex2":20339}},{"type":"Feature","geometry":{"type":"LineString","coordinates":[[3.684958,51.08109],[3.685588,51.08124]]},"properties":{"name":"Groenestaakstraat","maxspeed":"50","highway":"tertiary","vertex1":20375,"vertex2":20362}},{"type":"Feature","geometry":{"type":"LineString","coordinates":[[3.686252,51.08262],[3.684914,51.08331],[3.68433,51.0836]]},"properties":{"name":"Eeklostraat","highway":"residential","vertex1":20370,"vertex2":20372}},{"type":"Feature","geometry":{"type":"LineString","coordinates":[[3.686252,51.08262],[3.68646,51.08251]]},"properties":{"name":"Eeklostraat","highway":"residential","maxspeed":"30","vertex1":20370,"vertex2":20316}},{"type":"Feature","geometry":{"type":"LineString","coordinates":[[3.68433,51.0836],[3.683614,51.08301]]},"properties":{"bicycle":"yes","highway":"footway","vertex1":20372,"vertex2":20371}},{"type":"Feature","geometry":{"type":"LineString","coordinates":[[3.684418,51.08255],[3.684366,51.0826]]},"properties":{"name":"Pinksterbloemstraat","highway":"residential","vertex1":20367,"vertex2":20307}},{"type":"Feature","geometry":{"type":"LineString","coordinates":[[3.684418,51.08255],[3.684488,51.08247],[3.684584,51.08242],[3.684676,51.08236],[3.684777,51.08234],[3.684847,51.08237],[3.684853,51.08242],[3.684729,51.08249],[3.684547,51.08256]]},"properties":{"name":"Pinksterbloemstraat","highway":"residential","vertex1":20367,"vertex2":20335}},{"type":"Feature","geometry":{"type":"LineString","coordinates":[[3.685588,51.08124],[3.687447,51.08165]]},"properties":{"name":"Groenestaakstraat","maxspeed":"50","highway":"tertiary","vertex1":20362,"vertex2":20360}},{"type":"Feature","geometry":{"type":"LineString","coordinates":[[3.687447,51.08165],[3.687878,51.08174],[3.687942,51.08175]]},"properties":{"name":"Groenestaakstraat","maxspeed":"50","highway":"tertiary","vertex1":20360,"vertex2":20358}},{"type":"Feature","geometry":{"type":"LineString","coordinates":[[3.687942,51.08175],[3.687998,51.0817],[3.688166,51.08156]]},"properties":{"name":"Eeklostraat","maxspeed":"50","highway":"tertiary","vertex1":20358,"vertex2":20351}},{"type":"Feature","geometry":{"type":"LineString","coordinates":[[3.687942,51.08175],[3.687987,51.08176],[3.690332,51.08221],[3.690514,51.08224]]},"properties":{"name":"Groenestaakstraat","maxspeed":"50","highway":"tertiary","cycleway":"lane","vertex1":20358,"vertex2":20345}},{"type":"Feature","geometry":{"type":"LineString","coordinates":[[3.687942,51.08175],[3.68779,51.0819],[3.687523,51.082]]},"properties":{"name":"Eeklostraat","highway":"residential","vertex1":20358,"vertex2":20318}},{"type":"Feature","geometry":{"type":"LineString","coordinates":[[3.686998,51.08225],[3.686941,51.0825],[3.686852,51.08274]]},"properties":{"name":"Wolvengracht","highway":"residential","maxspeed":"30","vertex1":20352,"vertex2":20350}},{"type":"Feature","geometry":{"type":"LineString","coordinates":[[3.686998,51.08225],[3.68658,51.08245]]},"properties":{"name":"Eeklostraat","highway":"residential","maxspeed":"30","vertex1":20352,"vertex2":20319}},{"type":"Feature","geometry":{"type":"LineString","coordinates":[[3.686998,51.08225],[3.687336,51.08207],[3.687523,51.082]]},"properties":{"name":"Eeklostraat","highway":"residential","maxspeed":"30","vertex1":20352,"vertex2":20318}},{"type":"Feature","geometry":{"type":"LineString","coordinates":[[3.688166,51.08156],[3.688445,51.08132],[3.688638,51.0811]]},"properties":{"name":"Eeklostraat","maxspeed":"50","highway":"tertiary","vertex1":20351,"vertex2":20327}},{"type":"Feature","geometry":{"type":"LineString","coordinates":[[3.688166,51.08156],[3.6883,51.08161],[3.688337,51.08162]]},"properties":{"highway":"footway","vertex1":20351,"vertex2":20336}},{"type":"Feature","geometry":{"type":"LineString","coordinates":[[3.686852,51.08274],[3.686831,51.08267],[3.686776,51.08262],[3.68646,51.08251]]},"properties":{"name":"Wolvengracht","highway":"residential","maxspeed":"30","vertex1":20350,"vertex2":20316}},{"type":"Feature","geometry":{"type":"LineString","coordinates":[[3.686852,51.08274],[3.686812,51.08288]]},"properties":{"name":"Wolvengracht","highway":"residential","maxspeed":"30","vertex1":20350,"vertex2":20322}},{"type":"Feature","geometry":{"type":"LineString","coordinates":[[3.680969,51.08231],[3.68044,51.08346],[3.680213,51.08394]]},"properties":{"name":"Henry Storystraat","highway":"residential","vertex1":20346,"vertex2":20387}},{"type":"Feature","geometry":{"type":"LineString","coordinates":[[3.680969,51.08231],[3.681449,51.08242],[3.681767,51.08251],[3.681883,51.08254]]},"properties":{"bicycle":"yes","highway":"footway","vertex1":20346,"vertex2":20337}},{"type":"Feature","geometry":{"type":"LineString","coordinates":[[3.690514,51.08224],[3.690822,51.08164],[3.690993,51.08133],[3.691155,51.08105]]},"properties":{"name":"Adolf Kervynstraat","highway":"residential","vertex1":20345,"vertex2":20309}},{"type":"Feature","geometry":{"type":"LineString","coordinates":[[3.690514,51.08224],[3.691071,51.08237]]},"properties":{"name":"Groenestaakstraat","maxspeed":"50","highway":"tertiary","cycleway":"lane","vertex1":20345,"vertex2":20323}},{"type":"Feature","geometry":{"type":"LineString","coordinates":[[3.688621,51.08167],[3.688412,51.08163]]},"properties":{"highway":"footway","vertex1":20344,"vertex2":20342}},{"type":"Feature","geometry":{"type":"LineString","coordinates":[[3.688412,51.08163],[3.688337,51.08162]]},"properties":{"highway":"footway","vertex1":20342,"vertex2":20336}},{"type":"Feature","geometry":{"type":"LineString","coordinates":[[3.688412,51.08163],[3.688668,51.08158],[3.688675,51.08157],[3.688564,51.08151],[3.688471,51.08147]]},"properties":{"highway":"footway","vertex1":20342,"vertex2":20338}},{"type":"Feature","geometry":{"type":"LineString","coordinates":[[3.688654,51.08126],[3.688471,51.08147]]},"properties":{"highway":"footway","vertex1":20340,"vertex2":20338}},{"type":"Feature","geometry":{"type":"LineString","coordinates":[[3.683652,51.08262],[3.68334,51.08297]]},"properties":{"name":"Pinksterbloemstraat","highway":"residential","vertex1":20339,"vertex2":20373}},{"type":"Feature","geometry":{"type":"LineString","coordinates":[[3.683652,51.08262],[3.683791,51.08265],[3.683946,51.08271],[3.68408,51.08276]]},"properties":{"name":"Pinksterbloemstraat","highway":"residential","vertex1":20339,"vertex2":20321}},{"type":"Feature","geometry":{"type":"LineString","coordinates":[[3.68334,51.08297],[3.683056,51.08288],[3.682822,51.08279],[3.682561,51.08271],[3.682074,51.08258],[3.681883,51.08254]]},"properties":{"bicycle":"yes","highway":"footway","vertex1":20373,"vertex2":20337}},{"type":"Feature","geometry":{"type":"LineString","coordinates":[[3.688471,51.08147],[3.688337,51.08162]]},"properties":{"highway":"footway","vertex1":20338,"vertex2":20336}},{"type":"Feature","geometry":{"type":"LineString","coordinates":[[3.681883,51.08254],[3.6818,51.0827],[3.681754,51.08279],[3.68186,51.08298]]},"properties":{"bicycle":"yes","highway":"footway","vertex1":20337,"vertex2":20361}},{"type":"Feature","geometry":{"type":"LineString","coordinates":[[3.684547,51.08256],[3.684366,51.0826]]},"properties":{"name":"Pinksterbloemstraat","highway":"residential","vertex1":20335,"vertex2":20307}},{"type":"Feature","geometry":{"type":"LineString","coordinates":[[3.688771,51.08115],[3.688672,51.08111],[3.688638,51.0811]]},"properties":{"highway":"service","vertex1":20334,"vertex2":20327}},{"type":"Feature","geometry":{"type":"LineString","coordinates":[[3.691071,51.08237],[3.690622,51.08313],[3.690322,51.0836],[3.690032,51.08395],[3.689747,51.08426]]},"properties":{"name":"Breebroekstraat","highway":"residential","vertex1":20323,"vertex2":20379}},{"type":"Feature","geometry":{"type":"LineString","coordinates":[[3.691071,51.08237],[3.691638,51.08252]]},"properties":{"name":"Groenestaakstraat","maxspeed":"50","highway":"tertiary","cycleway":"lane","vertex1":20323,"vertex2":16993}},{"type":"Feature","geometry":{"type":"LineString","coordinates":[[3.68408,51.08276],[3.683614,51.08301]]},"properties":{"name":"Pinksterbloemstraat","highway":"residential","vertex1":20321,"vertex2":20371}},{"type":"Feature","geometry":{"type":"LineString","coordinates":[[3.68408,51.08276],[3.684311,51.08265],[3.684366,51.0826]]},"properties":{"name":"Pinksterbloemstraat","highway":"residential","vertex1":20321,"vertex2":20307}},{"type":"Feature","geometry":{"type":"LineString","coordinates":[[3.685834,51.08226],[3.686425,51.08241],[3.68658,51.08245]]},"properties":{"highway":"service","vertex1":20320,"vertex2":20319}},{"type":"Feature","geometry":{"type":"LineString","coordinates":[[3.68658,51.08245],[3.68646,51.08251]]},"properties":{"name":"Eeklostraat","highway":"residential","maxspeed":"30","vertex1":20319,"vertex2":20316}},{"type":"Feature","geometry":{"type":"LineString","coordinates":[[3.682403,51.08095],[3.682562,51.08093],[3.682646,51.08098],[3.682693,51.08105],[3.682663,51.0811],[3.682587,51.08115],[3.682472,51.08121],[3.682364,51.08117],[3.682283,51.08111],[3.682274,51.08105]]},"properties":{"bicycle":"no","motorcar":"no","foot":"no","highway":"service","vertex1":20314,"vertex2":20312}},{"type":"Feature","geometry":{"type":"LineString","coordinates":[[3.682403,51.08095],[3.682337,51.08099]]},"properties":{"bicycle":"no","motorcar":"no","foot":"no","highway":"service","vertex1":20314,"vertex2":20310}},{"type":"Feature","geometry":{"type":"LineString","coordinates":[[3.682274,51.08105],[3.682337,51.08099]]},"properties":{"bicycle":"no","motorcar":"no","foot":"no","highway":"service","vertex1":20312,"vertex2":20310}}]}