{"type":"FeatureCollection","features":[{"type":"Feature","geometry":{"type":"LineString","coordinates":[[3.669434,51.06902],[3.691406,51.06902],[3.691406,51.05521],[3.669434,51.05521],[3.669434,51.06902]]},"properties":{"id":"89792679","zoom":"14"}},{"type":"Feature","geometry":{"type":"LineString","coordinates":[[3.684552,51.05779],[3.684569,51.0579]]},"properties":{"highway":"path","vertex1":573,"vertex2":515}},{"type":"Feature","geometry":{"type":"LineString","coordinates":[[3.686524,51.05787],[3.686446,51.05786]]},"properties":{"name":"Bunderweg","bridge":"yes","highway":"path","vertex1":571,"vertex2":541}},{"type":"Feature","geometry":{"type":"LineString","coordinates":[[3.686524,51.05787],[3.686534,51.05787],[3.686671,51.05778]]},"properties":{"name":"Bunderweg","highway":"path","vertex1":571,"vertex2":473}},{"type":"Feature","geometry":{"type":"LineString","coordinates":[[3.686872,51.05716],[3.686999,51.05712],[3.687458,51.057]]},"properties":{"highway":"service","vertex1":570,"vertex2":439}},{"type":"Feature","geometry":{"type":"LineString","coordinates":[[3.686872,51.05716],[3.686541,51.05724],[3.686165,51.05714]]},"properties":{"highway":"service","vertex1":570,"vertex2":568}},{"type":"Feature","geometry":{"type":"LineString","coordinates":[[3.686872,51.05716],[3.686803,51.05707]]},"properties":{"highway":"path","vertex1":570,"vertex2":500}},{"type":"Feature","geometry":{"type":"LineString","coordinates":[[3.68207,51.05758],[3.682875,51.05731]]},"properties":{"highway":"service","vertex1":569,"vertex2":433}},{"type":"Feature","geometry":{"type":"LineString","coordinates":[[3.68207,51.05758],[3.681548,51.05776],[3.680995,51.05794],[3.680842,51.05798],[3.680686,51.05796],[3.680562,51.05792],[3.680433,51.05785]]},"properties":{"highway":"service","vertex1":569,"vertex2":465}},{"type":"Feature","geometry":{"type":"LineString","coordinates":[[3.68207,51.05758],[3.681576,51.05606]]},"properties":{"highway":"service","vertex1":569,"vertex2":536}},{"type":"Feature","geometry":{"type":"LineString","coordinates":[[3.686165,51.05714],[3.685872,51.05707]]},"properties":{"highway":"service","vertex1":568,"vertex2":562}},{"type":"Feature","geometry":{"type":"LineString","coordinates":[[3.686165,51.05714],[3.686186,51.05708]]},"properties":{"highway":"footway","vertex1":568,"vertex2":450}},{"type":"Feature","geometry":{"type":"LineString","coordinates":[[3.690436,51.05548],[3.690811,51.05537],[3.691178,51.05525],[3.691923,51.05501],[3.692201,51.05491],[3.692335,51.05479],[3.692392,51.05468],[3.692427,51.05453],[3.692487,51.05428],[3.692544,51.05411],[3.692556,51.05395]]},"properties":{"name":"Alice BÃ©viairepad","highway":"track","vertex1":567,"vertex2":15166}},{"type":"Feature","geometry":{"type":"LineString","coordinates":[[3.690436,51.05548],[3.69061,51.0555]]},"properties":{"name":"Drongensesteenweg","oneway":"yes","highway":"primary","maxspeed":"70","vertex1":567,"vertex2":509}},{"type":"Feature","geometry":{"type":"LineString","coordinates":[[3.690436,51.05548],[3.690303,51.05545]]},"properties":{"name":"Drongensesteenweg","oneway":"yes","highway":"primary","maxspeed":"70","bicycle":"no","vertex1":567,"vertex2":563}},{"type":"Feature","geometry":{"type":"LineString","coordinates":[[3.690483,51.05557],[3.691047,51.05564]]},"properties":{"bridge":"yes","name":"Drongensesteenweg","oneway":"yes","highway":"primary","maxspeed":"50","vertex1":566,"vertex2":564}},{"type":"Feature","geometry":{"type":"LineString","coordinates":[[3.690483,51.05557],[3.690295,51.05555]]},"properties":{"name":"Drongensesteenweg","oneway":"yes","highway":"primary","maxspeed":"70","bicycle":"no","vertex1":566,"vertex2":467}},{"type":"Feature","geometry":{"type":"LineString","coordinates":[[3.691047,51.05564],[3.692214,51.05581]]},"properties":{"name":"Drongensesteenweg","oneway":"yes","highway":"primary","maxspeed":"50","vertex1":564,"vertex2":15146}},{"type":"Feature","geometry":{"type":"LineString","coordinates":[[3.692214,51.05581],[3.692223,51.05574]]},"properties":{"maxspeed":"50","highway":"primary_link","vertex1":15146,"vertex2":15129}},{"type":"Feature","geometry":{"type":"LineString","coordinates":[[3.690303,51.05545],[3.689659,51.05534]]},"properties":{"name":"Drongensesteenweg","oneway":"yes","highway":"primary","maxspeed":"70","bicycle":"no","vertex1":563,"vertex2":519}},{"type":"Feature","geometry":{"type":"LineString","coordinates":[[3.690303,51.05545],[3.690295,51.05555]]},"properties":{"highway":"primary_link","vertex1":563,"vertex2":467}},{"type":"Feature","geometry":{"type":"LineString","coordinates":[[3.690303,51.05545],[3.69015,51.05539],[3.689673,51.0553]]},"properties":{"name":"Drongensesteenweg","oneway":"yes","highway":"cycleway","vertex1":563,"vertex2":438}},{"type":"Feature","geometry":{"type":"LineString","coordinates":[[3.683556,51.05602],[3.683892,51.05602]]},"properties":{"highway":"service","vertex1":561,"vertex2":495}},{"type":"Feature","geometry":{"type":"LineString","coordinates":[[3.683556,51.05602],[3.68343,51.05584],[3.682096,51.05569],[3.68197,51.05574]]},"properties":{"highway":"service","vertex1":561,"vertex2":463}},{"type":"Feature","geometry":{"type":"LineString","coordinates":[[3.683556,51.05602],[3.683,51.05611],[3.682793,51.05624],[3.682611,51.05639],[3.682736,51.05686],[3.682875,51.05731]]},"properties":{"highway":"service","vertex1":561,"vertex2":433}},{"type":"Feature","geometry":{"type":"LineString","coordinates":[[3.689293,51.05678],[3.689314,51.05682]]},"properties":{"bridge":"yes","highway":"path","vertex1":560,"vertex2":558}},{"type":"Feature","geometry":{"type":"LineString","coordinates":[[3.689293,51.05678],[3.689274,51.05676],[3.689025,51.05681],[3.688878,51.05684],[3.688801,51.05683],[3.68874,51.05682],[3.688681,51.05682],[3.688592,51.05683],[3.688521,51.05685]]},"properties":{"highway":"path","vertex1":560,"vertex2":510}},{"type":"Feature","geometry":{"type":"LineString","coordinates":[[3.684096,51.05664],[3.684139,51.05679],[3.684097,51.05692],[3.684041,51.05699],[3.683901,51.05707],[3.683472,51.05712],[3.683323,51.05717],[3.682875,51.05731]]},"properties":{"highway":"service","vertex1":559,"vertex2":433}},{"type":"Feature","geometry":{"type":"LineString","coordinates":[[3.684096,51.05664],[3.683892,51.05602]]},"properties":{"highway":"service","vertex1":559,"vertex2":495}},{"type":"Feature","geometry":{"type":"LineString","coordinates":[[3.684096,51.05664],[3.684657,51.05655],[3.684615,51.05622],[3.684452,51.05603]]},"properties":{"highway":"service","vertex1":559,"vertex2":493}},{"type":"Feature","geometry":{"type":"LineString","coordinates":[[3.689314,51.05682],[3.68933,51.05684]]},"properties":{"highway":"path","vertex1":558,"vertex2":507}},{"type":"Feature","geometry":{"type":"LineString","coordinates":[[3.684153,51.056],[3.684452,51.05603]]},"properties":{"highway":"service","vertex1":557,"vertex2":493}},{"type":"Feature","geometry":{"type":"LineString","coordinates":[[3.684153,51.056],[3.684274,51.0557],[3.684575,51.05573]]},"properties":{"highway":"service","vertex1":557,"vertex2":555}},{"type":"Feature","geometry":{"type":"LineString","coordinates":[[3.684153,51.056],[3.683892,51.05602]]},"properties":{"highway":"service","vertex1":557,"vertex2":495}},{"type":"Feature","geometry":{"type":"LineString","coordinates":[[3.684748,51.05787],[3.684842,51.05851],[3.684855,51.05901],[3.68485,51.05982],[3.68485,51.06029],[3.684868,51.06098],[3.684892,51.06134],[3.684946,51.06192],[3.685009,51.06258],[3.685099,51.06284],[3.685193,51.06312],[3.685383,51.06361],[3.685402,51.06365]]},"properties":{"name":"Bourgoyendreef","highway":"path","vertex1":556,"vertex2":430}},{"type":"Feature","geometry":{"type":"LineString","coordinates":[[3.684748,51.05787],[3.684653,51.05788],[3.684569,51.0579]]},"properties":{"name":"Bunderweg","highway":"path","vertex1":556,"vertex2":515}},{"type":"Feature","geometry":{"type":"LineString","coordinates":[[3.684748,51.05787],[3.68479,51.05787],[3.685312,51.05783],[3.686013,51.05785],[3.686446,51.05786]]},"properties":{"name":"Bunderweg","highway":"path","vertex1":556,"vertex2":541}},{"type":"Feature","geometry":{"type":"LineString","coordinates":[[3.684575,51.05573],[3.68468,51.05547]]},"properties":{"highway":"service","vertex1":555,"vertex2":459}},{"type":"Feature","geometry":{"type":"LineString","coordinates":[[3.684575,51.05573],[3.684452,51.05603]]},"properties":{"highway":"service","vertex1":555,"vertex2":493}},{"type":"Feature","geometry":{"type":"LineString","coordinates":[[3.687824,51.05749],[3.687832,51.0575],[3.688056,51.05744],[3.688754,51.05724]]},"properties":{"highway":"path","vertex1":554,"vertex2":552}},{"type":"Feature","geometry":{"type":"LineString","coordinates":[[3.687824,51.05749],[3.687807,51.05746]]},"properties":{"bridge":"yes","highway":"path","vertex1":554,"vertex2":538}},{"type":"Feature","geometry":{"type":"LineString","coordinates":[[3.690889,51.05763],[3.690352,51.05818]]},"properties":{"name":"Martin Luther Kingstraat","highway":"residential","maxspeed":"30","vertex1":553,"vertex2":491}},{"type":"Feature","geometry":{"type":"LineString","coordinates":[[3.688754,51.05724],[3.688964,51.05717],[3.689257,51.05711],[3.689555,51.05702],[3.689814,51.05693]]},"properties":{"highway":"path","vertex1":552,"vertex2":449}},{"type":"Feature","geometry":{"type":"LineString","coordinates":[[3.688754,51.05724],[3.68874,51.05723]]},"properties":{"highway":"path","vertex1":552,"vertex2":512}},{"type":"Feature","geometry":{"type":"LineString","coordinates":[[3.691318,51.05854],[3.691508,51.05831]]},"properties":{"name":"Nekkersputstraat","oneway":"yes","oneway:bicycle":"no","highway":"residential","maxspeed":"30","vertex1":551,"vertex2":15264}},{"type":"Feature","geometry":{"type":"LineString","coordinates":[[3.691318,51.05854],[3.690352,51.05818]]},"properties":{"name":"Folke Bernadottestraat","highway":"residential","maxspeed":"30","vertex1":551,"vertex2":491}},{"type":"Feature","geometry":{"type":"LineString","coordinates":[[3.691318,51.05854],[3.691262,51.05859],[3.691041,51.05883],[3.691019,51.05902]]},"properties":{"name":"Nekkersputstraat","highway":"residential","maxspeed":"30","vertex1":551,"vertex2":405}},{"type":"Feature","geometry":{"type":"LineString","coordinates":[[3.691318,51.05854],[3.69248,51.05898],[3.692516,51.05899]]},"properties":{"name":"Nimfenstraat","highway":"residential","maxspeed":"30","vertex1":551,"vertex2":15298}},{"type":"Feature","geometry":{"type":"LineString","coordinates":[[3.691508,51.05831],[3.691621,51.05817],[3.69233,51.05776],[3.692406,51.05774]]},"properties":{"name":"Nekkersputstraat","oneway":"yes","oneway:bicycle":"no","highway":"residential","maxspeed":"30","vertex1":15264,"vertex2":15260}},{"type":"Feature","geometry":{"type":"LineString","coordinates":[[3.689909,51.05699],[3.689814,51.05693]]},"properties":{"highway":"path","vertex1":550,"vertex2":449}},{"type":"Feature","geometry":{"type":"LineString","coordinates":[[3.689909,51.05699],[3.689682,51.05712],[3.689396,51.05725],[3.688644,51.05766],[3.688457,51.05776],[3.688226,51.05782],[3.688049,51.05784],[3.687868,51.05784],[3.687568,51.05779],[3.687381,51.0577],[3.687231,51.0576]]},"properties":{"motorcar":"no","highway":"track","vertex1":550,"vertex2":520}},{"type":"Feature","geometry":{"type":"LineString","coordinates":[[3.689909,51.05699],[3.690209,51.0568],[3.690325,51.05667],[3.690398,51.05652],[3.69036,51.05631],[3.69028,51.0561],[3.690325,51.05569]]},"properties":{"motorcar":"no","highway":"track","vertex1":550,"vertex2":464}},{"type":"Feature","geometry":{"type":"LineString","coordinates":[[3.688126,51.05818],[3.688349,51.05814],[3.688532,51.05809],[3.689115,51.05782]]},"properties":{"name":"Kraaidam","highway":"residential","maxspeed":"30","vertex1":549,"vertex2":489}},{"type":"Feature","geometry":{"type":"LineString","coordinates":[[3.688126,51.05818],[3.68828,51.05831],[3.688435,51.05837],[3.688644,51.05841],[3.688769,51.05845],[3.688853,51.0585],[3.688988,51.05869],[3.689059,51.05873],[3.689159,51.05876],[3.689856,51.05888]]},"properties":{"name":"Mahatma Gandhistraat","highway":"residential","maxspeed":"30","vertex1":549,"vertex2":445}},{"type":"Feature","geometry":{"type":"LineString","coordinates":[[3.688126,51.05818],[3.688015,51.05815],[3.687594,51.05808],[3.686791,51.0578],[3.686671,51.05778]]},"properties":{"name":"Mahatma Gandhistraat","highway":"residential","maxspeed":"30","vertex1":549,"vertex2":473}},{"type":"Feature","geometry":{"type":"LineString","coordinates":[[3.69114,51.05558],[3.692223,51.05574]]},"properties":{"name":"Drongensesteenweg","oneway":"yes","highway":"primary","maxspeed":"50","vertex1":548,"vertex2":15129}},{"type":"Feature","geometry":{"type":"LineString","coordinates":[[3.69114,51.05558],[3.69061,51.0555]]},"properties":{"bridge":"yes","name":"Drongensesteenweg","oneway":"yes","highway":"primary","maxspeed":"50","cycleway":"lane","vertex1":548,"vertex2":509}},{"type":"Feature","geometry":{"type":"LineString","coordinates":[[3.68975,51.05758],[3.689356,51.0577],[3.689115,51.05782]]},"properties":{"name":"Kraaidam","highway":"residential","maxspeed":"30","vertex1":547,"vertex2":489}},{"type":"Feature","geometry":{"type":"LineString","coordinates":[[3.688324,51.05535],[3.688251,51.05541]]},"properties":{"highway":"service","vertex1":544,"vertex2":542}},{"type":"Feature","geometry":{"type":"LineString","coordinates":[[3.688324,51.05535],[3.688972,51.05542],[3.689169,51.05543]]},"properties":{"name":"Drongensesteenweg","oneway":"yes","highway":"primary","maxspeed":"70","bicycle":"no","vertex1":544,"vertex2":486}},{"type":"Feature","geometry":{"type":"LineString","coordinates":[[3.688324,51.05535],[3.68757,51.05525],[3.684727,51.05488]]},"properties":{"name":"Drongensesteenweg","oneway":"yes","highway":"primary","maxspeed":"70","bicycle":"no","vertex1":544,"vertex2":487}},{"type":"Feature","geometry":{"type":"LineString","coordinates":[[3.684727,51.05488],[3.684722,51.05495]]},"properties":{"highway":"service","vertex1":487,"vertex2":545}},{"type":"Feature","geometry":{"type":"LineString","coordinates":[[3.688251,51.05541],[3.688039,51.05558],[3.68761,51.05591]]},"properties":{"highway":"service","vertex1":542,"vertex2":540}},{"type":"Feature","geometry":{"type":"LineString","coordinates":[[3.688251,51.05541],[3.688252,51.05541],[3.688668,51.05545],[3.688997,51.05549],[3.689144,51.0555]]},"properties":{"oneway":"yes","highway":"cycleway","vertex1":542,"vertex2":488}},{"type":"Feature","geometry":{"type":"LineString","coordinates":[[3.688251,51.05541],[3.688173,51.0554],[3.68809,51.05539],[3.687806,51.05536],[3.68725,51.05528],[3.687002,51.05525],[3.68648,51.05518],[3.685632,51.05507],[3.68505,51.05499],[3.684722,51.05495]]},"properties":{"oneway":"yes","highway":"cycleway","vertex1":542,"vertex2":545}},{"type":"Feature","geometry":{"type":"LineString","coordinates":[[3.684722,51.05495],[3.68468,51.05547]]},"properties":{"highway":"service","vertex1":545,"vertex2":459}},{"type":"Feature","geometry":{"type":"LineString","coordinates":[[3.687807,51.05746],[3.687794,51.05745]]},"properties":{"highway":"footway","vertex1":538,"vertex2":518}},{"type":"Feature","geometry":{"type":"LineString","coordinates":[[3.681576,51.05606],[3.680622,51.05619],[3.680498,51.05622],[3.680195,51.05639],[3.680067,51.05655],[3.680433,51.05785]]},"properties":{"highway":"service","vertex1":536,"vertex2":465}},{"type":"Feature","geometry":{"type":"LineString","coordinates":[[3.681576,51.05606],[3.681902,51.05499],[3.682036,51.05492],[3.684072,51.05519],[3.684125,51.05537],[3.684114,51.0554]]},"properties":{"highway":"service","vertex1":536,"vertex2":437}},{"type":"Feature","geometry":{"type":"LineString","coordinates":[[3.687699,51.05724],[3.68768,51.05722]]},"properties":{"highway":"path","vertex1":534,"vertex2":532}},{"type":"Feature","geometry":{"type":"LineString","coordinates":[[3.687699,51.05724],[3.687725,51.05727]]},"properties":{"bridge":"yes","highway":"path","vertex1":534,"vertex2":516}},{"type":"Feature","geometry":{"type":"LineString","coordinates":[[3.68768,51.05722],[3.687598,51.05715],[3.687539,51.05709],[3.687517,51.05706]]},"properties":{"highway":"path","vertex1":532,"vertex2":530}},{"type":"Feature","geometry":{"type":"LineString","coordinates":[[3.68768,51.05722],[3.687742,51.0572],[3.687818,51.05718],[3.687871,51.05716],[3.687938,51.05714],[3.687984,51.05711],[3.688024,51.05708],[3.688058,51.05706],[3.688275,51.05696],[3.688521,51.05685]]},"properties":{"highway":"path","vertex1":532,"vertex2":510}},{"type":"Feature","geometry":{"type":"LineString","coordinates":[[3.687517,51.05706],[3.68749,51.05704]]},"properties":{"bridge":"yes","highway":"path","vertex1":530,"vertex2":514}},{"type":"Feature","geometry":{"type":"LineString","coordinates":[[3.684577,51.05798],[3.68458,51.05806],[3.684572,51.05857],[3.684589,51.05945],[3.684475,51.05997],[3.684341,51.06039],[3.684287,51.06082],[3.684112,51.0621],[3.684108,51.06255],[3.684168,51.06299],[3.684429,51.06368],[3.684503,51.06388]]},"properties":{"name":"Bourgoyendreef","highway":"track","vertex1":529,"vertex2":410}},{"type":"Feature","geometry":{"type":"LineString","coordinates":[[3.684577,51.05798],[3.684572,51.05793]]},"properties":{"name":"Bourgoyendreef","bridge":"yes","highway":"track","vertex1":529,"vertex2":452}},{"type":"Feature","geometry":{"type":"LineString","coordinates":[[3.689187,51.05536],[3.688233,51.05522],[3.682287,51.05445]]},"properties":{"highway":"footway","vertex1":528,"vertex2":572}},{"type":"Feature","geometry":{"type":"LineString","coordinates":[[3.689187,51.05536],[3.689169,51.05543]]},"properties":{"highway":"footway","vertex1":528,"vertex2":486}},{"type":"Feature","geometry":{"type":"LineString","coordinates":[[3.689187,51.05536],[3.689217,51.05526]]},"properties":{"highway":"footway","vertex1":528,"vertex2":484}},{"type":"Feature","geometry":{"type":"LineString","coordinates":[[3.68631,51.05699],[3.68628,51.057],[3.686186,51.05708]]},"properties":{"highway":"path","vertex1":524,"vertex2":450}},{"type":"Feature","geometry":{"type":"LineString","coordinates":[[3.68631,51.05699],[3.686436,51.05696]]},"properties":{"highway":"path","vertex1":524,"vertex2":506}},{"type":"Feature","geometry":{"type":"LineString","coordinates":[[3.68631,51.05699],[3.686067,51.05679]]},"properties":{"highway":"path","vertex1":524,"vertex2":492}},{"type":"Feature","geometry":{"type":"LineString","coordinates":[[3.686828,51.05753],[3.68684,51.05751],[3.686857,51.0575],[3.686908,51.05749],[3.686986,51.05748],[3.687093,51.05751],[3.687231,51.0576]]},"properties":{"motorcar":"no","highway":"track","vertex1":522,"vertex2":520}},{"type":"Feature","geometry":{"type":"LineString","coordinates":[[3.686828,51.05753],[3.686721,51.05772]]},"properties":{"bridge":"yes","highway":"track","vertex1":522,"vertex2":517}},{"type":"Feature","geometry":{"type":"LineString","coordinates":[[3.688657,51.05703],[3.688599,51.05704]]},"properties":{"highway":"path","vertex1":521,"vertex2":481}},{"type":"Feature","geometry":{"type":"LineString","coordinates":[[3.688657,51.05703],[3.68933,51.05684]]},"properties":{"highway":"path","vertex1":521,"vertex2":507}},{"type":"Feature","geometry":{"type":"LineString","coordinates":[[3.688657,51.05703],[3.688639,51.05701]]},"properties":{"highway":"path","vertex1":521,"vertex2":508}},{"type":"Feature","geometry":{"type":"LineString","coordinates":[[3.687231,51.0576],[3.687294,51.05758],[3.687447,51.05754],[3.687584,51.05751],[3.687794,51.05745]]},"properties":{"highway":"path","vertex1":520,"vertex2":518}},{"type":"Feature","geometry":{"type":"LineString","coordinates":[[3.689659,51.05534],[3.689607,51.05547]]},"properties":{"highway":"primary_link","vertex1":519,"vertex2":435}},{"type":"Feature","geometry":{"type":"LineString","coordinates":[[3.689659,51.05534],[3.689673,51.0553]]},"properties":{"name":"Nadine CrappÃ©straat","highway":"residential","vertex1":519,"vertex2":438}},{"type":"Feature","geometry":{"type":"LineString","coordinates":[[3.689659,51.05534],[3.689257,51.05527],[3.689217,51.05526]]},"properties":{"name":"Drongensesteenweg","oneway":"yes","highway":"primary","maxspeed":"70","bicycle":"no","vertex1":519,"vertex2":484}},{"type":"Feature","geometry":{"type":"LineString","coordinates":[[3.687794,51.05745],[3.687828,51.05742],[3.687811,51.05738],[3.687783,51.05735],[3.687748,51.05729]]},"properties":{"highway":"path","vertex1":518,"vertex2":485}},{"type":"Feature","geometry":{"type":"LineString","coordinates":[[3.686721,51.05772],[3.686671,51.05778]]},"properties":{"highway":"track","vertex1":517,"vertex2":473}},{"type":"Feature","geometry":{"type":"LineString","coordinates":[[3.687725,51.05727],[3.687748,51.05729]]},"properties":{"highway":"path","vertex1":516,"vertex2":485}},{"type":"Feature","geometry":{"type":"LineString","coordinates":[[3.684569,51.0579],[3.684572,51.05793]]},"properties":{"name":"Bourgoyendreef","highway":"track","vertex1":515,"vertex2":452}},{"type":"Feature","geometry":{"type":"LineString","coordinates":[[3.684569,51.0579],[3.684369,51.05788],[3.683265,51.05802],[3.682935,51.05814],[3.682558,51.05825],[3.68227,51.05833],[3.682126,51.05838],[3.681764,51.05848],[3.681557,51.05856],[3.681329,51.05865],[3.681081,51.05867],[3.680875,51.05868],[3.680384,51.05864],[3.67976,51.05852],[3.679497,51.05843],[3.679164,51.05838],[3.678842,51.05838],[3.678513,51.05838],[3.678322,51.05837],[3.678197,51.05835],[3.678094,51.05824],[3.677919,51.05779],[3.677803,51.05772],[3.677526,51.0577],[3.677368,51.05772],[3.676418,51.05794],[3.675524,51.05828],[3.675342,51.05832],[3.674832,51.0583],[3.674505,51.05822]]},"properties":{"name":"Bunderweg","bicycle":"no","highway":"path","vertex1":515,"vertex2":362}},{"type":"Feature","geometry":{"type":"LineString","coordinates":[[3.68749,51.05704],[3.687458,51.057]]},"properties":{"highway":"path","vertex1":514,"vertex2":439}},{"type":"Feature","geometry":{"type":"LineString","coordinates":[[3.689527,51.05552],[3.689709,51.05553],[3.690123,51.05558]]},"properties":{"oneway":"yes","highway":"cycleway","vertex1":513,"vertex2":444}},{"type":"Feature","geometry":{"type":"LineString","coordinates":[[3.689527,51.05552],[3.689283,51.05551],[3.689144,51.0555]]},"properties":{"oneway":"yes","highway":"cycleway","vertex1":513,"vertex2":488}},{"type":"Feature","geometry":{"type":"LineString","coordinates":[[3.689527,51.05552],[3.689607,51.05547]]},"properties":{"highway":"cycleway","vertex1":513,"vertex2":435}},{"type":"Feature","geometry":{"type":"LineString","coordinates":[[3.68874,51.05723],[3.688722,51.05721]]},"properties":{"bridge":"yes","highway":"path","vertex1":512,"vertex2":505}},{"type":"Feature","geometry":{"type":"LineString","coordinates":[[3.690163,51.05553],[3.690123,51.05558]]},"properties":{"highway":"service","vertex1":511,"vertex2":444}},{"type":"Feature","geometry":{"type":"LineString","coordinates":[[3.690163,51.05553],[3.690295,51.05555]]},"properties":{"name":"Drongensesteenweg","oneway":"yes","highway":"primary","maxspeed":"70","bicycle":"no","vertex1":511,"vertex2":467}},{"type":"Feature","geometry":{"type":"LineString","coordinates":[[3.690163,51.05553],[3.689607,51.05547]]},"properties":{"name":"Drongensesteenweg","oneway":"yes","highway":"primary","maxspeed":"70","bicycle":"no","vertex1":511,"vertex2":435}},{"type":"Feature","geometry":{"type":"LineString","coordinates":[[3.688521,51.05685],[3.688624,51.05698]]},"properties":{"highway":"path","vertex1":510,"vertex2":498}},{"type":"Feature","geometry":{"type":"LineString","coordinates":[[3.688639,51.05701],[3.688624,51.05698]]},"properties":{"bridge":"yes","highway":"footway","vertex1":508,"vertex2":498}},{"type":"Feature","geometry":{"type":"LineString","coordinates":[[3.68933,51.05684],[3.689451,51.05681],[3.68951,51.05683],[3.689595,51.05686],[3.689728,51.05687],[3.689814,51.05693]]},"properties":{"highway":"path","vertex1":507,"vertex2":449}},{"type":"Feature","geometry":{"type":"LineString","coordinates":[[3.686436,51.05696],[3.686575,51.05696]]},"properties":{"highway":"path","vertex1":506,"vertex2":504}},{"type":"Feature","geometry":{"type":"LineString","coordinates":[[3.686436,51.05696],[3.686508,51.05664]]},"properties":{"highway":"path","vertex1":506,"vertex2":490}},{"type":"Feature","geometry":{"type":"LineString","coordinates":[[3.688722,51.05721],[3.688599,51.05704]]},"properties":{"highway":"path","vertex1":505,"vertex2":481}},{"type":"Feature","geometry":{"type":"LineString","coordinates":[[3.686575,51.05696],[3.686602,51.05696],[3.686732,51.057]]},"properties":{"highway":"path","vertex1":504,"vertex2":502}},{"type":"Feature","geometry":{"type":"LineString","coordinates":[[3.686575,51.05696],[3.686771,51.05666]]},"properties":{"highway":"path","vertex1":504,"vertex2":470}},{"type":"Feature","geometry":{"type":"LineString","coordinates":[[3.688117,51.05679],[3.688168,51.05678],[3.688331,51.05671],[3.689678,51.05632],[3.689767,51.05627],[3.689797,51.05617],[3.689741,51.05603]]},"properties":{"highway":"service","vertex1":503,"vertex2":480}},{"type":"Feature","geometry":{"type":"LineString","coordinates":[[3.688117,51.05679],[3.687772,51.0569],[3.687458,51.057]]},"properties":{"highway":"service","vertex1":503,"vertex2":439}},{"type":"Feature","geometry":{"type":"LineString","coordinates":[[3.688117,51.05679],[3.687672,51.05655],[3.687207,51.05631],[3.686938,51.05617],[3.686689,51.05605],[3.686633,51.05608],[3.68633,51.05636],[3.686067,51.05659],[3.685881,51.05676],[3.685791,51.05684],[3.686008,51.05698],[3.686186,51.05708]]},"properties":{"highway":"footway","vertex1":503,"vertex2":450}},{"type":"Feature","geometry":{"type":"LineString","coordinates":[[3.686732,51.057],[3.686788,51.05706],[3.686803,51.05707]]},"properties":{"highway":"path","vertex1":502,"vertex2":500}},{"type":"Feature","geometry":{"type":"LineString","coordinates":[[3.686732,51.057],[3.687029,51.05673]]},"properties":{"highway":"path","vertex1":502,"vertex2":460}},{"type":"Feature","geometry":{"type":"LineString","coordinates":[[3.686803,51.05707],[3.687231,51.05683]]},"properties":{"highway":"path","vertex1":500,"vertex2":456}},{"type":"Feature","geometry":{"type":"LineString","coordinates":[[3.685704,51.05894],[3.68587,51.05901],[3.686042,51.05906],[3.686111,51.05925],[3.686143,51.05939],[3.686326,51.05949],[3.686487,51.05959],[3.68646,51.05977],[3.686332,51.05994],[3.686337,51.06005],[3.686347,51.0601]]},"properties":{"highway":"track","vertex1":496,"vertex2":429}},{"type":"Feature","geometry":{"type":"LineString","coordinates":[[3.683892,51.05602],[3.684114,51.0554]]},"properties":{"highway":"service","vertex1":495,"vertex2":437}},{"type":"Feature","geometry":{"type":"LineString","coordinates":[[3.688294,51.05634],[3.688518,51.05618],[3.689741,51.05603]]},"properties":{"highway":"service","vertex1":494,"vertex2":480}},{"type":"Feature","geometry":{"type":"LineString","coordinates":[[3.686067,51.05679],[3.686078,51.05674],[3.686067,51.05673]]},"properties":{"highway":"path","vertex1":492,"vertex2":448}},{"type":"Feature","geometry":{"type":"LineString","coordinates":[[3.690352,51.05818],[3.690026,51.0581],[3.689677,51.05814],[3.689487,51.05808],[3.689115,51.05782]]},"properties":{"name":"Jozef De Veusterstraat","highway":"residential","maxspeed":"30","vertex1":491,"vertex2":489}},{"type":"Feature","geometry":{"type":"LineString","coordinates":[[3.690352,51.05818],[3.690056,51.05849],[3.689856,51.05888]]},"properties":{"name":"Albert Schweitzerstraat","highway":"residential","maxspeed":"30","vertex1":491,"vertex2":445}},{"type":"Feature","geometry":{"type":"LineString","coordinates":[[3.686508,51.05664],[3.686555,51.05644],[3.686581,51.05638],[3.686608,51.05633]]},"properties":{"highway":"path","vertex1":490,"vertex2":474}},{"type":"Feature","geometry":{"type":"LineString","coordinates":[[3.686508,51.05664],[3.686265,51.05669],[3.686067,51.05673]]},"properties":{"highway":"path","vertex1":490,"vertex2":448}},{"type":"Feature","geometry":{"type":"LineString","coordinates":[[3.686508,51.05664],[3.686634,51.05664],[3.686771,51.05666]]},"properties":{"highway":"path","vertex1":490,"vertex2":470}},{"type":"Feature","geometry":{"type":"LineString","coordinates":[[3.689144,51.0555],[3.689169,51.05543]]},"properties":{"highway":"footway","vertex1":488,"vertex2":486}},{"type":"Feature","geometry":{"type":"LineString","coordinates":[[3.689169,51.05543],[3.689607,51.05547]]},"properties":{"name":"Drongensesteenweg","oneway":"yes","highway":"primary","maxspeed":"70","bicycle":"no","vertex1":486,"vertex2":435}},{"type":"Feature","geometry":{"type":"LineString","coordinates":[[3.687748,51.05729],[3.688599,51.05704]]},"properties":{"highway":"path","vertex1":485,"vertex2":481}},{"type":"Feature","geometry":{"type":"LineString","coordinates":[[3.689217,51.05526],[3.68923,51.05522]]},"properties":{"highway":"footway","vertex1":484,"vertex2":482}},{"type":"Feature","geometry":{"type":"LineString","coordinates":[[3.689217,51.05526],[3.687642,51.05505],[3.682493,51.05437]]},"properties":{"name":"Drongensesteenweg","oneway":"yes","highway":"primary","maxspeed":"70","bicycle":"no","vertex1":484,"vertex2":497}},{"type":"Feature","geometry":{"type":"LineString","coordinates":[[3.682493,51.05437],[3.68252,51.05431]]},"properties":{"name":"Halfweg","highway":"residential","vertex1":497,"vertex2":565}},{"type":"Feature","geometry":{"type":"LineString","coordinates":[[3.68923,51.05522],[3.687279,51.05495],[3.68714,51.05492],[3.686212,51.05479],[3.685692,51.05473],[3.684104,51.05452],[3.68252,51.05431]]},"properties":{"name":"Drongensesteenweg","oneway":"yes","highway":"cycleway","vertex1":482,"vertex2":565}},{"type":"Feature","geometry":{"type":"LineString","coordinates":[[3.68923,51.05522],[3.689673,51.0553]]},"properties":{"name":"Drongensesteenweg","oneway":"yes","highway":"cycleway","vertex1":482,"vertex2":438}},{"type":"Feature","geometry":{"type":"LineString","coordinates":[[3.689741,51.05603],[3.690123,51.05558]]},"properties":{"highway":"service","vertex1":480,"vertex2":444}},{"type":"Feature","geometry":{"type":"LineString","coordinates":[[3.687328,51.05692],[3.687231,51.05683]]},"properties":{"highway":"path","vertex1":472,"vertex2":456}},{"type":"Feature","geometry":{"type":"LineString","coordinates":[[3.686771,51.05666],[3.687018,51.05628]]},"properties":{"highway":"path","vertex1":470,"vertex2":468}},{"type":"Feature","geometry":{"type":"LineString","coordinates":[[3.686771,51.05666],[3.686913,51.0567],[3.687029,51.05673]]},"properties":{"highway":"path","vertex1":470,"vertex2":460}},{"type":"Feature","geometry":{"type":"LineString","coordinates":[[3.690295,51.05555],[3.690325,51.05569]]},"properties":{"motorcar":"no","highway":"track","vertex1":467,"vertex2":464}},{"type":"Feature","geometry":{"type":"LineString","coordinates":[[3.690295,51.05555],[3.690123,51.05558]]},"properties":{"oneway":"yes","highway":"cycleway","vertex1":467,"vertex2":444}},{"type":"Feature","geometry":{"type":"LineString","coordinates":[[3.686037,51.05671],[3.686067,51.05673]]},"properties":{"highway":"path","vertex1":466,"vertex2":448}},{"type":"Feature","geometry":{"type":"LineString","coordinates":[[3.680433,51.05785],[3.680256,51.05775],[3.679963,51.05674]]},"properties":{"highway":"service","vertex1":465,"vertex2":368}},{"type":"Feature","geometry":{"type":"LineString","coordinates":[[3.690945,51.0562],[3.69187,51.05652]]},"properties":{"name":"Koningsdal","highway":"residential","maxspeed":"30","vertex1":462,"vertex2":15254}},{"type":"Feature","geometry":{"type":"LineString","coordinates":[[3.687029,51.05673],[3.68733,51.05645]]},"properties":{"highway":"path","vertex1":460,"vertex2":458}},{"type":"Feature","geometry":{"type":"LineString","coordinates":[[3.687029,51.05673],[3.687145,51.05677],[3.687231,51.05683]]},"properties":{"highway":"path","vertex1":460,"vertex2":456}},{"type":"Feature","geometry":{"type":"LineString","coordinates":[[3.68468,51.05547],[3.684114,51.0554]]},"properties":{"highway":"service","vertex1":459,"vertex2":437}},{"type":"Feature","geometry":{"type":"LineString","coordinates":[[3.687231,51.05683],[3.687627,51.05661]]},"properties":{"highway":"path","vertex1":456,"vertex2":454}},{"type":"Feature","geometry":{"type":"LineString","coordinates":[[3.69124,51.05738],[3.691929,51.0576],[3.69231,51.05761],[3.692406,51.05774]]},"properties":{"bicycle":"no","motorcar":"no","foot":"no","highway":"service","vertex1":446,"vertex2":15260}},{"type":"Feature","geometry":{"type":"LineString","coordinates":[[3.689856,51.05888],[3.689888,51.05935],[3.689657,51.05968]]},"properties":{"highway":"service","vertex1":445,"vertex2":399}},{"type":"Feature","geometry":{"type":"LineString","coordinates":[[3.690916,51.05522],[3.690615,51.05507],[3.689808,51.05495]]},"properties":{"name":"Berthe Springaelstraat","highway":"residential","vertex1":442,"vertex2":440}},{"type":"Feature","geometry":{"type":"LineString","coordinates":[[3.689808,51.05495],[3.689673,51.0553]]},"properties":{"name":"Nadine CrappÃ©straat","highway":"residential","vertex1":440,"vertex2":438}},{"type":"Feature","geometry":{"type":"LineString","coordinates":[[3.688565,51.06191],[3.689595,51.06231]]},"properties":{"bicycle":"no","motorcar":"no","foot":"no","highway":"track","vertex1":432,"vertex2":417}},{"type":"Feature","geometry":{"type":"LineString","coordinates":[[3.690366,51.05903],[3.691019,51.05902]]},"properties":{"name":"Nekkersputstraat","highway":"residential","maxspeed":"30","vertex1":431,"vertex2":405}},{"type":"Feature","geometry":{"type":"LineString","coordinates":[[3.685402,51.06365],[3.685579,51.06403],[3.685815,51.0644],[3.686191,51.06477],[3.686448,51.06511]]},"properties":{"name":"Bourgoyendreef","highway":"path","vertex1":430,"vertex2":20783}},{"type":"Feature","geometry":{"type":"LineString","coordinates":[[3.685402,51.06365],[3.685225,51.06371],[3.685278,51.06378],[3.685406,51.064],[3.685438,51.06408],[3.685358,51.06411],[3.685331,51.06417],[3.685503,51.06439],[3.685623,51.06461],[3.685623,51.06465],[3.685508,51.06472],[3.685526,51.06482],[3.685415,51.06489]]},"properties":{"highway":"footway","vertex1":430,"vertex2":20781}},{"type":"Feature","geometry":{"type":"LineString","coordinates":[[3.686347,51.0601],[3.686978,51.06036]]},"properties":{"highway":"service","vertex1":429,"vertex2":411}},{"type":"Feature","geometry":{"type":"LineString","coordinates":[[3.690946,51.06367],[3.689086,51.0629]]},"properties":{"name":"Perzikstraat","highway":"residential","maxspeed":"30","vertex1":428,"vertex2":426}},{"type":"Feature","geometry":{"type":"LineString","coordinates":[[3.690946,51.06367],[3.691077,51.06359],[3.691228,51.06334]]},"properties":{"name":"Peerstraat","oneway":"yes","oneway:bicycle":"no","highway":"residential","maxspeed":"30","vertex1":428,"vertex2":402}},{"type":"Feature","geometry":{"type":"LineString","coordinates":[[3.690946,51.06367],[3.690432,51.06432],[3.690216,51.06458]]},"properties":{"name":"Peerstraat","oneway":"yes","oneway:bicycle":"no","highway":"residential","maxspeed":"30","vertex1":428,"vertex2":20673}},{"type":"Feature","geometry":{"type":"LineString","coordinates":[[3.689662,51.06433],[3.690216,51.06458]]},"properties":{"name":"Isegrimstraat","highway":"residential","maxspeed":"30","vertex1":427,"vertex2":20673}},{"type":"Feature","geometry":{"type":"LineString","coordinates":[[3.689662,51.06433],[3.689027,51.06402]]},"properties":{"name":"Isegrimstraat","highway":"residential","maxspeed":"30","vertex1":427,"vertex2":403}},{"type":"Feature","geometry":{"type":"LineString","coordinates":[[3.689662,51.06433],[3.689487,51.06445],[3.689396,51.06457],[3.689331,51.06469],[3.689296,51.06476],[3.68928,51.06483],[3.689263,51.06493],[3.689267,51.06501],[3.689308,51.06514],[3.689326,51.06521],[3.689329,51.06526]]},"properties":{"name":"Cantecleerstraat","oneway":"yes","oneway:bicycle":"no","highway":"residential","maxspeed":"30","vertex1":427,"vertex2":20710}},{"type":"Feature","geometry":{"type":"LineString","coordinates":[[3.689086,51.0629],[3.688399,51.06369]]},"properties":{"name":"Nekkersputstraat","oneway":"yes","oneway:bicycle":"no","highway":"residential","maxspeed":"30","vertex1":426,"vertex2":425}},{"type":"Feature","geometry":{"type":"LineString","coordinates":[[3.689086,51.0629],[3.689341,51.0626]]},"properties":{"name":"Nekkersputstraat","oneway":"yes","oneway:bicycle":"no","highway":"residential","maxspeed":"30","vertex1":426,"vertex2":419}},{"type":"Feature","geometry":{"type":"LineString","coordinates":[[3.688399,51.06369],[3.689027,51.06402]]},"properties":{"name":"Isegrimstraat","highway":"residential","maxspeed":"30","vertex1":425,"vertex2":403}},{"type":"Feature","geometry":{"type":"LineString","coordinates":[[3.688399,51.06369],[3.687772,51.0634]]},"properties":{"name":"Noormanstraat","highway":"residential","maxspeed":"30","vertex1":425,"vertex2":409}},{"type":"Feature","geometry":{"type":"LineString","coordinates":[[3.688399,51.06369],[3.687986,51.06415],[3.6879,51.06428],[3.687838,51.0644]]},"properties":{"name":"Lucienne Herman-Michielsensstraat","oneway":"yes","oneway:bicycle":"no","highway":"residential","maxspeed":"30","vertex1":425,"vertex2":421}},{"type":"Feature","geometry":{"type":"LineString","coordinates":[[3.68608,51.06258],[3.686154,51.06261]]},"properties":{"name":"Noormanstraat","highway":"residential","maxspeed":"30","vertex1":424,"vertex2":422}},{"type":"Feature","geometry":{"type":"LineString","coordinates":[[3.685645,51.06289],[3.685667,51.06291]]},"properties":{"highway":"cycleway","vertex1":423,"vertex2":404}},{"type":"Feature","geometry":{"type":"LineString","coordinates":[[3.685645,51.06289],[3.685568,51.06281]]},"properties":{"bridge":"yes","highway":"cycleway","vertex1":423,"vertex2":406}},{"type":"Feature","geometry":{"type":"LineString","coordinates":[[3.686154,51.06261],[3.686247,51.06266],[3.686461,51.06277],[3.686911,51.063],[3.68733,51.0632],[3.687772,51.0634]]},"properties":{"name":"Noormanstraat","highway":"residential","maxspeed":"30","vertex1":422,"vertex2":409}},{"type":"Feature","geometry":{"type":"LineString","coordinates":[[3.686154,51.06261],[3.686352,51.06246],[3.687926,51.06322],[3.687851,51.06329]]},"properties":{"highway":"footway","vertex1":422,"vertex2":412}},{"type":"Feature","geometry":{"type":"LineString","coordinates":[[3.687838,51.0644],[3.687814,51.06447]]},"properties":{"name":"Lucienne Herman-Michielsensstraat","oneway":"yes","oneway:bicycle":"no","highway":"residential","maxspeed":"30","vertex1":421,"vertex2":20735}},{"type":"Feature","geometry":{"type":"LineString","coordinates":[[3.687838,51.0644],[3.687778,51.06438],[3.687624,51.06433],[3.687246,51.06423],[3.687017,51.06417],[3.686953,51.06419],[3.686832,51.06424],[3.686733,51.06429],[3.686629,51.06437],[3.686504,51.06447]]},"properties":{"highway":"path","vertex1":421,"vertex2":20693}},{"type":"Feature","geometry":{"type":"LineString","coordinates":[[3.690186,51.06251],[3.690301,51.06248],[3.690422,51.0625],[3.690508,51.06255],[3.690558,51.06261],[3.690529,51.06268],[3.690442,51.06271],[3.690311,51.06271],[3.690222,51.06269],[3.690159,51.06262]]},"properties":{"bicycle":"no","motorcar":"no","foot":"no","highway":"service","vertex1":420,"vertex2":418}},{"type":"Feature","geometry":{"type":"LineString","coordinates":[[3.690186,51.06251],[3.690145,51.06254]]},"properties":{"bicycle":"no","motorcar":"no","foot":"no","highway":"service","vertex1":420,"vertex2":416}},{"type":"Feature","geometry":{"type":"LineString","coordinates":[[3.689341,51.0626],[3.688821,51.0624],[3.688847,51.06233],[3.68837,51.06215],[3.688254,51.06213],[3.687879,51.06199]]},"properties":{"highway":"service","vertex1":419,"vertex2":400}},{"type":"Feature","geometry":{"type":"LineString","coordinates":[[3.689341,51.0626],[3.689562,51.06234]]},"properties":{"name":"Nekkersputstraat","oneway":"yes","oneway:bicycle":"no","highway":"residential","maxspeed":"30","vertex1":419,"vertex2":414}},{"type":"Feature","geometry":{"type":"LineString","coordinates":[[3.690159,51.06262],[3.690145,51.06254]]},"properties":{"bicycle":"no","motorcar":"no","foot":"no","highway":"service","vertex1":418,"vertex2":416}},{"type":"Feature","geometry":{"type":"LineString","coordinates":[[3.689595,51.06231],[3.689562,51.06234]]},"properties":{"name":"Nekkersputstraat","oneway":"yes","oneway:bicycle":"no","highway":"residential","maxspeed":"30","vertex1":417,"vertex2":414}},{"type":"Feature","geometry":{"type":"LineString","coordinates":[[3.689595,51.06231],[3.690158,51.06163]]},"properties":{"name":"Nekkersputstraat","oneway":"yes","oneway:bicycle":"no","highway":"residential","maxspeed":"30","vertex1":417,"vertex2":401}},{"type":"Feature","geometry":{"type":"LineString","coordinates":[[3.690145,51.06254],[3.689562,51.06234]]},"properties":{"bicycle":"no","motorcar":"no","foot":"no","highway":"service","vertex1":416,"vertex2":414}},{"type":"Feature","geometry":{"type":"LineString","coordinates":[[3.690194,51.06158],[3.690158,51.06163]]},"properties":{"name":"Nekkersputstraat","highway":"residential","maxspeed":"30","vertex1":415,"vertex2":401}},{"type":"Feature","geometry":{"type":"LineString","coordinates":[[3.690194,51.06158],[3.690562,51.06102],[3.690991,51.05989],[3.691063,51.0596],[3.691019,51.05902]]},"properties":{"name":"Nekkersputstraat","highway":"residential","maxspeed":"30","vertex1":415,"vertex2":405}},{"type":"Feature","geometry":{"type":"LineString","coordinates":[[3.690194,51.06158],[3.688287,51.06089],[3.687698,51.06068]]},"properties":{"name":"Papiermolenstraat","highway":"residential","maxspeed":"30","vertex1":415,"vertex2":413}},{"type":"Feature","geometry":{"type":"LineString","coordinates":[[3.687698,51.06068],[3.686978,51.06036]]},"properties":{"highway":"service","vertex1":413,"vertex2":411}},{"type":"Feature","geometry":{"type":"LineString","coordinates":[[3.687851,51.06329],[3.687772,51.0634]]},"properties":{"highway":"footway","vertex1":412,"vertex2":409}},{"type":"Feature","geometry":{"type":"LineString","coordinates":[[3.686978,51.06036],[3.686246,51.06128]]},"properties":{"highway":"service","vertex1":411,"vertex2":407}},{"type":"Feature","geometry":{"type":"LineString","coordinates":[[3.684503,51.06388],[3.684583,51.06399]]},"properties":{"name":"Bourgoyendreef","bridge":"yes","highway":"track","vertex1":410,"vertex2":408}},{"type":"Feature","geometry":{"type":"LineString","coordinates":[[3.684583,51.06399],[3.684891,51.06439],[3.685415,51.06489]]},"properties":{"name":"Bourgoyendreef","highway":"track","vertex1":408,"vertex2":20781}},{"type":"Feature","geometry":{"type":"LineString","coordinates":[[3.685667,51.06291],[3.685862,51.06335],[3.685978,51.06366],[3.685988,51.06369],[3.686143,51.06398],[3.686688,51.06484],[3.686859,51.06504],[3.686975,51.06516],[3.687027,51.0652],[3.687162,51.06533],[3.687198,51.06544],[3.68715,51.06568]]},"properties":{"highway":"cycleway","vertex1":404,"vertex2":20685}},{"type":"Feature","geometry":{"type":"LineString","coordinates":[[3.685667,51.06291],[3.685719,51.06291],[3.685776,51.06298],[3.685813,51.06315],[3.685852,51.06328],[3.685922,51.06343],[3.685974,51.06359],[3.686056,51.06374],[3.686167,51.06391],[3.686365,51.06424],[3.686504,51.06447]]},"properties":{"highway":"path","vertex1":404,"vertex2":20693}},{"type":"Feature","geometry":{"type":"LineString","coordinates":[[3.689027,51.06402],[3.688783,51.06424],[3.688671,51.06439],[3.688575,51.06455],[3.688529,51.06468],[3.688507,51.06477],[3.688492,51.06488],[3.688495,51.06498],[3.688499,51.06507],[3.68852,51.06518],[3.688556,51.06528],[3.68862,51.06543],[3.688655,51.06549],[3.688732,51.06564]]},"properties":{"name":"Amanda Foketstraat","oneway":"yes","oneway:bicycle":"no","highway":"residential","maxspeed":"30","vertex1":403,"vertex2":20704}},{"type":"Feature","geometry":{"type":"LineString","coordinates":[[3.691228,51.06334],[3.691542,51.06242],[3.691568,51.06229]]},"properties":{"name":"Peerstraat","oneway":"yes","oneway:bicycle":"no","highway":"residential","maxspeed":"30","vertex1":402,"vertex2":15356}},{"type":"Feature","geometry":{"type":"LineString","coordinates":[[3.691228,51.06334],[3.691682,51.06343],[3.691927,51.06349],[3.692699,51.06368]]},"properties":{"highway":"path","vertex1":402,"vertex2":15394}},{"type":"Feature","geometry":{"type":"LineString","coordinates":[[3.691568,51.06229],[3.690158,51.06163]]},"properties":{"name":"Druifstraat","highway":"residential","maxspeed":"30","vertex1":15356,"vertex2":401}},{"type":"Feature","geometry":{"type":"LineString","coordinates":[[3.692699,51.06368],[3.6927,51.06387],[3.692728,51.06403],[3.692802,51.06421],[3.692843,51.06429],[3.692881,51.06437]]},"properties":{"name":"Boomstraat","oneway":"yes","oneway:bicycle":"no","highway":"residential","maxspeed":"30","vertex1":15394,"vertex2":15299}},{"type":"Feature","geometry":{"type":"LineString","coordinates":[[3.67247,51.06179],[3.671676,51.06188],[3.671033,51.06202],[3.670362,51.06206],[3.669064,51.06221],[3.668388,51.06233],[3.667364,51.06264],[3.666784,51.06288],[3.666543,51.06298],[3.666306,51.06306]]},"properties":{"name":"Valkenhuisweg","bicycle":"no","highway":"track","vertex1":398,"vertex2":290}},{"type":"Feature","geometry":{"type":"LineString","coordinates":[[3.666306,51.06306],[3.66659,51.06331],[3.667006,51.06364],[3.667354,51.06386],[3.667884,51.06415],[3.668444,51.06441]]},"properties":{"name":"Valkenhuisweg","bicycle":"no","highway":"track","vertex1":290,"vertex2":280}},{"type":"Feature","geometry":{"type":"LineString","coordinates":[[3.67756,51.06421],[3.677259,51.06443],[3.677195,51.0647],[3.677302,51.06495],[3.67756,51.06531],[3.677731,51.06539],[3.678225,51.06543],[3.678339,51.06548],[3.678406,51.06554],[3.678417,51.06565]]},"properties":{"bicycle":"no","highway":"track","vertex1":397,"vertex2":20790}},{"type":"Feature","geometry":{"type":"LineString","coordinates":[[3.674103,51.05719],[3.674055,51.05704],[3.673774,51.05661],[3.673601,51.05641],[3.673219,51.05622],[3.672834,51.05602],[3.672401,51.05571],[3.67192,51.05555],[3.671834,51.05548],[3.671667,51.05522],[3.671508,51.05513],[3.671264,51.05497]]},"properties":{"name":"Bunderweg","bicycle":"no","highway":"track","vertex1":382,"vertex2":346}},{"type":"Feature","geometry":{"type":"LineString","coordinates":[[3.674103,51.05719],[3.674181,51.05768],[3.67429,51.05785],[3.674407,51.05809],[3.674505,51.05822]]},"properties":{"name":"Bunderweg","bicycle":"no","highway":"track","vertex1":382,"vertex2":362}},{"type":"Feature","geometry":{"type":"LineString","coordinates":[[3.674103,51.05719],[3.673942,51.05722],[3.673568,51.05731],[3.673225,51.05743],[3.67233,51.05762],[3.672195,51.05793],[3.671356,51.05803]]},"properties":{"bicycle":"no","highway":"path","vertex1":382,"vertex2":380}},{"type":"Feature","geometry":{"type":"LineString","coordinates":[[3.679929,51.05663],[3.679963,51.05674]]},"properties":{"highway":"service","vertex1":372,"vertex2":368}},{"type":"Feature","geometry":{"type":"LineString","coordinates":[[3.679963,51.05674],[3.679466,51.05681]]},"properties":{"highway":"service","vertex1":368,"vertex2":358}},{"type":"Feature","geometry":{"type":"LineString","coordinates":[[3.680406,51.06764],[3.6832,51.06729]]},"properties":{"maxspeed":"30","highway":"service","vertex1":20813,"vertex2":20734}},{"type":"Feature","geometry":{"type":"LineString","coordinates":[[3.680406,51.06764],[3.680459,51.06771],[3.68052,51.06777],[3.680567,51.06781],[3.681318,51.06834],[3.681926,51.06876],[3.683089,51.06955]]},"properties":{"name":"Octaaf Van Dammestraat","highway":"residential","maxspeed":"30","vertex1":20813,"vertex2":20715}},{"type":"Feature","geometry":{"type":"LineString","coordinates":[[3.680406,51.06764],[3.680302,51.06749]]},"properties":{"highway":"service","vertex1":20813,"vertex2":20802}},{"type":"Feature","geometry":{"type":"LineString","coordinates":[[3.683089,51.06955],[3.68383,51.06915]]},"properties":{"name":"Brugsesteenweg","maxspeed":"50","highway":"tertiary","cycleway":"lane","vertex1":20715,"vertex2":20721}},{"type":"Feature","geometry":{"type":"LineString","coordinates":[[3.678662,51.06824],[3.67877,51.06823],[3.678872,51.06823],[3.678979,51.06825],[3.679092,51.06829],[3.679258,51.06838],[3.679557,51.06854]]},"properties":{"name":"Raymond de Hemptinnelaan","highway":"residential","maxspeed":"30","vertex1":20812,"vertex2":20810}},{"type":"Feature","geometry":{"type":"LineString","coordinates":[[3.678662,51.06824],[3.678577,51.06831],[3.678389,51.06848],[3.677933,51.06894],[3.677342,51.0696]]},"properties":{"name":"Rietgracht","highway":"residential","maxspeed":"30","vertex1":20812,"vertex2":20803}},{"type":"Feature","geometry":{"type":"LineString","coordinates":[[3.677342,51.0696],[3.676615,51.06931]]},"properties":{"name":"Oranjerielaan","highway":"residential","maxspeed":"30","vertex1":20803,"vertex2":20811}},{"type":"Feature","geometry":{"type":"LineString","coordinates":[[3.679557,51.06854],[3.680267,51.06893],[3.681157,51.0694],[3.681742,51.06973],[3.682365,51.07]]},"properties":{"name":"Raymond de Hemptinnelaan","highway":"residential","maxspeed":"30","vertex1":20810,"vertex2":20598}},{"type":"Feature","geometry":{"type":"LineString","coordinates":[[3.679557,51.06854],[3.678841,51.06932]]},"properties":{"name":"Schaatsmeers","highway":"residential","maxspeed":"30","vertex1":20810,"vertex2":20807}},{"type":"Feature","geometry":{"type":"LineString","coordinates":[[3.675575,51.06802],[3.676404,51.06845],[3.67698,51.06873],[3.677029,51.06877],[3.677049,51.06881],[3.677046,51.06884],[3.677027,51.0689],[3.676615,51.06931]]},"properties":{"name":"Bieslookstraat","highway":"residential","maxspeed":"30","vertex1":20809,"vertex2":20811}},{"type":"Feature","geometry":{"type":"LineString","coordinates":[[3.680111,51.06675],[3.680079,51.0667],[3.680014,51.06667],[3.679918,51.06667],[3.679859,51.0667],[3.679848,51.06675],[3.679891,51.0668],[3.679993,51.06683]]},"properties":{"maxspeed":"30","highway":"service","vertex1":20808,"vertex2":20806}},{"type":"Feature","geometry":{"type":"LineString","coordinates":[[3.680111,51.06675],[3.680087,51.06683]]},"properties":{"maxspeed":"30","highway":"service","vertex1":20808,"vertex2":20804}},{"type":"Feature","geometry":{"type":"LineString","coordinates":[[3.679993,51.06683],[3.680087,51.06683]]},"properties":{"maxspeed":"30","highway":"service","vertex1":20806,"vertex2":20804}},{"type":"Feature","geometry":{"type":"LineString","coordinates":[[3.673442,51.06889],[3.673423,51.06894],[3.673374,51.06902],[3.673316,51.0691]]},"properties":{"name":"Volkshaardstraat","highway":"residential","vertex1":20805,"vertex2":20795}},{"type":"Feature","geometry":{"type":"LineString","coordinates":[[3.673442,51.06889],[3.673545,51.06894],[3.673675,51.06902]]},"properties":{"name":"Volkshaardstraat","highway":"residential","vertex1":20805,"vertex2":20799}},{"type":"Feature","geometry":{"type":"LineString","coordinates":[[3.673442,51.06889],[3.673283,51.06881]]},"properties":{"name":"Volkshaardstraat","highway":"residential","vertex1":20805,"vertex2":20789}},{"type":"Feature","geometry":{"type":"LineString","coordinates":[[3.673316,51.0691],[3.673451,51.06906],[3.673675,51.06902]]},"properties":{"name":"Volkshaardstraat","highway":"residential","maxspeed":"30","vertex1":20795,"vertex2":20799}},{"type":"Feature","geometry":{"type":"LineString","coordinates":[[3.680087,51.06683],[3.68024,51.06734],[3.680302,51.06749]]},"properties":{"maxspeed":"30","highway":"service","vertex1":20804,"vertex2":20802}},{"type":"Feature","geometry":{"type":"LineString","coordinates":[[3.680302,51.06749],[3.680611,51.06745]]},"properties":{"maxspeed":"30","highway":"service","vertex1":20802,"vertex2":20767}},{"type":"Feature","geometry":{"type":"LineString","coordinates":[[3.670739,51.06773],[3.672472,51.06845],[3.671963,51.0691]]},"properties":{"highway":"track","vertex1":20800,"vertex2":20801}},{"type":"Feature","geometry":{"type":"LineString","coordinates":[[3.671963,51.0691],[3.671033,51.0687],[3.670656,51.06854]]},"properties":{"name":"Zandloperstraat","oneway":"yes","oneway:bicycle":"no","highway":"residential","maxspeed":"30","vertex1":20801,"vertex2":20787}},{"type":"Feature","geometry":{"type":"LineString","coordinates":[[3.670096,51.06832],[3.670432,51.06845],[3.670656,51.06854]]},"properties":{"name":"Zandloperstraat","oneway":"yes","oneway:bicycle":"no","highway":"residential","maxspeed":"30","vertex1":20798,"vertex2":20787}},{"type":"Feature","geometry":{"type":"LineString","coordinates":[[3.670096,51.06832],[3.669926,51.06826],[3.66922,51.06806],[3.668608,51.06791],[3.668029,51.06781],[3.667444,51.06774],[3.666924,51.06773]]},"properties":{"name":"Zandloperstraat","oneway":"yes","oneway:bicycle":"no","highway":"residential","maxspeed":"30","vertex1":20798,"vertex2":20968}},{"type":"Feature","geometry":{"type":"LineString","coordinates":[[3.670096,51.06832],[3.669963,51.06851],[3.66974,51.06882],[3.66956,51.069],[3.669314,51.06917],[3.669099,51.06937],[3.669035,51.06947]]},"properties":{"bicycle":"no","motorcar":"no","foot":"no","highway":"service","vertex1":20798,"vertex2":20976}},{"type":"Feature","geometry":{"type":"LineString","coordinates":[[3.678417,51.06565],[3.678558,51.06604],[3.678586,51.06614],[3.678724,51.06619],[3.678946,51.06617],[3.679199,51.06608],[3.679666,51.06591],[3.680569,51.06556],[3.68089,51.06542],[3.68107,51.06533],[3.681199,51.06527],[3.681274,51.06526],[3.681376,51.06528],[3.681921,51.06583]]},"properties":{"name":"Valkenhuisweg","bicycle":"no","highway":"track","vertex1":20790,"vertex2":20711}},{"type":"Feature","geometry":{"type":"LineString","coordinates":[[3.678417,51.06565],[3.677873,51.06573],[3.677511,51.0658],[3.67735,51.06581],[3.677137,51.06582],[3.676674,51.06582],[3.67632,51.06588],[3.675947,51.0659],[3.675515,51.06587],[3.673832,51.06573],[3.672164,51.06552],[3.670556,51.0652],[3.670213,51.06511],[3.66963,51.06492],[3.668444,51.06441]]},"properties":{"name":"Valkenhuisweg","bicycle":"no","highway":"track","vertex1":20790,"vertex2":280}},{"type":"Feature","geometry":{"type":"LineString","coordinates":[[3.670656,51.06854],[3.67044,51.06874],[3.670268,51.06893],[3.670164,51.06913]]},"properties":{"highway":"track","vertex1":20787,"vertex2":20797}},{"type":"Feature","geometry":{"type":"LineString","coordinates":[[3.690937,51.06889],[3.690914,51.06892],[3.690324,51.06983]]},"properties":{"bicycle":"no","motorcar":"no","foot":"no","highway":"service","vertex1":20786,"vertex2":20756}},{"type":"Feature","geometry":{"type":"LineString","coordinates":[[3.690002,51.06821],[3.689719,51.06838]]},"properties":{"name":"Werkstraat","highway":"living_street","maxspeed":"20","vertex1":20785,"vertex2":20784}},{"type":"Feature","geometry":{"type":"LineString","coordinates":[[3.690002,51.06821],[3.68999,51.06819]]},"properties":{"name":"Fluweelstraat","highway":"living_street","maxspeed":"20","vertex1":20785,"vertex2":20695}},{"type":"Feature","geometry":{"type":"LineString","coordinates":[[3.689719,51.06838],[3.689254,51.06863],[3.688969,51.06889],[3.688799,51.06912]]},"properties":{"name":"Werkstraat","highway":"living_street","maxspeed":"20","vertex1":20784,"vertex2":20782}},{"type":"Feature","geometry":{"type":"LineString","coordinates":[[3.689719,51.06838],[3.690343,51.06877],[3.690369,51.06881],[3.690351,51.06884],[3.689991,51.06943]]},"properties":{"name":"Scharlakenstraat","highway":"residential","maxspeed":"30","vertex1":20784,"vertex2":20725}},{"type":"Feature","geometry":{"type":"LineString","coordinates":[[3.688799,51.06912],[3.689991,51.06943]]},"properties":{"name":"Drapierstraat","highway":"residential","maxspeed":"30","vertex1":20782,"vertex2":20725}},{"type":"Feature","geometry":{"type":"LineString","coordinates":[[3.688799,51.06912],[3.687108,51.06865],[3.686026,51.0682],[3.685811,51.06808]]},"properties":{"name":"Lijnwaadstraat","highway":"residential","maxspeed":"30","vertex1":20782,"vertex2":20733}},{"type":"Feature","geometry":{"type":"LineString","coordinates":[[3.685415,51.06489],[3.685503,51.06498]]},"properties":{"name":"Bourgoyendreef","highway":"track","vertex1":20781,"vertex2":20689}},{"type":"Feature","geometry":{"type":"LineString","coordinates":[[3.691372,51.06837],[3.690645,51.06778]]},"properties":{"name":"Kempstraat","oneway":"yes","oneway:bicycle":"no","highway":"residential","maxspeed":"30","vertex1":20780,"vertex2":20774}},{"type":"Feature","geometry":{"type":"LineString","coordinates":[[3.691372,51.06837],[3.691431,51.06841],[3.692101,51.06852]]},"properties":{"name":"Kempstraat","oneway":"yes","oneway:bicycle":"no","highway":"residential","maxspeed":"30","vertex1":20780,"vertex2":15525}},{"type":"Feature","geometry":{"type":"LineString","coordinates":[[3.691372,51.06837],[3.691603,51.06781]]},"properties":{"name":"Tijkstraat","highway":"residential","maxspeed":"30","vertex1":20780,"vertex2":15560}},{"type":"Feature","geometry":{"type":"LineString","coordinates":[[3.691603,51.06781],[3.691642,51.06772]]},"properties":{"name":"Tijkstraat","highway":"residential","maxspeed":"30","vertex1":15560,"vertex2":15566}},{"type":"Feature","geometry":{"type":"LineString","coordinates":[[3.691603,51.06781],[3.691275,51.06776]]},"properties":{"highway":"track","vertex1":15560,"vertex2":20686}},{"type":"Feature","geometry":{"type":"LineString","coordinates":[[3.690969,51.06875],[3.691148,51.06869]]},"properties":{"highway":"path","vertex1":20779,"vertex2":20719}},{"type":"Feature","geometry":{"type":"LineString","coordinates":[[3.690969,51.06875],[3.690842,51.06864],[3.690726,51.06857],[3.690749,51.06845]]},"properties":{"highway":"path","vertex1":20779,"vertex2":20687}},{"type":"Feature","geometry":{"type":"LineString","coordinates":[[3.688501,51.06791],[3.688995,51.06766],[3.689183,51.06755]]},"properties":{"highway":"track","vertex1":20778,"vertex2":20667}},{"type":"Feature","geometry":{"type":"LineString","coordinates":[[3.683051,51.06803],[3.683507,51.06834],[3.683092,51.06858],[3.68383,51.06915]]},"properties":{"highway":"service","vertex1":20777,"vertex2":20721}},{"type":"Feature","geometry":{"type":"LineString","coordinates":[[3.68383,51.06915],[3.683923,51.0691]]},"properties":{"name":"Brugsesteenweg","maxspeed":"50","highway":"tertiary","cycleway":"lane","vertex1":20721,"vertex2":20722}},{"type":"Feature","geometry":{"type":"LineString","coordinates":[[3.688143,51.06713],[3.688413,51.06697]]},"properties":{"highway":"service","vertex1":20776,"vertex2":20729}},{"type":"Feature","geometry":{"type":"LineString","coordinates":[[3.688143,51.06713],[3.687834,51.0673]]},"properties":{"highway":"service","vertex1":20776,"vertex2":20772}},{"type":"Feature","geometry":{"type":"LineString","coordinates":[[3.688143,51.06713],[3.687774,51.06685]]},"properties":{"highway":"service","vertex1":20776,"vertex2":20770}},{"type":"Feature","geometry":{"type":"LineString","coordinates":[[3.68669,51.06478],[3.686808,51.06491],[3.686899,51.06501],[3.687039,51.06514],[3.687054,51.06515]]},"properties":{"highway":"path","vertex1":20775,"vertex2":20763}},{"type":"Feature","geometry":{"type":"LineString","coordinates":[[3.68669,51.06478],[3.686573,51.06458],[3.686504,51.06447]]},"properties":{"highway":"path","vertex1":20775,"vertex2":20693}},{"type":"Feature","geometry":{"type":"LineString","coordinates":[[3.68669,51.06478],[3.686754,51.06477],[3.686825,51.06475],[3.686947,51.06472],[3.687046,51.06462],[3.687141,51.06456],[3.687273,51.06452],[3.687354,51.06451],[3.687422,51.06448],[3.687524,51.06445],[3.687649,51.06444],[3.687814,51.06447]]},"properties":{"highway":"path","vertex1":20775,"vertex2":20735}},{"type":"Feature","geometry":{"type":"LineString","coordinates":[[3.690645,51.06778],[3.690167,51.06736]]},"properties":{"name":"Kempstraat","oneway":"yes","oneway:bicycle":"no","highway":"residential","maxspeed":"30","vertex1":20774,"vertex2":20768}},{"type":"Feature","geometry":{"type":"LineString","coordinates":[[3.690645,51.06778],[3.690307,51.06796]]},"properties":{"bicycle":"no","highway":"path","vertex1":20774,"vertex2":20681}},{"type":"Feature","geometry":{"type":"LineString","coordinates":[[3.686732,51.0659],[3.686974,51.06609],[3.687327,51.06636]]},"properties":{"highway":"track","vertex1":20773,"vertex2":20753}},{"type":"Feature","geometry":{"type":"LineString","coordinates":[[3.686732,51.0659],[3.686433,51.06568]]},"properties":{"highway":"track","vertex1":20773,"vertex2":20759}},{"type":"Feature","geometry":{"type":"LineString","coordinates":[[3.686732,51.0659],[3.687062,51.06572]]},"properties":{"highway":"footway","vertex1":20773,"vertex2":20748}},{"type":"Feature","geometry":{"type":"LineString","coordinates":[[3.681967,51.06588],[3.682382,51.06635],[3.682858,51.06689]]},"properties":{"name":"Valkenhuisweg","bicycle":"no","highway":"track","vertex1":20771,"vertex2":20717}},{"type":"Feature","geometry":{"type":"LineString","coordinates":[[3.681967,51.06588],[3.681921,51.06583]]},"properties":{"name":"Valkenhuisweg","bridge":"yes","bicycle":"no","highway":"track","vertex1":20771,"vertex2":20711}},{"type":"Feature","geometry":{"type":"LineString","coordinates":[[3.687774,51.06685],[3.687817,51.06683],[3.687904,51.06677]]},"properties":{"name":"Brugsesteenweg","maxspeed":"50","highway":"tertiary","cycleway":"lane","vertex1":20770,"vertex2":20683}},{"type":"Feature","geometry":{"type":"LineString","coordinates":[[3.687774,51.06685],[3.687673,51.06692],[3.687187,51.06722],[3.687068,51.0673]]},"properties":{"name":"Brugsesteenweg","maxspeed":"50","highway":"tertiary","cycleway":"lane","vertex1":20770,"vertex2":20708}},{"type":"Feature","geometry":{"type":"LineString","coordinates":[[3.690275,51.06798],[3.690286,51.06802]]},"properties":{"highway":"path","vertex1":20769,"vertex2":20677}},{"type":"Feature","geometry":{"type":"LineString","coordinates":[[3.690275,51.06798],[3.690307,51.06796]]},"properties":{"highway":"cycleway","vertex1":20769,"vertex2":20681}},{"type":"Feature","geometry":{"type":"LineString","coordinates":[[3.690275,51.06798],[3.690214,51.068],[3.69009,51.06805]]},"properties":{"highway":"cycleway","vertex1":20769,"vertex2":20701}},{"type":"Feature","geometry":{"type":"LineString","coordinates":[[3.690167,51.06736],[3.689718,51.06697],[3.689337,51.06669]]},"properties":{"name":"Kempstraat","oneway":"yes","oneway:bicycle":"no","highway":"residential","maxspeed":"30","vertex1":20768,"vertex2":20764}},{"type":"Feature","geometry":{"type":"LineString","coordinates":[[3.690167,51.06736],[3.690306,51.06726]]},"properties":{"name":"Tortelduifstraat","highway":"residential","maxspeed":"30","vertex1":20768,"vertex2":20676}},{"type":"Feature","geometry":{"type":"LineString","coordinates":[[3.680611,51.06745],[3.683049,51.06713]]},"properties":{"maxspeed":"30","highway":"service","vertex1":20767,"vertex2":20732}},{"type":"Feature","geometry":{"type":"LineString","coordinates":[[3.680611,51.06745],[3.680578,51.06732],[3.68064,51.06727],[3.681485,51.06717],[3.681538,51.06711],[3.6814,51.06668]]},"properties":{"highway":"service","vertex1":20767,"vertex2":20706}},{"type":"Feature","geometry":{"type":"LineString","coordinates":[[3.684764,51.06864],[3.686102,51.06919],[3.687152,51.0696],[3.688231,51.07003]]},"properties":{"name":"Jutestraat","oneway":"yes","oneway:bicycle":"no","highway":"residential","maxspeed":"30","vertex1":20765,"vertex2":20646}},{"type":"Feature","geometry":{"type":"LineString","coordinates":[[3.684764,51.06864],[3.684792,51.06861]]},"properties":{"name":"Brugsesteenweg","maxspeed":"50","highway":"tertiary","cycleway":"lane","vertex1":20765,"vertex2":20744}},{"type":"Feature","geometry":{"type":"LineString","coordinates":[[3.684764,51.06864],[3.683923,51.0691]]},"properties":{"name":"Brugsesteenweg","maxspeed":"50","highway":"tertiary","cycleway":"lane","vertex1":20765,"vertex2":20722}},{"type":"Feature","geometry":{"type":"LineString","coordinates":[[3.689337,51.06669],[3.688804,51.06629],[3.688689,51.06622]]},"properties":{"name":"Kempstraat","oneway":"yes","oneway:bicycle":"no","highway":"residential","maxspeed":"30","vertex1":20764,"vertex2":20762}},{"type":"Feature","geometry":{"type":"LineString","coordinates":[[3.689337,51.06669],[3.690672,51.06583]]},"properties":{"name":"Sisalstraat","highway":"residential","maxspeed":"30","vertex1":20764,"vertex2":20674}},{"type":"Feature","geometry":{"type":"LineString","coordinates":[[3.687054,51.06515],[3.687127,51.06522],[3.68721,51.0653],[3.687234,51.06545],[3.687213,51.06562],[3.687213,51.06575],[3.687208,51.06589],[3.687229,51.06602],[3.687257,51.0661],[3.68728,51.06615],[3.687363,51.06627],[3.687424,51.06631]]},"properties":{"highway":"path","vertex1":20763,"vertex2":20713}},{"type":"Feature","geometry":{"type":"LineString","coordinates":[[3.687054,51.06515],[3.687083,51.06515]]},"properties":{"name":"Firapeelpad","highway":"path","vertex1":20763,"vertex2":20723}},{"type":"Feature","geometry":{"type":"LineString","coordinates":[[3.688689,51.06622],[3.689017,51.06591]]},"properties":{"name":"Brugsesteenweg","maxspeed":"50","highway":"tertiary","cycleway":"lane","vertex1":20762,"vertex2":20700}},{"type":"Feature","geometry":{"type":"LineString","coordinates":[[3.688689,51.06622],[3.688547,51.06635]]},"properties":{"name":"Brugsesteenweg","maxspeed":"50","highway":"tertiary","cycleway":"lane","vertex1":20762,"vertex2":20718}},{"type":"Feature","geometry":{"type":"LineString","coordinates":[[3.688197,51.06643],[3.68824,51.06645],[3.688324,51.06651]]},"properties":{"highway":"path","vertex1":20761,"vertex2":20741}},{"type":"Feature","geometry":{"type":"LineString","coordinates":[[3.688197,51.06643],[3.688154,51.0664],[3.688034,51.06637],[3.687878,51.06636],[3.687696,51.06635],[3.687557,51.06635],[3.687457,51.06633],[3.687424,51.06631]]},"properties":{"highway":"path","vertex1":20761,"vertex2":20713}},{"type":"Feature","geometry":{"type":"LineString","coordinates":[[3.688197,51.06643],[3.687977,51.06657]]},"properties":{"highway":"cycleway","vertex1":20761,"vertex2":20675}},{"type":"Feature","geometry":{"type":"LineString","coordinates":[[3.688197,51.06643],[3.688447,51.06626]]},"properties":{"highway":"cycleway","vertex1":20761,"vertex2":20726}},{"type":"Feature","geometry":{"type":"LineString","coordinates":[[3.686433,51.06568],[3.686351,51.06562],[3.68621,51.06551],[3.68607,51.06541]]},"properties":{"name":"Bourgoyendreef","highway":"track","vertex1":20759,"vertex2":20668}},{"type":"Feature","geometry":{"type":"LineString","coordinates":[[3.689484,51.06732],[3.689218,51.06719],[3.688669,51.06675]]},"properties":{"highway":"path","vertex1":20758,"vertex2":20739}},{"type":"Feature","geometry":{"type":"LineString","coordinates":[[3.689484,51.06732],[3.689764,51.06753],[3.689865,51.0676],[3.690111,51.06779],[3.69023,51.06788],[3.690309,51.06794],[3.690307,51.06796]]},"properties":{"highway":"path","vertex1":20758,"vertex2":20681}},{"type":"Feature","geometry":{"type":"LineString","coordinates":[[3.689484,51.06732],[3.689174,51.06747]]},"properties":{"highway":"path","vertex1":20758,"vertex2":20678}},{"type":"Feature","geometry":{"type":"LineString","coordinates":[[3.690421,51.06816],[3.6904,51.0681],[3.690286,51.06802]]},"properties":{"highway":"path","vertex1":20757,"vertex2":20677}},{"type":"Feature","geometry":{"type":"LineString","coordinates":[[3.690421,51.06816],[3.690431,51.0682],[3.690574,51.06831],[3.690668,51.06838],[3.690749,51.06845]]},"properties":{"highway":"path","vertex1":20757,"vertex2":20687}},{"type":"Feature","geometry":{"type":"LineString","coordinates":[[3.690421,51.06816],[3.690294,51.06824],[3.690235,51.06825],[3.690189,51.06824],[3.690098,51.06816]]},"properties":{"highway":"path","vertex1":20757,"vertex2":20684}},{"type":"Feature","geometry":{"type":"LineString","coordinates":[[3.688121,51.06664],[3.688053,51.06659],[3.687977,51.06657]]},"properties":{"highway":"cycleway","vertex1":20755,"vertex2":20675}},{"type":"Feature","geometry":{"type":"LineString","coordinates":[[3.688121,51.06664],[3.688324,51.06651]]},"properties":{"name":"Brugsesteenweg","maxspeed":"50","highway":"tertiary","cycleway":"lane","vertex1":20755,"vertex2":20741}},{"type":"Feature","geometry":{"type":"LineString","coordinates":[[3.688121,51.06664],[3.688038,51.06669]]},"properties":{"name":"Brugsesteenweg","maxspeed":"50","highway":"tertiary","cycleway":"lane","vertex1":20755,"vertex2":20697}},{"type":"Feature","geometry":{"type":"LineString","coordinates":[[3.688121,51.06664],[3.688262,51.06675],[3.688485,51.06694]]},"properties":{"highway":"cycleway","vertex1":20755,"vertex2":20731}},{"type":"Feature","geometry":{"type":"LineString","coordinates":[[3.687327,51.06636],[3.687785,51.06668]]},"properties":{"highway":"track","vertex1":20753,"vertex2":20703}},{"type":"Feature","geometry":{"type":"LineString","coordinates":[[3.687327,51.06636],[3.687382,51.06633]]},"properties":{"highway":"path","vertex1":20753,"vertex2":20707}},{"type":"Feature","geometry":{"type":"LineString","coordinates":[[3.689568,51.06552],[3.689329,51.06526]]},"properties":{"name":"Cantecleerstraat","highway":"pedestrian","vertex1":20752,"vertex2":20710}},{"type":"Feature","geometry":{"type":"LineString","coordinates":[[3.689568,51.06552],[3.689961,51.06532]]},"properties":{"name":"Brugsesteenweg","maxspeed":"50","highway":"tertiary","cycleway":"lane","vertex1":20752,"vertex2":20679}},{"type":"Feature","geometry":{"type":"LineString","coordinates":[[3.689568,51.06552],[3.68934,51.06565],[3.689017,51.06591]]},"properties":{"name":"Brugsesteenweg","maxspeed":"50","highway":"tertiary","cycleway":"lane","vertex1":20752,"vertex2":20700}},{"type":"Feature","geometry":{"type":"LineString","coordinates":[[3.690049,51.06491],[3.690161,51.06483]]},"properties":{"highway":"pedestrian","vertex1":20751,"vertex2":20745}},{"type":"Feature","geometry":{"type":"LineString","coordinates":[[3.690049,51.06491],[3.690184,51.06512],[3.690229,51.06515]]},"properties":{"highway":"pedestrian","vertex1":20751,"vertex2":20747}},{"type":"Feature","geometry":{"type":"LineString","coordinates":[[3.687062,51.06572],[3.68715,51.06568]]},"properties":{"bridge":"yes","highway":"footway","vertex1":20748,"vertex2":20685}},{"type":"Feature","geometry":{"type":"LineString","coordinates":[[3.690229,51.06515],[3.690749,51.06496],[3.690776,51.06493],[3.690752,51.0649],[3.690314,51.06468],[3.690197,51.0648],[3.690161,51.06483]]},"properties":{"highway":"pedestrian","vertex1":20747,"vertex2":20745}},{"type":"Feature","geometry":{"type":"LineString","coordinates":[[3.69137,51.06768],[3.691642,51.06772]]},"properties":{"name":"Tijkstraat","highway":"residential","vertex1":20746,"vertex2":15566}},{"type":"Feature","geometry":{"type":"LineString","coordinates":[[3.69137,51.06768],[3.691275,51.06776]]},"properties":{"name":"Zijdestraat","highway":"track","vertex1":20746,"vertex2":20686}},{"type":"Feature","geometry":{"type":"LineString","coordinates":[[3.69137,51.06768],[3.691344,51.06758],[3.691302,51.06755]]},"properties":{"highway":"track","vertex1":20746,"vertex2":20709}},{"type":"Feature","geometry":{"type":"LineString","coordinates":[[3.690161,51.06483],[3.690048,51.06491],[3.690073,51.06495]]},"properties":{"name":"Malpertuusplein","highway":"pedestrian","vertex1":20745,"vertex2":20669}},{"type":"Feature","geometry":{"type":"LineString","coordinates":[[3.690161,51.06483],[3.689368,51.06471]]},"properties":{"name":"Malpertuusplein","highway":"pedestrian","vertex1":20745,"vertex2":20705}},{"type":"Feature","geometry":{"type":"LineString","coordinates":[[3.684792,51.06861],[3.68425,51.06818]]},"properties":{"name":"Driepikkelstraat","highway":"residential","maxspeed":"30","vertex1":20744,"vertex2":20742}},{"type":"Feature","geometry":{"type":"LineString","coordinates":[[3.684792,51.06861],[3.685811,51.06808]]},"properties":{"name":"Brugsesteenweg","maxspeed":"50","highway":"tertiary","cycleway":"lane","vertex1":20744,"vertex2":20733}},{"type":"Feature","geometry":{"type":"LineString","coordinates":[[3.687371,51.06513],[3.687083,51.06515]]},"properties":{"name":"Firapeelpad","bridge":"yes","highway":"path","vertex1":20743,"vertex2":20723}},{"type":"Feature","geometry":{"type":"LineString","coordinates":[[3.687371,51.06513],[3.687721,51.06511]]},"properties":{"name":"Firapeelpad","highway":"path","vertex1":20743,"vertex2":20699}},{"type":"Feature","geometry":{"type":"LineString","coordinates":[[3.68425,51.06818],[3.684061,51.06803]]},"properties":{"name":"Driepikkelstraat","highway":"residential","maxspeed":"30","vertex1":20742,"vertex2":20738}},{"type":"Feature","geometry":{"type":"LineString","coordinates":[[3.68425,51.06818],[3.683471,51.06856]]},"properties":{"bicycle":"no","motorcar":"no","foot":"no","highway":"service","vertex1":20742,"vertex2":20671}},{"type":"Feature","geometry":{"type":"LineString","coordinates":[[3.688324,51.06651],[3.68838,51.06655],[3.688421,51.06658],[3.688669,51.06675]]},"properties":{"highway":"path","vertex1":20741,"vertex2":20739}},{"type":"Feature","geometry":{"type":"LineString","coordinates":[[3.688324,51.06651],[3.688547,51.06635]]},"properties":{"name":"Brugsesteenweg","maxspeed":"50","highway":"tertiary","cycleway":"lane","vertex1":20741,"vertex2":20718}},{"type":"Feature","geometry":{"type":"LineString","coordinates":[[3.688243,51.06608],[3.687917,51.06564],[3.687898,51.06562],[3.687866,51.06557],[3.687746,51.06524],[3.687721,51.06511]]},"properties":{"name":"Lucienne Herman-Michielsensstraat","oneway":"yes","oneway:bicycle":"no","highway":"residential","maxspeed":"30","vertex1":20740,"vertex2":20699}},{"type":"Feature","geometry":{"type":"LineString","coordinates":[[3.688243,51.06608],[3.688263,51.0661],[3.688447,51.06626]]},"properties":{"name":"Lucienne Herman-Michielsensstraat","oneway":"yes","oneway:bicycle":"no","highway":"residential","maxspeed":"30","vertex1":20740,"vertex2":20726}},{"type":"Feature","geometry":{"type":"LineString","coordinates":[[3.688243,51.06608],[3.688732,51.06564]]},"properties":{"name":"Koning Nobelplein","highway":"residential","maxspeed":"30","vertex1":20740,"vertex2":20704}},{"type":"Feature","geometry":{"type":"LineString","coordinates":[[3.688669,51.06675],[3.688625,51.06679],[3.688612,51.06687],[3.688539,51.06691],[3.688485,51.06694]]},"properties":{"highway":"path","vertex1":20739,"vertex2":20731}},{"type":"Feature","geometry":{"type":"LineString","coordinates":[[3.684061,51.06803],[3.683855,51.06788],[3.683775,51.06783],[3.683419,51.06749]]},"properties":{"name":"Driepikkelstraat","highway":"residential","maxspeed":"30","vertex1":20738,"vertex2":20736}},{"type":"Feature","geometry":{"type":"LineString","coordinates":[[3.684061,51.06803],[3.685144,51.06744]]},"properties":{"name":"Rijmsdam","oneway":"yes","oneway:bicycle":"no","highway":"residential","maxspeed":"30","vertex1":20738,"vertex2":20692}},{"type":"Feature","geometry":{"type":"LineString","coordinates":[[3.690936,51.06496],[3.690822,51.0649],[3.690348,51.06466],[3.690216,51.06458]]},"properties":{"name":"Isegrimstraat","highway":"residential","maxspeed":"30","vertex1":20737,"vertex2":20673}},{"type":"Feature","geometry":{"type":"LineString","coordinates":[[3.690936,51.06496],[3.691863,51.06469],[3.692779,51.0644],[3.692881,51.06437]]},"properties":{"name":"Brugsesteenweg","maxspeed":"50","highway":"tertiary","cycleway":"lane","vertex1":20737,"vertex2":15299}},{"type":"Feature","geometry":{"type":"LineString","coordinates":[[3.690936,51.06496],[3.690221,51.06521],[3.689961,51.06532]]},"properties":{"name":"Brugsesteenweg","maxspeed":"50","highway":"tertiary","cycleway":"lane","vertex1":20737,"vertex2":20679}},{"type":"Feature","geometry":{"type":"LineString","coordinates":[[3.683419,51.06749],[3.6832,51.06729]]},"properties":{"name":"Driepikkelstraat","highway":"residential","maxspeed":"30","vertex1":20736,"vertex2":20734}},{"type":"Feature","geometry":{"type":"LineString","coordinates":[[3.683419,51.06749],[3.681959,51.06787]]},"properties":{"highway":"service","vertex1":20736,"vertex2":20724}},{"type":"Feature","geometry":{"type":"LineString","coordinates":[[3.687814,51.06447],[3.687786,51.06454],[3.687746,51.06478],[3.687715,51.06495],[3.687721,51.06511]]},"properties":{"name":"Lucienne Herman-Michielsensstraat","oneway":"yes","oneway:bicycle":"no","highway":"residential","maxspeed":"30","vertex1":20735,"vertex2":20699}},{"type":"Feature","geometry":{"type":"LineString","coordinates":[[3.6832,51.06729],[3.683049,51.06713]]},"properties":{"name":"Driepikkelstraat","highway":"residential","maxspeed":"30","vertex1":20734,"vertex2":20732}},{"type":"Feature","geometry":{"type":"LineString","coordinates":[[3.685811,51.06808],[3.685933,51.06802]]},"properties":{"name":"Brugsesteenweg","maxspeed":"50","highway":"tertiary","cycleway":"lane","vertex1":20733,"vertex2":20698}},{"type":"Feature","geometry":{"type":"LineString","coordinates":[[3.683049,51.06713],[3.682992,51.06705]]},"properties":{"name":"Driepikkelstraat","highway":"residential","maxspeed":"30","vertex1":20732,"vertex2":20728}},{"type":"Feature","geometry":{"type":"LineString","coordinates":[[3.688485,51.06694],[3.689174,51.06747]]},"properties":{"highway":"cycleway","vertex1":20731,"vertex2":20678}},{"type":"Feature","geometry":{"type":"LineString","coordinates":[[3.688413,51.06697],[3.689183,51.06755]]},"properties":{"name":"Fluweelstraat","highway":"living_street","maxspeed":"20","vertex1":20729,"vertex2":20667}},{"type":"Feature","geometry":{"type":"LineString","coordinates":[[3.688413,51.06697],[3.688038,51.06669]]},"properties":{"name":"Fluweelstraat","highway":"living_street","maxspeed":"20","vertex1":20729,"vertex2":20697}},{"type":"Feature","geometry":{"type":"LineString","coordinates":[[3.682992,51.06705],[3.682858,51.06689]]},"properties":{"name":"Valkenhuisweg","bicycle":"no","highway":"track","vertex1":20728,"vertex2":20717}},{"type":"Feature","geometry":{"type":"LineString","coordinates":[[3.689964,51.06814],[3.68999,51.06819]]},"properties":{"name":"Fluweelstraat","highway":"living_street","maxspeed":"20","vertex1":20727,"vertex2":20695}},{"type":"Feature","geometry":{"type":"LineString","coordinates":[[3.689964,51.06814],[3.689183,51.06755]]},"properties":{"name":"Fluweelstraat","highway":"living_street","maxspeed":"20","vertex1":20727,"vertex2":20667}},{"type":"Feature","geometry":{"type":"LineString","coordinates":[[3.689964,51.06814],[3.69009,51.06805]]},"properties":{"highway":"cycleway","vertex1":20727,"vertex2":20701}},{"type":"Feature","geometry":{"type":"LineString","coordinates":[[3.688447,51.06626],[3.688547,51.06635]]},"properties":{"name":"Lucienne Herman-Michielsensstraat","oneway":"yes","oneway:bicycle":"no","highway":"residential","maxspeed":"30","vertex1":20726,"vertex2":20718}},{"type":"Feature","geometry":{"type":"LineString","coordinates":[[3.691148,51.06869],[3.691296,51.06879],[3.691559,51.06897],[3.691672,51.06905],[3.69166,51.06915],[3.691887,51.06929],[3.692048,51.0693]]},"properties":{"highway":"path","vertex1":20719,"vertex2":15597}},{"type":"Feature","geometry":{"type":"LineString","coordinates":[[3.691148,51.06869],[3.691138,51.06868],[3.691186,51.06865]]},"properties":{"highway":"path","vertex1":20719,"vertex2":20682}},{"type":"Feature","geometry":{"type":"LineString","coordinates":[[3.692048,51.0693],[3.692084,51.06926]]},"properties":{"highway":"path","vertex1":15597,"vertex2":15464}},{"type":"Feature","geometry":{"type":"LineString","coordinates":[[3.682858,51.06689],[3.683191,51.06676],[3.683639,51.06656],[3.684213,51.06596]]},"properties":{"name":"Bunderweg","bicycle":"no","highway":"path","vertex1":20717,"vertex2":20691}},{"type":"Feature","geometry":{"type":"LineString","coordinates":[[3.68546,51.06592],[3.686454,51.0668],[3.68646,51.0669],[3.687068,51.0673]]},"properties":{"highway":"service","vertex1":20716,"vertex2":20708}},{"type":"Feature","geometry":{"type":"LineString","coordinates":[[3.685013,51.06569],[3.685019,51.06558],[3.685432,51.06534]]},"properties":{"name":"Bunderweg","bicycle":"no","highway":"path","vertex1":20714,"vertex2":20712}},{"type":"Feature","geometry":{"type":"LineString","coordinates":[[3.685013,51.06569],[3.684213,51.06596]]},"properties":{"name":"Bunderweg","bridge":"yes","bicycle":"no","highway":"path","vertex1":20714,"vertex2":20691}},{"type":"Feature","geometry":{"type":"LineString","coordinates":[[3.687424,51.06631],[3.687382,51.06633]]},"properties":{"highway":"path","vertex1":20713,"vertex2":20707}},{"type":"Feature","geometry":{"type":"LineString","coordinates":[[3.685432,51.06534],[3.685476,51.06514],[3.685503,51.06498]]},"properties":{"name":"Bunderweg","bicycle":"no","highway":"path","vertex1":20712,"vertex2":20689}},{"type":"Feature","geometry":{"type":"LineString","coordinates":[[3.685432,51.06534],[3.685649,51.06533],[3.685902,51.06537],[3.68607,51.06541]]},"properties":{"highway":"path","vertex1":20712,"vertex2":20668}},{"type":"Feature","geometry":{"type":"LineString","coordinates":[[3.689329,51.06526],[3.688732,51.06564]]},"properties":{"name":"Koning Nobelplein","highway":"residential","maxspeed":"30","vertex1":20710,"vertex2":20704}},{"type":"Feature","geometry":{"type":"LineString","coordinates":[[3.691302,51.06755],[3.691092,51.06744],[3.691254,51.06731],[3.691033,51.06718]]},"properties":{"name":"Spinnerijdoorgang","bicycle":"no","motorcar":"no","foot":"no","highway":"residential","vertex1":20709,"vertex2":20672}},{"type":"Feature","geometry":{"type":"LineString","coordinates":[[3.687068,51.0673],[3.686585,51.06765],[3.685933,51.06802]]},"properties":{"name":"Brugsesteenweg","maxspeed":"50","highway":"tertiary","cycleway":"lane","vertex1":20708,"vertex2":20698}},{"type":"Feature","geometry":{"type":"LineString","coordinates":[[3.687382,51.06633],[3.687453,51.06638],[3.687777,51.0665],[3.687977,51.06657]]},"properties":{"highway":"cycleway","vertex1":20707,"vertex2":20675}},{"type":"Feature","geometry":{"type":"LineString","coordinates":[[3.687382,51.06633],[3.687299,51.06627],[3.68719,51.06612],[3.687145,51.06591],[3.687148,51.06569],[3.68715,51.06568]]},"properties":{"highway":"cycleway","vertex1":20707,"vertex2":20685}},{"type":"Feature","geometry":{"type":"LineString","coordinates":[[3.689368,51.06471],[3.689315,51.06485],[3.689286,51.06496],[3.689317,51.06508],[3.6894,51.06527],[3.690073,51.06495]]},"properties":{"name":"Malpertuusplein","highway":"pedestrian","vertex1":20705,"vertex2":20669}},{"type":"Feature","geometry":{"type":"LineString","coordinates":[[3.688732,51.06564],[3.689017,51.06591]]},"properties":{"name":"Amanda Foketstraat","oneway":"yes","oneway:bicycle":"no","highway":"residential","maxspeed":"30","vertex1":20704,"vertex2":20700}},{"type":"Feature","geometry":{"type":"LineString","coordinates":[[3.687785,51.06668],[3.687904,51.06677]]},"properties":{"highway":"track","vertex1":20703,"vertex2":20683}},{"type":"Feature","geometry":{"type":"LineString","coordinates":[[3.687785,51.06668],[3.687977,51.06657]]},"properties":{"highway":"cycleway","vertex1":20703,"vertex2":20675}},{"type":"Feature","geometry":{"type":"LineString","coordinates":[[3.690973,51.06723],[3.690717,51.06745]]},"properties":{"name":"Spinnerijdoorgang","bicycle":"no","motorcar":"no","foot":"no","highway":"residential","maxspeed":"30","vertex1":20702,"vertex2":20690}},{"type":"Feature","geometry":{"type":"LineString","coordinates":[[3.690973,51.06723],[3.690576,51.06704]]},"properties":{"name":"Spinnerijdoorgang","bicycle":"no","motorcar":"no","foot":"no","highway":"residential","maxspeed":"30","vertex1":20702,"vertex2":20670}},{"type":"Feature","geometry":{"type":"LineString","coordinates":[[3.690973,51.06723],[3.691033,51.06718]]},"properties":{"name":"Spinnerijdoorgang","bicycle":"no","motorcar":"no","foot":"no","highway":"residential","maxspeed":"30","vertex1":20702,"vertex2":20672}},{"type":"Feature","geometry":{"type":"LineString","coordinates":[[3.69009,51.06805],[3.689913,51.06804],[3.689864,51.06801],[3.689209,51.06749],[3.689174,51.06747]]},"properties":{"highway":"cycleway","vertex1":20701,"vertex2":20678}},{"type":"Feature","geometry":{"type":"LineString","coordinates":[[3.685933,51.06802],[3.685227,51.0675]]},"properties":{"name":"Maeswal","oneway":"yes","oneway:bicycle":"no","highway":"residential","maxspeed":"30","vertex1":20698,"vertex2":20694}},{"type":"Feature","geometry":{"type":"LineString","coordinates":[[3.688038,51.06669],[3.687904,51.06677]]},"properties":{"name":"Brugsesteenweg","maxspeed":"50","highway":"tertiary","cycleway":"lane","vertex1":20697,"vertex2":20683}},{"type":"Feature","geometry":{"type":"LineString","coordinates":[[3.685625,51.06729],[3.685227,51.0675]]},"properties":{"name":"Rijmsdam","oneway":"yes","oneway:bicycle":"no","highway":"residential","maxspeed":"30","vertex1":20696,"vertex2":20694}},{"type":"Feature","geometry":{"type":"LineString","coordinates":[[3.685625,51.06729],[3.685541,51.06722],[3.685458,51.06727],[3.685307,51.06735],[3.685144,51.06744]]},"properties":{"name":"Rijmsdam","oneway":"yes","oneway:bicycle":"no","highway":"residential","maxspeed":"30","vertex1":20696,"vertex2":20692}},{"type":"Feature","geometry":{"type":"LineString","coordinates":[[3.68999,51.06819],[3.690061,51.06818],[3.690098,51.06816]]},"properties":{"highway":"path","vertex1":20695,"vertex2":20684}},{"type":"Feature","geometry":{"type":"LineString","coordinates":[[3.685227,51.0675],[3.685144,51.06744]]},"properties":{"name":"Rijmsdam","oneway":"yes","oneway:bicycle":"no","highway":"residential","maxspeed":"30","vertex1":20694,"vertex2":20692}},{"type":"Feature","geometry":{"type":"LineString","coordinates":[[3.690717,51.06745],[3.69105,51.06772],[3.691275,51.06776]]},"properties":{"name":"Zijdestraat","highway":"track","vertex1":20690,"vertex2":20686}},{"type":"Feature","geometry":{"type":"LineString","coordinates":[[3.690717,51.06745],[3.690306,51.06726]]},"properties":{"name":"Zijdestraat","highway":"track","vertex1":20690,"vertex2":20676}},{"type":"Feature","geometry":{"type":"LineString","coordinates":[[3.685503,51.06498],[3.685606,51.06507],[3.68607,51.06541]]},"properties":{"name":"Bourgoyendreef","highway":"track","vertex1":20689,"vertex2":20668}},{"type":"Feature","geometry":{"type":"LineString","coordinates":[[3.691126,51.06711],[3.691178,51.06712],[3.691736,51.06744],[3.692017,51.06749]]},"properties":{"highway":"path","vertex1":20688,"vertex2":15598}},{"type":"Feature","geometry":{"type":"LineString","coordinates":[[3.691126,51.06711],[3.691033,51.06718]]},"properties":{"name":"Spinnerijdoorgang","bicycle":"no","motorcar":"no","foot":"no","highway":"residential","maxspeed":"30","vertex1":20688,"vertex2":20672}},{"type":"Feature","geometry":{"type":"LineString","coordinates":[[3.691126,51.06711],[3.691206,51.06711],[3.691306,51.06713],[3.691388,51.06713],[3.691491,51.06711],[3.691746,51.06707]]},"properties":{"highway":"path","vertex1":20688,"vertex2":15584}},{"type":"Feature","geometry":{"type":"LineString","coordinates":[[3.690749,51.06845],[3.690864,51.06838]]},"properties":{"highway":"path","vertex1":20687,"vertex2":20680}},{"type":"Feature","geometry":{"type":"LineString","coordinates":[[3.690098,51.06816],[3.6902,51.06812],[3.690215,51.06807],[3.690286,51.06802]]},"properties":{"highway":"path","vertex1":20684,"vertex2":20677}},{"type":"Feature","geometry":{"type":"LineString","coordinates":[[3.691186,51.06865],[3.691492,51.06886],[3.691626,51.06891],[3.691758,51.06901],[3.691849,51.06912],[3.692084,51.06926]]},"properties":{"highway":"cycleway","vertex1":20682,"vertex2":15464}},{"type":"Feature","geometry":{"type":"LineString","coordinates":[[3.691186,51.06865],[3.691101,51.06856],[3.690864,51.06838]]},"properties":{"highway":"cycleway","vertex1":20682,"vertex2":20680}},{"type":"Feature","geometry":{"type":"LineString","coordinates":[[3.690307,51.06796],[3.690424,51.06806],[3.690864,51.06838]]},"properties":{"highway":"cycleway","vertex1":20681,"vertex2":20680}},{"type":"Feature","geometry":{"type":"LineString","coordinates":[[3.689961,51.06532],[3.690225,51.06551],[3.690568,51.06576],[3.690672,51.06583]]},"properties":{"name":"Virginiastraat","oneway":"yes","oneway:bicycle":"no","highway":"residential","maxspeed":"30","vertex1":20679,"vertex2":20674}},{"type":"Feature","geometry":{"type":"LineString","coordinates":[[3.690306,51.06726],[3.690576,51.06704]]},"properties":{"name":"Tortelduifstraat","highway":"residential","maxspeed":"30","vertex1":20676,"vertex2":20670}},{"type":"Feature","geometry":{"type":"LineString","coordinates":[[3.690672,51.06583],[3.691431,51.06637]]},"properties":{"name":"Virginiastraat","oneway":"yes","oneway:bicycle":"no","highway":"residential","maxspeed":"30","vertex1":20674,"vertex2":15551}},{"type":"Feature","geometry":{"type":"LineString","coordinates":[[3.691431,51.06637],[3.691273,51.06647],[3.690991,51.0667],[3.690576,51.06704]]},"properties":{"name":"Tortelduifstraat","highway":"residential","maxspeed":"30","vertex1":15551,"vertex2":20670}}]}