{"type":"FeatureCollection","features":[{"type":"Feature","geometry":{"type":"LineString","coordinates":[[3.647461,51.09662],[3.669434,51.09662],[3.669434,51.08282],[3.647461,51.08282],[3.647461,51.09662]]},"properties":{"id":"89759910","zoom":"14"}},{"type":"Feature","geometry":{"type":"LineString","coordinates":[[3.666605,51.09429],[3.667122,51.0938],[3.667655,51.0933]]},"properties":{"name":"Doornstraat","highway":"unclassified","vertex1":20160,"vertex2":20163}},{"type":"Feature","geometry":{"type":"LineString","coordinates":[[3.665987,51.08659],[3.665944,51.08656]]},"properties":{"name":"Wijmenstraat","highway":"residential","maxspeed":"30","vertex1":20230,"vertex2":20225}},{"type":"Feature","geometry":{"type":"LineString","coordinates":[[3.661306,51.08902],[3.661341,51.08897]]},"properties":{"highway":"path","vertex1":20229,"vertex2":20213}},{"type":"Feature","geometry":{"type":"LineString","coordinates":[[3.661306,51.08902],[3.661218,51.08922]]},"properties":{"bridge":"yes","highway":"path","vertex1":20229,"vertex2":20207}},{"type":"Feature","geometry":{"type":"LineString","coordinates":[[3.661496,51.08719],[3.661528,51.08722],[3.661576,51.08724],[3.66161,51.08725],[3.661668,51.08725],[3.661724,51.08724],[3.661757,51.08723],[3.661794,51.0872]]},"properties":{"motorcar":"no","highway":"unclassified","vertex1":20228,"vertex2":20205}},{"type":"Feature","geometry":{"type":"LineString","coordinates":[[3.661496,51.08719],[3.661484,51.08717]]},"properties":{"motorcar":"no","highway":"unclassified","vertex1":20228,"vertex2":20204}},{"type":"Feature","geometry":{"type":"LineString","coordinates":[[3.663212,51.08942],[3.663296,51.08932],[3.663514,51.08907]]},"properties":{"highway":"unclassified","vertex1":20227,"vertex2":20221}},{"type":"Feature","geometry":{"type":"LineString","coordinates":[[3.663212,51.08942],[3.662408,51.08924]]},"properties":{"name":"Westbekesluis","highway":"unclassified","vertex1":20227,"vertex2":20217}},{"type":"Feature","geometry":{"type":"LineString","coordinates":[[3.663212,51.08942],[3.663481,51.08949],[3.664135,51.08964],[3.664789,51.08979],[3.665974,51.09005],[3.666484,51.09017],[3.667004,51.09029],[3.669777,51.0909],[3.672131,51.09141],[3.672952,51.09155],[3.673774,51.09169],[3.674445,51.09181]]},"properties":{"name":"Westbekesluis","highway":"unclassified","vertex1":20227,"vertex2":20261}},{"type":"Feature","geometry":{"type":"LineString","coordinates":[[3.663713,51.08889],[3.663877,51.08878],[3.664057,51.08875],[3.66622,51.08923],[3.667154,51.08942],[3.66756,51.0895],[3.669851,51.08998]]},"properties":{"highway":"unclassified","vertex1":20226,"vertex2":20263}},{"type":"Feature","geometry":{"type":"LineString","coordinates":[[3.663713,51.08889],[3.663514,51.08907]]},"properties":{"bridge":"yes","highway":"unclassified","vertex1":20226,"vertex2":20221}},{"type":"Feature","geometry":{"type":"LineString","coordinates":[[3.665944,51.08656],[3.665884,51.08651]]},"properties":{"name":"Wijmenstraat","highway":"residential","maxspeed":"30","vertex1":20225,"vertex2":20223}},{"type":"Feature","geometry":{"type":"LineString","coordinates":[[3.665944,51.08656],[3.665913,51.08661],[3.665798,51.08688],[3.665573,51.08743]]},"properties":{"highway":"service","vertex1":20225,"vertex2":20208}},{"type":"Feature","geometry":{"type":"LineString","coordinates":[[3.668195,51.08771],[3.668266,51.08759],[3.668447,51.08723],[3.668498,51.08718],[3.66859,51.08717],[3.668897,51.08723],[3.668975,51.08723],[3.669067,51.0872],[3.669113,51.08715],[3.669204,51.08706],[3.669321,51.08698],[3.669436,51.08673],[3.669474,51.08669],[3.669532,51.08668],[3.669608,51.08668],[3.669761,51.08671],[3.669892,51.08672],[3.670009,51.08671]]},"properties":{"highway":"service","vertex1":20224,"vertex2":20237}},{"type":"Feature","geometry":{"type":"LineString","coordinates":[[3.668195,51.08771],[3.668152,51.08779],[3.668099,51.08789]]},"properties":{"highway":"service","vertex1":20224,"vertex2":20222}},{"type":"Feature","geometry":{"type":"LineString","coordinates":[[3.668195,51.08771],[3.668579,51.08781],[3.668901,51.08778],[3.669211,51.08773],[3.669288,51.08768],[3.669438,51.08743],[3.669502,51.08739],[3.669605,51.08737],[3.670078,51.08748]]},"properties":{"highway":"service","vertex1":20224,"vertex2":20233}},{"type":"Feature","geometry":{"type":"LineString","coordinates":[[3.670009,51.08671],[3.669991,51.08668],[3.669938,51.08652]]},"properties":{"name":"Industrieweg","highway":"unclassified","vertex1":20237,"vertex2":20249}},{"type":"Feature","geometry":{"type":"LineString","coordinates":[[3.665884,51.08651],[3.66585,51.08648],[3.665729,51.08644],[3.665529,51.0864],[3.665279,51.08636],[3.665223,51.08635],[3.66477,51.08628],[3.664571,51.08625],[3.664413,51.08624],[3.664092,51.08629],[3.663803,51.08632],[3.663166,51.08624],[3.662831,51.08619],[3.662694,51.08611],[3.662659,51.08605],[3.662682,51.08599],[3.662795,51.08589],[3.662846,51.08583],[3.662877,51.0858],[3.662877,51.08576],[3.662786,51.08571]]},"properties":{"name":"Wijmenstraat","highway":"residential","maxspeed":"30","vertex1":20223,"vertex2":21112}},{"type":"Feature","geometry":{"type":"LineString","coordinates":[[3.665884,51.08651],[3.666078,51.08654],[3.666781,51.08665],[3.667167,51.08671],[3.667421,51.08675],[3.667534,51.08681],[3.667562,51.08689],[3.667499,51.08701]]},"properties":{"bicycle":"no","motorcar":"no","foot":"no","highway":"service","vertex1":20223,"vertex2":20211}},{"type":"Feature","geometry":{"type":"LineString","coordinates":[[3.668099,51.08789],[3.668038,51.08801],[3.66781,51.08839],[3.66777,51.08842],[3.66769,51.08845],[3.667584,51.08844],[3.667467,51.08842]]},"properties":{"highway":"service","vertex1":20222,"vertex2":20206}},{"type":"Feature","geometry":{"type":"LineString","coordinates":[[3.668099,51.08789],[3.668016,51.08789],[3.667868,51.08786],[3.667798,51.08784]]},"properties":{"highway":"service","vertex1":20222,"vertex2":20212}},{"type":"Feature","geometry":{"type":"LineString","coordinates":[[3.661294,51.09183],[3.661678,51.09317]]},"properties":{"name":"Durmestraat","highway":"residential","vertex1":20220,"vertex2":20166}},{"type":"Feature","geometry":{"type":"LineString","coordinates":[[3.661294,51.09183],[3.661216,51.0916],[3.661186,51.09155],[3.661136,51.0915],[3.661053,51.09147],[3.660282,51.09129],[3.65996,51.09108],[3.65949,51.09102],[3.659425,51.091],[3.659395,51.09095],[3.659614,51.09074],[3.660059,51.09035],[3.6604,51.08991],[3.660725,51.08951],[3.660914,51.08948],[3.661069,51.08952],[3.663222,51.09006],[3.664734,51.09036],[3.665476,51.09054],[3.665609,51.09048]]},"properties":{"highway":"path","vertex1":20220,"vertex2":20209}},{"type":"Feature","geometry":{"type":"LineString","coordinates":[[3.665404,51.08813],[3.663851,51.08779],[3.662847,51.08755],[3.662435,51.08744],[3.661972,51.08728],[3.661794,51.0872]]},"properties":{"name":"Ringvaartweg Mariakerke","motorcar":"no","maxspeed":"50","highway":"unclassified","vertex1":20219,"vertex2":20205}},{"type":"Feature","geometry":{"type":"LineString","coordinates":[[3.665404,51.08813],[3.665671,51.0882],[3.669044,51.08894],[3.67161,51.08953],[3.67181,51.08958],[3.67192,51.08962],[3.672057,51.08969],[3.672193,51.08973],[3.672606,51.08982],[3.673346,51.08999],[3.673466,51.09]]},"properties":{"name":"Ringvaartweg Mariakerke","motorcar":"no","maxspeed":"50","highway":"unclassified","vertex1":20219,"vertex2":20235}},{"type":"Feature","geometry":{"type":"LineString","coordinates":[[3.665404,51.08813],[3.665475,51.08799]]},"properties":{"highway":"service","vertex1":20219,"vertex2":20218}},{"type":"Feature","geometry":{"type":"LineString","coordinates":[[3.665475,51.08799],[3.665843,51.08805],[3.666075,51.08808],[3.666155,51.08809],[3.666223,51.08804],[3.666356,51.08773],[3.666278,51.08764],[3.66618,51.08762],[3.665707,51.08754],[3.665609,51.08747],[3.665573,51.08743]]},"properties":{"highway":"service","vertex1":20218,"vertex2":20208}},{"type":"Feature","geometry":{"type":"LineString","coordinates":[[3.665475,51.08799],[3.665407,51.08796]]},"properties":{"highway":"service","vertex1":20218,"vertex2":20216}},{"type":"Feature","geometry":{"type":"LineString","coordinates":[[3.662408,51.08924],[3.661341,51.08897]]},"properties":{"name":"Westbekesluis","maxspeed":"50","highway":"unclassified","vertex1":20217,"vertex2":20213}},{"type":"Feature","geometry":{"type":"LineString","coordinates":[[3.662408,51.08924],[3.66253,51.08907],[3.66256,51.08898],[3.662539,51.08891],[3.662504,51.08883],[3.662411,51.08873],[3.662216,51.08862],[3.661965,51.08851],[3.661568,51.08838],[3.66029,51.08808],[3.658789,51.08773],[3.658597,51.08772],[3.658462,51.08773],[3.658273,51.08777],[3.657457,51.08817],[3.656285,51.08869],[3.656164,51.08877],[3.656156,51.08887]]},"properties":{"name":"Westbekesluis","maxspeed":"50","highway":"unclassified","vertex1":20217,"vertex2":20177}},{"type":"Feature","geometry":{"type":"LineString","coordinates":[[3.665407,51.08796],[3.665339,51.08791],[3.664951,51.08785],[3.66481,51.0878],[3.664762,51.08775],[3.664876,51.08744],[3.664924,51.0874],[3.665004,51.08737],[3.665125,51.08739],[3.665309,51.08744],[3.665424,51.08744],[3.665573,51.08743]]},"properties":{"highway":"service","vertex1":20216,"vertex2":20208}},{"type":"Feature","geometry":{"type":"LineString","coordinates":[[3.658533,51.08821],[3.658684,51.08833],[3.658942,51.08849],[3.659208,51.0886],[3.659517,51.08868],[3.660496,51.08881],[3.661341,51.08897]]},"properties":{"name":"Westbekesluis","maxspeed":"50","highway":"unclassified","vertex1":20215,"vertex2":20213}},{"type":"Feature","geometry":{"type":"LineString","coordinates":[[3.658533,51.08821],[3.65839,51.08816],[3.658185,51.08815]]},"properties":{"name":"Westbekesluis","oneway":"yes","maxspeed":"50","highway":"unclassified","vertex1":20215,"vertex2":20195}},{"type":"Feature","geometry":{"type":"LineString","coordinates":[[3.658533,51.08821],[3.658529,51.08805],[3.658574,51.08796]]},"properties":{"oneway":"yes","highway":"unclassified","vertex1":20215,"vertex2":20203}},{"type":"Feature","geometry":{"type":"LineString","coordinates":[[3.661065,51.08678],[3.660466,51.08707],[3.65985,51.08736],[3.658644,51.08793]]},"properties":{"name":"Nieuwekalebrug","bridge":"yes","highway":"primary","maxspeed":"70","vertex1":20214,"vertex2":20202}},{"type":"Feature","geometry":{"type":"LineString","coordinates":[[3.661065,51.08678],[3.661532,51.08654],[3.661917,51.0863],[3.662562,51.08583]]},"properties":{"highway":"primary","maxspeed":"70","vertex1":20214,"vertex2":21127}},{"type":"Feature","geometry":{"type":"LineString","coordinates":[[3.667798,51.08784],[3.667467,51.08842]]},"properties":{"highway":"service","vertex1":20212,"vertex2":20206}},{"type":"Feature","geometry":{"type":"LineString","coordinates":[[3.667798,51.08784],[3.667588,51.0878],[3.667495,51.0878],[3.667417,51.08785],[3.667274,51.0881],[3.667186,51.08827],[3.667198,51.08832],[3.667248,51.08836],[3.66737,51.0884]]},"properties":{"highway":"service","vertex1":20212,"vertex2":20210}},{"type":"Feature","geometry":{"type":"LineString","coordinates":[[3.66737,51.0884],[3.667467,51.08842]]},"properties":{"highway":"service","vertex1":20210,"vertex2":20206}},{"type":"Feature","geometry":{"type":"LineString","coordinates":[[3.665609,51.09048],[3.664888,51.09022],[3.662171,51.08951],[3.661215,51.08926],[3.661218,51.08922]]},"properties":{"highway":"path","vertex1":20209,"vertex2":20207}},{"type":"Feature","geometry":{"type":"LineString","coordinates":[[3.665609,51.09048],[3.666758,51.09062],[3.668333,51.09083],[3.669048,51.09097],[3.671858,51.09159],[3.674122,51.09196],[3.674253,51.09199]]},"properties":{"highway":"path","vertex1":20209,"vertex2":20267}},{"type":"Feature","geometry":{"type":"LineString","coordinates":[[3.674253,51.09199],[3.673727,51.09242]]},"properties":{"name":"Westbeke","highway":"unclassified","vertex1":20267,"vertex2":20269}},{"type":"Feature","geometry":{"type":"LineString","coordinates":[[3.661794,51.0872],[3.661817,51.08715],[3.661807,51.08711],[3.661778,51.08708],[3.661748,51.08706],[3.661696,51.08705],[3.661638,51.08704],[3.661592,51.08705],[3.661542,51.08707],[3.661506,51.08709],[3.661485,51.08713],[3.661484,51.08717]]},"properties":{"motorcar":"no","highway":"unclassified","vertex1":20205,"vertex2":20204}},{"type":"Feature","geometry":{"type":"LineString","coordinates":[[3.661484,51.08717],[3.661114,51.08715],[3.66095,51.08713],[3.660797,51.0871],[3.660662,51.08705],[3.66053,51.08695],[3.660504,51.08687],[3.6605,51.08681],[3.660515,51.08676],[3.660546,51.0867],[3.660632,51.08665],[3.661507,51.08624],[3.66225,51.08588],[3.662786,51.08571]]},"properties":{"motorcar":"no","highway":"unclassified","vertex1":20204,"vertex2":21112}},{"type":"Feature","geometry":{"type":"LineString","coordinates":[[3.658574,51.08796],[3.658414,51.08804]]},"properties":{"name":"Brugsesteenweg","highway":"primary","maxspeed":"70","vertex1":20203,"vertex2":20198}},{"type":"Feature","geometry":{"type":"LineString","coordinates":[[3.658574,51.08796],[3.658644,51.08793]]},"properties":{"name":"Brugsesteenweg","highway":"primary","maxspeed":"70","vertex1":20203,"vertex2":20202}},{"type":"Feature","geometry":{"type":"LineString","coordinates":[[3.657399,51.08989],[3.656966,51.09038]]},"properties":{"maxspeed":"30","highway":"service","vertex1":20201,"vertex2":20192}},{"type":"Feature","geometry":{"type":"LineString","coordinates":[[3.657399,51.08989],[3.656296,51.08952],[3.655877,51.08999]]},"properties":{"maxspeed":"30","highway":"service","vertex1":20201,"vertex2":20194}},{"type":"Feature","geometry":{"type":"LineString","coordinates":[[3.658032,51.09179],[3.657615,51.09224]]},"properties":{"name":"Rabotwegel","highway":"residential","vertex1":20200,"vertex2":20172}},{"type":"Feature","geometry":{"type":"LineString","coordinates":[[3.648841,51.08721],[3.648957,51.08723],[3.649206,51.08723]]},"properties":{"name":"Neerstraat","oneway":"yes","cyclenetwork":"yes","highway":"residential","vertex1":20199,"vertex2":20174}},{"type":"Feature","geometry":{"type":"LineString","coordinates":[[3.648841,51.08721],[3.648857,51.08724],[3.648858,51.08727],[3.648842,51.0873]]},"properties":{"name":"Neerstraat","cyclenetwork":"yes","highway":"residential","maxspeed":"30","junction":"roundabout","vertex1":20199,"vertex2":20176}},{"type":"Feature","geometry":{"type":"LineString","coordinates":[[3.648841,51.08721],[3.648813,51.08719],[3.648776,51.08718],[3.648735,51.08718],[3.648693,51.08718]]},"properties":{"name":"Neerstraat","cyclenetwork":"yes","highway":"residential","maxspeed":"30","junction":"roundabout","vertex1":20199,"vertex2":20193}},{"type":"Feature","geometry":{"type":"LineString","coordinates":[[3.658414,51.08804],[3.658185,51.08815]]},"properties":{"name":"Brugsesteenweg","highway":"primary","maxspeed":"70","vertex1":20198,"vertex2":20195}},{"type":"Feature","geometry":{"type":"LineString","coordinates":[[3.652657,51.09029],[3.652279,51.09057],[3.652162,51.09069],[3.652131,51.09076]]},"properties":{"name":"Rabotstraat","highway":"residential","vertex1":20197,"vertex2":20187}},{"type":"Feature","geometry":{"type":"LineString","coordinates":[[3.652657,51.09029],[3.653452,51.08998]]},"properties":{"name":"Brugsesteenweg","highway":"unclassified","vertex1":20197,"vertex2":20196}},{"type":"Feature","geometry":{"type":"LineString","coordinates":[[3.652657,51.09029],[3.652678,51.09024],[3.652666,51.0902],[3.652636,51.09017],[3.652484,51.09013]]},"properties":{"name":"Rabotstraat","oneway":"yes","highway":"residential","vertex1":20197,"vertex2":20186}},{"type":"Feature","geometry":{"type":"LineString","coordinates":[[3.653452,51.08998],[3.653334,51.08983]]},"properties":{"name":"Brugsesteenweg","highway":"unclassified","vertex1":20196,"vertex2":20178}},{"type":"Feature","geometry":{"type":"LineString","coordinates":[[3.653452,51.08998],[3.653953,51.09047],[3.655095,51.09087]]},"properties":{"maxspeed":"30","highway":"service","vertex1":20196,"vertex2":20191}},{"type":"Feature","geometry":{"type":"LineString","coordinates":[[3.658185,51.08815],[3.657394,51.08845],[3.656156,51.08887]]},"properties":{"name":"Brugsesteenweg","highway":"primary","maxspeed":"70","vertex1":20195,"vertex2":20177}},{"type":"Feature","geometry":{"type":"LineString","coordinates":[[3.655877,51.08999],[3.655095,51.09087]]},"properties":{"maxspeed":"30","highway":"service","vertex1":20194,"vertex2":20191}},{"type":"Feature","geometry":{"type":"LineString","coordinates":[[3.655877,51.08999],[3.656966,51.09038]]},"properties":{"highway":"service","vertex1":20194,"vertex2":20192}},{"type":"Feature","geometry":{"type":"LineString","coordinates":[[3.648693,51.08718],[3.648659,51.08719],[3.648631,51.08721],[3.648614,51.08723]]},"properties":{"name":"Neerstraat","cyclenetwork":"yes","highway":"residential","maxspeed":"30","junction":"roundabout","vertex1":20193,"vertex2":20189}},{"type":"Feature","geometry":{"type":"LineString","coordinates":[[3.648693,51.08718],[3.648578,51.08716],[3.648372,51.08714]]},"properties":{"name":"Pastoor Moernautstraat","oneway":"yes","cyclenetwork":"yes","highway":"residential","vertex1":20193,"vertex2":20183}},{"type":"Feature","geometry":{"type":"LineString","coordinates":[[3.656966,51.09038],[3.656312,51.09112],[3.65607,51.09121],[3.655095,51.09087]]},"properties":{"maxspeed":"30","highway":"service","vertex1":20192,"vertex2":20191}},{"type":"Feature","geometry":{"type":"LineString","coordinates":[[3.655254,51.08918],[3.654523,51.08943],[3.653334,51.08983]]},"properties":{"name":"Brugsesteenweg","highway":"primary","maxspeed":"70","vertex1":20190,"vertex2":20178}},{"type":"Feature","geometry":{"type":"LineString","coordinates":[[3.655254,51.08918],[3.655676,51.08904]]},"properties":{"name":"Brugsesteenweg","highway":"primary","maxspeed":"70","vertex1":20190,"vertex2":20184}},{"type":"Feature","geometry":{"type":"LineString","coordinates":[[3.648614,51.08723],[3.64854,51.08719],[3.648456,51.08717],[3.648372,51.08714]]},"properties":{"name":"Pastoor Moernautstraat","oneway":"yes","cyclenetwork":"yes","highway":"residential","vertex1":20189,"vertex2":20183}},{"type":"Feature","geometry":{"type":"LineString","coordinates":[[3.648614,51.08723],[3.648607,51.08725],[3.648609,51.08727]]},"properties":{"name":"Neerstraat","cyclenetwork":"yes","highway":"residential","maxspeed":"30","junction":"roundabout","vertex1":20189,"vertex2":20182}},{"type":"Feature","geometry":{"type":"LineString","coordinates":[[3.652634,51.09008],[3.652484,51.09013]]},"properties":{"name":"Brugsesteenweg","highway":"primary","maxspeed":"70","vertex1":20188,"vertex2":20186}},{"type":"Feature","geometry":{"type":"LineString","coordinates":[[3.652634,51.09008],[3.652883,51.09],[3.653334,51.08983]]},"properties":{"name":"Brugsesteenweg","highway":"primary","maxspeed":"70","vertex1":20188,"vertex2":20178}},{"type":"Feature","geometry":{"type":"LineString","coordinates":[[3.652484,51.09013],[3.652369,51.09016],[3.65191,51.09032]]},"properties":{"bridge":"yes","name":"Brugsesteenweg","highway":"primary","maxspeed":"70","cycleway":"lane","vertex1":20186,"vertex2":20185}},{"type":"Feature","geometry":{"type":"LineString","coordinates":[[3.655676,51.08904],[3.656156,51.08887]]},"properties":{"name":"Brugsesteenweg","highway":"primary","maxspeed":"70","vertex1":20184,"vertex2":20177}},{"type":"Feature","geometry":{"type":"LineString","coordinates":[[3.648372,51.08714],[3.648108,51.08715],[3.647854,51.08715],[3.64751,51.08717],[3.64713,51.0872],[3.647089,51.08721]]},"properties":{"name":"Pastoor Moernautstraat","cyclenetwork":"yes","highway":"residential","vertex1":20183,"vertex2":21269}},{"type":"Feature","geometry":{"type":"LineString","coordinates":[[3.648609,51.08727],[3.648307,51.08734]]},"properties":{"name":"Neerstraat","oneway":"yes","highway":"residential","cycleway":"lane","vertex1":20182,"vertex2":20175}},{"type":"Feature","geometry":{"type":"LineString","coordinates":[[3.648609,51.08727],[3.648621,51.08729],[3.648642,51.08731],[3.648671,51.08732]]},"properties":{"name":"Neerstraat","cyclenetwork":"yes","highway":"residential","maxspeed":"30","junction":"roundabout","vertex1":20182,"vertex2":20180}},{"type":"Feature","geometry":{"type":"LineString","coordinates":[[3.650858,51.08952],[3.651102,51.08943],[3.651751,51.0892],[3.652448,51.08895],[3.653164,51.08864],[3.653913,51.08834],[3.654572,51.08808],[3.654731,51.08797],[3.654843,51.08787],[3.655025,51.08768],[3.655307,51.0875],[3.655632,51.08728],[3.655845,51.08711],[3.656054,51.08694],[3.656252,51.08691],[3.656364,51.08687],[3.656442,51.08677],[3.656568,51.0866],[3.656635,51.0865],[3.656686,51.08638],[3.656694,51.08625],[3.656675,51.08617],[3.656568,51.0861],[3.656399,51.08604],[3.656262,51.08599],[3.656155,51.08598],[3.656015,51.08598],[3.655946,51.08596]]},"properties":{"highway":"track","vertex1":20181,"vertex2":21198}},{"type":"Feature","geometry":{"type":"LineString","coordinates":[[3.650858,51.08952],[3.650788,51.08944],[3.650759,51.08939],[3.650692,51.08934],[3.650608,51.08926],[3.65059,51.08915],[3.65064,51.08901],[3.65067,51.08887],[3.650732,51.08882],[3.650788,51.08877],[3.650866,51.08868],[3.650884,51.08857],[3.650876,51.08844],[3.650785,51.08837],[3.650798,51.08833],[3.650917,51.08825],[3.651029,51.0882],[3.651083,51.08809],[3.651107,51.08802],[3.651185,51.08792],[3.651308,51.08785],[3.651539,51.0878],[3.651775,51.08773],[3.651877,51.08769],[3.651971,51.08761],[3.652105,51.08752],[3.652341,51.08744],[3.652706,51.08738],[3.652824,51.08735],[3.653078,51.08729],[3.653256,51.08724],[3.653382,51.08717],[3.653647,51.08703],[3.653674,51.08688],[3.653706,51.08681],[3.653787,51.08668],[3.653902,51.08658],[3.654119,51.08646],[3.654251,51.0864],[3.654471,51.08633],[3.655085,51.08619],[3.655447,51.08612],[3.655823,51.08601]]},"properties":{"highway":"path","vertex1":20181,"vertex2":21200}},{"type":"Feature","geometry":{"type":"LineString","coordinates":[[3.648671,51.08732],[3.648307,51.08734]]},"properties":{"name":"Neerstraat","oneway":"yes","highway":"residential","vertex1":20180,"vertex2":20175}},{"type":"Feature","geometry":{"type":"LineString","coordinates":[[3.648671,51.08732],[3.648717,51.08733],[3.648766,51.08733],[3.64881,51.08732],[3.648842,51.0873]]},"properties":{"name":"Neerstraat","cyclenetwork":"yes","highway":"residential","maxspeed":"30","junction":"roundabout","vertex1":20180,"vertex2":20176}},{"type":"Feature","geometry":{"type":"LineString","coordinates":[[3.653282,51.08648],[3.653324,51.08637],[3.654086,51.08569]]},"properties":{"name":"Speystraat","highway":"unclassified","vertex1":20179,"vertex2":21192}},{"type":"Feature","geometry":{"type":"LineString","coordinates":[[3.653282,51.08648],[3.655774,51.0858]]},"properties":{"name":"Neerstraat","cyclenetwork":"yes","highway":"residential","vertex1":20179,"vertex2":21194}},{"type":"Feature","geometry":{"type":"LineString","coordinates":[[3.653282,51.08648],[3.652387,51.08671],[3.651441,51.08694],[3.650702,51.08705],[3.6497,51.08717],[3.649206,51.08723]]},"properties":{"name":"Neerstraat","cyclenetwork":"yes","highway":"residential","vertex1":20179,"vertex2":20174}},{"type":"Feature","geometry":{"type":"LineString","coordinates":[[3.648842,51.0873],[3.649025,51.08727],[3.649206,51.08723]]},"properties":{"name":"Neerstraat","oneway":"yes","cyclenetwork":"yes","highway":"residential","vertex1":20176,"vertex2":20174}},{"type":"Feature","geometry":{"type":"LineString","coordinates":[[3.656776,51.09215],[3.657416,51.09237],[3.657471,51.09238],[3.657511,51.09236],[3.657615,51.09224]]},"properties":{"name":"Rabotwegel","highway":"residential","vertex1":20173,"vertex2":20172}},{"type":"Feature","geometry":{"type":"LineString","coordinates":[[3.657615,51.09224],[3.658017,51.09225],[3.658353,51.09228],[3.658469,51.09229]]},"properties":{"highway":"residential","vertex1":20172,"vertex2":20170}},{"type":"Feature","geometry":{"type":"LineString","coordinates":[[3.668903,51.09373],[3.668653,51.09312]]},"properties":{"highway":"service","vertex1":20171,"vertex2":20169}},{"type":"Feature","geometry":{"type":"LineString","coordinates":[[3.658469,51.09229],[3.658872,51.09233],[3.659391,51.09248],[3.660518,51.09293],[3.66097,51.09306]]},"properties":{"highway":"path","vertex1":20170,"vertex2":20164}},{"type":"Feature","geometry":{"type":"LineString","coordinates":[[3.668975,51.09306],[3.669231,51.09301],[3.669884,51.0928],[3.67016,51.09274],[3.671093,51.09269],[3.673311,51.09245],[3.67358,51.09243],[3.673727,51.09242]]},"properties":{"name":"Westbeke","highway":"residential","vertex1":20168,"vertex2":20269}},{"type":"Feature","geometry":{"type":"LineString","coordinates":[[3.665914,51.09608],[3.665986,51.09613],[3.666065,51.09618]]},"properties":{"highway":"track","vertex1":20167,"vertex2":20162}},{"type":"Feature","geometry":{"type":"LineString","coordinates":[[3.66714,51.09541],[3.666991,51.09567],[3.666806,51.09588],[3.666628,51.09578],[3.666601,51.09577]]},"properties":{"highway":"service","vertex1":20165,"vertex2":20161}},{"type":"Feature","geometry":{"type":"LineString","coordinates":[[3.655823,51.08601],[3.655946,51.08596]]},"properties":{"highway":"path","vertex1":21200,"vertex2":21198}},{"type":"Feature","geometry":{"type":"LineString","coordinates":[[3.655946,51.08596],[3.655844,51.08588],[3.655774,51.0858]]},"properties":{"highway":"track","vertex1":21198,"vertex2":21194}},{"type":"Feature","geometry":{"type":"LineString","coordinates":[[3.657768,51.08541],[3.657924,51.0843],[3.658058,51.08403]]},"properties":{"name":"Langendam","cyclenetwork":"yes","highway":"unclassified","vertex1":21196,"vertex2":21186}},{"type":"Feature","geometry":{"type":"LineString","coordinates":[[3.657768,51.08541],[3.657375,51.08544],[3.657101,51.08548],[3.656313,51.08567],[3.656014,51.08574],[3.655774,51.0858]]},"properties":{"name":"Neerstraat","cyclenetwork":"yes","highway":"residential","vertex1":21196,"vertex2":21194}},{"type":"Feature","geometry":{"type":"LineString","coordinates":[[3.657768,51.08541],[3.659181,51.08537]]},"properties":{"name":"Speybrug","bridge":"yes","cyclenetwork":"yes","highway":"residential","vertex1":21196,"vertex2":21168}},{"type":"Feature","geometry":{"type":"LineString","coordinates":[[3.655085,51.0854],[3.654256,51.08562],[3.654086,51.08569]]},"properties":{"name":"Speystraat","highway":"residential","vertex1":21195,"vertex2":21192}},{"type":"Feature","geometry":{"type":"LineString","coordinates":[[3.655085,51.0854],[3.654306,51.08521]]},"properties":{"name":"Speystraat","highway":"residential","vertex1":21195,"vertex2":21183}},{"type":"Feature","geometry":{"type":"LineString","coordinates":[[3.655085,51.0854],[3.655911,51.08541],[3.656327,51.08543],[3.656896,51.08539]]},"properties":{"name":"Speystraat","highway":"residential","vertex1":21195,"vertex2":21182}},{"type":"Feature","geometry":{"type":"LineString","coordinates":[[3.654086,51.08569],[3.654306,51.08521]]},"properties":{"name":"Speystraat","highway":"unclassified","vertex1":21192,"vertex2":21183}},{"type":"Feature","geometry":{"type":"LineString","coordinates":[[3.651939,51.08491],[3.651865,51.08491],[3.651648,51.08492],[3.651457,51.08492],[3.650914,51.08492],[3.650615,51.08493],[3.650412,51.08493],[3.650122,51.08495],[3.649912,51.08496],[3.649789,51.08496],[3.649647,51.08496],[3.649403,51.08495],[3.649323,51.08495],[3.649256,51.08495],[3.64921,51.08496],[3.649151,51.085],[3.649071,51.08505],[3.64897,51.08513],[3.648836,51.08523],[3.64877,51.08526],[3.648732,51.08527],[3.648703,51.08527],[3.648638,51.08527],[3.648333,51.08524],[3.647766,51.08517],[3.647249,51.08512],[3.64667,51.08506],[3.646623,51.08506]]},"properties":{"name":"Schouwbroekstraat","highway":"unclassified","vertex1":21190,"vertex2":21211}},{"type":"Feature","geometry":{"type":"LineString","coordinates":[[3.651939,51.08491],[3.65215,51.08491],[3.652579,51.08492],[3.652919,51.08494],[3.653126,51.08496],[3.65323,51.08498],[3.653422,51.08501],[3.654306,51.08521]]},"properties":{"name":"Schouwbroekstraat","highway":"unclassified","vertex1":21190,"vertex2":21183}},{"type":"Feature","geometry":{"type":"LineString","coordinates":[[3.651939,51.08491],[3.651925,51.08433],[3.651932,51.08429],[3.652002,51.08426],[3.65208,51.08426],[3.652149,51.08424]]},"properties":{"highway":"track","vertex1":21190,"vertex2":21185}},{"type":"Feature","geometry":{"type":"LineString","coordinates":[[3.658058,51.08403],[3.658033,51.08375],[3.657967,51.08297],[3.657954,51.08284],[3.657952,51.08278],[3.657919,51.08273],[3.657868,51.08269],[3.657803,51.08265],[3.657148,51.08231],[3.656643,51.08196],[3.656181,51.08155],[3.655995,51.08133],[3.655845,51.08111]]},"properties":{"highway":"cycleway","vertex1":21186,"vertex2":21188}},{"type":"Feature","geometry":{"type":"LineString","coordinates":[[3.654306,51.08521],[3.654144,51.08446],[3.654019,51.08376],[3.653799,51.0828]]},"properties":{"name":"Langendam","highway":"unclassified","vertex1":21183,"vertex2":21202}},{"type":"Feature","geometry":{"type":"LineString","coordinates":[[3.659072,51.0852],[3.659072,51.0852]]},"properties":{"highway":"cycleway","vertex1":21181,"vertex2":21142}},{"type":"Feature","geometry":{"type":"LineString","coordinates":[[3.659072,51.0852],[3.658907,51.08328]]},"properties":{"highway":"cycleway","vertex1":21181,"vertex2":21153}},{"type":"Feature","geometry":{"type":"LineString","coordinates":[[3.659072,51.0852],[3.659083,51.08532]]},"properties":{"highway":"track","vertex1":21181,"vertex2":21131}},{"type":"Feature","geometry":{"type":"LineString","coordinates":[[3.658905,51.08327],[3.658907,51.08328]]},"properties":{"highway":"cycleway","vertex1":21179,"vertex2":21173}},{"type":"Feature","geometry":{"type":"LineString","coordinates":[[3.658905,51.08327],[3.658902,51.08323]]},"properties":{"highway":"track","vertex1":21179,"vertex2":21121}},{"type":"Feature","geometry":{"type":"LineString","coordinates":[[3.658905,51.08327],[3.658905,51.08327]]},"properties":{"highway":"cycleway","vertex1":21179,"vertex2":21115}},{"type":"Feature","geometry":{"type":"LineString","coordinates":[[3.659,51.08316],[3.658886,51.08304]]},"properties":{"highway":"cycleway","vertex1":21177,"vertex2":21139}},{"type":"Feature","geometry":{"type":"LineString","coordinates":[[3.659,51.08316],[3.658902,51.08323]]},"properties":{"highway":"cycleway","vertex1":21177,"vertex2":21121}},{"type":"Feature","geometry":{"type":"LineString","coordinates":[[3.659,51.08316],[3.660092,51.08354],[3.660618,51.08368],[3.66121,51.08383],[3.661829,51.08395],[3.661969,51.08396]]},"properties":{"highway":"cycleway","vertex1":21177,"vertex2":21149}},{"type":"Feature","geometry":{"type":"LineString","coordinates":[[3.665079,51.08475],[3.666113,51.08502],[3.667125,51.08529],[3.668678,51.0857]]},"properties":{"highway":"cycleway","vertex1":21175,"vertex2":21111}},{"type":"Feature","geometry":{"type":"LineString","coordinates":[[3.665079,51.08475],[3.663578,51.08437]]},"properties":{"bridge":"yes","highway":"cycleway","vertex1":21175,"vertex2":21159}},{"type":"Feature","geometry":{"type":"LineString","coordinates":[[3.66447,51.08418],[3.664069,51.08435],[3.663718,51.08454],[3.663103,51.08485],[3.662976,51.08489],[3.662829,51.08491],[3.662522,51.08493],[3.662424,51.08494]]},"properties":{"name":"Trekweg","cyclenetwork":"yes","highway":"residential","vertex1":21174,"vertex2":21172}},{"type":"Feature","geometry":{"type":"LineString","coordinates":[[3.66447,51.08418],[3.664435,51.0841],[3.664333,51.08405],[3.662556,51.08363],[3.661884,51.08344],[3.661455,51.08329],[3.661131,51.08316],[3.660812,51.08301],[3.660563,51.08287],[3.660315,51.08271],[3.660046,51.08252]]},"properties":{"name":"Vinderhoutsedam","highway":"residential","vertex1":21174,"vertex2":21178}},{"type":"Feature","geometry":{"type":"LineString","coordinates":[[3.66447,51.08418],[3.664791,51.08407],[3.666302,51.08332]]},"properties":{"name":"Trekweg","oneway":"yes","cyclenetwork":"yes","oneway:bicycle":"no","highway":"residential","vertex1":21174,"vertex2":21163}},{"type":"Feature","geometry":{"type":"LineString","coordinates":[[3.658907,51.08328],[3.658905,51.08327]]},"properties":{"highway":"track","vertex1":21173,"vertex2":21115}},{"type":"Feature","geometry":{"type":"LineString","coordinates":[[3.658907,51.08328],[3.659072,51.0852]]},"properties":{"highway":"track","vertex1":21173,"vertex2":21142}},{"type":"Feature","geometry":{"type":"LineString","coordinates":[[3.658907,51.08328],[3.658907,51.08328]]},"properties":{"highway":"cycleway","vertex1":21173,"vertex2":21153}},{"type":"Feature","geometry":{"type":"LineString","coordinates":[[3.662424,51.08494],[3.662222,51.08495],[3.662061,51.08498],[3.661036,51.08517]]},"properties":{"name":"Trekweg","cyclenetwork":"yes","highway":"residential","vertex1":21172,"vertex2":21170}},{"type":"Feature","geometry":{"type":"LineString","coordinates":[[3.662424,51.08494],[3.66232,51.08507],[3.662179,51.0852],[3.662091,51.08535],[3.661885,51.08548],[3.661717,51.08558],[3.661477,51.08572],[3.661238,51.08584],[3.661023,51.08588],[3.660639,51.08583],[3.660272,51.08578],[3.660032,51.08575],[3.659825,51.08575],[3.659411,51.08572],[3.659179,51.08569],[3.659129,51.08558],[3.659094,51.08545]]},"properties":{"highway":"track","vertex1":21172,"vertex2":21106}},{"type":"Feature","geometry":{"type":"LineString","coordinates":[[3.661036,51.08517],[3.660405,51.08529],[3.65999,51.08533],[3.659181,51.08537]]},"properties":{"name":"Trekweg","cyclenetwork":"yes","highway":"residential","vertex1":21170,"vertex2":21168}},{"type":"Feature","geometry":{"type":"LineString","coordinates":[[3.661036,51.08517],[3.660829,51.08513],[3.660589,51.08511],[3.660153,51.08513],[3.65917,51.08519]]},"properties":{"highway":"service","vertex1":21170,"vertex2":21140}},{"type":"Feature","geometry":{"type":"LineString","coordinates":[[3.665304,51.08463],[3.663828,51.08424]]},"properties":{"bridge":"yes","oneway":"yes","bicycle":"yes","highway":"trunk","maxspeed":"90","vertex1":21166,"vertex2":21124}},{"type":"Feature","geometry":{"type":"LineString","coordinates":[[3.665304,51.08463],[3.66568,51.08472]]},"properties":{"name":"Industrieweg","oneway":"yes","bicycle":"yes","highway":"trunk","maxspeed":"90","vertex1":21166,"vertex2":21162}},{"type":"Feature","geometry":{"type":"LineString","coordinates":[[3.663661,51.08433],[3.662996,51.08416],[3.662078,51.08392],[3.661673,51.08383],[3.661276,51.08372],[3.661022,51.08364],[3.66066,51.08353],[3.660337,51.08342],[3.659745,51.0832],[3.659458,51.08309],[3.659201,51.08299]]},"properties":{"name":"Buitenring-Vinderhoute","oneway":"yes","maxspeed":"70","highway":"trunk","vertex1":21164,"vertex2":21116}},{"type":"Feature","geometry":{"type":"LineString","coordinates":[[3.663661,51.08433],[3.665117,51.08471]]},"properties":{"bridge":"yes","oneway":"yes","maxspeed":"70","highway":"trunk","vertex1":21164,"vertex2":21160}},{"type":"Feature","geometry":{"type":"LineString","coordinates":[[3.666302,51.08332],[3.666073,51.08319]]},"properties":{"highway":"track","vertex1":21163,"vertex2":21133}},{"type":"Feature","geometry":{"type":"LineString","coordinates":[[3.666302,51.08332],[3.666655,51.08315]]},"properties":{"name":"Trekweg","oneway":"yes","cyclenetwork":"yes","oneway:bicycle":"no","highway":"residential","vertex1":21163,"vertex2":21125}},{"type":"Feature","geometry":{"type":"LineString","coordinates":[[3.66568,51.08472],[3.667063,51.08508],[3.667729,51.08524]]},"properties":{"name":"Industrieweg","oneway":"yes","bicycle":"yes","highway":"trunk","maxspeed":"90","vertex1":21162,"vertex2":21120}},{"type":"Feature","geometry":{"type":"LineString","coordinates":[[3.665117,51.08471],[3.66576,51.08488],[3.666367,51.08504],[3.667136,51.08523]]},"properties":{"name":"Industrieweg","oneway":"yes","highway":"trunk","maxspeed":"90","vertex1":21160,"vertex2":21154}},{"type":"Feature","geometry":{"type":"LineString","coordinates":[[3.663578,51.08437],[3.663423,51.08432],[3.662699,51.08414],[3.661969,51.08396]]},"properties":{"highway":"cycleway","vertex1":21159,"vertex2":21149}},{"type":"Feature","geometry":{"type":"LineString","coordinates":[[3.659093,51.08543],[3.659083,51.08532]]},"properties":{"highway":"cycleway","vertex1":21157,"vertex2":21131}},{"type":"Feature","geometry":{"type":"LineString","coordinates":[[3.668656,51.08561],[3.667982,51.08545],[3.667136,51.08523]]},"properties":{"name":"Industrieweg","oneway":"yes","highway":"trunk","maxspeed":"90","vertex1":21156,"vertex2":21154}},{"type":"Feature","geometry":{"type":"LineString","coordinates":[[3.668656,51.08561],[3.669291,51.08577],[3.669552,51.08584]]},"properties":{"name":"Industrieweg","oneway":"yes","highway":"trunk","maxspeed":"90","vertex1":21156,"vertex2":20432}},{"type":"Feature","geometry":{"type":"LineString","coordinates":[[3.658902,51.08323],[3.658902,51.08323]]},"properties":{"highway":"cycleway","vertex1":21155,"vertex2":21121}},{"type":"Feature","geometry":{"type":"LineString","coordinates":[[3.658902,51.08323],[3.658905,51.08327]]},"properties":{"highway":"cycleway","vertex1":21155,"vertex2":21115}},{"type":"Feature","geometry":{"type":"LineString","coordinates":[[3.658907,51.08328],[3.658982,51.0833],[3.659296,51.08343],[3.659421,51.08351],[3.659454,51.0839],[3.659439,51.08406],[3.659443,51.08441],[3.659428,51.08461],[3.659392,51.08485],[3.659297,51.085],[3.65917,51.08519]]},"properties":{"highway":"track","vertex1":21153,"vertex2":21140}},{"type":"Feature","geometry":{"type":"LineString","coordinates":[[3.665482,51.08433],[3.665791,51.08439],[3.666142,51.08448],[3.666795,51.08463],[3.667022,51.08467],[3.667248,51.08468],[3.667447,51.08467],[3.66785,51.08458],[3.668242,51.0845],[3.668508,51.08447],[3.668722,51.08448],[3.668902,51.08451],[3.669039,51.08457],[3.669149,51.08463],[3.669227,51.08473],[3.669274,51.0848],[3.669283,51.08488],[3.669269,51.08501],[3.669214,51.08511],[3.669099,51.08522],[3.668956,51.08528],[3.668787,51.08532],[3.668591,51.08534],[3.668456,51.08533]]},"properties":{"name":"Industrieweg","oneway":"yes","bicycle":"yes","cycleway":"lane","highway":"trunk_link","vertex1":21152,"vertex2":21114}},{"type":"Feature","geometry":{"type":"LineString","coordinates":[[3.665482,51.08433],[3.665719,51.08422]]},"properties":{"name":"Brugsevaart","highway":"primary","maxspeed":"70","vertex1":21152,"vertex2":21110}},{"type":"Feature","geometry":{"type":"LineString","coordinates":[[3.665482,51.08433],[3.665311,51.08442],[3.664991,51.08458]]},"properties":{"name":"Brugsevaart","highway":"primary","maxspeed":"70","vertex1":21152,"vertex2":21151}},{"type":"Feature","geometry":{"type":"LineString","coordinates":[[3.664991,51.08458],[3.664555,51.08481],[3.66437,51.08491]]},"properties":{"name":"Brugsevaart","highway":"primary","maxspeed":"70","vertex1":21151,"vertex2":21132}},{"type":"Feature","geometry":{"type":"LineString","coordinates":[[3.665104,51.08517],[3.664959,51.08516],[3.66457,51.08507],[3.664522,51.08506],[3.664214,51.08498]]},"properties":{"name":"R4","oneway":"yes","bicycle":"yes","highway":"trunk_link","vertex1":21150,"vertex2":21126}},{"type":"Feature","geometry":{"type":"LineString","coordinates":[[3.665104,51.08517],[3.665935,51.08535]]},"properties":{"bicycle":"yes","cycleway":"lane","highway":"trunk_link","vertex1":21150,"vertex2":21138}},{"type":"Feature","geometry":{"type":"LineString","coordinates":[[3.665104,51.08517],[3.665005,51.08511]]},"properties":{"oneway":"yes","bicycle":"yes","highway":"trunk_link","vertex1":21150,"vertex2":21130}},{"type":"Feature","geometry":{"type":"LineString","coordinates":[[3.661969,51.08396],[3.660794,51.08362],[3.660188,51.08342],[3.659386,51.08314],[3.659177,51.08305]]},"properties":{"highway":"cycleway","vertex1":21149,"vertex2":21109}},{"type":"Feature","geometry":{"type":"LineString","coordinates":[[3.666545,51.08292],[3.666781,51.08308]]},"properties":{"highway":"track","vertex1":21148,"vertex2":21128}},{"type":"Feature","geometry":{"type":"LineString","coordinates":[[3.666545,51.08292],[3.666245,51.08276],[3.665966,51.08262],[3.665708,51.08246],[3.665504,51.08234],[3.665226,51.08226],[3.665032,51.08217],[3.664839,51.08199],[3.664554,51.08179]]},"properties":{"highway":"track","vertex1":21148,"vertex2":21158}},{"type":"Feature","geometry":{"type":"LineString","coordinates":[[3.666545,51.08292],[3.666277,51.0831],[3.666073,51.08319]]},"properties":{"highway":"track","vertex1":21148,"vertex2":21133}},{"type":"Feature","geometry":{"type":"LineString","coordinates":[[3.665936,51.08547],[3.665935,51.08535]]},"properties":{"highway":"residential","vertex1":21146,"vertex2":21138}},{"type":"Feature","geometry":{"type":"LineString","coordinates":[[3.665936,51.08547],[3.666499,51.08558],[3.667168,51.08562]]},"properties":{"name":"Speistraat","highway":"residential","vertex1":21146,"vertex2":21136}},{"type":"Feature","geometry":{"type":"LineString","coordinates":[[3.665936,51.08547],[3.664256,51.08518]]},"properties":{"name":"Speistraat","highway":"residential","vertex1":21146,"vertex2":21122}},{"type":"Feature","geometry":{"type":"LineString","coordinates":[[3.66692,51.0836],[3.666471,51.08383]]},"properties":{"name":"Brugsevaart","highway":"primary","maxspeed":"70","vertex1":21143,"vertex2":21107}},{"type":"Feature","geometry":{"type":"LineString","coordinates":[[3.66692,51.0836],[3.6677,51.0832]]},"properties":{"name":"Brugsevaart","highway":"primary","maxspeed":"70","vertex1":21143,"vertex2":21123}},{"type":"Feature","geometry":{"type":"LineString","coordinates":[[3.659072,51.0852],[3.65917,51.08519]]},"properties":{"highway":"service","vertex1":21142,"vertex2":21140}},{"type":"Feature","geometry":{"type":"LineString","coordinates":[[3.659072,51.0852],[3.659083,51.08532]]},"properties":{"highway":"cycleway","vertex1":21142,"vertex2":21131}},{"type":"Feature","geometry":{"type":"LineString","coordinates":[[3.658886,51.08304],[3.65887,51.08271],[3.658874,51.08266],[3.658908,51.08264],[3.658974,51.08261],[3.659058,51.08261],[3.659131,51.08263],[3.659449,51.08273],[3.659569,51.08273],[3.659642,51.0827]]},"properties":{"highway":"track","vertex1":21139,"vertex2":21129}},{"type":"Feature","geometry":{"type":"LineString","coordinates":[[3.658886,51.08304],[3.658902,51.08323]]},"properties":{"highway":"track","vertex1":21139,"vertex2":21121}},{"type":"Feature","geometry":{"type":"LineString","coordinates":[[3.665935,51.08535],[3.666492,51.08548],[3.667168,51.08562]]},"properties":{"bicycle":"yes","cycleway":"lane","highway":"trunk_link","vertex1":21138,"vertex2":21136}},{"type":"Feature","geometry":{"type":"LineString","coordinates":[[3.667168,51.08562],[3.668566,51.08595]]},"properties":{"bicycle":"yes","cycleway":"lane","highway":"trunk_link","vertex1":21136,"vertex2":21105}},{"type":"Feature","geometry":{"type":"LineString","coordinates":[[3.663855,51.08516],[3.664256,51.08518]]},"properties":{"highway":"cycleway","vertex1":21134,"vertex2":21122}},{"type":"Feature","geometry":{"type":"LineString","coordinates":[[3.663855,51.08516],[3.664108,51.08504],[3.664214,51.08498]]},"properties":{"highway":"primary","maxspeed":"70","vertex1":21134,"vertex2":21126}},{"type":"Feature","geometry":{"type":"LineString","coordinates":[[3.663855,51.08516],[3.663152,51.08553]]},"properties":{"highway":"primary","maxspeed":"70","vertex1":21134,"vertex2":21108}},{"type":"Feature","geometry":{"type":"LineString","coordinates":[[3.666073,51.08319],[3.665826,51.08309],[3.665558,51.08299],[3.665333,51.08286],[3.665129,51.08274],[3.664721,51.08258],[3.664464,51.08247],[3.664163,51.08233],[3.663949,51.08224]]},"properties":{"highway":"track","vertex1":21133,"vertex2":21165}},{"type":"Feature","geometry":{"type":"LineString","coordinates":[[3.66437,51.08491],[3.664702,51.08503],[3.665005,51.08511]]},"properties":{"oneway":"yes","bicycle":"yes","highway":"trunk_link","vertex1":21132,"vertex2":21130}},{"type":"Feature","geometry":{"type":"LineString","coordinates":[[3.66437,51.08491],[3.664214,51.08498]]},"properties":{"highway":"primary","maxspeed":"70","vertex1":21132,"vertex2":21126}},{"type":"Feature","geometry":{"type":"LineString","coordinates":[[3.659083,51.08532],[3.659094,51.08545]]},"properties":{"highway":"track","vertex1":21131,"vertex2":21106}},{"type":"Feature","geometry":{"type":"LineString","coordinates":[[3.666781,51.08308],[3.667761,51.08259]]},"properties":{"name":"Trekweg","oneway":"yes","cyclenetwork":"yes","oneway:bicycle":"no","highway":"residential","maxspeed":"30","vertex1":21128,"vertex2":21141}},{"type":"Feature","geometry":{"type":"LineString","coordinates":[[3.666781,51.08308],[3.666655,51.08315]]},"properties":{"name":"Trekweg","oneway":"yes","cyclenetwork":"yes","oneway:bicycle":"no","highway":"residential","maxspeed":"30","vertex1":21128,"vertex2":21125}},{"type":"Feature","geometry":{"type":"LineString","coordinates":[[3.662562,51.08583],[3.662786,51.08571]]},"properties":{"highway":"primary","maxspeed":"70","vertex1":21127,"vertex2":21112}},{"type":"Feature","geometry":{"type":"LineString","coordinates":[[3.663828,51.08424],[3.663107,51.08406],[3.662389,51.08387],[3.661836,51.08372],[3.661352,51.08356],[3.660711,51.08327],[3.660313,51.08305],[3.659946,51.08282],[3.659643,51.08254],[3.659486,51.08239],[3.659354,51.08224],[3.659198,51.08203],[3.659075,51.08183],[3.659008,51.0817],[3.658952,51.08156],[3.658898,51.08142],[3.65886,51.08128],[3.658784,51.08092]]},"properties":{"name":"Binnenring-Vinderhoute","oneway":"yes","bicycle":"yes","highway":"trunk","maxspeed":"90","vertex1":21124,"vertex2":21062}},{"type":"Feature","geometry":{"type":"LineString","coordinates":[[3.6677,51.0832],[3.669146,51.08246],[3.669333,51.08236]]},"properties":{"name":"Brugsevaart","highway":"primary","maxspeed":"70","vertex1":21123,"vertex2":21145}},{"type":"Feature","geometry":{"type":"LineString","coordinates":[[3.667729,51.08524],[3.667966,51.08524]]},"properties":{"name":"Industrieweg","oneway":"yes","bicycle":"yes","cycleway":"lane","highway":"trunk_link","vertex1":21120,"vertex2":21118}},{"type":"Feature","geometry":{"type":"LineString","coordinates":[[3.667729,51.08524],[3.669272,51.08563],[3.67016,51.08585],[3.671021,51.08604]]},"properties":{"name":"Industrieweg","oneway":"yes","highway":"trunk","maxspeed":"90","vertex1":21120,"vertex2":20433}},{"type":"Feature","geometry":{"type":"LineString","coordinates":[[3.667966,51.08524],[3.668456,51.08533]]},"properties":{"name":"Industrieweg","oneway":"yes","bicycle":"yes","cycleway":"lane","highway":"trunk_link","vertex1":21118,"vertex2":21114}},{"type":"Feature","geometry":{"type":"LineString","coordinates":[[3.659201,51.08299],[3.658673,51.08277],[3.658185,51.08253],[3.657744,51.08229]]},"properties":{"name":"Buitenring-Vinderhoute","bridge":"yes","oneway":"yes","maxspeed":"70","highway":"trunk","vertex1":21116,"vertex2":21203}},{"type":"Feature","geometry":{"type":"LineString","coordinates":[[3.668456,51.08533],[3.668491,51.08538],[3.668852,51.08547],[3.669841,51.08572],[3.670084,51.08577],[3.670148,51.08576],[3.670221,51.08571]]},"properties":{"oneway":"yes","highway":"cycleway","vertex1":21114,"vertex2":20430}},{"type":"Feature","geometry":{"type":"LineString","coordinates":[[3.670221,51.08571],[3.669944,51.08555],[3.669747,51.0854],[3.669599,51.08524],[3.669377,51.08486],[3.669288,51.08471],[3.669205,51.08461],[3.669077,51.08454],[3.668979,51.0845],[3.668856,51.08446],[3.6687,51.08444],[3.668495,51.08443],[3.668183,51.08448],[3.667611,51.08459],[3.667366,51.08463],[3.667145,51.08463],[3.666939,51.08461],[3.666689,51.08456],[3.666058,51.08438],[3.665719,51.08422]]},"properties":{"name":"Industrieweg","oneway":"yes","bicycle":"yes","cycleway":"lane","highway":"trunk_link","vertex1":20430,"vertex2":21110}},{"type":"Feature","geometry":{"type":"LineString","coordinates":[[3.662786,51.08571],[3.663152,51.08553]]},"properties":{"highway":"primary","maxspeed":"70","vertex1":21112,"vertex2":21108}},{"type":"Feature","geometry":{"type":"LineString","coordinates":[[3.668678,51.0857],[3.668703,51.0858],[3.668566,51.08595]]},"properties":{"highway":"cycleway","vertex1":21111,"vertex2":21105}},{"type":"Feature","geometry":{"type":"LineString","coordinates":[[3.668678,51.0857],[3.669981,51.08602],[3.67021,51.08613]]},"properties":{"oneway":"yes","highway":"cycleway","vertex1":21111,"vertex2":20399}},{"type":"Feature","geometry":{"type":"LineString","coordinates":[[3.665719,51.08422],[3.666471,51.08383]]},"properties":{"name":"Brugsevaart","highway":"primary","maxspeed":"70","vertex1":21110,"vertex2":21107}},{"type":"Feature","geometry":{"type":"LineString","coordinates":[[3.659177,51.08305],[3.658455,51.08274],[3.65805,51.08254],[3.657686,51.08233]]},"properties":{"bridge":"yes","highway":"cycleway","vertex1":21109,"vertex2":21187}},{"type":"Feature","geometry":{"type":"LineString","coordinates":[[3.668566,51.08595],[3.668803,51.08603],[3.668977,51.08611],[3.669501,51.08644],[3.669672,51.08651],[3.669778,51.08652],[3.669843,51.08652],[3.669938,51.08652]]},"properties":{"bicycle":"yes","cycleway":"lane","highway":"trunk_link","vertex1":21105,"vertex2":20249}}]}