{"type":"FeatureCollection","features":[{"type":"Feature","geometry":{"type":"LineString","coordinates":[[3.647461,51.08282],[3.669434,51.08282],[3.669434,51.06902],[3.647461,51.06902],[3.647461,51.08282]]},"properties":{"id":"89776294","zoom":"14"}},{"type":"Feature","geometry":{"type":"LineString","coordinates":[[3.657744,51.08229],[3.658185,51.08253],[3.658673,51.08277],[3.659201,51.08299]]},"properties":{"name":"Buitenring-Vinderhoute","bridge":"yes","oneway":"yes","maxspeed":"70","highway":"trunk","vertex1":21203,"vertex2":21116}},{"type":"Feature","geometry":{"type":"LineString","coordinates":[[3.657744,51.08229],[3.657289,51.08203],[3.656883,51.08176],[3.656585,51.08152],[3.656312,51.08126],[3.656098,51.08098]]},"properties":{"name":"Buitenring-Vinderhoute","oneway":"yes","maxspeed":"70","highway":"trunk","vertex1":21203,"vertex2":21184}},{"type":"Feature","geometry":{"type":"LineString","coordinates":[[3.653799,51.0828],[3.654019,51.08376],[3.654144,51.08446],[3.654306,51.08521]]},"properties":{"name":"Langendam","highway":"unclassified","vertex1":21202,"vertex2":21183}},{"type":"Feature","geometry":{"type":"LineString","coordinates":[[3.653799,51.0828],[3.653808,51.08276],[3.653837,51.08271],[3.654255,51.08241]]},"properties":{"highway":"track","vertex1":21202,"vertex2":21201}},{"type":"Feature","geometry":{"type":"LineString","coordinates":[[3.654255,51.08241],[3.654974,51.08174],[3.655536,51.08122],[3.655627,51.08117]]},"properties":{"highway":"track","vertex1":21201,"vertex2":21199}},{"type":"Feature","geometry":{"type":"LineString","coordinates":[[3.654255,51.08241],[3.65423,51.0824]]},"properties":{"highway":"track","vertex1":21201,"vertex2":21197}},{"type":"Feature","geometry":{"type":"LineString","coordinates":[[3.655627,51.08117],[3.655785,51.08113]]},"properties":{"bridge":"yes","highway":"track","vertex1":21199,"vertex2":21191}},{"type":"Feature","geometry":{"type":"LineString","coordinates":[[3.65423,51.0824],[3.654178,51.08236]]},"properties":{"bridge":"yes","highway":"track","vertex1":21197,"vertex2":21189}},{"type":"Feature","geometry":{"type":"LineString","coordinates":[[3.6521,51.08099],[3.653294,51.0799]]},"properties":{"highway":"track","vertex1":21193,"vertex2":21048}},{"type":"Feature","geometry":{"type":"LineString","coordinates":[[3.6521,51.08099],[3.652208,51.0811],[3.652487,51.0813],[3.654178,51.08236]]},"properties":{"bicycle":"no","motorcar":"no","foot":"no","highway":"track","vertex1":21193,"vertex2":21189}},{"type":"Feature","geometry":{"type":"LineString","coordinates":[[3.6521,51.08099],[3.652071,51.08096],[3.651996,51.08072],[3.651924,51.0805],[3.651832,51.08041],[3.651675,51.08032],[3.651546,51.08029],[3.651343,51.08027],[3.651099,51.08025],[3.650882,51.08023],[3.650707,51.08017],[3.650535,51.08007],[3.650412,51.08001],[3.650164,51.07989],[3.649984,51.07984],[3.649692,51.07979],[3.649499,51.07977],[3.64929,51.07971],[3.649084,51.07962],[3.648638,51.07944],[3.6484,51.07933],[3.648161,51.07925],[3.648059,51.07916],[3.647984,51.07907],[3.647935,51.079],[3.647828,51.07893],[3.647606,51.07885],[3.647082,51.07871],[3.64693,51.07867],[3.646766,51.0787],[3.646385,51.07876],[3.646163,51.0788],[3.645937,51.07883]]},"properties":{"bicycle":"no","motorcar":"no","foot":"no","highway":"track","vertex1":21193,"vertex2":21256}},{"type":"Feature","geometry":{"type":"LineString","coordinates":[[3.655785,51.08113],[3.655845,51.08111]]},"properties":{"highway":"track","vertex1":21191,"vertex2":21188}},{"type":"Feature","geometry":{"type":"LineString","coordinates":[[3.655845,51.08111],[3.655995,51.08133],[3.656181,51.08155],[3.656643,51.08196],[3.657148,51.08231],[3.657803,51.08265],[3.657868,51.08269],[3.657919,51.08273],[3.657952,51.08278],[3.657954,51.08284],[3.657967,51.08297],[3.658033,51.08375],[3.658058,51.08403]]},"properties":{"highway":"cycleway","vertex1":21188,"vertex2":21186}},{"type":"Feature","geometry":{"type":"LineString","coordinates":[[3.655845,51.08111],[3.655741,51.08083],[3.65567,51.08052],[3.65565,51.08019],[3.655704,51.08006],[3.65577,51.07995]]},"properties":{"highway":"cycleway","vertex1":21188,"vertex2":21050}},{"type":"Feature","geometry":{"type":"LineString","coordinates":[[3.657686,51.08233],[3.65805,51.08254],[3.658455,51.08274],[3.659177,51.08305]]},"properties":{"bridge":"yes","highway":"cycleway","vertex1":21187,"vertex2":21109}},{"type":"Feature","geometry":{"type":"LineString","coordinates":[[3.657686,51.08233],[3.657229,51.08207],[3.656818,51.0818],[3.656515,51.08155],[3.656238,51.08129],[3.656017,51.081],[3.655894,51.08073],[3.655816,51.08045],[3.655782,51.08024],[3.65577,51.07995]]},"properties":{"name":"Buitenring-Drongen","highway":"cycleway","vertex1":21187,"vertex2":21050}},{"type":"Feature","geometry":{"type":"LineString","coordinates":[[3.656098,51.08098],[3.655977,51.08072],[3.655902,51.08044]]},"properties":{"oneway":"yes","maxspeed":"70","highway":"trunk","vertex1":21184,"vertex2":21051}},{"type":"Feature","geometry":{"type":"LineString","coordinates":[[3.659129,51.08098],[3.659066,51.0803],[3.658996,51.07953],[3.658937,51.0789],[3.658923,51.07875],[3.658916,51.07856],[3.6589,51.07845],[3.658856,51.07834],[3.65885,51.07825],[3.658852,51.07819]]},"properties":{"name":"Vinderhoutsedam","highway":"residential","vertex1":21180,"vertex2":21102}},{"type":"Feature","geometry":{"type":"LineString","coordinates":[[3.659129,51.08098],[3.659162,51.0812],[3.659259,51.08147],[3.659401,51.08175],[3.659484,51.08188],[3.659572,51.08201],[3.659769,51.08226],[3.660046,51.08252]]},"properties":{"name":"Vinderhoutsedam","highway":"residential","vertex1":21180,"vertex2":21178}},{"type":"Feature","geometry":{"type":"LineString","coordinates":[[3.659129,51.08098],[3.658926,51.08077]]},"properties":{"highway":"cycleway","vertex1":21180,"vertex2":21090}},{"type":"Feature","geometry":{"type":"LineString","coordinates":[[3.660046,51.08252],[3.660315,51.08271],[3.660563,51.08287],[3.660812,51.08301],[3.661131,51.08316],[3.661455,51.08329],[3.661884,51.08344],[3.662556,51.08363],[3.664333,51.08405],[3.664435,51.0841],[3.66447,51.08418]]},"properties":{"name":"Vinderhoutsedam","highway":"residential","vertex1":21178,"vertex2":21174}},{"type":"Feature","geometry":{"type":"LineString","coordinates":[[3.660046,51.08252],[3.659895,51.08259]]},"properties":{"highway":"track","vertex1":21178,"vertex2":21144}},{"type":"Feature","geometry":{"type":"LineString","coordinates":[[3.663363,51.08132],[3.66376,51.08135],[3.664078,51.0815],[3.664303,51.08164],[3.664528,51.08177],[3.664554,51.08179]]},"properties":{"highway":"track","vertex1":21176,"vertex2":21158}},{"type":"Feature","geometry":{"type":"LineString","coordinates":[[3.663363,51.08132],[3.663219,51.08144],[3.663193,51.08147]]},"properties":{"highway":"track","vertex1":21176,"vertex2":21113}},{"type":"Feature","geometry":{"type":"LineString","coordinates":[[3.663363,51.08132],[3.663433,51.08119],[3.663621,51.08115],[3.663652,51.08102]]},"properties":{"highway":"track","vertex1":21176,"vertex2":21117}},{"type":"Feature","geometry":{"type":"LineString","coordinates":[[3.666956,51.08202],[3.667846,51.08138]]},"properties":{"name":"Plutostraat","highway":"residential","maxspeed":"30","vertex1":21171,"vertex2":21169}},{"type":"Feature","geometry":{"type":"LineString","coordinates":[[3.666956,51.08202],[3.667332,51.08223]]},"properties":{"name":"Uranusstraat","highway":"residential","maxspeed":"30","vertex1":21171,"vertex2":21167}},{"type":"Feature","geometry":{"type":"LineString","coordinates":[[3.666956,51.08202],[3.66626,51.08162]]},"properties":{"name":"Uranusstraat","highway":"residential","maxspeed":"30","vertex1":21171,"vertex2":21137}},{"type":"Feature","geometry":{"type":"LineString","coordinates":[[3.667846,51.08138],[3.667896,51.08141]]},"properties":{"name":"Venusstraat","highway":"residential","maxspeed":"30","vertex1":21169,"vertex2":21135}},{"type":"Feature","geometry":{"type":"LineString","coordinates":[[3.667846,51.08138],[3.667053,51.08101]]},"properties":{"name":"Venusstraat","highway":"residential","maxspeed":"30","vertex1":21169,"vertex2":21119}},{"type":"Feature","geometry":{"type":"LineString","coordinates":[[3.667332,51.08223],[3.668061,51.0817],[3.668125,51.08163],[3.668125,51.08155],[3.66805,51.08148],[3.667896,51.08141]]},"properties":{"name":"Venusstraat","highway":"residential","maxspeed":"30","vertex1":21167,"vertex2":21135}},{"type":"Feature","geometry":{"type":"LineString","coordinates":[[3.667332,51.08223],[3.66761,51.08242],[3.667761,51.08259]]},"properties":{"name":"Uranusstraat","highway":"residential","maxspeed":"30","vertex1":21167,"vertex2":21141}},{"type":"Feature","geometry":{"type":"LineString","coordinates":[[3.663949,51.08224],[3.663734,51.08218],[3.663445,51.08206],[3.663236,51.08196],[3.663001,51.08185],[3.663089,51.08161],[3.663193,51.08147]]},"properties":{"highway":"track","vertex1":21165,"vertex2":21113}},{"type":"Feature","geometry":{"type":"LineString","coordinates":[[3.663949,51.08224],[3.664163,51.08233],[3.664464,51.08247],[3.664721,51.08258],[3.665129,51.08274],[3.665333,51.08286],[3.665558,51.08299],[3.665826,51.08309],[3.666073,51.08319]]},"properties":{"highway":"track","vertex1":21165,"vertex2":21133}},{"type":"Feature","geometry":{"type":"LineString","coordinates":[[3.663949,51.08224],[3.664174,51.08213],[3.664307,51.08204]]},"properties":{"highway":"track","vertex1":21165,"vertex2":21161}},{"type":"Feature","geometry":{"type":"LineString","coordinates":[[3.666073,51.08319],[3.666277,51.0831],[3.666545,51.08292]]},"properties":{"highway":"track","vertex1":21133,"vertex2":21148}},{"type":"Feature","geometry":{"type":"LineString","coordinates":[[3.664307,51.08204],[3.664474,51.08192],[3.664554,51.08179]]},"properties":{"highway":"track","vertex1":21161,"vertex2":21158}},{"type":"Feature","geometry":{"type":"LineString","coordinates":[[3.664307,51.08204],[3.66403,51.08182],[3.663483,51.08162],[3.663193,51.08147]]},"properties":{"highway":"footway","vertex1":21161,"vertex2":21113}},{"type":"Feature","geometry":{"type":"LineString","coordinates":[[3.664554,51.08179],[3.664839,51.08199],[3.665032,51.08217],[3.665226,51.08226],[3.665504,51.08234],[3.665708,51.08246],[3.665966,51.08262],[3.666245,51.08276],[3.666545,51.08292]]},"properties":{"highway":"track","vertex1":21158,"vertex2":21148}},{"type":"Feature","geometry":{"type":"LineString","coordinates":[[3.666545,51.08292],[3.666781,51.08308]]},"properties":{"highway":"track","vertex1":21148,"vertex2":21128}},{"type":"Feature","geometry":{"type":"LineString","coordinates":[[3.665221,51.08136],[3.665594,51.0815],[3.665948,51.08167],[3.66606,51.08168],[3.666187,51.08165],[3.66626,51.08162]]},"properties":{"name":"Mercuriusstraat","highway":"residential","maxspeed":"30","vertex1":21147,"vertex2":21137}},{"type":"Feature","geometry":{"type":"LineString","coordinates":[[3.665221,51.08136],[3.66489,51.0812],[3.664574,51.08102],[3.664574,51.08094],[3.664971,51.08062],[3.665293,51.08032],[3.666001,51.07982],[3.66614,51.07975],[3.66628,51.07972],[3.666363,51.07973]]},"properties":{"name":"Mercuriusstraat","highway":"residential","maxspeed":"30","vertex1":21147,"vertex2":21093}},{"type":"Feature","geometry":{"type":"LineString","coordinates":[[3.665221,51.08136],[3.665362,51.08125],[3.66567,51.08103],[3.665826,51.08106],[3.666196,51.08078],[3.666233,51.0806]]},"properties":{"highway":"path","vertex1":21147,"vertex2":21104}},{"type":"Feature","geometry":{"type":"LineString","coordinates":[[3.669333,51.08236],[3.671372,51.08133]]},"properties":{"name":"Brugsevaart","highway":"primary","maxspeed":"70","vertex1":21145,"vertex2":20411}},{"type":"Feature","geometry":{"type":"LineString","coordinates":[[3.669333,51.08236],[3.669146,51.08246],[3.6677,51.0832]]},"properties":{"name":"Brugsevaart","highway":"primary","maxspeed":"70","vertex1":21145,"vertex2":21123}},{"type":"Feature","geometry":{"type":"LineString","coordinates":[[3.659895,51.08259],[3.659642,51.0827]]},"properties":{"tunnel":"yes","highway":"track","vertex1":21144,"vertex2":21129}},{"type":"Feature","geometry":{"type":"LineString","coordinates":[[3.667761,51.08259],[3.672375,51.08022]]},"properties":{"name":"Trekweg","oneway":"yes","cyclenetwork":"yes","oneway:bicycle":"no","highway":"residential","maxspeed":"30","vertex1":21141,"vertex2":20508}},{"type":"Feature","geometry":{"type":"LineString","coordinates":[[3.667761,51.08259],[3.666781,51.08308]]},"properties":{"name":"Trekweg","oneway":"yes","cyclenetwork":"yes","oneway:bicycle":"no","highway":"residential","maxspeed":"30","vertex1":21141,"vertex2":21128}},{"type":"Feature","geometry":{"type":"LineString","coordinates":[[3.66626,51.08162],[3.667053,51.08101]]},"properties":{"name":"Mercuriusstraat","highway":"residential","maxspeed":"30","vertex1":21137,"vertex2":21119}},{"type":"Feature","geometry":{"type":"LineString","coordinates":[[3.667896,51.08141],[3.668312,51.08081],[3.668084,51.08067]]},"properties":{"highway":"path","vertex1":21135,"vertex2":21087}},{"type":"Feature","geometry":{"type":"LineString","coordinates":[[3.659642,51.0827],[3.659569,51.08273],[3.659449,51.08273],[3.659131,51.08263],[3.659058,51.08261],[3.658974,51.08261],[3.658908,51.08264],[3.658874,51.08266],[3.65887,51.08271],[3.658886,51.08304]]},"properties":{"highway":"track","vertex1":21129,"vertex2":21139}},{"type":"Feature","geometry":{"type":"LineString","coordinates":[[3.667053,51.08101],[3.666902,51.08092],[3.666677,51.0807],[3.666634,51.08062],[3.666651,51.08058]]},"properties":{"name":"Venusstraat","highway":"residential","maxspeed":"30","vertex1":21119,"vertex2":21098}},{"type":"Feature","geometry":{"type":"LineString","coordinates":[[3.663652,51.08102],[3.663716,51.08099],[3.665603,51.07936]]},"properties":{"highway":"track","vertex1":21117,"vertex2":21066}},{"type":"Feature","geometry":{"type":"LineString","coordinates":[[3.663652,51.08102],[3.66356,51.08103],[3.66341,51.08101],[3.663265,51.08098],[3.663115,51.08093],[3.662987,51.08084],[3.662855,51.08072],[3.662715,51.08057],[3.66263,51.08049],[3.662436,51.08031],[3.662334,51.08021],[3.66241,51.08002],[3.662377,51.07992],[3.662281,51.07984],[3.662125,51.07979],[3.66198,51.07975],[3.661846,51.0797],[3.661744,51.07962],[3.661669,51.07953],[3.661597,51.07935]]},"properties":{"highway":"track","vertex1":21117,"vertex2":21074}},{"type":"Feature","geometry":{"type":"LineString","coordinates":[[3.666233,51.0806],[3.66644,51.08062],[3.666515,51.08056],[3.666651,51.08058]]},"properties":{"highway":"path","vertex1":21104,"vertex2":21098}},{"type":"Feature","geometry":{"type":"LineString","coordinates":[[3.666233,51.0806],[3.665809,51.08057],[3.666024,51.08038],[3.666255,51.08018],[3.667214,51.08016]]},"properties":{"highway":"path","vertex1":21104,"vertex2":21096}},{"type":"Feature","geometry":{"type":"LineString","coordinates":[[3.668187,51.07769],[3.669005,51.07675],[3.669338,51.07633],[3.669916,51.07571],[3.670363,51.07533],[3.670442,51.07522]]},"properties":{"name":"Rodonkstraat","highway":"residential","maxspeed":"30","vertex1":21103,"vertex2":20897}},{"type":"Feature","geometry":{"type":"LineString","coordinates":[[3.668187,51.07769],[3.66784,51.0775]]},"properties":{"name":"Zuidbroek","cyclenetwork":"yes","highway":"residential","maxspeed":"30","vertex1":21103,"vertex2":21095}},{"type":"Feature","geometry":{"type":"LineString","coordinates":[[3.668187,51.07769],[3.669877,51.07866]]},"properties":{"name":"Zuidbroek","cyclenetwork":"yes","highway":"residential","maxspeed":"30","vertex1":21103,"vertex2":20501}},{"type":"Feature","geometry":{"type":"LineString","coordinates":[[3.670442,51.07522],[3.67041,51.07511],[3.669902,51.0745]]},"properties":{"name":"Rodonkstraat","highway":"residential","maxspeed":"30","vertex1":20897,"vertex2":20840}},{"type":"Feature","geometry":{"type":"LineString","coordinates":[[3.669877,51.07866],[3.669936,51.07869]]},"properties":{"name":"Zuidbroek","cyclenetwork":"yes","highway":"residential","maxspeed":"30","vertex1":20501,"vertex2":20480}},{"type":"Feature","geometry":{"type":"LineString","coordinates":[[3.658852,51.07819],[3.658868,51.07816]]},"properties":{"name":"Vinderhoutsedam","highway":"residential","vertex1":21102,"vertex2":21072}},{"type":"Feature","geometry":{"type":"LineString","coordinates":[[3.658852,51.07819],[3.658805,51.07815],[3.658795,51.0781],[3.658861,51.07804],[3.658849,51.07771],[3.658951,51.07748],[3.659031,51.07735],[3.659047,51.07706],[3.658953,51.07677],[3.658938,51.07634],[3.658821,51.0755]]},"properties":{"highway":"track","vertex1":21102,"vertex2":21085}},{"type":"Feature","geometry":{"type":"LineString","coordinates":[[3.663536,51.07832],[3.664012,51.07853]]},"properties":{"highway":"track","vertex1":21101,"vertex2":21078}},{"type":"Feature","geometry":{"type":"LineString","coordinates":[[3.663536,51.07832],[3.663515,51.0784],[3.663529,51.07843]]},"properties":{"bicycle":"no","highway":"track","vertex1":21101,"vertex2":21070}},{"type":"Feature","geometry":{"type":"LineString","coordinates":[[3.663536,51.07832],[3.663538,51.07822],[3.663484,51.07815],[3.663394,51.07808],[3.663259,51.078],[3.663193,51.07796],[3.663053,51.07793],[3.662917,51.07794],[3.662825,51.07796]]},"properties":{"highway":"track","vertex1":21101,"vertex2":21054}},{"type":"Feature","geometry":{"type":"LineString","coordinates":[[3.663536,51.07832],[3.66276,51.07797]]},"properties":{"bicycle":"no","highway":"track","vertex1":21101,"vertex2":21092}},{"type":"Feature","geometry":{"type":"LineString","coordinates":[[3.66774,51.07758],[3.667731,51.07755]]},"properties":{"highway":"track","vertex1":21100,"vertex2":21071}},{"type":"Feature","geometry":{"type":"LineString","coordinates":[[3.66774,51.07758],[3.667642,51.07766],[3.667371,51.07788]]},"properties":{"highway":"track","vertex1":21100,"vertex2":21055}},{"type":"Feature","geometry":{"type":"LineString","coordinates":[[3.66774,51.07758],[3.66784,51.0775]]},"properties":{"highway":"track","vertex1":21100,"vertex2":21095}},{"type":"Feature","geometry":{"type":"LineString","coordinates":[[3.6677,51.07741],[3.666564,51.0767]]},"properties":{"name":"Zuidbroek","cyclenetwork":"yes","highway":"residential","maxspeed":"30","vertex1":21099,"vertex2":21084}},{"type":"Feature","geometry":{"type":"LineString","coordinates":[[3.6677,51.07741],[3.66784,51.0775]]},"properties":{"name":"Zuidbroek","cyclenetwork":"yes","highway":"residential","maxspeed":"30","vertex1":21099,"vertex2":21095}},{"type":"Feature","geometry":{"type":"LineString","coordinates":[[3.6677,51.07741],[3.667632,51.07746],[3.667703,51.0775],[3.667733,51.07753],[3.667731,51.07755]]},"properties":{"highway":"service","vertex1":21099,"vertex2":21071}},{"type":"Feature","geometry":{"type":"LineString","coordinates":[[3.666651,51.08058],[3.666667,51.08054],[3.667214,51.08016]]},"properties":{"name":"Venusstraat","highway":"residential","maxspeed":"30","vertex1":21098,"vertex2":21096}},{"type":"Feature","geometry":{"type":"LineString","coordinates":[[3.665788,51.07931],[3.666366,51.07963],[3.666363,51.07973]]},"properties":{"highway":"path","vertex1":21097,"vertex2":21093}},{"type":"Feature","geometry":{"type":"LineString","coordinates":[[3.665788,51.07931],[3.665744,51.07928]]},"properties":{"bridge":"yes","highway":"path","vertex1":21097,"vertex2":21073}},{"type":"Feature","geometry":{"type":"LineString","coordinates":[[3.667214,51.08016],[3.666945,51.08]]},"properties":{"name":"Mercuriusstraat","highway":"residential","maxspeed":"30","vertex1":21096,"vertex2":21089}},{"type":"Feature","geometry":{"type":"LineString","coordinates":[[3.667214,51.08016],[3.667739,51.08045]]},"properties":{"name":"Mercuriusstraat","highway":"residential","maxspeed":"30","vertex1":21096,"vertex2":21069}},{"type":"Feature","geometry":{"type":"LineString","coordinates":[[3.665778,51.07922],[3.664865,51.07797]]},"properties":{"highway":"track","vertex1":21094,"vertex2":21082}},{"type":"Feature","geometry":{"type":"LineString","coordinates":[[3.665778,51.07922],[3.666799,51.07836],[3.667371,51.07788]]},"properties":{"highway":"track","vertex1":21094,"vertex2":21055}},{"type":"Feature","geometry":{"type":"LineString","coordinates":[[3.665778,51.07922],[3.665717,51.07927]]},"properties":{"highway":"track","vertex1":21094,"vertex2":21091}},{"type":"Feature","geometry":{"type":"LineString","coordinates":[[3.666363,51.07973],[3.666398,51.07973],[3.666527,51.07978],[3.666945,51.08]]},"properties":{"name":"Mercuriusstraat","highway":"residential","maxspeed":"30","vertex1":21093,"vertex2":21089}},{"type":"Feature","geometry":{"type":"LineString","coordinates":[[3.66276,51.07797],[3.660285,51.07687]]},"properties":{"highway":"track","vertex1":21092,"vertex2":21064}},{"type":"Feature","geometry":{"type":"LineString","coordinates":[[3.66276,51.07797],[3.662825,51.07796]]},"properties":{"highway":"track","vertex1":21092,"vertex2":21054}},{"type":"Feature","geometry":{"type":"LineString","coordinates":[[3.66276,51.07797],[3.662586,51.07804],[3.662399,51.07808],[3.662259,51.07807],[3.661964,51.078],[3.661803,51.07798],[3.661658,51.078],[3.661556,51.07806],[3.66146,51.07813],[3.661315,51.07817],[3.661138,51.07817],[3.660822,51.07814],[3.660666,51.07816],[3.660537,51.0782],[3.660468,51.07827],[3.660473,51.07838],[3.660516,51.07847],[3.660575,51.07856],[3.660602,51.07867],[3.660612,51.07876],[3.660655,51.07887],[3.660731,51.07896],[3.660843,51.07903],[3.660975,51.07908],[3.661114,51.07911],[3.66142,51.07917],[3.661498,51.07921],[3.661556,51.07926],[3.661597,51.07935]]},"properties":{"highway":"track","vertex1":21092,"vertex2":21074}},{"type":"Feature","geometry":{"type":"LineString","coordinates":[[3.665717,51.07927],[3.665744,51.07928]]},"properties":{"highway":"path","vertex1":21091,"vertex2":21073}},{"type":"Feature","geometry":{"type":"LineString","coordinates":[[3.665717,51.07927],[3.665603,51.07922]]},"properties":{"bicycle":"no","highway":"track","vertex1":21091,"vertex2":21076}},{"type":"Feature","geometry":{"type":"LineString","coordinates":[[3.665717,51.07927],[3.665603,51.07936]]},"properties":{"highway":"track","vertex1":21091,"vertex2":21066}},{"type":"Feature","geometry":{"type":"LineString","coordinates":[[3.658926,51.08077],[3.658737,51.07875],[3.658588,51.07697],[3.65845,51.0754],[3.658347,51.07383],[3.658307,51.07262],[3.658319,51.0724],[3.658366,51.0723],[3.658376,51.07223],[3.658362,51.07217]]},"properties":{"highway":"cycleway","vertex1":21090,"vertex2":21019}},{"type":"Feature","geometry":{"type":"LineString","coordinates":[[3.658926,51.08077],[3.658784,51.08092]]},"properties":{"highway":"cycleway","vertex1":21090,"vertex2":21062}},{"type":"Feature","geometry":{"type":"LineString","coordinates":[[3.666945,51.08],[3.66735,51.07974],[3.667565,51.07959]]},"properties":{"name":"Jupiterstraat","highway":"residential","maxspeed":"30","vertex1":21089,"vertex2":21083}},{"type":"Feature","geometry":{"type":"LineString","coordinates":[[3.658572,51.07854],[3.658544,51.07829]]},"properties":{"oneway":"yes","highway":"trunk","maxspeed":"90","vertex1":21088,"vertex2":21059}},{"type":"Feature","geometry":{"type":"LineString","coordinates":[[3.658572,51.07854],[3.658784,51.08092]]},"properties":{"name":"Binnenring-Vinderhoute","oneway":"yes","highway":"trunk","maxspeed":"90","vertex1":21088,"vertex2":21062}},{"type":"Feature","geometry":{"type":"LineString","coordinates":[[3.668084,51.08067],[3.668084,51.08067],[3.667739,51.08045]]},"properties":{"name":"Mercuriusstraat","highway":"residential","maxspeed":"30","vertex1":21087,"vertex2":21069}},{"type":"Feature","geometry":{"type":"LineString","coordinates":[[3.665081,51.07581],[3.664492,51.07551],[3.663734,51.07499],[3.662854,51.07446]]},"properties":{"name":"Zuidbroek","cyclenetwork":"yes","highway":"residential","maxspeed":"30","vertex1":21086,"vertex2":20920}},{"type":"Feature","geometry":{"type":"LineString","coordinates":[[3.665081,51.07581],[3.665543,51.07604]]},"properties":{"name":"Zuidbroek","cyclenetwork":"yes","highway":"residential","maxspeed":"30","vertex1":21086,"vertex2":21080}},{"type":"Feature","geometry":{"type":"LineString","coordinates":[[3.665081,51.07581],[3.664903,51.07595],[3.663994,51.0768]]},"properties":{"highway":"track","vertex1":21086,"vertex2":21056}},{"type":"Feature","geometry":{"type":"LineString","coordinates":[[3.658821,51.0755],[3.658826,51.07456]]},"properties":{"highway":"track","vertex1":21085,"vertex2":20898}},{"type":"Feature","geometry":{"type":"LineString","coordinates":[[3.658821,51.0755],[3.659517,51.07482]]},"properties":{"highway":"path","vertex1":21085,"vertex2":20910}},{"type":"Feature","geometry":{"type":"LineString","coordinates":[[3.666564,51.0767],[3.665543,51.07604]]},"properties":{"name":"Zuidbroek","cyclenetwork":"yes","highway":"residential","maxspeed":"30","vertex1":21084,"vertex2":21080}},{"type":"Feature","geometry":{"type":"LineString","coordinates":[[3.666564,51.0767],[3.665772,51.07735],[3.665734,51.07739],[3.665719,51.07743],[3.665723,51.07747],[3.665792,51.07752],[3.665939,51.07756]]},"properties":{"bicycle":"no","motorcar":"no","foot":"no","highway":"track","vertex1":21084,"vertex2":21077}},{"type":"Feature","geometry":{"type":"LineString","coordinates":[[3.667565,51.07959],[3.667774,51.07937],[3.668015,51.07916],[3.668267,51.07897],[3.668284,51.0789]]},"properties":{"name":"Jupiterstraat","highway":"residential","maxspeed":"30","vertex1":21083,"vertex2":21053}},{"type":"Feature","geometry":{"type":"LineString","coordinates":[[3.667565,51.07959],[3.666873,51.0792],[3.666741,51.07911],[3.666745,51.07904],[3.666813,51.07898],[3.667367,51.07854],[3.667484,51.07848],[3.667586,51.07846]]},"properties":{"name":"Jupiterstraat","highway":"residential","maxspeed":"30","vertex1":21083,"vertex2":21075}},{"type":"Feature","geometry":{"type":"LineString","coordinates":[[3.664865,51.07797],[3.664739,51.0778]]},"properties":{"highway":"track","vertex1":21082,"vertex2":21061}},{"type":"Feature","geometry":{"type":"LineString","coordinates":[[3.664865,51.07797],[3.664906,51.07794],[3.664933,51.07793],[3.66499,51.07792],[3.665352,51.07763],[3.665763,51.07729],[3.665929,51.07712],[3.665938,51.07708],[3.665892,51.07704],[3.665606,51.07688]]},"properties":{"highway":"track","vertex1":21082,"vertex2":21079}},{"type":"Feature","geometry":{"type":"LineString","coordinates":[[3.664806,51.0769],[3.664846,51.07704],[3.66489,51.07717],[3.664989,51.07721],[3.66511,51.07722],[3.665168,51.07721]]},"properties":{"highway":"track","vertex1":21081,"vertex2":21065}},{"type":"Feature","geometry":{"type":"LineString","coordinates":[[3.664806,51.0769],[3.664666,51.07687],[3.664323,51.07684],[3.663994,51.0768]]},"properties":{"highway":"track","vertex1":21081,"vertex2":21056}},{"type":"Feature","geometry":{"type":"LineString","coordinates":[[3.664806,51.0769],[3.664926,51.07693],[3.665166,51.07695]]},"properties":{"highway":"track","vertex1":21081,"vertex2":21057}},{"type":"Feature","geometry":{"type":"LineString","coordinates":[[3.664806,51.0769],[3.664784,51.07687],[3.664752,51.07681],[3.665014,51.07656],[3.66505,51.07655],[3.665531,51.07683],[3.665606,51.07688]]},"properties":{"highway":"track","vertex1":21081,"vertex2":21079}},{"type":"Feature","geometry":{"type":"LineString","coordinates":[[3.665543,51.07604],[3.666686,51.0755],[3.667269,51.07536]]},"properties":{"name":"Amand Casier de ter Bekenlaan","maxspeed":"50","highway":"residential","vertex1":21080,"vertex2":20932}},{"type":"Feature","geometry":{"type":"LineString","coordinates":[[3.665606,51.07688],[3.665434,51.07702],[3.665257,51.0772],[3.665168,51.07721]]},"properties":{"highway":"track","vertex1":21079,"vertex2":21065}},{"type":"Feature","geometry":{"type":"LineString","coordinates":[[3.664012,51.07853],[3.66486,51.07891],[3.665603,51.07922]]},"properties":{"bicycle":"no","highway":"track","vertex1":21078,"vertex2":21076}},{"type":"Feature","geometry":{"type":"LineString","coordinates":[[3.664012,51.07853],[3.66421,51.07851]]},"properties":{"highway":"track","vertex1":21078,"vertex2":21068}},{"type":"Feature","geometry":{"type":"LineString","coordinates":[[3.664012,51.07853],[3.663888,51.07855],[3.663822,51.07855]]},"properties":{"bicycle":"no","highway":"track","vertex1":21078,"vertex2":21058}},{"type":"Feature","geometry":{"type":"LineString","coordinates":[[3.665603,51.07922],[3.665586,51.0792],[3.665562,51.07917],[3.6655,51.07907],[3.665415,51.07899],[3.66529,51.07894],[3.665151,51.07892],[3.665013,51.0789],[3.664872,51.07888],[3.664807,51.07887],[3.664754,51.07884],[3.664726,51.07878],[3.664693,51.07872],[3.664622,51.07863],[3.664544,51.07858],[3.664405,51.07854],[3.66421,51.07851]]},"properties":{"highway":"track","vertex1":21076,"vertex2":21068}},{"type":"Feature","geometry":{"type":"LineString","coordinates":[[3.667586,51.07846],[3.667688,51.07853],[3.668138,51.07878],[3.668246,51.07884],[3.668284,51.0789]]},"properties":{"name":"Jupiterstraat","highway":"residential","maxspeed":"30","vertex1":21075,"vertex2":21053}},{"type":"Feature","geometry":{"type":"LineString","coordinates":[[3.667586,51.07846],[3.66749,51.07835]]},"properties":{"highway":"footway","vertex1":21075,"vertex2":21063}},{"type":"Feature","geometry":{"type":"LineString","coordinates":[[3.661597,51.07935],[3.661382,51.07938],[3.66121,51.07936],[3.661071,51.07933],[3.660921,51.07929],[3.660781,51.07922],[3.660417,51.07896],[3.660298,51.07887],[3.66017,51.07877],[3.659268,51.07833],[3.659126,51.07825],[3.659044,51.07817]]},"properties":{"highway":"track","vertex1":21074,"vertex2":21060}},{"type":"Feature","geometry":{"type":"LineString","coordinates":[[3.661597,51.07935],[3.663647,51.07936],[3.665603,51.07936]]},"properties":{"bicycle":"no","highway":"track","vertex1":21074,"vertex2":21066}},{"type":"Feature","geometry":{"type":"LineString","coordinates":[[3.658868,51.07816],[3.659044,51.07817]]},"properties":{"highway":"track","vertex1":21072,"vertex2":21060}},{"type":"Feature","geometry":{"type":"LineString","coordinates":[[3.658868,51.07816],[3.65959,51.07752],[3.660285,51.07687]]},"properties":{"name":"Vinderhoutsedam","highway":"residential","vertex1":21072,"vertex2":21064}},{"type":"Feature","geometry":{"type":"LineString","coordinates":[[3.663529,51.07843],[3.663623,51.0785],[3.663687,51.07853],[3.663743,51.07854],[3.663822,51.07855]]},"properties":{"bridge":"yes","bicycle":"no","highway":"path","vertex1":21070,"vertex2":21058}},{"type":"Feature","geometry":{"type":"LineString","coordinates":[[3.667739,51.08045],[3.668469,51.07999],[3.668973,51.07953],[3.669295,51.07918],[3.669382,51.07912]]},"properties":{"name":"Marsstraat","highway":"residential","maxspeed":"30","vertex1":21069,"vertex2":21067}},{"type":"Feature","geometry":{"type":"LineString","coordinates":[[3.669382,51.07912],[3.669936,51.07869]]},"properties":{"name":"Marsstraat","highway":"residential","maxspeed":"30","vertex1":21067,"vertex2":20480}},{"type":"Feature","geometry":{"type":"LineString","coordinates":[[3.669382,51.07912],[3.668964,51.07889],[3.668446,51.07883],[3.668374,51.07888],[3.668284,51.0789]]},"properties":{"highway":"path","vertex1":21067,"vertex2":21053}},{"type":"Feature","geometry":{"type":"LineString","coordinates":[[3.665168,51.07721],[3.665182,51.07725],[3.665201,51.0773],[3.665165,51.07735],[3.665112,51.0774],[3.665062,51.07748],[3.665003,51.07757],[3.664849,51.07774],[3.664739,51.0778]]},"properties":{"highway":"track","vertex1":21065,"vertex2":21061}},{"type":"Feature","geometry":{"type":"LineString","coordinates":[[3.660285,51.07687],[3.660518,51.07666],[3.661851,51.07541],[3.662854,51.07446]]},"properties":{"name":"Vinderhoutsedam","highway":"residential","vertex1":21064,"vertex2":20920}},{"type":"Feature","geometry":{"type":"LineString","coordinates":[[3.66749,51.07835],[3.667428,51.07825],[3.667392,51.07817],[3.667376,51.07805],[3.667392,51.07796],[3.667417,51.07791],[3.667371,51.07788]]},"properties":{"highway":"footway","vertex1":21063,"vertex2":21055}},{"type":"Feature","geometry":{"type":"LineString","coordinates":[[3.658784,51.08092],[3.65886,51.08128],[3.658898,51.08142],[3.658952,51.08156],[3.659008,51.0817],[3.659075,51.08183],[3.659198,51.08203],[3.659354,51.08224],[3.659486,51.08239],[3.659643,51.08254],[3.659946,51.08282],[3.660313,51.08305],[3.660711,51.08327],[3.661352,51.08356],[3.661836,51.08372],[3.662389,51.08387],[3.663107,51.08406],[3.663828,51.08424]]},"properties":{"name":"Binnenring-Vinderhoute","oneway":"yes","bicycle":"yes","highway":"trunk","maxspeed":"90","vertex1":21062,"vertex2":21124}},{"type":"Feature","geometry":{"type":"LineString","coordinates":[[3.664739,51.0778],[3.663994,51.0768]]},"properties":{"highway":"track","vertex1":21061,"vertex2":21056}},{"type":"Feature","geometry":{"type":"LineString","coordinates":[[3.658544,51.07829],[3.658293,51.0754],[3.658241,51.0747]]},"properties":{"name":"Binnenring-Drongen","oneway":"yes","highway":"trunk","maxspeed":"90","vertex1":21059,"vertex2":21009}},{"type":"Feature","geometry":{"type":"LineString","coordinates":[[3.663994,51.0768],[3.663287,51.07743],[3.662937,51.07774],[3.662877,51.0778],[3.662832,51.07787],[3.662814,51.07792],[3.662825,51.07796]]},"properties":{"highway":"track","vertex1":21056,"vertex2":21054}},{"type":"Feature","geometry":{"type":"LineString","coordinates":[[3.657381,51.07701],[3.657243,51.07543],[3.657139,51.07386],[3.65711,51.07297]]},"properties":{"name":"Buitenring-Drongen","oneway":"yes","highway":"trunk","maxspeed":"90","vertex1":21052,"vertex2":21007}},{"type":"Feature","geometry":{"type":"LineString","coordinates":[[3.657381,51.07701],[3.657392,51.0773],[3.657345,51.07759],[3.657231,51.07792],[3.657122,51.07811],[3.657003,51.07829],[3.656778,51.07854],[3.656509,51.07885],[3.656276,51.07912],[3.656202,51.07921],[3.656065,51.07943],[3.65597,51.07964],[3.655919,51.0798],[3.655891,51.07996],[3.655868,51.08023],[3.655902,51.08044]]},"properties":{"name":"Buitenring-Drongen","oneway":"yes","maxspeed":"70","highway":"trunk","vertex1":21052,"vertex2":21051}},{"type":"Feature","geometry":{"type":"LineString","coordinates":[[3.65577,51.07995],[3.655799,51.07978],[3.655851,51.07962],[3.65595,51.0794],[3.656092,51.07918],[3.656402,51.07881],[3.656672,51.0785],[3.656893,51.07825],[3.657009,51.07808],[3.657114,51.0779],[3.657225,51.07758],[3.657258,51.07731],[3.657239,51.07701],[3.657134,51.07582],[3.6571,51.07544],[3.656997,51.07386],[3.656956,51.07263],[3.656976,51.07177]]},"properties":{"name":"Buitenring-Drongen","highway":"cycleway","vertex1":21050,"vertex2":21018}},{"type":"Feature","geometry":{"type":"LineString","coordinates":[[3.656988,51.07574],[3.656939,51.07508],[3.656838,51.0737],[3.656838,51.07367]]},"properties":{"name":"Beekstraat","highway":"residential","vertex1":21049,"vertex2":21026}},{"type":"Feature","geometry":{"type":"LineString","coordinates":[[3.656988,51.07574],[3.656792,51.07571],[3.656449,51.07568]]},"properties":{"bicycle":"no","motorcar":"no","foot":"no","highway":"service","vertex1":21049,"vertex2":21046}},{"type":"Feature","geometry":{"type":"LineString","coordinates":[[3.653278,51.07645],[3.655073,51.07504],[3.655674,51.07458],[3.656138,51.07426],[3.656435,51.074],[3.656582,51.07382],[3.656734,51.0737]]},"properties":{"highway":"track","vertex1":21047,"vertex2":21011}},{"type":"Feature","geometry":{"type":"LineString","coordinates":[[3.658352,51.0721],[3.658336,51.07203],[3.658323,51.07182]]},"properties":{"highway":"cycleway","vertex1":21045,"vertex2":21043}},{"type":"Feature","geometry":{"type":"LineString","coordinates":[[3.658352,51.0721],[3.658362,51.07217]]},"properties":{"highway":"cycleway","vertex1":21045,"vertex2":21019}},{"type":"Feature","geometry":{"type":"LineString","coordinates":[[3.658352,51.0721],[3.65843,51.07207],[3.65852,51.07205],[3.658622,51.07204],[3.658742,51.07206],[3.658857,51.07209],[3.659371,51.07226]]},"properties":{"name":"Binnenring-Drongen","oneway":"yes","highway":"trunk_link","vertex1":21045,"vertex2":20908}},{"type":"Feature","geometry":{"type":"LineString","coordinates":[[3.658352,51.0721],[3.658247,51.07221],[3.658225,51.0723]]},"properties":{"name":"Binnenring-Drongen","oneway":"yes","highway":"trunk_link","vertex1":21045,"vertex2":21006}},{"type":"Feature","geometry":{"type":"LineString","coordinates":[[3.65333,51.07153],[3.653262,51.07153]]},"properties":{"bridge":"yes","highway":"path","vertex1":21044,"vertex2":21036}},{"type":"Feature","geometry":{"type":"LineString","coordinates":[[3.65333,51.07153],[3.653455,51.07157],[3.653646,51.07147],[3.653794,51.07145]]},"properties":{"highway":"path","vertex1":21044,"vertex2":21027}},{"type":"Feature","geometry":{"type":"LineString","coordinates":[[3.658323,51.07182],[3.658327,51.0717],[3.658331,51.07156],[3.658336,51.07138],[3.658394,51.07041],[3.658447,51.06985]]},"properties":{"highway":"cycleway","vertex1":21043,"vertex2":20997}},{"type":"Feature","geometry":{"type":"LineString","coordinates":[[3.658323,51.07182],[3.658281,51.07179],[3.658266,51.07176],[3.658239,51.07167]]},"properties":{"name":"Binnenring-Drongen","oneway":"yes","highway":"trunk_link","vertex1":21043,"vertex2":21038}},{"type":"Feature","geometry":{"type":"LineString","coordinates":[[3.658323,51.07182],[3.658464,51.07191],[3.659371,51.07226]]},"properties":{"name":"Binnenring-Drongen","oneway":"yes","highway":"trunk_link","vertex1":21043,"vertex2":20908}},{"type":"Feature","geometry":{"type":"LineString","coordinates":[[3.656831,51.07096],[3.656936,51.07101],[3.658377,51.07166],[3.658676,51.07179]]},"properties":{"name":"Beekstraat","bridge":"yes","cyclenetwork":"yes","highway":"tertiary","vertex1":21042,"vertex2":20922}},{"type":"Feature","geometry":{"type":"LineString","coordinates":[[3.656831,51.07096],[3.656353,51.07071],[3.655924,51.07041],[3.655513,51.07011],[3.655194,51.06994]]},"properties":{"name":"Beekstraat","cyclenetwork":"yes","highway":"tertiary","vertex1":21042,"vertex2":20989}},{"type":"Feature","geometry":{"type":"LineString","coordinates":[[3.654421,51.07151],[3.654392,51.07117]]},"properties":{"highway":"service","vertex1":21041,"vertex2":21039}},{"type":"Feature","geometry":{"type":"LineString","coordinates":[[3.654421,51.07151],[3.654426,51.07157]]},"properties":{"highway":"service","vertex1":21041,"vertex2":21037}},{"type":"Feature","geometry":{"type":"LineString","coordinates":[[3.654421,51.07151],[3.654373,51.07154]]},"properties":{"highway":"service","vertex1":21041,"vertex2":21033}},{"type":"Feature","geometry":{"type":"LineString","coordinates":[[3.65818,51.0716],[3.658239,51.07167]]},"properties":{"name":"Binnenring-Drongen","oneway":"yes","highway":"trunk_link","vertex1":21040,"vertex2":21038}},{"type":"Feature","geometry":{"type":"LineString","coordinates":[[3.65818,51.0716],[3.658159,51.07188],[3.658154,51.0724]]},"properties":{"name":"Binnenring-Drongen","oneway":"yes","highway":"trunk","maxspeed":"90","vertex1":21040,"vertex2":21021}},{"type":"Feature","geometry":{"type":"LineString","coordinates":[[3.65818,51.0716],[3.658179,51.07138],[3.658237,51.0704]]},"properties":{"name":"Binnenring-Drongen","oneway":"yes","highway":"trunk","maxspeed":"90","vertex1":21040,"vertex2":21000}},{"type":"Feature","geometry":{"type":"LineString","coordinates":[[3.654392,51.07117],[3.65451,51.07098],[3.654644,51.07083],[3.654638,51.07077],[3.654606,51.07068],[3.654553,51.07057],[3.654491,51.07048],[3.654354,51.07044],[3.654282,51.07042],[3.654276,51.07037],[3.654294,51.07032]]},"properties":{"highway":"service","vertex1":21039,"vertex2":21035}},{"type":"Feature","geometry":{"type":"LineString","coordinates":[[3.654392,51.07117],[3.654186,51.07117],[3.654041,51.07119],[3.653944,51.07124],[3.653885,51.07129],[3.653794,51.07145]]},"properties":{"highway":"path","vertex1":21039,"vertex2":21027}},{"type":"Feature","geometry":{"type":"LineString","coordinates":[[3.654426,51.07157],[3.654421,51.07166],[3.654416,51.07174],[3.654354,51.07175],[3.654276,51.07176],[3.65422,51.07174],[3.654215,51.07169],[3.654234,51.07164],[3.654274,51.0716],[3.65433,51.07156],[3.654373,51.07154]]},"properties":{"highway":"service","vertex1":21037,"vertex2":21033}},{"type":"Feature","geometry":{"type":"LineString","coordinates":[[3.653262,51.07153],[3.653207,51.07153]]},"properties":{"highway":"path","vertex1":21036,"vertex2":21012}},{"type":"Feature","geometry":{"type":"LineString","coordinates":[[3.654294,51.07032],[3.65404,51.0703],[3.653692,51.07027]]},"properties":{"highway":"service","vertex1":21035,"vertex2":21031}},{"type":"Feature","geometry":{"type":"LineString","coordinates":[[3.654294,51.07032],[3.654327,51.07024],[3.654284,51.0701],[3.654295,51.06992],[3.654376,51.06974],[3.654524,51.06961]]},"properties":{"highway":"service","vertex1":21035,"vertex2":20991}},{"type":"Feature","geometry":{"type":"LineString","coordinates":[[3.657024,51.07172],[3.657119,51.07176]]},"properties":{"name":"Buitenring-Drongen","oneway":"yes","highway":"trunk_link","maxspeed":"90","vertex1":21034,"vertex2":21001}},{"type":"Feature","geometry":{"type":"LineString","coordinates":[[3.657024,51.07172],[3.657023,51.07162],[3.656948,51.07146],[3.656911,51.07143]]},"properties":{"name":"Buitenring-Drongen","oneway":"yes","highway":"trunk_link","maxspeed":"90","vertex1":21034,"vertex2":21025}},{"type":"Feature","geometry":{"type":"LineString","coordinates":[[3.6538,51.07168],[3.653727,51.07168]]},"properties":{"highway":"path","vertex1":21032,"vertex2":21030}},{"type":"Feature","geometry":{"type":"LineString","coordinates":[[3.6538,51.07168],[3.654047,51.07185],[3.654306,51.07195],[3.654574,51.07212]]},"properties":{"highway":"path","vertex1":21032,"vertex2":21028}},{"type":"Feature","geometry":{"type":"LineString","coordinates":[[3.653692,51.07027],[3.653651,51.07032],[3.653592,51.07038],[3.653509,51.07046],[3.653453,51.07055],[3.653418,51.07063],[3.653372,51.07067],[3.653284,51.07073],[3.653185,51.07076]]},"properties":{"highway":"path","vertex1":21031,"vertex2":21013}},{"type":"Feature","geometry":{"type":"LineString","coordinates":[[3.653692,51.07027],[3.653584,51.07027],[3.653214,51.07026],[3.65302,51.07026]]},"properties":{"highway":"service","vertex1":21031,"vertex2":21015}},{"type":"Feature","geometry":{"type":"LineString","coordinates":[[3.653727,51.07168],[3.653635,51.07169],[3.653533,51.07178],[3.653428,51.07192],[3.653165,51.07215],[3.652946,51.07258],[3.652107,51.07365],[3.651788,51.07405],[3.651584,51.07428],[3.651451,51.07444],[3.651438,51.07451],[3.652054,51.07473],[3.652211,51.07479],[3.65228,51.07483],[3.652483,51.07488],[3.65261,51.07477],[3.652816,51.07455],[3.653169,51.07411],[3.653608,51.0735],[3.653695,51.07335],[3.65377,51.07321],[3.654197,51.07281],[3.654261,51.07279],[3.654436,51.07278],[3.654512,51.07276],[3.65487,51.07238],[3.654866,51.07232],[3.654778,51.07227],[3.654571,51.0722],[3.654574,51.07212]]},"properties":{"highway":"path","vertex1":21030,"vertex2":21028}},{"type":"Feature","geometry":{"type":"LineString","coordinates":[[3.653727,51.07168],[3.653714,51.07164],[3.653711,51.07155],[3.653794,51.07145]]},"properties":{"highway":"path","vertex1":21030,"vertex2":21027}},{"type":"Feature","geometry":{"type":"LineString","coordinates":[[3.656974,51.07117],[3.656911,51.07119]]},"properties":{"name":"Buitenring-Drongen","oneway":"yes","highway":"trunk_link","vertex1":21029,"vertex2":20999}},{"type":"Feature","geometry":{"type":"LineString","coordinates":[[3.656974,51.07117],[3.657035,51.07111],[3.65704,51.07101]]},"properties":{"oneway":"yes","highway":"trunk_link","vertex1":21029,"vertex2":21004}},{"type":"Feature","geometry":{"type":"LineString","coordinates":[[3.654574,51.07212],[3.655857,51.07066]]},"properties":{"motorcar":"no","highway":"track","vertex1":21028,"vertex2":21022}},{"type":"Feature","geometry":{"type":"LineString","coordinates":[[3.656838,51.07367],[3.656833,51.07327],[3.656827,51.07281],[3.656832,51.07187],[3.656801,51.07162],[3.656749,51.07148],[3.656653,51.07138],[3.656543,51.0713],[3.656229,51.07113],[3.656032,51.071],[3.655963,51.07096],[3.655922,51.0709],[3.656016,51.07081]]},"properties":{"name":"Beekstraat","highway":"residential","vertex1":21026,"vertex2":21020}},{"type":"Feature","geometry":{"type":"LineString","coordinates":[[3.656838,51.07367],[3.656734,51.0737]]},"properties":{"highway":"unclassified","vertex1":21026,"vertex2":21011}},{"type":"Feature","geometry":{"type":"LineString","coordinates":[[3.656911,51.07143],[3.656734,51.07127],[3.656466,51.07113]]},"properties":{"name":"Buitenring-Drongen","oneway":"yes","highway":"trunk_link","maxspeed":"90","vertex1":21025,"vertex2":21016}},{"type":"Feature","geometry":{"type":"LineString","coordinates":[[3.656911,51.07143],[3.656911,51.07151],[3.656942,51.07158],[3.656962,51.07166],[3.656976,51.07177]]},"properties":{"name":"Buitenring-Drongen","highway":"cycleway","vertex1":21025,"vertex2":21018}},{"type":"Feature","geometry":{"type":"LineString","coordinates":[[3.656911,51.07143],[3.656911,51.07119]]},"properties":{"name":"Buitenring-Drongen","highway":"cycleway","vertex1":21025,"vertex2":20999}},{"type":"Feature","geometry":{"type":"LineString","coordinates":[[3.656278,51.07343],[3.656358,51.07352],[3.656441,51.07364],[3.65658,51.0737],[3.656734,51.0737]]},"properties":{"bicycle":"no","motorcar":"no","foot":"no","highway":"service","vertex1":21024,"vertex2":21011}},{"type":"Feature","geometry":{"type":"LineString","coordinates":[[3.657167,51.07071],[3.657146,51.07106],[3.65714,51.07116],[3.657128,51.07136],[3.657128,51.07151],[3.657119,51.07176]]},"properties":{"name":"Buitenring-Drongen","oneway":"yes","highway":"trunk","maxspeed":"90","vertex1":21023,"vertex2":21001}},{"type":"Feature","geometry":{"type":"LineString","coordinates":[[3.657167,51.07071],[3.657187,51.07037],[3.657259,51.06964],[3.657325,51.06922]]},"properties":{"name":"Buitenring-Drongen","oneway":"yes","highway":"trunk","maxspeed":"90","vertex1":21023,"vertex2":20998}},{"type":"Feature","geometry":{"type":"LineString","coordinates":[[3.657167,51.07071],[3.65704,51.07101]]},"properties":{"oneway":"yes","highway":"trunk_link","vertex1":21023,"vertex2":21004}},{"type":"Feature","geometry":{"type":"LineString","coordinates":[[3.655857,51.07066],[3.65578,51.0706],[3.655596,51.07043],[3.655461,51.07034],[3.655331,51.07029],[3.655082,51.07023],[3.65488,51.07017],[3.65483,51.07012],[3.654818,51.07006],[3.654826,51.07001],[3.654856,51.06997],[3.654989,51.06984]]},"properties":{"name":"Beekstraat","highway":"trunk_link","vertex1":21022,"vertex2":20980}},{"type":"Feature","geometry":{"type":"LineString","coordinates":[[3.655857,51.07066],[3.656016,51.07081]]},"properties":{"name":"Beekstraat","highway":"trunk_link","vertex1":21022,"vertex2":21020}},{"type":"Feature","geometry":{"type":"LineString","coordinates":[[3.658154,51.0724],[3.658225,51.0723]]},"properties":{"name":"Binnenring-Drongen","oneway":"yes","highway":"trunk_link","vertex1":21021,"vertex2":21006}},{"type":"Feature","geometry":{"type":"LineString","coordinates":[[3.658154,51.0724],[3.658149,51.07262],[3.65819,51.07384],[3.658241,51.0747]]},"properties":{"name":"Binnenring-Drongen","oneway":"yes","highway":"trunk","maxspeed":"90","vertex1":21021,"vertex2":21009}},{"type":"Feature","geometry":{"type":"LineString","coordinates":[[3.656016,51.07081],[3.656066,51.07087],[3.656255,51.071],[3.656466,51.07113]]},"properties":{"name":"Beekstraat","highway":"trunk_link","vertex1":21020,"vertex2":21016}},{"type":"Feature","geometry":{"type":"LineString","coordinates":[[3.658362,51.07217],[3.658476,51.07212],[3.658661,51.07211],[3.658849,51.07214],[3.659021,51.07219],[3.659362,51.07232]]},"properties":{"highway":"cycleway","vertex1":21019,"vertex2":20952}},{"type":"Feature","geometry":{"type":"LineString","coordinates":[[3.652957,51.07027],[3.65302,51.07026]]},"properties":{"highway":"service","vertex1":21017,"vertex2":21015}},{"type":"Feature","geometry":{"type":"LineString","coordinates":[[3.652957,51.07027],[3.652702,51.0703],[3.652552,51.07036],[3.652409,51.07043],[3.652367,51.07049],[3.65238,51.07056],[3.652487,51.07074],[3.652515,51.07077]]},"properties":{"bicycle":"no","motorcar":"no","foot":"no","highway":"service","vertex1":21017,"vertex2":21010}},{"type":"Feature","geometry":{"type":"LineString","coordinates":[[3.656466,51.07113],[3.656706,51.0712],[3.656823,51.07122],[3.656911,51.07119]]},"properties":{"name":"Buitenring-Drongen","oneway":"yes","highway":"trunk_link","vertex1":21016,"vertex2":20999}},{"type":"Feature","geometry":{"type":"LineString","coordinates":[[3.65302,51.07026],[3.653185,51.07076]]},"properties":{"highway":"path","vertex1":21015,"vertex2":21013}},{"type":"Feature","geometry":{"type":"LineString","coordinates":[[3.649926,51.07323],[3.650096,51.07299],[3.651145,51.07167],[3.651567,51.07112],[3.652341,51.07014],[3.652446,51.07009],[3.652674,51.07002],[3.652784,51.06992],[3.652926,51.06976],[3.653068,51.06959],[3.653189,51.06942]]},"properties":{"highway":"track","vertex1":21014,"vertex2":20993}},{"type":"Feature","geometry":{"type":"LineString","coordinates":[[3.653185,51.07076],[3.653045,51.07081]]},"properties":{"highway":"path","vertex1":21013,"vertex2":21005}},{"type":"Feature","geometry":{"type":"LineString","coordinates":[[3.656965,51.07109],[3.657009,51.07096],[3.657017,51.07083],[3.657044,51.07037],[3.657116,51.06964],[3.657166,51.06932]]},"properties":{"name":"Buitenring-Drongen","highway":"cycleway","vertex1":21008,"vertex2":20990}},{"type":"Feature","geometry":{"type":"LineString","coordinates":[[3.656965,51.07109],[3.656911,51.07114]]},"properties":{"name":"Buitenring-Drongen","highway":"cycleway","vertex1":21008,"vertex2":21002}},{"type":"Feature","geometry":{"type":"LineString","coordinates":[[3.65711,51.07297],[3.657098,51.07263]]},"properties":{"name":"Buitenring-Drongen","oneway":"yes","highway":"trunk","maxspeed":"90","vertex1":21007,"vertex2":21003}},{"type":"Feature","geometry":{"type":"LineString","coordinates":[[3.657098,51.07263],[3.657119,51.07176]]},"properties":{"name":"Buitenring-Drongen","oneway":"yes","highway":"trunk","maxspeed":"90","vertex1":21003,"vertex2":21001}},{"type":"Feature","geometry":{"type":"LineString","coordinates":[[3.656911,51.07114],[3.656832,51.07116],[3.656753,51.07116],[3.656657,51.07113],[3.656552,51.07108],[3.656392,51.07099],[3.656222,51.07088],[3.656078,51.07077],[3.655722,51.07045],[3.655605,51.07034],[3.655495,51.07028],[3.655412,51.07024],[3.655225,51.07019],[3.655096,51.07016],[3.655055,51.07013],[3.655049,51.07009],[3.655073,51.07005],[3.655194,51.06994]]},"properties":{"highway":"cycleway","vertex1":21002,"vertex2":20989}},{"type":"Feature","geometry":{"type":"LineString","coordinates":[[3.656911,51.07114],[3.656911,51.07119]]},"properties":{"name":"Buitenring-Drongen","highway":"cycleway","vertex1":21002,"vertex2":20999}},{"type":"Feature","geometry":{"type":"LineString","coordinates":[[3.658237,51.0704],[3.658306,51.0697],[3.658415,51.069],[3.658548,51.06836],[3.6587,51.06778],[3.658878,51.06715],[3.659089,51.06652],[3.659345,51.06587],[3.659639,51.06523],[3.660342,51.06399],[3.660824,51.06325],[3.661559,51.06226],[3.662349,51.06131],[3.663515,51.06016],[3.664459,51.0593],[3.66551,51.05844],[3.666754,51.05749],[3.668001,51.05661],[3.66898,51.05593],[3.669162,51.05581]]},"properties":{"name":"Binnenring-Drongen","oneway":"yes","highway":"trunk","maxspeed":"90","vertex1":21000,"vertex2":332}},{"type":"Feature","geometry":{"type":"LineString","coordinates":[[3.657325,51.06922],[3.657372,51.06892],[3.657507,51.06826],[3.657663,51.06767],[3.657847,51.06702],[3.658065,51.06637],[3.658329,51.0657],[3.658638,51.06503],[3.65936,51.06375],[3.659861,51.06299],[3.660617,51.06197],[3.661451,51.06099],[3.662637,51.0598],[3.663609,51.05891],[3.665955,51.05706],[3.66722,51.05617],[3.668689,51.05516]]},"properties":{"name":"Buitenring-Drongen","oneway":"yes","highway":"trunk","maxspeed":"90","vertex1":20998,"vertex2":296}},{"type":"Feature","geometry":{"type":"LineString","coordinates":[[3.658447,51.06985],[3.658463,51.06968]]},"properties":{"highway":"cycleway","vertex1":20997,"vertex2":20959}},{"type":"Feature","geometry":{"type":"LineString","coordinates":[[3.658447,51.06985],[3.65853,51.06982],[3.658604,51.06981]]},"properties":{"highway":"cycleway","vertex1":20997,"vertex2":20967}},{"type":"Feature","geometry":{"type":"LineString","coordinates":[[3.653189,51.06942],[3.653312,51.06927],[3.653466,51.06908]]},"properties":{"highway":"service","vertex1":20993,"vertex2":20982}},{"type":"Feature","geometry":{"type":"LineString","coordinates":[[3.653189,51.06942],[3.653079,51.06944],[3.652741,51.06932]]},"properties":{"bicycle":"no","motorcar":"no","foot":"no","highway":"service","vertex1":20993,"vertex2":20983}},{"type":"Feature","geometry":{"type":"LineString","coordinates":[[3.654524,51.06961],[3.654692,51.0697],[3.654989,51.06984]]},"properties":{"name":"Beekstraat","cyclenetwork":"yes","highway":"tertiary","vertex1":20991,"vertex2":20980}},{"type":"Feature","geometry":{"type":"LineString","coordinates":[[3.654524,51.06961],[3.653707,51.0692]]},"properties":{"name":"Beekstraat","cyclenetwork":"yes","highway":"tertiary","vertex1":20991,"vertex2":20984}},{"type":"Feature","geometry":{"type":"LineString","coordinates":[[3.657166,51.06932],[3.657032,51.06929],[3.65689,51.06926],[3.656836,51.06926]]},"properties":{"highway":"cycleway","vertex1":20990,"vertex2":20986}},{"type":"Feature","geometry":{"type":"LineString","coordinates":[[3.657166,51.06932],[3.65723,51.06891],[3.657366,51.06825],[3.657522,51.06766],[3.657706,51.067],[3.657925,51.06635],[3.658192,51.06567],[3.658502,51.06499],[3.659227,51.06372],[3.659731,51.06295],[3.660489,51.06193],[3.661328,51.06095],[3.662517,51.05975],[3.663494,51.05885],[3.663877,51.05854],[3.664577,51.05797],[3.665846,51.057],[3.667114,51.05611],[3.668585,51.0551],[3.669298,51.05462],[3.669496,51.05447],[3.670372,51.05388]]},"properties":{"name":"Buitenring-Drongen","highway":"cycleway","vertex1":20990,"vertex2":348}},{"type":"Feature","geometry":{"type":"LineString","coordinates":[[3.655194,51.06994],[3.654989,51.06984]]},"properties":{"name":"Beekstraat","cyclenetwork":"yes","highway":"tertiary","vertex1":20989,"vertex2":20980}},{"type":"Feature","geometry":{"type":"LineString","coordinates":[[3.653351,51.06969],[3.653536,51.06942],[3.653707,51.0692]]},"properties":{"highway":"service","vertex1":20988,"vertex2":20984}},{"type":"Feature","geometry":{"type":"LineString","coordinates":[[3.656836,51.06926],[3.656428,51.06914],[3.655516,51.06887],[3.654787,51.06864],[3.65424,51.06842],[3.653792,51.06826]]},"properties":{"name":"Leeuwenhof","highway":"residential","vertex1":20986,"vertex2":20994}},{"type":"Feature","geometry":{"type":"LineString","coordinates":[[3.653792,51.06826],[3.653403,51.06866],[3.653123,51.06892]]},"properties":{"name":"Leeuwenhof","highway":"residential","vertex1":20994,"vertex2":20981}},{"type":"Feature","geometry":{"type":"LineString","coordinates":[[3.653707,51.0692],[3.6536,51.06915],[3.653466,51.06908]]},"properties":{"name":"Beekstraat","cyclenetwork":"yes","highway":"tertiary","vertex1":20984,"vertex2":20982}},{"type":"Feature","geometry":{"type":"LineString","coordinates":[[3.653466,51.06908],[3.653123,51.06892]]},"properties":{"name":"Beekstraat","cyclenetwork":"yes","highway":"tertiary","vertex1":20982,"vertex2":20981}},{"type":"Feature","geometry":{"type":"LineString","coordinates":[[3.658889,51.0699],[3.658604,51.06981]]},"properties":{"tunnel":"yes","highway":"cycleway","vertex1":20978,"vertex2":20967}},{"type":"Feature","geometry":{"type":"LineString","coordinates":[[3.658889,51.0699],[3.658974,51.06993],[3.660428,51.07044]]},"properties":{"name":"Oranjeboomstraat","highway":"residential","maxspeed":"30","vertex1":20978,"vertex2":20921}},{"type":"Feature","geometry":{"type":"LineString","coordinates":[[3.669035,51.06947],[3.669099,51.06937],[3.669314,51.06917],[3.66956,51.069],[3.66974,51.06882],[3.669963,51.06851],[3.670096,51.06832]]},"properties":{"bicycle":"no","motorcar":"no","foot":"no","highway":"service","vertex1":20976,"vertex2":20798}},{"type":"Feature","geometry":{"type":"LineString","coordinates":[[3.666504,51.06975],[3.665626,51.06963],[3.665194,51.07024],[3.665178,51.07072]]},"properties":{"name":"Hoge Olm","highway":"residential","maxspeed":"30","vertex1":20974,"vertex2":20941}},{"type":"Feature","geometry":{"type":"LineString","coordinates":[[3.666504,51.06975],[3.666628,51.06927]]},"properties":{"name":"Kerselaarstraat","highway":"residential","maxspeed":"30","vertex1":20974,"vertex2":20958}},{"type":"Feature","geometry":{"type":"LineString","coordinates":[[3.666504,51.06975],[3.666272,51.07076]]},"properties":{"name":"Kerselaarstraat","highway":"residential","maxspeed":"30","vertex1":20974,"vertex2":20943}},{"type":"Feature","geometry":{"type":"LineString","coordinates":[[3.658604,51.06981],[3.658512,51.06975],[3.658463,51.06968]]},"properties":{"highway":"cycleway","vertex1":20967,"vertex2":20959}},{"type":"Feature","geometry":{"type":"LineString","coordinates":[[3.658463,51.06968],[3.658571,51.06901],[3.658703,51.06837],[3.658855,51.06779],[3.659033,51.06717],[3.659243,51.06654],[3.659497,51.06589],[3.659789,51.06526],[3.660214,51.06451],[3.660488,51.06402],[3.660968,51.06329],[3.6617,51.06231],[3.661798,51.06219],[3.662498,51.06137],[3.663191,51.06067],[3.663646,51.06022],[3.664586,51.05935],[3.665634,51.0585],[3.666346,51.05792],[3.667006,51.05742],[3.668118,51.05667],[3.669573,51.05568],[3.671023,51.05472],[3.672287,51.0539],[3.672471,51.05382],[3.672724,51.05375]]},"properties":{"highway":"cycleway","vertex1":20959,"vertex2":345}},{"type":"Feature","geometry":{"type":"LineString","coordinates":[[3.666628,51.06927],[3.666022,51.06897]]},"properties":{"name":"Vliegpleinkouter","highway":"residential","maxspeed":"30","vertex1":20958,"vertex2":20960}},{"type":"Feature","geometry":{"type":"LineString","coordinates":[[3.666628,51.06927],[3.668177,51.06988],[3.668711,51.07007],[3.669952,51.07084]]},"properties":{"name":"Vliegpleinkouter","highway":"residential","maxspeed":"30","vertex1":20958,"vertex2":20855}},{"type":"Feature","geometry":{"type":"LineString","coordinates":[[3.666022,51.06897],[3.665334,51.06868]]},"properties":{"name":"Vliegpleinkouter","highway":"residential","maxspeed":"30","vertex1":20960,"vertex2":20966}},{"type":"Feature","geometry":{"type":"LineString","coordinates":[[3.669952,51.07084],[3.66981,51.07083]]},"properties":{"name":"Oranjeboomstraat","highway":"residential","maxspeed":"30","vertex1":20855,"vertex2":20853}},{"type":"Feature","geometry":{"type":"LineString","coordinates":[[3.667431,51.07429],[3.667428,51.0744],[3.667401,51.0745],[3.667394,51.0746],[3.667384,51.07471],[3.667441,51.07489],[3.667498,51.07506],[3.667557,51.07515],[3.667646,51.07526]]},"properties":{"bicycle":"no","motorcar":"no","foot":"no","highway":"service","vertex1":20955,"vertex2":20933}},{"type":"Feature","geometry":{"type":"LineString","coordinates":[[3.667431,51.07429],[3.667066,51.07421],[3.667088,51.07413],[3.667116,51.0741]]},"properties":{"bicycle":"no","motorcar":"no","foot":"no","highway":"service","vertex1":20955,"vertex2":20936}},{"type":"Feature","geometry":{"type":"LineString","coordinates":[[3.667431,51.07429],[3.667426,51.07417]]},"properties":{"bicycle":"no","motorcar":"no","foot":"no","highway":"service","vertex1":20955,"vertex2":20954}},{"type":"Feature","geometry":{"type":"LineString","coordinates":[[3.667426,51.07417],[3.667116,51.0741]]},"properties":{"bicycle":"no","motorcar":"no","foot":"no","highway":"service","vertex1":20954,"vertex2":20936}},{"type":"Feature","geometry":{"type":"LineString","coordinates":[[3.66616,51.07447],[3.666294,51.07451]]},"properties":{"bridge":"yes","bicycle":"no","motorcar":"no","foot":"no","highway":"service","vertex1":20953,"vertex2":20951}},{"type":"Feature","geometry":{"type":"LineString","coordinates":[[3.66616,51.07447],[3.666084,51.07446],[3.665734,51.07436]]},"properties":{"bicycle":"no","motorcar":"no","foot":"no","highway":"service","vertex1":20953,"vertex2":20906}},{"type":"Feature","geometry":{"type":"LineString","coordinates":[[3.659362,51.07232],[3.659428,51.07234],[3.659539,51.07238],[3.659676,51.07244],[3.659754,51.07257],[3.659874,51.07262],[3.66,51.07263],[3.660174,51.0726],[3.660365,51.07254]]},"properties":{"highway":"cycleway","vertex1":20952,"vertex2":20924}},{"type":"Feature","geometry":{"type":"LineString","coordinates":[[3.659362,51.07232],[3.65941,51.07228]]},"properties":{"bicycle":"no","motorcar":"no","foot":"no","highway":"service","vertex1":20952,"vertex2":20946}},{"type":"Feature","geometry":{"type":"LineString","coordinates":[[3.659362,51.07232],[3.659287,51.07237],[3.659113,51.07248],[3.659003,51.07254],[3.658888,51.07255],[3.658762,51.0725],[3.658585,51.07242]]},"properties":{"bicycle":"no","motorcar":"no","foot":"no","highway":"service","vertex1":20952,"vertex2":20940}},{"type":"Feature","geometry":{"type":"LineString","coordinates":[[3.661204,51.0729],[3.661711,51.07243]]},"properties":{"name":"Beekstraatdries","highway":"residential","maxspeed":"30","vertex1":20950,"vertex2":20902}},{"type":"Feature","geometry":{"type":"LineString","coordinates":[[3.661204,51.0729],[3.660728,51.0727]]},"properties":{"name":"Beekstraat","cyclenetwork":"yes","maxspeed":"50","highway":"tertiary","vertex1":20950,"vertex2":20926}},{"type":"Feature","geometry":{"type":"LineString","coordinates":[[3.661204,51.0729],[3.661845,51.07318]]},"properties":{"name":"Beekstraat","cyclenetwork":"yes","maxspeed":"50","highway":"tertiary","vertex1":20950,"vertex2":20917}},{"type":"Feature","geometry":{"type":"LineString","coordinates":[[3.666715,51.07417],[3.666816,51.07402],[3.667116,51.0741]]},"properties":{"bicycle":"no","motorcar":"no","foot":"no","highway":"service","vertex1":20949,"vertex2":20936}},{"type":"Feature","geometry":{"type":"LineString","coordinates":[[3.664316,51.07116],[3.664466,51.07092],[3.664627,51.07069]]},"properties":{"name":"Esdoornstraat","highway":"residential","maxspeed":"30","vertex1":20948,"vertex2":20939}},{"type":"Feature","geometry":{"type":"LineString","coordinates":[[3.664316,51.07116],[3.663962,51.07174],[3.664005,51.07183],[3.664134,51.0719],[3.66422,51.07191]]},"properties":{"name":"Esdoornstraat","highway":"residential","maxspeed":"30","vertex1":20948,"vertex2":20944}},{"type":"Feature","geometry":{"type":"LineString","coordinates":[[3.664316,51.07116],[3.66467,51.07123],[3.664874,51.07127]]},"properties":{"name":"Esdoornstraat","highway":"residential","maxspeed":"30","vertex1":20948,"vertex2":20916}},{"type":"Feature","geometry":{"type":"LineString","coordinates":[[3.668393,51.07083],[3.668273,51.07083],[3.667388,51.07079],[3.667235,51.07079]]},"properties":{"name":"Oranjeboomstraat","highway":"residential","maxspeed":"30","vertex1":20947,"vertex2":20945}},{"type":"Feature","geometry":{"type":"LineString","coordinates":[[3.668393,51.07083],[3.669469,51.07082],[3.66981,51.07083]]},"properties":{"name":"Oranjeboomstraat","highway":"residential","maxspeed":"30","vertex1":20947,"vertex2":20853}},{"type":"Feature","geometry":{"type":"LineString","coordinates":[[3.668393,51.07083],[3.668447,51.0711]]},"properties":{"name":"Emiel Poetoustraat","highway":"residential","maxspeed":"30","vertex1":20947,"vertex2":20913}},{"type":"Feature","geometry":{"type":"LineString","coordinates":[[3.66981,51.07083],[3.669766,51.07106],[3.669633,51.07122],[3.669513,51.0714],[3.669352,51.07166],[3.669252,51.07195],[3.669139,51.07236],[3.669012,51.07274]]},"properties":{"name":"Verschansingsstraat","highway":"residential","maxspeed":"30","vertex1":20853,"vertex2":20928}},{"type":"Feature","geometry":{"type":"LineString","coordinates":[[3.65941,51.07228],[3.659371,51.07226]]},"properties":{"name":"Binnenring-Drongen","highway":"trunk_link","vertex1":20946,"vertex2":20908}},{"type":"Feature","geometry":{"type":"LineString","coordinates":[[3.65941,51.07228],[3.659602,51.07235],[3.659669,51.07239],[3.659717,51.07243],[3.659811,51.07253],[3.659854,51.07256],[3.659893,51.07257],[3.65995,51.07257]]},"properties":{"name":"Binnenring-Drongen","highway":"trunk_link","vertex1":20946,"vertex2":20918}},{"type":"Feature","geometry":{"type":"LineString","coordinates":[[3.667235,51.07079],[3.666272,51.07076]]},"properties":{"name":"Oranjeboomstraat","highway":"residential","maxspeed":"30","vertex1":20945,"vertex2":20943}},{"type":"Feature","geometry":{"type":"LineString","coordinates":[[3.667235,51.07079],[3.667234,51.07093],[3.667213,51.07112],[3.667202,51.07122],[3.667052,51.0715],[3.666891,51.07185],[3.667106,51.07188],[3.667492,51.07196],[3.668007,51.07205],[3.668125,51.07184],[3.668382,51.07137],[3.668436,51.07123],[3.668447,51.0711]]},"properties":{"name":"Emiel Poetoustraat","highway":"residential","maxspeed":"30","vertex1":20945,"vertex2":20913}},{"type":"Feature","geometry":{"type":"LineString","coordinates":[[3.66422,51.07191],[3.664348,51.07193]]},"properties":{"name":"Esdoornstraat","highway":"residential","maxspeed":"30","vertex1":20944,"vertex2":20919}},{"type":"Feature","geometry":{"type":"LineString","coordinates":[[3.66422,51.07191],[3.664359,51.07186]]},"properties":{"name":"Esdoornstraat","highway":"residential","maxspeed":"30","vertex1":20944,"vertex2":20907}},{"type":"Feature","geometry":{"type":"LineString","coordinates":[[3.666272,51.07076],[3.665178,51.07072]]},"properties":{"name":"Oranjeboomstraat","highway":"residential","maxspeed":"30","vertex1":20943,"vertex2":20941}},{"type":"Feature","geometry":{"type":"LineString","coordinates":[[3.666272,51.07076],[3.666054,51.07116],[3.665722,51.07175],[3.665293,51.07235],[3.665174,51.0725]]},"properties":{"name":"Kerselaarstraat","highway":"residential","maxspeed":"30","vertex1":20943,"vertex2":20909}},{"type":"Feature","geometry":{"type":"LineString","coordinates":[[3.6598,51.07156],[3.659454,51.07144],[3.659183,51.07133],[3.659092,51.07126],[3.659055,51.07117],[3.65906,51.07096],[3.659081,51.07089],[3.659129,51.07082],[3.659247,51.07077]]},"properties":{"name":"Driesdreef","highway":"residential","maxspeed":"30","vertex1":20942,"vertex2":20899}},{"type":"Feature","geometry":{"type":"LineString","coordinates":[[3.6598,51.07156],[3.659292,51.07206]]},"properties":{"name":"Driesdreef","highway":"residential","maxspeed":"30","vertex1":20942,"vertex2":20934}},{"type":"Feature","geometry":{"type":"LineString","coordinates":[[3.6598,51.07156],[3.659918,51.07143],[3.659998,51.07128],[3.660052,51.07111],[3.660106,51.07095],[3.660181,51.0708],[3.660428,51.07044]]},"properties":{"name":"Driesdreef","highway":"residential","maxspeed":"30","vertex1":20942,"vertex2":20921}},{"type":"Feature","geometry":{"type":"LineString","coordinates":[[3.665178,51.07072],[3.664627,51.07069]]},"properties":{"name":"Oranjeboomstraat","highway":"residential","maxspeed":"30","vertex1":20941,"vertex2":20939}},{"type":"Feature","geometry":{"type":"LineString","coordinates":[[3.664627,51.07069],[3.664459,51.07069],[3.66381,51.07068]]},"properties":{"name":"Oranjeboomstraat","highway":"residential","maxspeed":"30","vertex1":20939,"vertex2":20915}},{"type":"Feature","geometry":{"type":"LineString","coordinates":[[3.665813,51.07368],[3.665607,51.07385],[3.665529,51.074],[3.665689,51.0743],[3.665734,51.07436]]},"properties":{"bicycle":"no","motorcar":"no","foot":"no","highway":"service","vertex1":20938,"vertex2":20906}},{"type":"Feature","geometry":{"type":"LineString","coordinates":[[3.663005,51.07069],[3.662174,51.07069]]},"properties":{"name":"Oranjeboomstraat","highway":"residential","maxspeed":"30","vertex1":20937,"vertex2":20935}},{"type":"Feature","geometry":{"type":"LineString","coordinates":[[3.663005,51.07069],[3.66381,51.07068]]},"properties":{"name":"Oranjeboomstraat","highway":"residential","maxspeed":"30","vertex1":20937,"vertex2":20915}},{"type":"Feature","geometry":{"type":"LineString","coordinates":[[3.663005,51.07069],[3.662962,51.07092],[3.662931,51.07119],[3.662869,51.07131],[3.662758,51.07143],[3.66245,51.07138],[3.661934,51.07128],[3.661636,51.07122],[3.6615,51.07116],[3.661462,51.07107],[3.661524,51.07095],[3.661654,51.07069]]},"properties":{"name":"Mahoniestraat","highway":"residential","maxspeed":"30","vertex1":20937,"vertex2":20923}},{"type":"Feature","geometry":{"type":"LineString","coordinates":[[3.662174,51.07069],[3.661654,51.07069]]},"properties":{"name":"Oranjeboomstraat","highway":"residential","maxspeed":"30","vertex1":20935,"vertex2":20923}},{"type":"Feature","geometry":{"type":"LineString","coordinates":[[3.662174,51.07069],[3.662195,51.0706],[3.66234,51.07027],[3.66263,51.06975],[3.662774,51.06949],[3.66278,51.06942],[3.662732,51.06935],[3.662619,51.0693],[3.661669,51.06911],[3.66116,51.069]]},"properties":{"name":"Wilgetronk straat","highway":"residential","maxspeed":"30","vertex1":20935,"vertex2":20973}},{"type":"Feature","geometry":{"type":"LineString","coordinates":[[3.66116,51.069],[3.661061,51.06927],[3.660921,51.06957],[3.66069,51.06997],[3.660554,51.07023],[3.660428,51.07044]]},"properties":{"name":"Driesdreef","highway":"residential","maxspeed":"30","vertex1":20973,"vertex2":20921}},{"type":"Feature","geometry":{"type":"LineString","coordinates":[[3.659292,51.07206],[3.658676,51.07179]]},"properties":{"name":"Beekstraat","cyclenetwork":"yes","maxspeed":"50","highway":"tertiary","vertex1":20934,"vertex2":20922}},{"type":"Feature","geometry":{"type":"LineString","coordinates":[[3.659292,51.07206],[3.660233,51.07248]]},"properties":{"name":"Beekstraat","cyclenetwork":"yes","maxspeed":"50","highway":"tertiary","vertex1":20934,"vertex2":20925}},{"type":"Feature","geometry":{"type":"LineString","coordinates":[[3.667646,51.07526],[3.667669,51.07525],[3.667961,51.07515]]},"properties":{"name":"Amand Casier de ter Bekenlaan","maxspeed":"50","highway":"tertiary","vertex1":20933,"vertex2":20930}},{"type":"Feature","geometry":{"type":"LineString","coordinates":[[3.667646,51.07526],[3.66762,51.07526]]},"properties":{"name":"Amand Casier de ter Bekenlaan","maxspeed":"50","highway":"tertiary","vertex1":20933,"vertex2":20927}},{"type":"Feature","geometry":{"type":"LineString","coordinates":[[3.667269,51.07536],[3.667165,51.07523],[3.667104,51.07514]]},"properties":{"name":"Beekstraat","maxspeed":"50","highway":"tertiary","cycleway":"lane","vertex1":20932,"vertex2":20914}},{"type":"Feature","geometry":{"type":"LineString","coordinates":[[3.667269,51.07536],[3.667481,51.0753],[3.66762,51.07526]]},"properties":{"name":"Amand Casier de ter Bekenlaan","maxspeed":"50","highway":"tertiary","vertex1":20932,"vertex2":20927}},{"type":"Feature","geometry":{"type":"LineString","coordinates":[[3.661086,51.07227],[3.661711,51.07243]]},"properties":{"name":"Beekstraatdries","highway":"residential","maxspeed":"30","vertex1":20931,"vertex2":20902}},{"type":"Feature","geometry":{"type":"LineString","coordinates":[[3.661086,51.07227],[3.661039,51.07223],[3.661042,51.07219],[3.66124,51.07187],[3.661299,51.07183],[3.661368,51.07182],[3.662744,51.07215],[3.662795,51.07219],[3.662811,51.07223],[3.662758,51.07232],[3.662645,51.07252],[3.662599,51.07257],[3.662556,51.07261],[3.662486,51.07261]]},"properties":{"name":"Beekstraatdries","highway":"residential","maxspeed":"30","vertex1":20931,"vertex2":20929}},{"type":"Feature","geometry":{"type":"LineString","coordinates":[[3.667961,51.07515],[3.667897,51.07504],[3.668022,51.07472],[3.668597,51.07355],[3.668821,51.07312]]},"properties":{"name":"Verschansingsstraat","highway":"residential","maxspeed":"30","vertex1":20930,"vertex2":20912}},{"type":"Feature","geometry":{"type":"LineString","coordinates":[[3.667961,51.07515],[3.669902,51.0745]]},"properties":{"name":"Amand Casier de ter Bekenlaan","maxspeed":"50","highway":"tertiary","vertex1":20930,"vertex2":20840}},{"type":"Feature","geometry":{"type":"LineString","coordinates":[[3.662486,51.07261],[3.661711,51.07243]]},"properties":{"name":"Beekstraatdries","highway":"residential","maxspeed":"30","vertex1":20929,"vertex2":20902}},{"type":"Feature","geometry":{"type":"LineString","coordinates":[[3.669012,51.07274],[3.669683,51.07283],[3.670169,51.0729]]},"properties":{"name":"Rijakker","highway":"residential","maxspeed":"30","vertex1":20928,"vertex2":20822}},{"type":"Feature","geometry":{"type":"LineString","coordinates":[[3.669012,51.07274],[3.668821,51.07312]]},"properties":{"name":"Verschansingsstraat","highway":"residential","maxspeed":"30","vertex1":20928,"vertex2":20912}},{"type":"Feature","geometry":{"type":"LineString","coordinates":[[3.66762,51.07526],[3.667557,51.07526],[3.667468,51.07524],[3.667333,51.07521],[3.667202,51.07518],[3.667104,51.07514]]},"properties":{"highway":"cycleway","vertex1":20927,"vertex2":20914}},{"type":"Feature","geometry":{"type":"LineString","coordinates":[[3.660728,51.0727],[3.658828,51.07427],[3.658802,51.07439],[3.658826,51.07456]]},"properties":{"highway":"track","vertex1":20926,"vertex2":20898}},{"type":"Feature","geometry":{"type":"LineString","coordinates":[[3.660728,51.0727],[3.660365,51.07254]]},"properties":{"name":"Beekstraat","cyclenetwork":"yes","maxspeed":"50","highway":"tertiary","vertex1":20926,"vertex2":20924}},{"type":"Feature","geometry":{"type":"LineString","coordinates":[[3.660233,51.07248],[3.660365,51.07254]]},"properties":{"name":"Beekstraat","cyclenetwork":"yes","maxspeed":"50","highway":"tertiary","vertex1":20925,"vertex2":20924}},{"type":"Feature","geometry":{"type":"LineString","coordinates":[[3.660233,51.07248],[3.660172,51.07251],[3.660084,51.07255],[3.660029,51.07257],[3.65995,51.07257]]},"properties":{"name":"Binnenring-Drongen","highway":"trunk_link","vertex1":20925,"vertex2":20918}},{"type":"Feature","geometry":{"type":"LineString","coordinates":[[3.661654,51.07069],[3.661589,51.07069],[3.661396,51.07066],[3.661208,51.07063],[3.660428,51.07044]]},"properties":{"name":"Oranjeboomstraat","highway":"residential","maxspeed":"30","vertex1":20923,"vertex2":20921}},{"type":"Feature","geometry":{"type":"LineString","coordinates":[[3.662854,51.07446],[3.663462,51.07387]]},"properties":{"name":"Vinderhoutsedam","cyclenetwork":"yes","highway":"residential","maxspeed":"30","vertex1":20920,"vertex2":20904}},{"type":"Feature","geometry":{"type":"LineString","coordinates":[[3.664348,51.07193],[3.664466,51.07191],[3.664434,51.07186],[3.664359,51.07186]]},"properties":{"name":"Esdoornstraat","highway":"residential","maxspeed":"30","vertex1":20919,"vertex2":20907}},{"type":"Feature","geometry":{"type":"LineString","coordinates":[[3.661845,51.07318],[3.662604,51.07351],[3.663462,51.07387]]},"properties":{"name":"Beekstraat","cyclenetwork":"yes","maxspeed":"50","highway":"tertiary","vertex1":20917,"vertex2":20904}},{"type":"Feature","geometry":{"type":"LineString","coordinates":[[3.661845,51.07318],[3.660805,51.07412]]},"properties":{"bicycle":"no","motorcar":"no","foot":"no","highway":"track","vertex1":20917,"vertex2":20905}},{"type":"Feature","geometry":{"type":"LineString","coordinates":[[3.664874,51.07127],[3.664831,51.07134]]},"properties":{"name":"Esdoornstraat","highway":"residential","maxspeed":"30","vertex1":20916,"vertex2":20901}},{"type":"Feature","geometry":{"type":"LineString","coordinates":[[3.664874,51.07127],[3.664917,51.07121]]},"properties":{"name":"Esdoornstraat","highway":"residential","maxspeed":"30","vertex1":20916,"vertex2":20903}},{"type":"Feature","geometry":{"type":"LineString","coordinates":[[3.66381,51.07068],[3.66382,51.07006],[3.664003,51.06971],[3.664282,51.06941],[3.664604,51.06923],[3.664914,51.06908],[3.665334,51.06868]]},"properties":{"name":"Cipresdreef","highway":"residential","maxspeed":"30","vertex1":20915,"vertex2":20966}},{"type":"Feature","geometry":{"type":"LineString","coordinates":[[3.667104,51.07514],[3.666867,51.07504],[3.666151,51.07481],[3.665534,51.07461]]},"properties":{"name":"Beekstraat","maxspeed":"50","highway":"tertiary","cycleway":"lane","vertex1":20914,"vertex2":20900}},{"type":"Feature","geometry":{"type":"LineString","coordinates":[[3.668821,51.07312],[3.669222,51.07322],[3.669582,51.0733],[3.669823,51.07339],[3.670032,51.0735],[3.670163,51.07364],[3.670474,51.07398],[3.670666,51.07424]]},"properties":{"name":"Alfons Minoodtlaan","highway":"residential","maxspeed":"30","vertex1":20912,"vertex2":20818}},{"type":"Feature","geometry":{"type":"LineString","coordinates":[[3.664348,51.07418],[3.664531,51.07394],[3.66466,51.07376],[3.664735,51.07362],[3.664799,51.07343],[3.664874,51.07323],[3.664981,51.07301],[3.665045,51.07282],[3.665089,51.07269],[3.665174,51.0725]]},"properties":{"name":"Kerselaarstraat","highway":"track","vertex1":20911,"vertex2":20909}},{"type":"Feature","geometry":{"type":"LineString","coordinates":[[3.664348,51.07418],[3.663462,51.07387]]},"properties":{"name":"Beekstraat","maxspeed":"50","highway":"tertiary","cycleway":"lane","vertex1":20911,"vertex2":20904}},{"type":"Feature","geometry":{"type":"LineString","coordinates":[[3.664348,51.07418],[3.665229,51.07451],[3.665534,51.07461]]},"properties":{"name":"Beekstraat","maxspeed":"50","highway":"tertiary","cycleway":"lane","vertex1":20911,"vertex2":20900}},{"type":"Feature","geometry":{"type":"LineString","coordinates":[[3.659517,51.07482],[3.658826,51.07456]]},"properties":{"highway":"path","vertex1":20910,"vertex2":20898}},{"type":"Feature","geometry":{"type":"LineString","coordinates":[[3.665734,51.07436],[3.665702,51.07439],[3.66565,51.07441],[3.66559,51.07445],[3.66554,51.07449],[3.665521,51.07452],[3.665533,51.07454],[3.665534,51.07461]]},"properties":{"bicycle":"no","motorcar":"no","foot":"no","highway":"service","vertex1":20906,"vertex2":20900}}]}