{"type":"FeatureCollection","features":[{"type":"Feature","geometry":{"type":"LineString","coordinates":[[3.757324,51.06902],[3.779297,51.06902],[3.779297,51.05521],[3.757324,51.05521],[3.757324,51.06902]]},"properties":{"id":"89792683","zoom":"14"}},{"type":"Feature","geometry":{"type":"LineString","coordinates":[[3.759173,51.06117],[3.759812,51.06131]]},"properties":{"name":"Victor Braeckmanlaan","highway":"primary","maxspeed":"50","cycleway":"lane","vertex1":5537,"vertex2":5492}},{"type":"Feature","geometry":{"type":"LineString","coordinates":[[3.759173,51.06117],[3.758625,51.06104],[3.757473,51.06079],[3.756953,51.06067]]},"properties":{"name":"Victor Braeckmanlaan","highway":"primary","maxspeed":"50","cycleway":"lane","vertex1":5537,"vertex2":5631}},{"type":"Feature","geometry":{"type":"LineString","coordinates":[[3.756953,51.06067],[3.756528,51.06058]]},"properties":{"name":"Victor Braeckmanlaan","highway":"primary","maxspeed":"50","cycleway":"lane","vertex1":5631,"vertex2":5630}},{"type":"Feature","geometry":{"type":"LineString","coordinates":[[3.760209,51.06134],[3.760037,51.0613]]},"properties":{"oneway":"yes","highway":"cycleway","vertex1":5536,"vertex2":5495}},{"type":"Feature","geometry":{"type":"LineString","coordinates":[[3.760209,51.06134],[3.760711,51.06145],[3.76092,51.0615],[3.761338,51.06161]]},"properties":{"oneway":"yes","highway":"cycleway","vertex1":5536,"vertex2":5489}},{"type":"Feature","geometry":{"type":"LineString","coordinates":[[3.760209,51.06134],[3.760183,51.06139]]},"properties":{"highway":"service","vertex1":5536,"vertex2":5523}},{"type":"Feature","geometry":{"type":"LineString","coordinates":[[3.760209,51.06134],[3.760238,51.06129],[3.760276,51.06121],[3.760336,51.06114],[3.760484,51.06102],[3.760554,51.06095]]},"properties":{"highway":"service","vertex1":5536,"vertex2":5476}},{"type":"Feature","geometry":{"type":"LineString","coordinates":[[3.759901,51.05954],[3.759682,51.05936],[3.759668,51.05935]]},"properties":{"highway":"track","vertex1":5535,"vertex2":5533}},{"type":"Feature","geometry":{"type":"LineString","coordinates":[[3.759901,51.05954],[3.760537,51.06005]]},"properties":{"highway":"track","vertex1":5535,"vertex2":5502}},{"type":"Feature","geometry":{"type":"LineString","coordinates":[[3.759901,51.05954],[3.759674,51.05949],[3.759536,51.05949]]},"properties":{"highway":"track","vertex1":5535,"vertex2":5526}},{"type":"Feature","geometry":{"type":"LineString","coordinates":[[3.762366,51.06066],[3.762291,51.06068]]},"properties":{"highway":"service","vertex1":5534,"vertex2":5500}},{"type":"Feature","geometry":{"type":"LineString","coordinates":[[3.762366,51.06066],[3.762403,51.06063],[3.762414,51.0606],[3.762398,51.06057],[3.762307,51.06049],[3.761854,51.06017]]},"properties":{"highway":"service","vertex1":5534,"vertex2":5482}},{"type":"Feature","geometry":{"type":"LineString","coordinates":[[3.762366,51.06066],[3.762525,51.06065],[3.762751,51.06062],[3.762936,51.06053]]},"properties":{"highway":"service","vertex1":5534,"vertex2":5503}},{"type":"Feature","geometry":{"type":"LineString","coordinates":[[3.759668,51.05935],[3.759597,51.0593],[3.759418,51.05916]]},"properties":{"highway":"track","vertex1":5533,"vertex2":5531}},{"type":"Feature","geometry":{"type":"LineString","coordinates":[[3.759668,51.05935],[3.759649,51.05938],[3.759585,51.05943],[3.759536,51.05949]]},"properties":{"highway":"track","vertex1":5533,"vertex2":5526}},{"type":"Feature","geometry":{"type":"LineString","coordinates":[[3.762194,51.062],[3.761928,51.06189]]},"properties":{"name":"Victor Braeckmanlaan","highway":"primary","maxspeed":"50","cycleway":"lane","vertex1":5532,"vertex2":5507}},{"type":"Feature","geometry":{"type":"LineString","coordinates":[[3.762194,51.062],[3.762282,51.06203]]},"properties":{"name":"Victor Braeckmanlaan","highway":"primary","maxspeed":"50","cycleway":"lane","vertex1":5532,"vertex2":5479}},{"type":"Feature","geometry":{"type":"LineString","coordinates":[[3.762194,51.062],[3.76213,51.06205],[3.762099,51.06212]]},"properties":{"highway":"footway","vertex1":5532,"vertex2":5505}},{"type":"Feature","geometry":{"type":"LineString","coordinates":[[3.762194,51.062],[3.762245,51.06194],[3.762242,51.06184],[3.762264,51.0618]]},"properties":{"highway":"footway","vertex1":5532,"vertex2":5493}},{"type":"Feature","geometry":{"type":"LineString","coordinates":[[3.759418,51.05916],[3.759443,51.05908]]},"properties":{"highway":"track","vertex1":5531,"vertex2":5511}},{"type":"Feature","geometry":{"type":"LineString","coordinates":[[3.759418,51.05916],[3.75929,51.05905]]},"properties":{"highway":"path","vertex1":5531,"vertex2":5513}},{"type":"Feature","geometry":{"type":"LineString","coordinates":[[3.759143,51.0596],[3.759234,51.05967],[3.759495,51.05987],[3.759653,51.05993],[3.759837,51.06]]},"properties":{"highway":"track","vertex1":5530,"vertex2":5498}},{"type":"Feature","geometry":{"type":"LineString","coordinates":[[3.759143,51.0596],[3.759092,51.05957]]},"properties":{"highway":"track","vertex1":5530,"vertex2":5504}},{"type":"Feature","geometry":{"type":"LineString","coordinates":[[3.759143,51.0596],[3.759536,51.05949]]},"properties":{"highway":"track","vertex1":5530,"vertex2":5526}},{"type":"Feature","geometry":{"type":"LineString","coordinates":[[3.759882,51.06144],[3.759743,51.06141]]},"properties":{"highway":"footway","vertex1":5529,"vertex2":5518}},{"type":"Feature","geometry":{"type":"LineString","coordinates":[[3.759882,51.06144],[3.759941,51.06134]]},"properties":{"highway":"footway","vertex1":5529,"vertex2":5527}},{"type":"Feature","geometry":{"type":"LineString","coordinates":[[3.759882,51.06144],[3.76027,51.06152],[3.760563,51.06159],[3.760769,51.06165],[3.7611,51.06176],[3.761286,51.06181],[3.761658,51.06193],[3.761811,51.06198],[3.761981,51.06211],[3.762009,51.06212],[3.762071,51.06211]]},"properties":{"highway":"footway","vertex1":5529,"vertex2":5515}},{"type":"Feature","geometry":{"type":"LineString","coordinates":[[3.76131,51.06168],[3.760804,51.06154]]},"properties":{"name":"Victor Braeckmanlaan","highway":"primary","maxspeed":"50","cycleway":"lane","vertex1":5528,"vertex2":5480}},{"type":"Feature","geometry":{"type":"LineString","coordinates":[[3.76131,51.06168],[3.761435,51.06173]]},"properties":{"name":"Victor Braeckmanlaan","highway":"primary","maxspeed":"50","cycleway":"lane","vertex1":5528,"vertex2":5468}},{"type":"Feature","geometry":{"type":"LineString","coordinates":[[3.76131,51.06168],[3.761338,51.06161]]},"properties":{"motorcar":"no","highway":"track","vertex1":5528,"vertex2":5489}},{"type":"Feature","geometry":{"type":"LineString","coordinates":[[3.759941,51.06134],[3.75997,51.06128],[3.760039,51.06121],[3.760098,51.0611],[3.760296,51.061],[3.760424,51.06094],[3.76048,51.06089]]},"properties":{"highway":"footway","vertex1":5527,"vertex2":5475}},{"type":"Feature","geometry":{"type":"LineString","coordinates":[[3.759941,51.06134],[3.759812,51.06131]]},"properties":{"name":"Victor Braeckmanlaan","highway":"primary","maxspeed":"50","cycleway":"lane","vertex1":5527,"vertex2":5492}},{"type":"Feature","geometry":{"type":"LineString","coordinates":[[3.759941,51.06134],[3.760001,51.06135]]},"properties":{"name":"Victor Braeckmanlaan","highway":"primary","maxspeed":"50","cycleway":"lane","vertex1":5527,"vertex2":5471}},{"type":"Feature","geometry":{"type":"LineString","coordinates":[[3.759536,51.05949],[3.759234,51.05949],[3.759044,51.05947]]},"properties":{"highway":"track","vertex1":5526,"vertex2":5484}},{"type":"Feature","geometry":{"type":"LineString","coordinates":[[3.757634,51.06129],[3.757084,51.06117],[3.757121,51.0611],[3.756424,51.06096],[3.756298,51.0609],[3.755971,51.06071]]},"properties":{"highway":"service","vertex1":5525,"vertex2":5626}},{"type":"Feature","geometry":{"type":"LineString","coordinates":[[3.755971,51.06071],[3.756174,51.06062]]},"properties":{"name":"Rozebroekstraat","highway":"residential","maxspeed":"30","vertex1":5626,"vertex2":5546}},{"type":"Feature","geometry":{"type":"LineString","coordinates":[[3.762733,51.06223],[3.762972,51.06236]]},"properties":{"name":"Nieuwelaan","highway":"primary","maxspeed":"70","vertex1":5524,"vertex2":5522}},{"type":"Feature","geometry":{"type":"LineString","coordinates":[[3.762733,51.06223],[3.762539,51.06215],[3.762282,51.06203]]},"properties":{"name":"Nieuwelaan","highway":"primary","maxspeed":"70","vertex1":5524,"vertex2":5479}},{"type":"Feature","geometry":{"type":"LineString","coordinates":[[3.760183,51.06139],[3.760804,51.06154]]},"properties":{"name":"Victor Braeckmanlaan","highway":"primary","maxspeed":"50","cycleway":"lane","vertex1":5523,"vertex2":5480}},{"type":"Feature","geometry":{"type":"LineString","coordinates":[[3.760183,51.06139],[3.760054,51.06136],[3.760001,51.06135]]},"properties":{"name":"Victor Braeckmanlaan","highway":"primary","maxspeed":"50","cycleway":"lane","vertex1":5523,"vertex2":5471}},{"type":"Feature","geometry":{"type":"LineString","coordinates":[[3.762972,51.06236],[3.762866,51.06225],[3.762869,51.06216],[3.762927,51.06211],[3.763001,51.06206],[3.763193,51.06205]]},"properties":{"name":"Alfons Braeckmanlaan","oneway":"yes","highway":"residential","vertex1":5522,"vertex2":5499}},{"type":"Feature","geometry":{"type":"LineString","coordinates":[[3.762972,51.06236],[3.76338,51.06256],[3.763722,51.06278],[3.76427,51.06318],[3.764595,51.06346],[3.764836,51.06369],[3.76509,51.06396],[3.765334,51.06429],[3.765557,51.06462]]},"properties":{"name":"Nieuwelaan","highway":"primary","maxspeed":"70","vertex1":5522,"vertex2":19102}},{"type":"Feature","geometry":{"type":"LineString","coordinates":[[3.762836,51.06257],[3.762711,51.06292],[3.762497,51.06347]]},"properties":{"highway":"service","vertex1":5521,"vertex2":5519}},{"type":"Feature","geometry":{"type":"LineString","coordinates":[[3.762836,51.06257],[3.762601,51.06253],[3.76235,51.06253],[3.762098,51.06252]]},"properties":{"highway":"service","vertex1":5521,"vertex2":5510}},{"type":"Feature","geometry":{"type":"LineString","coordinates":[[3.762836,51.06257],[3.763606,51.06306],[3.76374,51.0631],[3.764192,51.06345],[3.764128,51.06355]]},"properties":{"highway":"service","vertex1":5521,"vertex2":5517}},{"type":"Feature","geometry":{"type":"LineString","coordinates":[[3.767451,51.05964],[3.768389,51.05998],[3.768849,51.06019],[3.76905,51.06027],[3.769286,51.06034],[3.769637,51.06039],[3.770087,51.06041]]},"properties":{"name":"Bijlokestraat","highway":"residential","maxspeed":"30","vertex1":5520,"vertex2":5286}},{"type":"Feature","geometry":{"type":"LineString","coordinates":[[3.767451,51.05964],[3.768625,51.05805],[3.768892,51.05794],[3.769068,51.05785],[3.769839,51.05641]]},"properties":{"name":"Bijlokeweg","highway":"residential","maxspeed":"30","vertex1":5520,"vertex2":5299}},{"type":"Feature","geometry":{"type":"LineString","coordinates":[[3.767451,51.05964],[3.767124,51.05953],[3.766843,51.05937],[3.766438,51.05909]]},"properties":{"name":"Bijlokestraat","highway":"residential","maxspeed":"30","vertex1":5520,"vertex2":5494}},{"type":"Feature","geometry":{"type":"LineString","coordinates":[[3.759743,51.06141],[3.759012,51.0619],[3.758082,51.0626]]},"properties":{"name":"Bromeliastraat","highway":"residential","maxspeed":"30","vertex1":5518,"vertex2":5478}},{"type":"Feature","geometry":{"type":"LineString","coordinates":[[3.759743,51.06141],[3.759812,51.06131]]},"properties":{"name":"Bromeliastraat","highway":"residential","maxspeed":"30","vertex1":5518,"vertex2":5492}},{"type":"Feature","geometry":{"type":"LineString","coordinates":[[3.759743,51.06141],[3.758433,51.06112],[3.757384,51.06089],[3.756174,51.06062]]},"properties":{"highway":"footway","vertex1":5518,"vertex2":5546}},{"type":"Feature","geometry":{"type":"LineString","coordinates":[[3.75742,51.06334],[3.758082,51.0626]]},"properties":{"name":"Bromeliastraat","highway":"residential","maxspeed":"30","vertex1":5516,"vertex2":5478}},{"type":"Feature","geometry":{"type":"LineString","coordinates":[[3.75742,51.06334],[3.759378,51.06411],[3.760533,51.06457]]},"properties":{"name":"Heiveldstraat","highway":"residential","maxspeed":"30","vertex1":5516,"vertex2":19030}},{"type":"Feature","geometry":{"type":"LineString","coordinates":[[3.75742,51.06334],[3.756565,51.0631],[3.756231,51.063],[3.755818,51.06295],[3.755385,51.0629]]},"properties":{"name":"Heiveldstraat","highway":"residential","maxspeed":"30","vertex1":5516,"vertex2":5617}},{"type":"Feature","geometry":{"type":"LineString","coordinates":[[3.762071,51.06211],[3.762082,51.06213],[3.762131,51.06226]]},"properties":{"name":"Jef Crickxstraat","oneway":"yes","highway":"residential","maxspeed":"30","vertex1":5515,"vertex2":5483}},{"type":"Feature","geometry":{"type":"LineString","coordinates":[[3.762071,51.06211],[3.762054,51.06208],[3.76201,51.06202],[3.761928,51.06189]]},"properties":{"name":"Jef Crickxstraat","oneway":"yes","highway":"residential","maxspeed":"30","vertex1":5515,"vertex2":5507}},{"type":"Feature","geometry":{"type":"LineString","coordinates":[[3.762071,51.06211],[3.762099,51.06212]]},"properties":{"highway":"footway","vertex1":5515,"vertex2":5505}},{"type":"Feature","geometry":{"type":"LineString","coordinates":[[3.762319,51.05984],[3.762102,51.05995],[3.761808,51.06009],[3.761639,51.06017],[3.761436,51.06027],[3.761068,51.06046]]},"properties":{"highway":"cycleway","vertex1":5514,"vertex2":5508}},{"type":"Feature","geometry":{"type":"LineString","coordinates":[[3.762319,51.05984],[3.762388,51.0599],[3.762818,51.06024],[3.762938,51.06033],[3.762987,51.0604],[3.762988,51.06046],[3.762936,51.06053]]},"properties":{"highway":"track","vertex1":5514,"vertex2":5503}},{"type":"Feature","geometry":{"type":"LineString","coordinates":[[3.762319,51.05984],[3.762144,51.0597],[3.761791,51.05942],[3.76154,51.05923],[3.761179,51.05896],[3.760785,51.05865],[3.760629,51.05853],[3.760599,51.05851]]},"properties":{"highway":"track","vertex1":5514,"vertex2":5467}},{"type":"Feature","geometry":{"type":"LineString","coordinates":[[3.75929,51.05905],[3.759443,51.05908]]},"properties":{"highway":"path","vertex1":5513,"vertex2":5511}},{"type":"Feature","geometry":{"type":"LineString","coordinates":[[3.75929,51.05905],[3.759244,51.05901],[3.759122,51.05885],[3.759058,51.05853]]},"properties":{"highway":"path","vertex1":5513,"vertex2":5423}},{"type":"Feature","geometry":{"type":"LineString","coordinates":[[3.760524,51.06008],[3.760537,51.06005]]},"properties":{"bicycle":"no","motorcar":"no","highway":"track","vertex1":5512,"vertex2":5502}},{"type":"Feature","geometry":{"type":"LineString","coordinates":[[3.760524,51.06008],[3.760448,51.06026],[3.7605,51.06045],[3.760558,51.0606],[3.760554,51.06067]]},"properties":{"bicycle":"no","motorcar":"no","highway":"track","vertex1":5512,"vertex2":5469}},{"type":"Feature","geometry":{"type":"LineString","coordinates":[[3.760524,51.06008],[3.760465,51.06008],[3.760252,51.06005],[3.759893,51.06],[3.759837,51.06]]},"properties":{"highway":"path","vertex1":5512,"vertex2":5498}},{"type":"Feature","geometry":{"type":"LineString","coordinates":[[3.759443,51.05908],[3.759596,51.05902],[3.759735,51.05895],[3.759803,51.05886],[3.759828,51.0588],[3.759809,51.05871]]},"properties":{"highway":"track","vertex1":5511,"vertex2":5419}},{"type":"Feature","geometry":{"type":"LineString","coordinates":[[3.762098,51.06252],[3.762056,51.06285],[3.762002,51.06306],[3.761878,51.06329],[3.760533,51.06457]]},"properties":{"name":"Jef Crickxstraat","highway":"residential","maxspeed":"30","vertex1":5510,"vertex2":19030}},{"type":"Feature","geometry":{"type":"LineString","coordinates":[[3.762098,51.06252],[3.762131,51.06226]]},"properties":{"name":"Jef Crickxstraat","highway":"residential","maxspeed":"30","vertex1":5510,"vertex2":5483}},{"type":"Feature","geometry":{"type":"LineString","coordinates":[[3.760754,51.06084],[3.760718,51.06082],[3.760623,51.06074]]},"properties":{"highway":"path","vertex1":5509,"vertex2":5487}},{"type":"Feature","geometry":{"type":"LineString","coordinates":[[3.760754,51.06084],[3.760797,51.06088],[3.760848,51.0609],[3.760882,51.06091],[3.761322,51.06086],[3.761733,51.06082],[3.762197,51.06078],[3.762748,51.06072],[3.763054,51.0607],[3.763143,51.06069],[3.76322,51.06067],[3.763286,51.06063],[3.763322,51.06059],[3.763324,51.06053],[3.763307,51.06049],[3.76325,51.06044],[3.762806,51.06014],[3.762599,51.06001],[3.762438,51.0599],[3.762362,51.05984],[3.762345,51.05983]]},"properties":{"highway":"path","vertex1":5509,"vertex2":5477}},{"type":"Feature","geometry":{"type":"LineString","coordinates":[[3.760754,51.06084],[3.760728,51.06085],[3.760554,51.06095]]},"properties":{"highway":"service","vertex1":5509,"vertex2":5476}},{"type":"Feature","geometry":{"type":"LineString","coordinates":[[3.760754,51.06084],[3.761575,51.06076],[3.762291,51.06068]]},"properties":{"highway":"service","vertex1":5509,"vertex2":5500}},{"type":"Feature","geometry":{"type":"LineString","coordinates":[[3.761068,51.06046],[3.760537,51.06005]]},"properties":{"highway":"track","vertex1":5508,"vertex2":5502}},{"type":"Feature","geometry":{"type":"LineString","coordinates":[[3.761068,51.06046],[3.760712,51.06064],[3.760623,51.06074]]},"properties":{"highway":"cycleway","vertex1":5508,"vertex2":5487}},{"type":"Feature","geometry":{"type":"LineString","coordinates":[[3.761928,51.06189],[3.761533,51.06176]]},"properties":{"name":"Victor Braeckmanlaan","highway":"primary","maxspeed":"50","cycleway":"lane","vertex1":5507,"vertex2":5496}},{"type":"Feature","geometry":{"type":"LineString","coordinates":[[3.759029,51.05973],[3.759077,51.05991]]},"properties":{"motorcar":"no","highway":"track","vertex1":5506,"vertex2":5486}},{"type":"Feature","geometry":{"type":"LineString","coordinates":[[3.759029,51.05973],[3.759024,51.05972],[3.759085,51.05959]]},"properties":{"motorcar":"no","highway":"track","vertex1":5506,"vertex2":5470}},{"type":"Feature","geometry":{"type":"LineString","coordinates":[[3.759029,51.05973],[3.758934,51.05969],[3.75874,51.05944],[3.758435,51.05906],[3.758142,51.05875],[3.757826,51.05841],[3.757758,51.05832]]},"properties":{"motorcar":"no","highway":"track","vertex1":5506,"vertex2":5415}},{"type":"Feature","geometry":{"type":"LineString","coordinates":[[3.762099,51.06212],[3.762123,51.06212],[3.762178,51.06214]]},"properties":{"highway":"footway","vertex1":5505,"vertex2":5481}},{"type":"Feature","geometry":{"type":"LineString","coordinates":[[3.759092,51.05957],[3.759085,51.05959]]},"properties":{"motorcar":"no","highway":"track","vertex1":5504,"vertex2":5470}},{"type":"Feature","geometry":{"type":"LineString","coordinates":[[3.759092,51.05957],[3.759044,51.05947]]},"properties":{"motorcar":"no","highway":"track","vertex1":5504,"vertex2":5484}},{"type":"Feature","geometry":{"type":"LineString","coordinates":[[3.762936,51.06053],[3.762899,51.06048]]},"properties":{"highway":"service","vertex1":5503,"vertex2":5501}},{"type":"Feature","geometry":{"type":"LineString","coordinates":[[3.760537,51.06005],[3.760697,51.05994]]},"properties":{"bicycle":"no","motorcar":"no","highway":"track","vertex1":5502,"vertex2":5488}},{"type":"Feature","geometry":{"type":"LineString","coordinates":[[3.763193,51.06205],[3.763101,51.06198],[3.762264,51.0618]]},"properties":{"highway":"cycleway","vertex1":5499,"vertex2":5493}},{"type":"Feature","geometry":{"type":"LineString","coordinates":[[3.763193,51.06205],[3.765821,51.06263]]},"properties":{"name":"Alfons Braeckmanlaan","maxspeed":"50","highway":"residential","cycleway":"lane","vertex1":5499,"vertex2":5473}},{"type":"Feature","geometry":{"type":"LineString","coordinates":[[3.763193,51.06205],[3.76289,51.062],[3.762623,51.06197]]},"properties":{"name":"Alfons Braeckmanlaan","maxspeed":"50","highway":"residential","vertex1":5499,"vertex2":5472}},{"type":"Feature","geometry":{"type":"LineString","coordinates":[[3.759837,51.06],[3.759887,51.06005],[3.759929,51.06013],[3.76,51.06026],[3.760184,51.06041],[3.760357,51.06054],[3.760501,51.06064],[3.760554,51.06067]]},"properties":{"highway":"track","vertex1":5498,"vertex2":5469}},{"type":"Feature","geometry":{"type":"LineString","coordinates":[[3.760512,51.06091],[3.76029,51.06104],[3.76013,51.06112],[3.760037,51.0613]]},"properties":{"highway":"cycleway","vertex1":5497,"vertex2":5495}},{"type":"Feature","geometry":{"type":"LineString","coordinates":[[3.760512,51.06091],[3.760554,51.06095]]},"properties":{"motorcar":"no","highway":"track","vertex1":5497,"vertex2":5476}},{"type":"Feature","geometry":{"type":"LineString","coordinates":[[3.760512,51.06091],[3.76048,51.06089]]},"properties":{"name":"Rozebroekslag","highway":"residential","vertex1":5497,"vertex2":5475}},{"type":"Feature","geometry":{"type":"LineString","coordinates":[[3.760512,51.06091],[3.760635,51.06084],[3.760623,51.06074]]},"properties":{"highway":"cycleway","vertex1":5497,"vertex2":5487}},{"type":"Feature","geometry":{"type":"LineString","coordinates":[[3.761533,51.06176],[3.761435,51.06173]]},"properties":{"name":"Victor Braeckmanlaan","highway":"primary","maxspeed":"50","cycleway":"lane","vertex1":5496,"vertex2":5468}},{"type":"Feature","geometry":{"type":"LineString","coordinates":[[3.760037,51.0613],[3.760001,51.06135]]},"properties":{"highway":"cycleway","vertex1":5495,"vertex2":5471}},{"type":"Feature","geometry":{"type":"LineString","coordinates":[[3.766438,51.05909],[3.766285,51.05896],[3.765574,51.05847],[3.765194,51.05824],[3.764518,51.05777],[3.764402,51.05768],[3.764267,51.05756],[3.764048,51.05736],[3.763856,51.05708],[3.763592,51.05671],[3.7633,51.05631]]},"properties":{"name":"Bijlokestraat","highway":"residential","maxspeed":"30","vertex1":5494,"vertex2":5373}},{"type":"Feature","geometry":{"type":"LineString","coordinates":[[3.766438,51.05909],[3.767048,51.05834],[3.76708,51.0583]]},"properties":{"name":"Markiesstraat","highway":"residential","maxspeed":"30","vertex1":5494,"vertex2":5370}},{"type":"Feature","geometry":{"type":"LineString","coordinates":[[3.762264,51.0618],[3.761773,51.0617],[3.76158,51.06164]]},"properties":{"highway":"cycleway","vertex1":5493,"vertex2":5491}},{"type":"Feature","geometry":{"type":"LineString","coordinates":[[3.76158,51.06164],[3.761419,51.06165],[3.761338,51.06161]]},"properties":{"highway":"cycleway","vertex1":5491,"vertex2":5489}},{"type":"Feature","geometry":{"type":"LineString","coordinates":[[3.76158,51.06164],[3.761473,51.06158],[3.761356,51.06148],[3.761268,51.06144]]},"properties":{"highway":"cycleway","vertex1":5491,"vertex2":5474}},{"type":"Feature","geometry":{"type":"LineString","coordinates":[[3.764853,51.06131],[3.765041,51.06146],[3.765159,51.06161],[3.765208,51.06171],[3.765821,51.06263]]},"properties":{"highway":"service","vertex1":5490,"vertex2":5473}},{"type":"Feature","geometry":{"type":"LineString","coordinates":[[3.761338,51.06161],[3.761318,51.06152],[3.761268,51.06144]]},"properties":{"motorcar":"no","highway":"track","vertex1":5489,"vertex2":5474}},{"type":"Feature","geometry":{"type":"LineString","coordinates":[[3.760623,51.06074],[3.760585,51.06072],[3.760562,51.06071]]},"properties":{"highway":"path","vertex1":5487,"vertex2":5485}},{"type":"Feature","geometry":{"type":"LineString","coordinates":[[3.759077,51.05991],[3.758797,51.05991],[3.75842,51.05995],[3.757996,51.06001],[3.757466,51.0602],[3.756907,51.06039],[3.756641,51.06046],[3.756579,51.06052],[3.756544,51.06055],[3.756528,51.06058]]},"properties":{"name":"Rozebroekslag","highway":"residential","vertex1":5486,"vertex2":5630}},{"type":"Feature","geometry":{"type":"LineString","coordinates":[[3.759077,51.05991],[3.759135,51.05993],[3.759267,51.06002],[3.759484,51.06014],[3.76048,51.06089]]},"properties":{"name":"Rozebroekslag","highway":"residential","vertex1":5486,"vertex2":5475}},{"type":"Feature","geometry":{"type":"LineString","coordinates":[[3.760562,51.06071],[3.760535,51.06068],[3.760508,51.06067],[3.760177,51.06042],[3.759979,51.06026],[3.75997,51.06025],[3.759873,51.06007],[3.759838,51.06003],[3.759798,51.06001],[3.759546,51.0599],[3.759457,51.05986],[3.759264,51.05973],[3.759181,51.05965],[3.759085,51.05959]]},"properties":{"highway":"path","vertex1":5485,"vertex2":5470}},{"type":"Feature","geometry":{"type":"LineString","coordinates":[[3.760562,51.06071],[3.760554,51.06067]]},"properties":{"bicycle":"no","motorcar":"no","highway":"track","vertex1":5485,"vertex2":5469}},{"type":"Feature","geometry":{"type":"LineString","coordinates":[[3.760562,51.06071],[3.760556,51.06075],[3.760539,51.0608],[3.760516,51.06086],[3.76048,51.06089]]},"properties":{"bicycle":"no","motorcar":"no","highway":"track","vertex1":5485,"vertex2":5475}},{"type":"Feature","geometry":{"type":"LineString","coordinates":[[3.759044,51.05947],[3.759014,51.05941],[3.758914,51.05931],[3.758796,51.05922],[3.758657,51.05913],[3.758521,51.05901],[3.758293,51.05873],[3.758261,51.0587]]},"properties":{"motorcar":"no","highway":"track","vertex1":5484,"vertex2":5409}},{"type":"Feature","geometry":{"type":"LineString","coordinates":[[3.762131,51.06226],[3.762178,51.06214]]},"properties":{"name":"Jef Crickxstraat","highway":"residential","maxspeed":"30","oneway":"-1","vertex1":5483,"vertex2":5481}},{"type":"Feature","geometry":{"type":"LineString","coordinates":[[3.762178,51.06214],[3.762199,51.06211],[3.76222,51.06208],[3.762282,51.06203]]},"properties":{"name":"Jef Crickxstraat","highway":"residential","maxspeed":"30","oneway":"-1","vertex1":5481,"vertex2":5479}},{"type":"Feature","geometry":{"type":"LineString","coordinates":[[3.762282,51.06203],[3.762399,51.06199],[3.762478,51.06198],[3.762623,51.06197]]},"properties":{"name":"Alfons Braeckmanlaan","maxspeed":"50","highway":"residential","vertex1":5479,"vertex2":5472}},{"type":"Feature","geometry":{"type":"LineString","coordinates":[[3.758082,51.0626],[3.75703,51.06189]]},"properties":{"name":"Oscar De Reusestraat","highway":"residential","maxspeed":"30","vertex1":5478,"vertex2":5603}},{"type":"Feature","geometry":{"type":"LineString","coordinates":[[3.762345,51.05983],[3.762267,51.05977],[3.761806,51.05941],[3.761183,51.05893],[3.76085,51.05867],[3.760675,51.05853],[3.760358,51.05829],[3.760027,51.05803],[3.759898,51.05795],[3.759791,51.0579],[3.759671,51.05785],[3.759582,51.05782],[3.759482,51.05779],[3.7594,51.05777]]},"properties":{"highway":"path","vertex1":5477,"vertex2":5460}},{"type":"Feature","geometry":{"type":"LineString","coordinates":[[3.760554,51.06095],[3.761268,51.06144]]},"properties":{"motorcar":"no","highway":"track","vertex1":5476,"vertex2":5474}},{"type":"Feature","geometry":{"type":"LineString","coordinates":[[3.765821,51.06263],[3.769795,51.06351]]},"properties":{"name":"Alfons Braeckmanlaan","maxspeed":"50","highway":"residential","cycleway":"lane","vertex1":5473,"vertex2":5285}},{"type":"Feature","geometry":{"type":"LineString","coordinates":[[3.762623,51.06197],[3.762604,51.06193],[3.76236,51.06186],[3.762084,51.06178],[3.761725,51.06172],[3.761435,51.06173]]},"properties":{"name":"Alfons Braeckmanlaan","oneway":"yes","motorcar":"no","highway":"unclassified","vertex1":5472,"vertex2":5468}},{"type":"Feature","geometry":{"type":"LineString","coordinates":[[3.759085,51.05959],[3.759057,51.05956],[3.759035,51.0595],[3.758984,51.05942],[3.758928,51.05935],[3.758852,51.05928],[3.758769,51.05922],[3.758673,51.05917],[3.758578,51.05909],[3.758388,51.05888],[3.758245,51.05871],[3.758226,51.05867]]},"properties":{"highway":"path","vertex1":5470,"vertex2":5361}},{"type":"Feature","geometry":{"type":"LineString","coordinates":[[3.760599,51.05851],[3.760468,51.05848],[3.760395,51.05847],[3.760204,51.05848]]},"properties":{"highway":"path","vertex1":5467,"vertex2":5363}},{"type":"Feature","geometry":{"type":"LineString","coordinates":[[3.760599,51.05851],[3.760576,51.05849],[3.760229,51.05822],[3.759884,51.05796],[3.759701,51.05788],[3.759508,51.05782],[3.759421,51.0578]]},"properties":{"highway":"track","vertex1":5467,"vertex2":5379}},{"type":"Feature","geometry":{"type":"LineString","coordinates":[[3.758245,51.0584],[3.758225,51.05849],[3.758241,51.05863],[3.758261,51.0587]]},"properties":{"highway":"path","vertex1":5466,"vertex2":5409}},{"type":"Feature","geometry":{"type":"LineString","coordinates":[[3.758245,51.0584],[3.758314,51.05834],[3.758386,51.05829],[3.758428,51.05825]]},"properties":{"highway":"track","vertex1":5466,"vertex2":5425}},{"type":"Feature","geometry":{"type":"LineString","coordinates":[[3.758245,51.0584],[3.758214,51.05841]]},"properties":{"highway":"track","vertex1":5466,"vertex2":5411}},{"type":"Feature","geometry":{"type":"LineString","coordinates":[[3.7682,51.05549],[3.768,51.05611]]},"properties":{"name":"Verenigde Natieslaan","highway":"residential","vertex1":5465,"vertex2":5402}},{"type":"Feature","geometry":{"type":"LineString","coordinates":[[3.7682,51.05549],[3.768257,51.05518],[3.768217,51.0548]]},"properties":{"name":"Verenigde Natieslaan","highway":"residential","vertex1":5465,"vertex2":5445}},{"type":"Feature","geometry":{"type":"LineString","coordinates":[[3.7682,51.05549],[3.766181,51.05535],[3.766008,51.05527],[3.765994,51.0551],[3.766201,51.0546]]},"properties":{"name":"Belgiëlaan","highway":"residential","vertex1":5465,"vertex2":5380}},{"type":"Feature","geometry":{"type":"LineString","coordinates":[[3.7682,51.05549],[3.768868,51.05553],[3.769074,51.05553],[3.769207,51.05552],[3.769302,51.05548],[3.769347,51.0554],[3.769347,51.05529],[3.769289,51.05487],[3.769194,51.05402],[3.769074,51.05393],[3.768773,51.05384],[3.768509,51.05377]]},"properties":{"name":"Europalaan","highway":"residential","vertex1":5465,"vertex2":5306}},{"type":"Feature","geometry":{"type":"LineString","coordinates":[[3.766201,51.0546],[3.766419,51.05429],[3.766833,51.05387],[3.767173,51.05353],[3.767305,51.05347],[3.767459,51.05347],[3.76797,51.05361],[3.768509,51.05377]]},"properties":{"name":"Belgiëlaan","highway":"residential","vertex1":5380,"vertex2":5306}},{"type":"Feature","geometry":{"type":"LineString","coordinates":[[3.759101,51.05775],[3.759193,51.05775],[3.759286,51.05775],[3.7594,51.05777]]},"properties":{"highway":"path","vertex1":5463,"vertex2":5460}},{"type":"Feature","geometry":{"type":"LineString","coordinates":[[3.759101,51.05775],[3.759013,51.05777],[3.758791,51.05785],[3.758633,51.05794],[3.758582,51.058],[3.758535,51.05813],[3.758468,51.0582],[3.758382,51.05827],[3.758271,51.05834],[3.758224,51.0584],[3.758214,51.05841]]},"properties":{"highway":"path","vertex1":5463,"vertex2":5411}},{"type":"Feature","geometry":{"type":"LineString","coordinates":[[3.759101,51.05775],[3.759084,51.05777]]},"properties":{"highway":"path","vertex1":5463,"vertex2":5367}},{"type":"Feature","geometry":{"type":"LineString","coordinates":[[3.759101,51.05775],[3.759184,51.05769],[3.759229,51.05762],[3.759268,51.05756],[3.759282,51.0575]]},"properties":{"highway":"path","vertex1":5463,"vertex2":5455}},{"type":"Feature","geometry":{"type":"LineString","coordinates":[[3.757711,51.05727],[3.758071,51.05738]]},"properties":{"highway":"path","vertex1":5462,"vertex2":5375}},{"type":"Feature","geometry":{"type":"LineString","coordinates":[[3.757711,51.05727],[3.757192,51.05709]]},"properties":{"highway":"path","vertex1":5462,"vertex2":6066}},{"type":"Feature","geometry":{"type":"LineString","coordinates":[[3.757711,51.05727],[3.757509,51.05744],[3.757491,51.05764],[3.757362,51.05784]]},"properties":{"highway":"track","vertex1":5462,"vertex2":5377}},{"type":"Feature","geometry":{"type":"LineString","coordinates":[[3.757711,51.05727],[3.757868,51.05722],[3.758039,51.0572]]},"properties":{"highway":"track","vertex1":5462,"vertex2":5424}},{"type":"Feature","geometry":{"type":"LineString","coordinates":[[3.757192,51.05709],[3.757249,51.05704]]},"properties":{"highway":"path","vertex1":6066,"vertex2":6042}},{"type":"Feature","geometry":{"type":"LineString","coordinates":[[3.757192,51.05709],[3.757035,51.05704]]},"properties":{"highway":"path","vertex1":6066,"vertex2":6062}},{"type":"Feature","geometry":{"type":"LineString","coordinates":[[3.75832,51.057],[3.758344,51.05695]]},"properties":{"highway":"track","vertex1":5461,"vertex2":5408}},{"type":"Feature","geometry":{"type":"LineString","coordinates":[[3.75832,51.057],[3.75776,51.05701],[3.757249,51.05704]]},"properties":{"highway":"track","vertex1":5461,"vertex2":6042}},{"type":"Feature","geometry":{"type":"LineString","coordinates":[[3.75832,51.057],[3.758039,51.0572]]},"properties":{"highway":"track","vertex1":5461,"vertex2":5424}},{"type":"Feature","geometry":{"type":"LineString","coordinates":[[3.757249,51.05704],[3.757532,51.05674],[3.757702,51.05663]]},"properties":{"highway":"path","vertex1":6042,"vertex2":5406}},{"type":"Feature","geometry":{"type":"LineString","coordinates":[[3.7594,51.05777],[3.759421,51.0578]]},"properties":{"highway":"path","vertex1":5460,"vertex2":5379}},{"type":"Feature","geometry":{"type":"LineString","coordinates":[[3.7594,51.05777],[3.759323,51.05769],[3.75929,51.05754],[3.759282,51.0575]]},"properties":{"highway":"path","vertex1":5460,"vertex2":5455}},{"type":"Feature","geometry":{"type":"LineString","coordinates":[[3.75918,51.05593],[3.759261,51.0559]]},"properties":{"highway":"track","vertex1":5459,"vertex2":5457}},{"type":"Feature","geometry":{"type":"LineString","coordinates":[[3.75918,51.05593],[3.759045,51.05598],[3.758758,51.05598],[3.758533,51.05603],[3.758506,51.05619],[3.758695,51.05656]]},"properties":{"highway":"track","vertex1":5459,"vertex2":5407}},{"type":"Feature","geometry":{"type":"LineString","coordinates":[[3.75918,51.05593],[3.759135,51.05617],[3.75892,51.05627]]},"properties":{"highway":"track","vertex1":5459,"vertex2":5436}},{"type":"Feature","geometry":{"type":"LineString","coordinates":[[3.758946,51.05715],[3.758576,51.05701]]},"properties":{"highway":"track","vertex1":5458,"vertex2":5410}},{"type":"Feature","geometry":{"type":"LineString","coordinates":[[3.758946,51.05715],[3.759254,51.05728]]},"properties":{"highway":"track","vertex1":5458,"vertex2":5444}},{"type":"Feature","geometry":{"type":"LineString","coordinates":[[3.758946,51.05715],[3.758937,51.05729],[3.75874,51.05742],[3.758626,51.05753],[3.758413,51.05764],[3.758165,51.05768],[3.757958,51.05772]]},"properties":{"highway":"track","vertex1":5458,"vertex2":5439}},{"type":"Feature","geometry":{"type":"LineString","coordinates":[[3.758946,51.05715],[3.759051,51.05704]]},"properties":{"highway":"track","vertex1":5458,"vertex2":5428}},{"type":"Feature","geometry":{"type":"LineString","coordinates":[[3.759261,51.0559],[3.75936,51.05574],[3.759378,51.05557]]},"properties":{"highway":"track","vertex1":5457,"vertex2":5405}},{"type":"Feature","geometry":{"type":"LineString","coordinates":[[3.759261,51.0559],[3.759593,51.05598]]},"properties":{"highway":"track","vertex1":5457,"vertex2":5412}},{"type":"Feature","geometry":{"type":"LineString","coordinates":[[3.757614,51.05609],[3.757792,51.05631]]},"properties":{"highway":"path","vertex1":5456,"vertex2":5454}},{"type":"Feature","geometry":{"type":"LineString","coordinates":[[3.759282,51.0575],[3.759242,51.0573]]},"properties":{"highway":"path","vertex1":5455,"vertex2":5403}},{"type":"Feature","geometry":{"type":"LineString","coordinates":[[3.757792,51.05631],[3.758019,51.05599],[3.758214,51.05567],[3.758262,51.05549],[3.758217,51.05527],[3.758186,51.05516],[3.758112,51.05506]]},"properties":{"motorcar":"no","highway":"track","vertex1":5454,"vertex2":5364}},{"type":"Feature","geometry":{"type":"LineString","coordinates":[[3.757792,51.05631],[3.75756,51.05655]]},"properties":{"motorcar":"no","highway":"track","vertex1":5454,"vertex2":5451}},{"type":"Feature","geometry":{"type":"LineString","coordinates":[[3.75756,51.05655],[3.757525,51.05654]]},"properties":{"highway":"track","vertex1":5451,"vertex2":5390}},{"type":"Feature","geometry":{"type":"LineString","coordinates":[[3.75756,51.05655],[3.757538,51.05657]]},"properties":{"motorcar":"no","highway":"track","vertex1":5451,"vertex2":5404}},{"type":"Feature","geometry":{"type":"LineString","coordinates":[[3.75902,51.05526],[3.759528,51.05531],[3.759907,51.05533]]},"properties":{"highway":"path","vertex1":5450,"vertex2":5448}},{"type":"Feature","geometry":{"type":"LineString","coordinates":[[3.75902,51.05526],[3.759032,51.05505]]},"properties":{"highway":"path","vertex1":5450,"vertex2":5452}},{"type":"Feature","geometry":{"type":"LineString","coordinates":[[3.75902,51.05526],[3.759135,51.05545],[3.759234,51.05553],[3.759378,51.05557]]},"properties":{"highway":"track","vertex1":5450,"vertex2":5405}},{"type":"Feature","geometry":{"type":"LineString","coordinates":[[3.75902,51.05526],[3.758659,51.05521]]},"properties":{"bicycle":"no","highway":"path","vertex1":5450,"vertex2":5391}},{"type":"Feature","geometry":{"type":"LineString","coordinates":[[3.758659,51.05521],[3.758618,51.05531],[3.758422,51.05557],[3.758255,51.05583],[3.758165,51.05601],[3.758076,51.05617],[3.757988,51.0563],[3.757785,51.05642],[3.757702,51.05663]]},"properties":{"highway":"path","vertex1":5391,"vertex2":5406}},{"type":"Feature","geometry":{"type":"LineString","coordinates":[[3.765259,51.05607],[3.765245,51.05606],[3.765199,51.05596],[3.765192,51.05584]]},"properties":{"highway":"service","vertex1":5449,"vertex2":5398}},{"type":"Feature","geometry":{"type":"LineString","coordinates":[[3.765259,51.05607],[3.765312,51.05611],[3.765398,51.05613],[3.765478,51.05613],[3.765566,51.05607],[3.765628,51.05598],[3.765687,51.0559],[3.765704,51.05588]]},"properties":{"highway":"service","vertex1":5449,"vertex2":5400}},{"type":"Feature","geometry":{"type":"LineString","coordinates":[[3.765259,51.05607],[3.765157,51.05611],[3.765108,51.05618],[3.765038,51.05652],[3.76502,51.05675],[3.765095,51.05691],[3.765124,51.0571],[3.765293,51.05719],[3.765304,51.05739]]},"properties":{"highway":"track","vertex1":5449,"vertex2":5358}},{"type":"Feature","geometry":{"type":"LineString","coordinates":[[3.759907,51.05533],[3.760298,51.05534]]},"properties":{"highway":"path","vertex1":5448,"vertex2":5430}},{"type":"Feature","geometry":{"type":"LineString","coordinates":[[3.759907,51.05533],[3.759988,51.05554]]},"properties":{"highway":"path","vertex1":5448,"vertex2":5418}},{"type":"Feature","geometry":{"type":"LineString","coordinates":[[3.757689,51.05809],[3.757576,51.05788]]},"properties":{"highway":"path","vertex1":5447,"vertex2":5365}},{"type":"Feature","geometry":{"type":"LineString","coordinates":[[3.757689,51.05809],[3.7578,51.0579]]},"properties":{"highway":"track","vertex1":5447,"vertex2":5397}},{"type":"Feature","geometry":{"type":"LineString","coordinates":[[3.759254,51.05728],[3.759315,51.0573]]},"properties":{"highway":"track","vertex1":5444,"vertex2":5417}},{"type":"Feature","geometry":{"type":"LineString","coordinates":[[3.759254,51.05728],[3.759254,51.05726],[3.759256,51.05722],[3.759247,51.05717],[3.759187,51.05712],[3.759051,51.05704]]},"properties":{"highway":"path","vertex1":5444,"vertex2":5428}},{"type":"Feature","geometry":{"type":"LineString","coordinates":[[3.759254,51.05728],[3.759242,51.0573]]},"properties":{"highway":"path","vertex1":5444,"vertex2":5403}},{"type":"Feature","geometry":{"type":"LineString","coordinates":[[3.760844,51.05534],[3.760917,51.05528],[3.761092,51.05528],[3.761278,51.05525],[3.761407,51.05519],[3.761449,51.05512],[3.761477,51.05493],[3.761487,51.05486],[3.761551,51.05477]]},"properties":{"highway":"path","vertex1":5442,"vertex2":5446}},{"type":"Feature","geometry":{"type":"LineString","coordinates":[[3.760844,51.05534],[3.760747,51.0554],[3.760546,51.0554],[3.760298,51.05534]]},"properties":{"highway":"path","vertex1":5442,"vertex2":5430}},{"type":"Feature","geometry":{"type":"LineString","coordinates":[[3.760844,51.05534],[3.760781,51.05548],[3.760676,51.05558],[3.760504,51.05578],[3.760264,51.05605],[3.760003,51.05634],[3.759573,51.05644]]},"properties":{"highway":"track","vertex1":5442,"vertex2":5426}},{"type":"Feature","geometry":{"type":"LineString","coordinates":[[3.763153,51.05559],[3.763254,51.05528]]},"properties":{"name":"Pasteurstraat","highway":"residential","maxspeed":"30","junction":"roundabout","cycleway":"lane","vertex1":5441,"vertex2":5374}},{"type":"Feature","geometry":{"type":"LineString","coordinates":[[3.763153,51.05559],[3.763408,51.05563],[3.763952,51.05571],[3.764286,51.05576],[3.765003,51.05582],[3.765192,51.05584]]},"properties":{"name":"Bredenakkerstraat","highway":"residential","maxspeed":"30","vertex1":5441,"vertex2":5398}},{"type":"Feature","geometry":{"type":"LineString","coordinates":[[3.763153,51.05559],[3.76294,51.05555]]},"properties":{"name":"Bredenakkerstraat","highway":"residential","maxspeed":"30","junction":"roundabout","vertex1":5441,"vertex2":5376}},{"type":"Feature","geometry":{"type":"LineString","coordinates":[[3.757568,51.05645],[3.757495,51.05653]]},"properties":{"highway":"residential","maxspeed":"30","vertex1":5440,"vertex2":5360}},{"type":"Feature","geometry":{"type":"LineString","coordinates":[[3.757958,51.05772],[3.757913,51.05757],[3.758071,51.05738]]},"properties":{"highway":"path","vertex1":5439,"vertex2":5375}},{"type":"Feature","geometry":{"type":"LineString","coordinates":[[3.757958,51.05772],[3.7578,51.0579]]},"properties":{"highway":"path","vertex1":5439,"vertex2":5397}},{"type":"Feature","geometry":{"type":"LineString","coordinates":[[3.760096,51.05571],[3.759952,51.05561]]},"properties":{"highway":"track","vertex1":5438,"vertex2":5414}},{"type":"Feature","geometry":{"type":"LineString","coordinates":[[3.760096,51.05571],[3.759719,51.05619],[3.759573,51.05644]]},"properties":{"highway":"track","vertex1":5438,"vertex2":5426}},{"type":"Feature","geometry":{"type":"LineString","coordinates":[[3.760096,51.05571],[3.760186,51.05557],[3.760105,51.05545]]},"properties":{"highway":"track","vertex1":5438,"vertex2":5422}},{"type":"Feature","geometry":{"type":"LineString","coordinates":[[3.75892,51.05627],[3.758695,51.05656]]},"properties":{"highway":"track","vertex1":5436,"vertex2":5407}},{"type":"Feature","geometry":{"type":"LineString","coordinates":[[3.766703,51.05821],[3.76708,51.0583]]},"properties":{"name":"Markiesakker","highway":"residential","maxspeed":"30","vertex1":5434,"vertex2":5370}},{"type":"Feature","geometry":{"type":"LineString","coordinates":[[3.766703,51.05821],[3.766453,51.05806],[3.766207,51.05789],[3.766041,51.05777],[3.765968,51.05765],[3.76601,51.05751],[3.766132,51.05728],[3.766387,51.05674],[3.766448,51.05664],[3.766504,51.05661],[3.766599,51.05661],[3.766864,51.05667],[3.767246,51.05676],[3.767289,51.05678],[3.767297,51.05685],[3.767247,51.05695],[3.766998,51.05743],[3.766972,51.0575],[3.76701,51.05757],[3.767284,51.05775],[3.767426,51.05783]]},"properties":{"name":"Markiesakker","highway":"residential","maxspeed":"30","vertex1":5434,"vertex2":5372}},{"type":"Feature","geometry":{"type":"LineString","coordinates":[[3.762471,51.0567],[3.762314,51.05669],[3.762249,51.05674],[3.76227,51.05682],[3.762421,51.05682]]},"properties":{"name":"Kievitlaan","highway":"residential","maxspeed":"30","vertex1":5433,"vertex2":5393}},{"type":"Feature","geometry":{"type":"LineString","coordinates":[[3.762471,51.0567],[3.762612,51.05672]]},"properties":{"name":"Kievitlaan","highway":"residential","maxspeed":"30","vertex1":5433,"vertex2":5431}},{"type":"Feature","geometry":{"type":"LineString","coordinates":[[3.762612,51.05672],[3.7633,51.05631]]},"properties":{"name":"Kievitlaan","highway":"residential","maxspeed":"30","vertex1":5431,"vertex2":5373}},{"type":"Feature","geometry":{"type":"LineString","coordinates":[[3.762612,51.05672],[3.762421,51.05682]]},"properties":{"name":"Kievitlaan","highway":"residential","maxspeed":"30","vertex1":5431,"vertex2":5393}},{"type":"Feature","geometry":{"type":"LineString","coordinates":[[3.760298,51.05534],[3.760105,51.05545]]},"properties":{"highway":"path","vertex1":5430,"vertex2":5422}},{"type":"Feature","geometry":{"type":"LineString","coordinates":[[3.759051,51.05704],[3.759195,51.0569],[3.759503,51.05656],[3.759573,51.05644]]},"properties":{"highway":"track","vertex1":5428,"vertex2":5426}},{"type":"Feature","geometry":{"type":"LineString","coordinates":[[3.759181,51.05843],[3.759109,51.05847],[3.759058,51.05853]]},"properties":{"highway":"path","vertex1":5427,"vertex2":5423}},{"type":"Feature","geometry":{"type":"LineString","coordinates":[[3.759181,51.05843],[3.759246,51.05841],[3.759413,51.05834]]},"properties":{"highway":"path","vertex1":5427,"vertex2":5413}},{"type":"Feature","geometry":{"type":"LineString","coordinates":[[3.759181,51.05843],[3.759058,51.05843],[3.758905,51.05838]]},"properties":{"highway":"path","vertex1":5427,"vertex2":5389}},{"type":"Feature","geometry":{"type":"LineString","coordinates":[[3.758428,51.05825],[3.758565,51.05824],[3.758708,51.05828]]},"properties":{"highway":"path","vertex1":5425,"vertex2":5421}},{"type":"Feature","geometry":{"type":"LineString","coordinates":[[3.758428,51.05825],[3.758538,51.05816],[3.758568,51.05811]]},"properties":{"highway":"track","vertex1":5425,"vertex2":5371}},{"type":"Feature","geometry":{"type":"LineString","coordinates":[[3.758039,51.0572],[3.758273,51.05722]]},"properties":{"highway":"track","vertex1":5424,"vertex2":5387}},{"type":"Feature","geometry":{"type":"LineString","coordinates":[[3.759058,51.05853],[3.759022,51.05848],[3.758905,51.05838]]},"properties":{"highway":"path","vertex1":5423,"vertex2":5389}},{"type":"Feature","geometry":{"type":"LineString","coordinates":[[3.760105,51.05545],[3.759988,51.05554]]},"properties":{"highway":"path","vertex1":5422,"vertex2":5418}},{"type":"Feature","geometry":{"type":"LineString","coordinates":[[3.758708,51.05828],[3.758585,51.0582],[3.758568,51.05811]]},"properties":{"highway":"path","vertex1":5421,"vertex2":5371}},{"type":"Feature","geometry":{"type":"LineString","coordinates":[[3.758708,51.05828],[3.758905,51.05838]]},"properties":{"highway":"path","vertex1":5421,"vertex2":5389}},{"type":"Feature","geometry":{"type":"LineString","coordinates":[[3.75742,51.0566],[3.757495,51.05653]]},"properties":{"highway":"residential","maxspeed":"30","vertex1":5420,"vertex2":5360}},{"type":"Feature","geometry":{"type":"LineString","coordinates":[[3.759809,51.05871],[3.759712,51.05853],[3.759619,51.0584]]},"properties":{"highway":"track","vertex1":5419,"vertex2":5357}},{"type":"Feature","geometry":{"type":"LineString","coordinates":[[3.759809,51.05871],[3.759865,51.05862],[3.760031,51.05852],[3.760204,51.05848]]},"properties":{"highway":"path","vertex1":5419,"vertex2":5363}},{"type":"Feature","geometry":{"type":"LineString","coordinates":[[3.759988,51.05554],[3.759952,51.05561]]},"properties":{"highway":"path","vertex1":5418,"vertex2":5414}},{"type":"Feature","geometry":{"type":"LineString","coordinates":[[3.759315,51.0573],[3.759602,51.0573],[3.759845,51.05714],[3.760222,51.05677],[3.760617,51.0565],[3.760734,51.05629],[3.760851,51.05613],[3.760878,51.05593],[3.761129,51.05574],[3.76126,51.05552],[3.7615,51.0554],[3.761787,51.05535],[3.761978,51.0553],[3.762203,51.05527],[3.762364,51.05527],[3.762481,51.05526],[3.762621,51.05524],[3.762845,51.05517]]},"properties":{"name":"Rietwegel","highway":"path","vertex1":5417,"vertex2":5359}},{"type":"Feature","geometry":{"type":"LineString","coordinates":[[3.762845,51.05517],[3.762878,51.05524]]},"properties":{"name":"Herlegemstraat","maxspeed":"50","highway":"residential","vertex1":5359,"vertex2":5378}},{"type":"Feature","geometry":{"type":"LineString","coordinates":[[3.757758,51.05832],[3.758011,51.0585]]},"properties":{"motorcar":"no","highway":"track","vertex1":5415,"vertex2":5383}},{"type":"Feature","geometry":{"type":"LineString","coordinates":[[3.757758,51.05832],[3.757659,51.05823],[3.757529,51.0581],[3.757394,51.05798],[3.757299,51.0579]]},"properties":{"motorcar":"no","highway":"track","vertex1":5415,"vertex2":6057}},{"type":"Feature","geometry":{"type":"LineString","coordinates":[[3.757299,51.0579],[3.757213,51.05783]]},"properties":{"motorcar":"no","highway":"track","vertex1":6057,"vertex2":6059}},{"type":"Feature","geometry":{"type":"LineString","coordinates":[[3.759952,51.05561],[3.759593,51.05598]]},"properties":{"highway":"path","vertex1":5414,"vertex2":5412}},{"type":"Feature","geometry":{"type":"LineString","coordinates":[[3.759952,51.05561],[3.759683,51.05561],[3.759378,51.05557]]},"properties":{"highway":"track","vertex1":5414,"vertex2":5405}},{"type":"Feature","geometry":{"type":"LineString","coordinates":[[3.759413,51.05834],[3.759464,51.05823]]},"properties":{"highway":"path","vertex1":5413,"vertex2":5369}},{"type":"Feature","geometry":{"type":"LineString","coordinates":[[3.759413,51.05834],[3.759511,51.05835],[3.759619,51.0584]]},"properties":{"highway":"path","vertex1":5413,"vertex2":5357}},{"type":"Feature","geometry":{"type":"LineString","coordinates":[[3.759593,51.05598],[3.758576,51.05701]]},"properties":{"highway":"path","vertex1":5412,"vertex2":5410}},{"type":"Feature","geometry":{"type":"LineString","coordinates":[[3.758214,51.05841],[3.758198,51.05849],[3.758212,51.05862],[3.758226,51.05867]]},"properties":{"highway":"path","vertex1":5411,"vertex2":5361}},{"type":"Feature","geometry":{"type":"LineString","coordinates":[[3.758214,51.05841],[3.758123,51.05847],[3.758011,51.0585]]},"properties":{"highway":"track","vertex1":5411,"vertex2":5383}},{"type":"Feature","geometry":{"type":"LineString","coordinates":[[3.758576,51.05701],[3.758344,51.05695]]},"properties":{"highway":"path","vertex1":5410,"vertex2":5408}},{"type":"Feature","geometry":{"type":"LineString","coordinates":[[3.758576,51.05701],[3.758273,51.05722]]},"properties":{"highway":"path","vertex1":5410,"vertex2":5387}},{"type":"Feature","geometry":{"type":"LineString","coordinates":[[3.758261,51.0587],[3.758226,51.05867]]},"properties":{"motorcar":"no","highway":"track","vertex1":5409,"vertex2":5361}},{"type":"Feature","geometry":{"type":"LineString","coordinates":[[3.758344,51.05695],[3.758214,51.05687],[3.758006,51.05676],[3.757702,51.05663]]},"properties":{"highway":"path","vertex1":5408,"vertex2":5406}},{"type":"Feature","geometry":{"type":"LineString","coordinates":[[3.758344,51.05695],[3.758587,51.05666],[3.758731,51.05663],[3.758695,51.05656]]},"properties":{"highway":"track","vertex1":5408,"vertex2":5407}},{"type":"Feature","geometry":{"type":"LineString","coordinates":[[3.757702,51.05663],[3.757538,51.05657]]},"properties":{"highway":"path","vertex1":5406,"vertex2":5404}},{"type":"Feature","geometry":{"type":"LineString","coordinates":[[3.757538,51.05657],[3.757035,51.05704]]},"properties":{"motorcar":"no","highway":"track","vertex1":5404,"vertex2":6062}},{"type":"Feature","geometry":{"type":"LineString","coordinates":[[3.768,51.05611],[3.768598,51.05621]]},"properties":{"name":"Bredenakkerstraat","highway":"residential","maxspeed":"30","vertex1":5402,"vertex2":5307}},{"type":"Feature","geometry":{"type":"LineString","coordinates":[[3.768,51.05611],[3.76741,51.05604],[3.765704,51.05588]]},"properties":{"name":"Bredenakkerstraat","highway":"residential","maxspeed":"30","vertex1":5402,"vertex2":5400}},{"type":"Feature","geometry":{"type":"LineString","coordinates":[[3.765704,51.05588],[3.765192,51.05584]]},"properties":{"name":"Bredenakkerstraat","highway":"residential","maxspeed":"30","vertex1":5400,"vertex2":5398}},{"type":"Feature","geometry":{"type":"LineString","coordinates":[[3.7578,51.0579],[3.757576,51.05788]]},"properties":{"highway":"path","vertex1":5397,"vertex2":5365}},{"type":"Feature","geometry":{"type":"LineString","coordinates":[[3.757525,51.05654],[3.757495,51.05653]]},"properties":{"highway":"track","vertex1":5390,"vertex2":5360}},{"type":"Feature","geometry":{"type":"LineString","coordinates":[[3.758273,51.05722],[3.758071,51.05738]]},"properties":{"highway":"path","vertex1":5387,"vertex2":5375}},{"type":"Feature","geometry":{"type":"LineString","coordinates":[[3.759312,51.05778],[3.759338,51.05786],[3.759383,51.05803],[3.759464,51.05823]]},"properties":{"highway":"track","vertex1":5385,"vertex2":5369}},{"type":"Feature","geometry":{"type":"LineString","coordinates":[[3.759312,51.05778],[3.759421,51.0578]]},"properties":{"highway":"track","vertex1":5385,"vertex2":5379}},{"type":"Feature","geometry":{"type":"LineString","coordinates":[[3.759312,51.05778],[3.759201,51.05776],[3.759084,51.05777]]},"properties":{"highway":"track","vertex1":5385,"vertex2":5367}},{"type":"Feature","geometry":{"type":"LineString","coordinates":[[3.758011,51.0585],[3.758226,51.05867]]},"properties":{"motorcar":"no","highway":"track","vertex1":5383,"vertex2":5361}},{"type":"Feature","geometry":{"type":"LineString","coordinates":[[3.762878,51.05524],[3.76294,51.05555]]},"properties":{"name":"Bijlokestraat","highway":"residential","junction":"roundabout","cycleway":"lane","vertex1":5378,"vertex2":5376}},{"type":"Feature","geometry":{"type":"LineString","coordinates":[[3.762878,51.05524],[3.76306,51.05522],[3.763254,51.05528]]},"properties":{"name":"Herlegemstraat","maxspeed":"50","highway":"residential","junction":"roundabout","cycleway":"lane","vertex1":5378,"vertex2":5374}},{"type":"Feature","geometry":{"type":"LineString","coordinates":[[3.757362,51.05784],[3.757066,51.05775],[3.756782,51.05768]]},"properties":{"highway":"path","vertex1":5377,"vertex2":6067}},{"type":"Feature","geometry":{"type":"LineString","coordinates":[[3.757362,51.05784],[3.757576,51.05788]]},"properties":{"highway":"path","vertex1":5377,"vertex2":5365}},{"type":"Feature","geometry":{"type":"LineString","coordinates":[[3.757362,51.05784],[3.757213,51.05783]]},"properties":{"highway":"track","vertex1":5377,"vertex2":6059}},{"type":"Feature","geometry":{"type":"LineString","coordinates":[[3.756782,51.05768],[3.757213,51.05783]]},"properties":{"motorcar":"no","highway":"track","vertex1":6067,"vertex2":6059}},{"type":"Feature","geometry":{"type":"LineString","coordinates":[[3.76294,51.05555],[3.763075,51.05595],[3.7633,51.05631]]},"properties":{"name":"Bijlokestraat","highway":"residential","maxspeed":"30","vertex1":5376,"vertex2":5373}},{"type":"Feature","geometry":{"type":"LineString","coordinates":[[3.763254,51.05528],[3.764239,51.05246]]},"properties":{"name":"Pasteurstraat","maxspeed":"50","highway":"residential","vertex1":5374,"vertex2":6770}},{"type":"Feature","geometry":{"type":"LineString","coordinates":[[3.767426,51.05783],[3.767723,51.05776],[3.767851,51.05769],[3.768598,51.05621]]},"properties":{"name":"Markiesstraat","highway":"residential","maxspeed":"30","vertex1":5372,"vertex2":5307}},{"type":"Feature","geometry":{"type":"LineString","coordinates":[[3.767426,51.05783],[3.767355,51.05794],[3.767223,51.05812],[3.76708,51.0583]]},"properties":{"name":"Markiesstraat","highway":"residential","maxspeed":"30","vertex1":5372,"vertex2":5370}},{"type":"Feature","geometry":{"type":"LineString","coordinates":[[3.758568,51.05811],[3.758615,51.05799],[3.758704,51.05792],[3.758784,51.05787],[3.759084,51.05777]]},"properties":{"highway":"track","vertex1":5371,"vertex2":5367}},{"type":"Feature","geometry":{"type":"LineString","coordinates":[[3.759464,51.05823],[3.759564,51.05836],[3.759619,51.0584]]},"properties":{"highway":"track","vertex1":5369,"vertex2":5357}},{"type":"Feature","geometry":{"type":"LineString","coordinates":[[3.760204,51.05848],[3.760003,51.05849],[3.759781,51.05847],[3.759669,51.05844],[3.759619,51.0584]]},"properties":{"highway":"path","vertex1":5363,"vertex2":5357}},{"type":"Feature","geometry":{"type":"LineString","coordinates":[[3.757495,51.05653],[3.7554,51.05565]]},"properties":{"name":"Oscar Colbrandtstraat","highway":"residential","maxspeed":"30","vertex1":5360,"vertex2":6103}},{"type":"Feature","geometry":{"type":"LineString","coordinates":[[3.771722,51.05882],[3.771724,51.05879]]},"properties":{"name":"Admiraalhof","highway":"residential","vertex1":5355,"vertex2":5336}},{"type":"Feature","geometry":{"type":"LineString","coordinates":[[3.771722,51.05882],[3.771598,51.06015],[3.772117,51.06017]]},"properties":{"name":"Admiraalhof","highway":"residential","vertex1":5355,"vertex2":5290}},{"type":"Feature","geometry":{"type":"LineString","coordinates":[[3.771722,51.05882],[3.771786,51.05882],[3.771844,51.05883],[3.77191,51.05883],[3.771961,51.05885],[3.77202,51.05887],[3.772087,51.05891],[3.772202,51.05894],[3.772249,51.05894],[3.772315,51.05893],[3.772377,51.05892],[3.772425,51.05892],[3.772489,51.05894],[3.772552,51.05897],[3.772618,51.05898],[3.772676,51.05896],[3.772717,51.05893],[3.772768,51.05891],[3.772803,51.05892],[3.772862,51.05893],[3.772899,51.05893]]},"properties":{"highway":"cycleway","vertex1":5355,"vertex2":5311}},{"type":"Feature","geometry":{"type":"LineString","coordinates":[[3.778623,51.05655],[3.779207,51.05666],[3.780296,51.05697],[3.782161,51.05745],[3.784182,51.05774]]},"properties":{"name":"Eenbeekstraat","highway":"residential","vertex1":5354,"vertex2":5160}},{"type":"Feature","geometry":{"type":"LineString","coordinates":[[3.778623,51.05655],[3.776927,51.05634],[3.776378,51.05627]]},"properties":{"name":"Eenbeekstraat","highway":"residential","vertex1":5354,"vertex2":5352}},{"type":"Feature","geometry":{"type":"LineString","coordinates":[[3.778623,51.05655],[3.778777,51.05568]]},"properties":{"name":"Ter Meerenlaan","highway":"residential","vertex1":5354,"vertex2":5344}},{"type":"Feature","geometry":{"type":"LineString","coordinates":[[3.773299,51.05626],[3.773259,51.05626]]},"properties":{"name":"Eenbeekstraat","highway":"residential","maxspeed":"30","vertex1":5353,"vertex2":5318}},{"type":"Feature","geometry":{"type":"LineString","coordinates":[[3.773299,51.05626],[3.774326,51.05624]]},"properties":{"name":"Eenbeekstraat","highway":"residential","maxspeed":"30","vertex1":5353,"vertex2":5304}},{"type":"Feature","geometry":{"type":"LineString","coordinates":[[3.773299,51.05626],[3.7733,51.05628],[3.773332,51.05639],[3.77349,51.0569],[3.773549,51.05714],[3.773597,51.05728],[3.773562,51.05735],[3.773492,51.0574],[3.773472,51.05743]]},"properties":{"highway":"path","vertex1":5353,"vertex2":5341}},{"type":"Feature","geometry":{"type":"LineString","coordinates":[[3.776378,51.05627],[3.776311,51.05626],[3.775706,51.05622],[3.774724,51.05625]]},"properties":{"name":"Eenbeekstraat","highway":"residential","vertex1":5352,"vertex2":5350}},{"type":"Feature","geometry":{"type":"LineString","coordinates":[[3.776378,51.05627],[3.776554,51.05574],[3.776536,51.05565]]},"properties":{"bicycle":"yes","highway":"footway","vertex1":5352,"vertex2":5312}},{"type":"Feature","geometry":{"type":"LineString","coordinates":[[3.772722,51.05629],[3.77285,51.05657]]},"properties":{"name":"Vrouwestraat","highway":"residential","vertex1":5351,"vertex2":5323}},{"type":"Feature","geometry":{"type":"LineString","coordinates":[[3.772722,51.05629],[3.77108,51.05655],[3.770802,51.05658]]},"properties":{"name":"Eenbeekstraat","highway":"residential","maxspeed":"30","vertex1":5351,"vertex2":5321}},{"type":"Feature","geometry":{"type":"LineString","coordinates":[[3.772722,51.05629],[3.773127,51.05627],[3.773259,51.05626]]},"properties":{"name":"Eenbeekstraat","highway":"residential","maxspeed":"30","vertex1":5351,"vertex2":5318}},{"type":"Feature","geometry":{"type":"LineString","coordinates":[[3.774724,51.05625],[3.77464,51.05697]]},"properties":{"name":"Schouteerpark","highway":"residential","vertex1":5350,"vertex2":5328}},{"type":"Feature","geometry":{"type":"LineString","coordinates":[[3.774724,51.05625],[3.774326,51.05624]]},"properties":{"name":"Eenbeekstraat","highway":"residential","maxspeed":"30","vertex1":5350,"vertex2":5304}},{"type":"Feature","geometry":{"type":"LineString","coordinates":[[3.773068,51.05713],[3.772988,51.05705],[3.773028,51.05676],[3.772884,51.05664],[3.77285,51.05657]]},"properties":{"name":"Vrouwestraat","highway":"residential","vertex1":5349,"vertex2":5323}},{"type":"Feature","geometry":{"type":"LineString","coordinates":[[3.77236,51.05728],[3.772411,51.05732],[3.772455,51.05738],[3.772473,51.05745],[3.772441,51.05753],[3.772366,51.05764],[3.772355,51.0577],[3.772333,51.0578],[3.772414,51.05795],[3.772468,51.058],[3.772562,51.05803],[3.772669,51.05806],[3.772816,51.05806],[3.772905,51.05803]]},"properties":{"highway":"footway","vertex1":5347,"vertex2":5309}},{"type":"Feature","geometry":{"type":"LineString","coordinates":[[3.77236,51.05728],[3.77247,51.05732],[3.772993,51.05735],[3.773361,51.05739],[3.773472,51.05743]]},"properties":{"highway":"footway","vertex1":5347,"vertex2":5341}},{"type":"Feature","geometry":{"type":"LineString","coordinates":[[3.77236,51.05728],[3.77236,51.05723],[3.772427,51.05709],[3.772725,51.05669],[3.772811,51.05659],[3.77285,51.05657]]},"properties":{"highway":"track","vertex1":5347,"vertex2":5323}},{"type":"Feature","geometry":{"type":"LineString","coordinates":[[3.77236,51.05728],[3.772277,51.05734],[3.771942,51.05787],[3.771917,51.05795]]},"properties":{"highway":"track","vertex1":5347,"vertex2":5345}},{"type":"Feature","geometry":{"type":"LineString","coordinates":[[3.770344,51.0587],[3.771724,51.05879]]},"properties":{"name":"Admiraalhof","oneway":"yes","highway":"residential","vertex1":5346,"vertex2":5336}},{"type":"Feature","geometry":{"type":"LineString","coordinates":[[3.770344,51.0587],[3.770216,51.05931],[3.770087,51.06041]]},"properties":{"name":"Admiraalstraat","maxspeed":"50","highway":"residential","vertex1":5346,"vertex2":5286}},{"type":"Feature","geometry":{"type":"LineString","coordinates":[[3.770344,51.0587],[3.770352,51.05862]]},"properties":{"name":"Admiraalstraat","maxspeed":"50","highway":"residential","vertex1":5346,"vertex2":5331}},{"type":"Feature","geometry":{"type":"LineString","coordinates":[[3.771917,51.05795],[3.771966,51.05797],[3.77218,51.0581],[3.77262,51.05838],[3.77298,51.05866],[3.773055,51.05876],[3.773066,51.05886],[3.772952,51.05897]]},"properties":{"highway":"track","vertex1":5345,"vertex2":5288}},{"type":"Feature","geometry":{"type":"LineString","coordinates":[[3.771917,51.05795],[3.771792,51.05838],[3.771719,51.05865],[3.771727,51.05875]]},"properties":{"highway":"track","vertex1":5345,"vertex2":5305}},{"type":"Feature","geometry":{"type":"LineString","coordinates":[[3.778777,51.05568],[3.779052,51.0547]]},"properties":{"name":"Ter Meerenlaan","highway":"residential","vertex1":5344,"vertex2":5348}},{"type":"Feature","geometry":{"type":"LineString","coordinates":[[3.778777,51.05568],[3.777796,51.05548],[3.777364,51.05537],[3.776985,51.0554]]},"properties":{"name":"Acacialaan","highway":"residential","vertex1":5344,"vertex2":5314}},{"type":"Feature","geometry":{"type":"LineString","coordinates":[[3.773506,51.05895],[3.773196,51.05896],[3.773039,51.05897],[3.772952,51.05897]]},"properties":{"highway":"footway","vertex1":5343,"vertex2":5288}},{"type":"Feature","geometry":{"type":"LineString","coordinates":[[3.773506,51.05895],[3.773672,51.05894],[3.77397,51.05893],[3.774151,51.05892]]},"properties":{"highway":"footway","vertex1":5343,"vertex2":5319}},{"type":"Feature","geometry":{"type":"LineString","coordinates":[[3.773506,51.05895],[3.773487,51.0589],[3.773455,51.05883],[3.773328,51.05857],[3.773377,51.05827],[3.773396,51.05822]]},"properties":{"highway":"footway","vertex1":5343,"vertex2":5322}},{"type":"Feature","geometry":{"type":"LineString","coordinates":[[3.773472,51.05743],[3.773514,51.05745],[3.773674,51.05774],[3.773763,51.05795],[3.773838,51.05815]]},"properties":{"highway":"footway","vertex1":5341,"vertex2":5301}},{"type":"Feature","geometry":{"type":"LineString","coordinates":[[3.773472,51.05743],[3.77327,51.05762],[3.773103,51.0578],[3.772921,51.05801],[3.772905,51.05803]]},"properties":{"highway":"footway","vertex1":5341,"vertex2":5309}},{"type":"Feature","geometry":{"type":"LineString","coordinates":[[3.771724,51.05879],[3.771727,51.05875]]},"properties":{"oneway":"yes","highway":"residential","vertex1":5336,"vertex2":5305}},{"type":"Feature","geometry":{"type":"LineString","coordinates":[[3.774571,51.05717],[3.774605,51.0574]]},"properties":{"name":"Schouteerpark","highway":"residential","vertex1":5334,"vertex2":5330}},{"type":"Feature","geometry":{"type":"LineString","coordinates":[[3.774571,51.05717],[3.77464,51.05697]]},"properties":{"name":"Schouteerpark","highway":"residential","vertex1":5334,"vertex2":5328}},{"type":"Feature","geometry":{"type":"LineString","coordinates":[[3.775005,51.05885],[3.774605,51.0574]]},"properties":{"name":"Schouteerpark","highway":"residential","vertex1":5332,"vertex2":5330}},{"type":"Feature","geometry":{"type":"LineString","coordinates":[[3.770352,51.05862],[3.771727,51.05875]]},"properties":{"name":"Admiraalhof","oneway":"yes","highway":"residential","vertex1":5331,"vertex2":5305}},{"type":"Feature","geometry":{"type":"LineString","coordinates":[[3.770352,51.05862],[3.770686,51.05721],[3.770802,51.05658]]},"properties":{"name":"Admiraalstraat","maxspeed":"50","highway":"residential","vertex1":5331,"vertex2":5321}},{"type":"Feature","geometry":{"type":"LineString","coordinates":[[3.774605,51.0574],[3.774727,51.05719],[3.77464,51.05697]]},"properties":{"name":"Schouteerpark","highway":"residential","vertex1":5330,"vertex2":5328}},{"type":"Feature","geometry":{"type":"LineString","coordinates":[[3.770192,51.05645],[3.769839,51.05641]]},"properties":{"name":"Bijlokeweg","highway":"residential","maxspeed":"30","vertex1":5329,"vertex2":5299}},{"type":"Feature","geometry":{"type":"LineString","coordinates":[[3.770192,51.05645],[3.770808,51.05651]]},"properties":{"name":"Bredenakkerstraat","highway":"residential","maxspeed":"30","vertex1":5329,"vertex2":5313}},{"type":"Feature","geometry":{"type":"LineString","coordinates":[[3.771835,51.05531],[3.771833,51.05557],[3.771982,51.05568],[3.772522,51.05564],[3.772815,51.05563]]},"properties":{"name":"Ledebeekhof","highway":"residential","vertex1":5326,"vertex2":5324}},{"type":"Feature","geometry":{"type":"LineString","coordinates":[[3.77406,51.05562],[3.773902,51.05509]]},"properties":{"name":"Ledebeekstraat","highway":"residential","vertex1":5325,"vertex2":5302}},{"type":"Feature","geometry":{"type":"LineString","coordinates":[[3.77406,51.05562],[3.77417,51.05576],[3.774276,51.05593],[3.774325,51.05609],[3.774326,51.05624]]},"properties":{"name":"Ledebeekstraat","highway":"residential","vertex1":5325,"vertex2":5304}},{"type":"Feature","geometry":{"type":"LineString","coordinates":[[3.77406,51.05562],[3.773614,51.05561]]},"properties":{"name":"Ledebeekhof","highway":"residential","vertex1":5325,"vertex2":5316}},{"type":"Feature","geometry":{"type":"LineString","coordinates":[[3.773902,51.05509],[3.773623,51.05526],[3.773614,51.05561]]},"properties":{"name":"Ledebeekhof","highway":"residential","vertex1":5302,"vertex2":5316}},{"type":"Feature","geometry":{"type":"LineString","coordinates":[[3.772815,51.05563],[3.772974,51.05563],[3.773055,51.05562]]},"properties":{"name":"Ledebeekhof","highway":"residential","vertex1":5324,"vertex2":5320}},{"type":"Feature","geometry":{"type":"LineString","coordinates":[[3.772815,51.05563],[3.772812,51.05557],[3.772815,51.05554],[3.772751,51.05531],[3.7726,51.05504],[3.772548,51.05494],[3.772411,51.05479],[3.772146,51.05463],[3.771841,51.05438],[3.7718,51.05429],[3.771799,51.0542]]},"properties":{"highway":"footway","vertex1":5324,"vertex2":5303}},{"type":"Feature","geometry":{"type":"LineString","coordinates":[[3.771799,51.0542],[3.771609,51.05418],[3.771441,51.05415],[3.771264,51.05412],[3.771107,51.05407],[3.770967,51.05402],[3.770608,51.05385]]},"properties":{"name":"Dendermondesteenweg","maxspeed":"50","highway":"secondary","vertex1":5303,"vertex2":5339}},{"type":"Feature","geometry":{"type":"LineString","coordinates":[[3.773396,51.05822],[3.773388,51.05821],[3.773021,51.05807],[3.772905,51.05803]]},"properties":{"highway":"footway","vertex1":5322,"vertex2":5309}},{"type":"Feature","geometry":{"type":"LineString","coordinates":[[3.773396,51.05822],[3.773452,51.05819],[3.773664,51.05817],[3.773838,51.05815]]},"properties":{"highway":"footway","vertex1":5322,"vertex2":5301}},{"type":"Feature","geometry":{"type":"LineString","coordinates":[[3.770802,51.05658],[3.770808,51.05651]]},"properties":{"name":"Admiraalstraat","maxspeed":"50","highway":"residential","vertex1":5321,"vertex2":5313}},{"type":"Feature","geometry":{"type":"LineString","coordinates":[[3.773055,51.05562],[3.773614,51.05561]]},"properties":{"name":"Ledebeekhof","highway":"residential","vertex1":5320,"vertex2":5316}},{"type":"Feature","geometry":{"type":"LineString","coordinates":[[3.773055,51.05562],[3.77306,51.05565],[3.773146,51.05589],[3.77321,51.0561],[3.773259,51.05626]]},"properties":{"highway":"footway","vertex1":5320,"vertex2":5318}},{"type":"Feature","geometry":{"type":"LineString","coordinates":[[3.774151,51.05892],[3.774242,51.05911],[3.774368,51.05939],[3.774404,51.05949],[3.774491,51.05966],[3.774573,51.0597],[3.774907,51.05977],[3.775067,51.05981],[3.775177,51.05983],[3.775318,51.05985],[3.77537,51.05983]]},"properties":{"highway":"footway","vertex1":5319,"vertex2":5287}},{"type":"Feature","geometry":{"type":"LineString","coordinates":[[3.774151,51.05892],[3.774141,51.0589],[3.774101,51.0588],[3.774034,51.05861],[3.773838,51.05815]]},"properties":{"highway":"footway","vertex1":5319,"vertex2":5301}},{"type":"Feature","geometry":{"type":"LineString","coordinates":[[3.776985,51.0554],[3.776836,51.05548],[3.776536,51.05565]]},"properties":{"name":"Acacialaan","highway":"residential","vertex1":5314,"vertex2":5312}},{"type":"Feature","geometry":{"type":"LineString","coordinates":[[3.776985,51.0554],[3.776755,51.05542],[3.776603,51.05545],[3.776293,51.05551],[3.776254,51.05556],[3.776287,51.05563],[3.776434,51.05568]]},"properties":{"name":"Acacialaan","highway":"residential","vertex1":5314,"vertex2":5310}},{"type":"Feature","geometry":{"type":"LineString","coordinates":[[3.770808,51.05651],[3.77074,51.05621],[3.770697,51.05584],[3.770674,51.05537],[3.770622,51.05475],[3.770594,51.05431],[3.770594,51.05409],[3.770608,51.05385]]},"properties":{"name":"Admiraalstraat","maxspeed":"50","highway":"residential","vertex1":5313,"vertex2":5339}},{"type":"Feature","geometry":{"type":"LineString","coordinates":[[3.776536,51.05565],[3.776434,51.05568]]},"properties":{"name":"Acacialaan","highway":"residential","vertex1":5312,"vertex2":5310}},{"type":"Feature","geometry":{"type":"LineString","coordinates":[[3.772899,51.05893],[3.772952,51.05897]]},"properties":{"name":"Admiraalhof","highway":"residential","vertex1":5311,"vertex2":5288}},{"type":"Feature","geometry":{"type":"LineString","coordinates":[[3.768598,51.05621],[3.769109,51.0563],[3.769839,51.05641]]},"properties":{"name":"Bredenakkerstraat","highway":"residential","maxspeed":"30","vertex1":5307,"vertex2":5299}},{"type":"Feature","geometry":{"type":"LineString","coordinates":[[3.769247,51.06442],[3.76938,51.0643]]},"properties":{"name":"Koerspleinstraat","highway":"residential","maxspeed":"30","vertex1":5298,"vertex2":5277}},{"type":"Feature","geometry":{"type":"LineString","coordinates":[[3.769247,51.06442],[3.768328,51.06493],[3.767475,51.06553],[3.767313,51.0657],[3.767247,51.06586],[3.767205,51.06606]]},"properties":{"name":"Koerspleinstraat","highway":"residential","maxspeed":"30","vertex1":5298,"vertex2":19037}},{"type":"Feature","geometry":{"type":"LineString","coordinates":[[3.769247,51.06442],[3.769625,51.06459],[3.769725,51.06461]]},"properties":{"name":"Jozef Goossenaertsstraat","highway":"residential","vertex1":5298,"vertex2":19266}},{"type":"Feature","geometry":{"type":"LineString","coordinates":[[3.777619,51.06318],[3.777478,51.06316],[3.777303,51.06311],[3.777162,51.06305],[3.777042,51.06299],[3.776933,51.06291],[3.776776,51.06277],[3.776577,51.06253],[3.776228,51.0621],[3.775731,51.06144],[3.775527,51.06115],[3.775347,51.06106]]},"properties":{"name":"Kwadenplasstraat","highway":"residential","vertex1":5297,"vertex2":5282}},{"type":"Feature","geometry":{"type":"LineString","coordinates":[[3.777619,51.06318],[3.777593,51.06332],[3.777538,51.0636]]},"properties":{"name":"Ledestraat","highway":"residential","vertex1":5297,"vertex2":5284}},{"type":"Feature","geometry":{"type":"LineString","coordinates":[[3.777619,51.06318],[3.77764,51.06305],[3.777672,51.06277],[3.777662,51.06265],[3.777641,51.06251]]},"properties":{"name":"Notaxlaan","highway":"residential","vertex1":5297,"vertex2":5283}},{"type":"Feature","geometry":{"type":"LineString","coordinates":[[3.777619,51.06318],[3.777746,51.06316],[3.7781,51.06308],[3.77862,51.06301],[3.779058,51.063],[3.78053,51.06306],[3.781154,51.06309]]},"properties":{"name":"Kwadenplasstraat","highway":"residential","vertex1":5297,"vertex2":5269}},{"type":"Feature","geometry":{"type":"LineString","coordinates":[[3.772208,51.06403],[3.771872,51.06467]]},"properties":{"name":"Jozef Goossenaertstraat","highway":"residential","maxspeed":"30","vertex1":5296,"vertex2":19290}},{"type":"Feature","geometry":{"type":"LineString","coordinates":[[3.772208,51.06403],[3.769795,51.06351]]},"properties":{"name":"Alfons Braeckmanlaan","highway":"residential","vertex1":5296,"vertex2":5285}},{"type":"Feature","geometry":{"type":"LineString","coordinates":[[3.772208,51.06403],[3.774151,51.06449]]},"properties":{"name":"Alfons Braeckmanlaan","highway":"residential","vertex1":5296,"vertex2":19324}},{"type":"Feature","geometry":{"type":"LineString","coordinates":[[3.769939,51.0619],[3.771379,51.06196]]},"properties":{"name":"Georges Maenhoutdreef","highway":"residential","vertex1":5295,"vertex2":5271}},{"type":"Feature","geometry":{"type":"LineString","coordinates":[[3.769939,51.0619],[3.769799,51.06333]]},"properties":{"name":"Koerspleinstraat","highway":"residential","maxspeed":"30","vertex1":5295,"vertex2":5292}},{"type":"Feature","geometry":{"type":"LineString","coordinates":[[3.769939,51.0619],[3.770002,51.06131]]},"properties":{"name":"Koerspleinstraat","highway":"residential","maxspeed":"30","vertex1":5295,"vertex2":5276}},{"type":"Feature","geometry":{"type":"LineString","coordinates":[[3.779081,51.06252],[3.778291,51.06248],[3.777641,51.06251]]},"properties":{"name":"Notaxlaan","highway":"residential","vertex1":5294,"vertex2":5283}},{"type":"Feature","geometry":{"type":"LineString","coordinates":[[3.771477,51.06082],[3.7711,51.06081],[3.770048,51.06087]]},"properties":{"name":"Prosper de Troyerlaan","highway":"residential","vertex1":5293,"vertex2":5291}},{"type":"Feature","geometry":{"type":"LineString","coordinates":[[3.771477,51.06082],[3.772066,51.06083]]},"properties":{"name":"Prosper de Troyerlaan","highway":"residential","vertex1":5293,"vertex2":5272}},{"type":"Feature","geometry":{"type":"LineString","coordinates":[[3.771477,51.06082],[3.771427,51.06134],[3.771379,51.06196]]},"properties":{"name":"Lijsterbesdreef","highway":"residential","vertex1":5293,"vertex2":5271}},{"type":"Feature","geometry":{"type":"LineString","coordinates":[[3.769799,51.06333],[3.769796,51.06348],[3.769795,51.06351]]},"properties":{"name":"Koerspleinstraat","highway":"residential","maxspeed":"30","vertex1":5292,"vertex2":5285}},{"type":"Feature","geometry":{"type":"LineString","coordinates":[[3.769799,51.06333],[3.770492,51.0634],[3.771235,51.06344]]},"properties":{"name":"Nachtegaaldreef","highway":"residential","maxspeed":"30","vertex1":5292,"vertex2":5275}},{"type":"Feature","geometry":{"type":"LineString","coordinates":[[3.770048,51.06087],[3.770002,51.06131]]},"properties":{"name":"Admiraalstraat","maxspeed":"50","highway":"residential","vertex1":5291,"vertex2":5276}},{"type":"Feature","geometry":{"type":"LineString","coordinates":[[3.770048,51.06087],[3.770087,51.06041]]},"properties":{"name":"Admiraalstraat","maxspeed":"50","highway":"residential","vertex1":5291,"vertex2":5286}},{"type":"Feature","geometry":{"type":"LineString","coordinates":[[3.772117,51.06017],[3.772897,51.06021],[3.772908,51.06005]]},"properties":{"name":"Admiraalhof","highway":"residential","vertex1":5290,"vertex2":5274}},{"type":"Feature","geometry":{"type":"LineString","coordinates":[[3.772117,51.06017],[3.772066,51.06083]]},"properties":{"name":"Kapellestraatje","highway":"footway","vertex1":5290,"vertex2":5272}},{"type":"Feature","geometry":{"type":"LineString","coordinates":[[3.775189,51.06085],[3.774375,51.06086]]},"properties":{"name":"Prosper de Troyerlaan","highway":"residential","vertex1":5289,"vertex2":5279}},{"type":"Feature","geometry":{"type":"LineString","coordinates":[[3.775189,51.06085],[3.776389,51.06073]]},"properties":{"name":"Prosper de Troyerlaan","highway":"residential","vertex1":5289,"vertex2":5273}},{"type":"Feature","geometry":{"type":"LineString","coordinates":[[3.775189,51.06085],[3.775306,51.06097],[3.775347,51.06106]]},"properties":{"name":"Admiraaldreef","highway":"residential","vertex1":5289,"vertex2":5282}},{"type":"Feature","geometry":{"type":"LineString","coordinates":[[3.772952,51.05897],[3.772912,51.05952],[3.772908,51.06005]]},"properties":{"name":"Admiraalhof","highway":"residential","vertex1":5288,"vertex2":5274}},{"type":"Feature","geometry":{"type":"LineString","coordinates":[[3.77537,51.05983],[3.775574,51.05978],[3.775829,51.0597],[3.775961,51.05973],[3.776084,51.05981],[3.776307,51.06021],[3.776389,51.06073]]},"properties":{"name":"Notaxlaan","highway":"residential","vertex1":5287,"vertex2":5273}},{"type":"Feature","geometry":{"type":"LineString","coordinates":[[3.769795,51.06351],[3.76979,51.06356],[3.769717,51.06383],[3.769449,51.06424],[3.76938,51.0643]]},"properties":{"name":"Koerspleinstraat","highway":"residential","maxspeed":"30","vertex1":5285,"vertex2":5277}},{"type":"Feature","geometry":{"type":"LineString","coordinates":[[3.777538,51.0636],[3.777417,51.06448],[3.777759,51.06511],[3.777853,51.0653]]},"properties":{"name":"Ledestraat","highway":"residential","vertex1":5284,"vertex2":19326}},{"type":"Feature","geometry":{"type":"LineString","coordinates":[[3.777538,51.0636],[3.776969,51.06382]]},"properties":{"name":"Nachtegaalstraat","highway":"residential","maxspeed":"30","vertex1":5284,"vertex2":5278}},{"type":"Feature","geometry":{"type":"LineString","coordinates":[[3.777641,51.06251],[3.777562,51.06234],[3.777417,51.06216],[3.777124,51.06183],[3.776674,51.06131],[3.776389,51.06073]]},"properties":{"name":"Notaxlaan","highway":"residential","vertex1":5283,"vertex2":5273}},{"type":"Feature","geometry":{"type":"LineString","coordinates":[[3.775347,51.06106],[3.775311,51.06125],[3.775494,51.06154],[3.775466,51.06193],[3.775193,51.06256],[3.774609,51.06369]]},"properties":{"name":"Admiraaldreef","highway":"residential","vertex1":5282,"vertex2":5280}},{"type":"Feature","geometry":{"type":"LineString","coordinates":[[3.774422,51.06012],[3.772908,51.06005]]},"properties":{"name":"Admiraalhof","highway":"residential","vertex1":5281,"vertex2":5274}},{"type":"Feature","geometry":{"type":"LineString","coordinates":[[3.774422,51.06012],[3.774444,51.06012],[3.774493,51.06013],[3.774512,51.06017],[3.774501,51.06022],[3.774437,51.06032],[3.774348,51.06043],[3.774305,51.06054],[3.774343,51.06069],[3.774375,51.06086]]},"properties":{"name":"Admiraalhof","highway":"cycleway","vertex1":5281,"vertex2":5279}},{"type":"Feature","geometry":{"type":"LineString","coordinates":[[3.774609,51.06369],[3.771235,51.06344]]},"properties":{"name":"Nachtegaaldreef","highway":"residential","maxspeed":"30","vertex1":5280,"vertex2":5275}},{"type":"Feature","geometry":{"type":"LineString","coordinates":[[3.774609,51.06369],[3.776969,51.06382]]},"properties":{"name":"Nachtegaaldreef","highway":"residential","maxspeed":"30","vertex1":5280,"vertex2":5278}},{"type":"Feature","geometry":{"type":"LineString","coordinates":[[3.774375,51.06086],[3.774097,51.06086],[3.772066,51.06083]]},"properties":{"name":"Prosper de Troyerlaan","highway":"residential","vertex1":5279,"vertex2":5272}},{"type":"Feature","geometry":{"type":"LineString","coordinates":[[3.776969,51.06382],[3.775238,51.06447],[3.775115,51.06469]]},"properties":{"name":"Nachtegaalstraat","highway":"residential","maxspeed":"30","vertex1":5278,"vertex2":19328}},{"type":"Feature","geometry":{"type":"LineString","coordinates":[[3.76938,51.0643],[3.769858,51.06454],[3.770156,51.0647]]},"properties":{"name":"Jozef Goossenaertstraat","highway":"residential","maxspeed":"30","vertex1":5277,"vertex2":19288}},{"type":"Feature","geometry":{"type":"LineString","coordinates":[[3.771235,51.06344],[3.771379,51.06196]]},"properties":{"name":"Lijsterbesdreef","highway":"residential","vertex1":5275,"vertex2":5271}},{"type":"Feature","geometry":{"type":"LineString","coordinates":[[3.777194,51.06516],[3.776783,51.06581]]},"properties":{"highway":"path","vertex1":19351,"vertex2":19340}},{"type":"Feature","geometry":{"type":"LineString","coordinates":[[3.777194,51.06516],[3.775956,51.06489]]},"properties":{"name":"Alfons Braeckmanlaan","highway":"residential","vertex1":19351,"vertex2":19297}},{"type":"Feature","geometry":{"type":"LineString","coordinates":[[3.777194,51.06516],[3.777853,51.0653]]},"properties":{"name":"Alfons Braeckmanlaan","highway":"residential","vertex1":19351,"vertex2":19326}},{"type":"Feature","geometry":{"type":"LineString","coordinates":[[3.777941,51.0668],[3.776431,51.0671]]},"properties":{"name":"Westveldstraat","highway":"residential","maxspeed":"30","vertex1":19350,"vertex2":19281}},{"type":"Feature","geometry":{"type":"LineString","coordinates":[[3.777941,51.0668],[3.77794,51.06655],[3.777943,51.06636]]},"properties":{"name":"Westveldstraat","highway":"residential","maxspeed":"30","vertex1":19350,"vertex2":19300}},{"type":"Feature","geometry":{"type":"LineString","coordinates":[[3.777941,51.0668],[3.778082,51.06681],[3.778656,51.06692],[3.780279,51.06727],[3.781668,51.06759],[3.781975,51.06767]]},"properties":{"name":"Kasteelwegel","highway":"residential","maxspeed":"30","vertex1":19350,"vertex2":19361}},{"type":"Feature","geometry":{"type":"LineString","coordinates":[[3.781975,51.06767],[3.782365,51.06633]]},"properties":{"name":"Kasteelwegel","highway":"path","vertex1":19361,"vertex2":19374}},{"type":"Feature","geometry":{"type":"LineString","coordinates":[[3.77369,51.06562],[3.773755,51.0655]]},"properties":{"name":"Vinkenlaan","oneway":"yes","highway":"residential","vertex1":19349,"vertex2":19323}},{"type":"Feature","geometry":{"type":"LineString","coordinates":[[3.77369,51.06562],[3.773584,51.06557]]},"properties":{"name":"Vinkenlaan","oneway":"yes","highway":"residential","vertex1":19349,"vertex2":19303}},{"type":"Feature","geometry":{"type":"LineString","coordinates":[[3.77369,51.06562],[3.773388,51.06617]]},"properties":{"name":"Vinkenlaan","highway":"residential","maxspeed":"30","vertex1":19349,"vertex2":19283}},{"type":"Feature","geometry":{"type":"LineString","coordinates":[[3.775556,51.06536],[3.775441,51.06533],[3.775403,51.06534],[3.775318,51.06548]]},"properties":{"name":"Lepelaarstraat","highway":"residential","maxspeed":"30","vertex1":19348,"vertex2":19346}},{"type":"Feature","geometry":{"type":"LineString","coordinates":[[3.775556,51.06536],[3.775558,51.0654]]},"properties":{"name":"Lepelaarstraat","highway":"residential","maxspeed":"30","vertex1":19348,"vertex2":19307}},{"type":"Feature","geometry":{"type":"LineString","coordinates":[[3.775556,51.06536],[3.775637,51.06533],[3.775956,51.06489]]},"properties":{"bicycle":"no","highway":"path","vertex1":19348,"vertex2":19297}},{"type":"Feature","geometry":{"type":"LineString","coordinates":[[3.772963,51.06692],[3.773338,51.06626]]},"properties":{"name":"Vinkenlaan","highway":"residential","maxspeed":"30","vertex1":19347,"vertex2":19314}},{"type":"Feature","geometry":{"type":"LineString","coordinates":[[3.772963,51.06692],[3.772843,51.06689]]},"properties":{"name":"Heiveldstraat","maxspeed":"50","highway":"residential","vertex1":19347,"vertex2":19269}},{"type":"Feature","geometry":{"type":"LineString","coordinates":[[3.772963,51.06692],[3.77398,51.06715]]},"properties":{"name":"Heiveldstraat","maxspeed":"50","highway":"residential","vertex1":19347,"vertex2":19341}},{"type":"Feature","geometry":{"type":"LineString","coordinates":[[3.775318,51.06548],[3.775137,51.06578]]},"properties":{"name":"Lepelaarstraat","highway":"residential","maxspeed":"30","vertex1":19346,"vertex2":19344}},{"type":"Feature","geometry":{"type":"LineString","coordinates":[[3.775318,51.06548],[3.775478,51.06547],[3.775558,51.0654]]},"properties":{"name":"Lepelaarstraat","highway":"residential","maxspeed":"30","vertex1":19346,"vertex2":19307}},{"type":"Feature","geometry":{"type":"LineString","coordinates":[[3.775137,51.06578],[3.774657,51.06568]]},"properties":{"name":"Sijsjeslaan","highway":"residential","maxspeed":"30","vertex1":19344,"vertex2":19261}},{"type":"Feature","geometry":{"type":"LineString","coordinates":[[3.775137,51.06578],[3.77525,51.06582]]},"properties":{"name":"Sijsjeslaan","highway":"residential","maxspeed":"30","vertex1":19344,"vertex2":19285}},{"type":"Feature","geometry":{"type":"LineString","coordinates":[[3.774155,51.06762],[3.773814,51.06747]]},"properties":{"highway":"path","vertex1":19343,"vertex2":19279}},{"type":"Feature","geometry":{"type":"LineString","coordinates":[[3.774155,51.06762],[3.774226,51.06771],[3.774275,51.06785],[3.774289,51.06799],[3.774249,51.06816],[3.774206,51.06823],[3.774108,51.06827],[3.77391,51.06829],[3.773646,51.06824],[3.773399,51.06815],[3.773254,51.06805],[3.773126,51.06796],[3.773129,51.06789],[3.773221,51.06778],[3.773491,51.06762],[3.773718,51.06749]]},"properties":{"highway":"path","vertex1":19343,"vertex2":19301}},{"type":"Feature","geometry":{"type":"LineString","coordinates":[[3.776937,51.06587],[3.776783,51.06581]]},"properties":{"name":"Klauwierstraat","highway":"residential","maxspeed":"30","vertex1":19342,"vertex2":19340}},{"type":"Feature","geometry":{"type":"LineString","coordinates":[[3.776937,51.06587],[3.776777,51.06596],[3.776599,51.06579],[3.776587,51.06575]]},"properties":{"name":"Klauwierstraat","highway":"residential","maxspeed":"30","vertex1":19342,"vertex2":19338}},{"type":"Feature","geometry":{"type":"LineString","coordinates":[[3.77398,51.06715],[3.773997,51.06711]]},"properties":{"highway":"path","vertex1":19341,"vertex2":19299}},{"type":"Feature","geometry":{"type":"LineString","coordinates":[[3.77398,51.06715],[3.773969,51.06718],[3.7739,51.06721],[3.77379,51.0674],[3.773814,51.06747]]},"properties":{"highway":"path","vertex1":19341,"vertex2":19279}},{"type":"Feature","geometry":{"type":"LineString","coordinates":[[3.77398,51.06715],[3.77507,51.0673],[3.775501,51.06732]]},"properties":{"name":"Heiveldstraat","maxspeed":"50","highway":"residential","vertex1":19341,"vertex2":19305}},{"type":"Feature","geometry":{"type":"LineString","coordinates":[[3.776783,51.06581],[3.776683,51.06577],[3.776587,51.06575]]},"properties":{"name":"Klauwierstraat","highway":"residential","maxspeed":"30","vertex1":19340,"vertex2":19338}},{"type":"Feature","geometry":{"type":"LineString","coordinates":[[3.774372,51.06701],[3.774468,51.06697]]},"properties":{"highway":"path","vertex1":19339,"vertex2":19263}},{"type":"Feature","geometry":{"type":"LineString","coordinates":[[3.774372,51.06701],[3.774131,51.06704],[3.774086,51.06712],[3.773997,51.06711]]},"properties":{"highway":"path","vertex1":19339,"vertex2":19299}},{"type":"Feature","geometry":{"type":"LineString","coordinates":[[3.774372,51.06701],[3.774302,51.06695],[3.774215,51.06688],[3.774093,51.06683]]},"properties":{"highway":"path","vertex1":19339,"vertex2":19286}},{"type":"Feature","geometry":{"type":"LineString","coordinates":[[3.776587,51.06575],[3.776488,51.06572],[3.775792,51.06607]]},"properties":{"name":"Klauwierstraat","highway":"residential","maxspeed":"30","vertex1":19338,"vertex2":19336}},{"type":"Feature","geometry":{"type":"LineString","coordinates":[[3.775792,51.06607],[3.77577,51.06605],[3.77549,51.06591],[3.77525,51.06582]]},"properties":{"name":"Sijsjeslaan","highway":"residential","maxspeed":"30","vertex1":19336,"vertex2":19285}},{"type":"Feature","geometry":{"type":"LineString","coordinates":[[3.775792,51.06607],[3.775958,51.06621],[3.776141,51.06648]]},"properties":{"name":"Sijsjeslaan","highway":"residential","maxspeed":"30","vertex1":19336,"vertex2":19287}},{"type":"Feature","geometry":{"type":"LineString","coordinates":[[3.769364,51.06613],[3.76921,51.06628],[3.768643,51.06666],[3.768203,51.06701],[3.767841,51.06747]]},"properties":{"name":"Hippodroomlaan","highway":"residential","maxspeed":"30","vertex1":19335,"vertex2":19036}},{"type":"Feature","geometry":{"type":"LineString","coordinates":[[3.769364,51.06613],[3.768978,51.06609]]},"properties":{"name":"Heiveldstraat","maxspeed":"50","highway":"residential","vertex1":19335,"vertex2":19280}},{"type":"Feature","geometry":{"type":"LineString","coordinates":[[3.769364,51.06613],[3.770275,51.06633]]},"properties":{"name":"Heiveldstraat","maxspeed":"50","highway":"residential","vertex1":19335,"vertex2":19298}},{"type":"Feature","geometry":{"type":"LineString","coordinates":[[3.774732,51.06514],[3.774664,51.06513]]},"properties":{"name":"Houtduifstraat","highway":"residential","maxspeed":"30","vertex1":19334,"vertex2":19332}},{"type":"Feature","geometry":{"type":"LineString","coordinates":[[3.774732,51.06514],[3.774762,51.06516],[3.774668,51.0653]]},"properties":{"name":"Houtduifstraat","highway":"residential","maxspeed":"30","vertex1":19334,"vertex2":19330}},{"type":"Feature","geometry":{"type":"LineString","coordinates":[[3.769552,51.06895],[3.768784,51.06898],[3.768568,51.06895],[3.768379,51.06888],[3.767776,51.06836],[3.767661,51.06823],[3.767612,51.06806],[3.767587,51.06792],[3.767836,51.06748]]},"properties":{"name":"Hippodroomlaan","highway":"residential","maxspeed":"30","vertex1":19333,"vertex2":19062}},{"type":"Feature","geometry":{"type":"LineString","coordinates":[[3.769552,51.06895],[3.769994,51.06894]]},"properties":{"name":"Hippodroomlaan","highway":"residential","maxspeed":"30","vertex1":19333,"vertex2":19295}},{"type":"Feature","geometry":{"type":"LineString","coordinates":[[3.769552,51.06895],[3.769534,51.06887],[3.769531,51.06881],[3.769502,51.0687],[3.76952,51.06856],[3.769534,51.06845],[3.769494,51.06838],[3.769392,51.06833],[3.769311,51.06829],[3.769209,51.06821],[3.76907,51.06811],[3.76903,51.06802],[3.768989,51.06795],[3.768855,51.06785],[3.768726,51.06776],[3.768678,51.06766],[3.768662,51.06757],[3.768399,51.06754]]},"properties":{"highway":"footway","vertex1":19333,"vertex2":19319}},{"type":"Feature","geometry":{"type":"LineString","coordinates":[[3.769552,51.06895],[3.769583,51.06905],[3.769555,51.06932],[3.76944,51.0695],[3.769376,51.06958]]},"properties":{"highway":"footway","vertex1":19333,"vertex2":19289}},{"type":"Feature","geometry":{"type":"LineString","coordinates":[[3.774664,51.06513],[3.774628,51.06514],[3.774572,51.06527],[3.774668,51.0653]]},"properties":{"name":"Houtduifstraat","highway":"residential","maxspeed":"30","vertex1":19332,"vertex2":19330}},{"type":"Feature","geometry":{"type":"LineString","coordinates":[[3.774664,51.06513],[3.774378,51.06491],[3.773981,51.06483]]},"properties":{"bicycle":"no","highway":"path","vertex1":19332,"vertex2":19322}},{"type":"Feature","geometry":{"type":"LineString","coordinates":[[3.770944,51.06726],[3.770779,51.06726]]},"properties":{"name":"Draversstraat","highway":"residential","maxspeed":"30","vertex1":19331,"vertex2":19329}},{"type":"Feature","geometry":{"type":"LineString","coordinates":[[3.774668,51.0653],[3.774484,51.06564]]},"properties":{"name":"Houtduifstraat","highway":"residential","maxspeed":"30","vertex1":19330,"vertex2":19316}},{"type":"Feature","geometry":{"type":"LineString","coordinates":[[3.770779,51.06726],[3.770797,51.06721]]},"properties":{"name":"Draversstraat","highway":"residential","vertex1":19329,"vertex2":19293}},{"type":"Feature","geometry":{"type":"LineString","coordinates":[[3.770779,51.06726],[3.770708,51.06749],[3.770636,51.06763]]},"properties":{"name":"Draversstraat","highway":"residential","maxspeed":"30","vertex1":19329,"vertex2":19291}},{"type":"Feature","geometry":{"type":"LineString","coordinates":[[3.775115,51.06469],[3.774151,51.06449]]},"properties":{"name":"Alfons Braeckmanlaan","highway":"residential","vertex1":19328,"vertex2":19324}},{"type":"Feature","geometry":{"type":"LineString","coordinates":[[3.775115,51.06469],[3.775956,51.06489]]},"properties":{"name":"Alfons Braeckmanlaan","highway":"residential","vertex1":19328,"vertex2":19297}},{"type":"Feature","geometry":{"type":"LineString","coordinates":[[3.770374,51.06816],[3.770113,51.06812],[3.769566,51.06784]]},"properties":{"name":"Draversstraat","highway":"residential","maxspeed":"30","vertex1":19327,"vertex2":19275}},{"type":"Feature","geometry":{"type":"LineString","coordinates":[[3.770374,51.06816],[3.770434,51.06798],[3.770636,51.06763]]},"properties":{"name":"Draversstraat","highway":"residential","maxspeed":"30","vertex1":19327,"vertex2":19291}},{"type":"Feature","geometry":{"type":"LineString","coordinates":[[3.770374,51.06816],[3.77035,51.06828],[3.770297,51.06842],[3.769994,51.06894]]},"properties":{"name":"Draversstraat","highway":"residential","maxspeed":"30","vertex1":19327,"vertex2":19295}},{"type":"Feature","geometry":{"type":"LineString","coordinates":[[3.777853,51.0653],[3.777966,51.06533]]},"properties":{"name":"Alfons Braeckmanlaan","highway":"residential","vertex1":19326,"vertex2":19302}},{"type":"Feature","geometry":{"type":"LineString","coordinates":[[3.769862,51.06729],[3.770215,51.06749],[3.770383,51.06757],[3.770636,51.06763]]},"properties":{"name":"Draversstraat","highway":"residential","maxspeed":"30","vertex1":19325,"vertex2":19291}},{"type":"Feature","geometry":{"type":"LineString","coordinates":[[3.774151,51.06449],[3.773981,51.06483]]},"properties":{"name":"Vinkenlaan","highway":"residential","maxspeed":"30","vertex1":19324,"vertex2":19322}},{"type":"Feature","geometry":{"type":"LineString","coordinates":[[3.773755,51.0655],[3.774484,51.06564]]},"properties":{"name":"Sijsjeslaan","highway":"residential","maxspeed":"30","vertex1":19323,"vertex2":19316}},{"type":"Feature","geometry":{"type":"LineString","coordinates":[[3.773755,51.0655],[3.773678,51.06541]]},"properties":{"name":"Vinkenlaan","oneway":"yes","highway":"residential","vertex1":19323,"vertex2":19318}},{"type":"Feature","geometry":{"type":"LineString","coordinates":[[3.773981,51.06483],[3.773851,51.06508]]},"properties":{"name":"Vinkenlaan","highway":"residential","maxspeed":"30","vertex1":19322,"vertex2":19320}},{"type":"Feature","geometry":{"type":"LineString","coordinates":[[3.773851,51.06508],[3.773678,51.06541]]},"properties":{"name":"Vinkenlaan","highway":"residential","maxspeed":"30","vertex1":19320,"vertex2":19318}},{"type":"Feature","geometry":{"type":"LineString","coordinates":[[3.773851,51.06508],[3.771872,51.06467]]},"properties":{"name":"Havikstraat","highway":"residential","maxspeed":"30","vertex1":19320,"vertex2":19290}},{"type":"Feature","geometry":{"type":"LineString","coordinates":[[3.768399,51.06754],[3.767836,51.06748]]},"properties":{"highway":"footway","vertex1":19319,"vertex2":19062}},{"type":"Feature","geometry":{"type":"LineString","coordinates":[[3.773678,51.06541],[3.773584,51.06557]]},"properties":{"name":"Vinkenlaan","oneway":"yes","highway":"residential","vertex1":19318,"vertex2":19303}},{"type":"Feature","geometry":{"type":"LineString","coordinates":[[3.776677,51.06637],[3.776498,51.06641],[3.776141,51.06648]]},"properties":{"name":"Parkietstraat","highway":"residential","maxspeed":"30","vertex1":19317,"vertex2":19287}},{"type":"Feature","geometry":{"type":"LineString","coordinates":[[3.776677,51.06637],[3.777062,51.0663]]},"properties":{"name":"Parkietstraat","highway":"residential","maxspeed":"30","vertex1":19317,"vertex2":19265}},{"type":"Feature","geometry":{"type":"LineString","coordinates":[[3.776677,51.06637],[3.776712,51.06644],[3.777102,51.06637]]},"properties":{"name":"Parkietstraat","highway":"residential","maxspeed":"30","vertex1":19317,"vertex2":19273}},{"type":"Feature","geometry":{"type":"LineString","coordinates":[[3.774484,51.06564],[3.774657,51.06568]]},"properties":{"name":"Sijsjeslaan","highway":"residential","maxspeed":"30","vertex1":19316,"vertex2":19261}},{"type":"Feature","geometry":{"type":"LineString","coordinates":[[3.776968,51.06613],[3.777062,51.0663]]},"properties":{"name":"Parkietstraat","highway":"residential","maxspeed":"30","vertex1":19315,"vertex2":19265}},{"type":"Feature","geometry":{"type":"LineString","coordinates":[[3.773338,51.06626],[3.772318,51.06602]]},"properties":{"name":"Grasmusstraat","highway":"residential","maxspeed":"30","vertex1":19314,"vertex2":19308}},{"type":"Feature","geometry":{"type":"LineString","coordinates":[[3.773338,51.06626],[3.773388,51.06617]]},"properties":{"name":"Vinkenlaan","highway":"residential","maxspeed":"30","vertex1":19314,"vertex2":19283}},{"type":"Feature","geometry":{"type":"LineString","coordinates":[[3.776163,51.06653],[3.775688,51.06662],[3.775068,51.06609],[3.77525,51.06582]]},"properties":{"name":"Paradijsvogelplein","highway":"residential","maxspeed":"30","vertex1":19313,"vertex2":19285}},{"type":"Feature","geometry":{"type":"LineString","coordinates":[[3.776163,51.06653],[3.776141,51.06648]]},"properties":{"name":"Sijsjeslaan","highway":"residential","maxspeed":"30","vertex1":19313,"vertex2":19287}},{"type":"Feature","geometry":{"type":"LineString","coordinates":[[3.776163,51.06653],[3.776431,51.0671]]},"properties":{"name":"Sijsjeslaan","highway":"residential","maxspeed":"30","vertex1":19313,"vertex2":19281}},{"type":"Feature","geometry":{"type":"LineString","coordinates":[[3.7717,51.06665],[3.772086,51.06597],[3.772318,51.06602]]},"properties":{"name":"Distelvinkstraat","highway":"residential","maxspeed":"30","vertex1":19312,"vertex2":19308}},{"type":"Feature","geometry":{"type":"LineString","coordinates":[[3.7717,51.06665],[3.770275,51.06633]]},"properties":{"name":"Heiveldstraat","maxspeed":"50","highway":"residential","vertex1":19312,"vertex2":19298}},{"type":"Feature","geometry":{"type":"LineString","coordinates":[[3.7717,51.06665],[3.772843,51.06689]]},"properties":{"name":"Heiveldstraat","maxspeed":"50","highway":"residential","vertex1":19312,"vertex2":19269}},{"type":"Feature","geometry":{"type":"LineString","coordinates":[[3.774215,51.06643],[3.774259,51.06635]]},"properties":{"name":"Mezenstraat","highway":"residential","maxspeed":"30","vertex1":19311,"vertex2":19271}},{"type":"Feature","geometry":{"type":"LineString","coordinates":[[3.774215,51.06643],[3.774024,51.06639],[3.773956,51.06628]]},"properties":{"name":"Mezenstraat","highway":"residential","maxspeed":"30","vertex1":19311,"vertex2":19309}},{"type":"Feature","geometry":{"type":"LineString","coordinates":[[3.774215,51.06643],[3.77422,51.06648]]},"properties":{"highway":"path","vertex1":19311,"vertex2":19268}},{"type":"Feature","geometry":{"type":"LineString","coordinates":[[3.772645,51.06548],[3.772318,51.06602]]},"properties":{"name":"Boomkruiperstraat","highway":"residential","maxspeed":"30","vertex1":19310,"vertex2":19308}},{"type":"Feature","geometry":{"type":"LineString","coordinates":[[3.772645,51.06548],[3.773077,51.06556],[3.773207,51.06549]]},"properties":{"name":"Valkenstraat","highway":"residential","maxspeed":"30","vertex1":19310,"vertex2":19267}},{"type":"Feature","geometry":{"type":"LineString","coordinates":[[3.772645,51.06548],[3.772706,51.06537]]},"properties":{"name":"Valkenstraat","highway":"residential","maxspeed":"30","vertex1":19310,"vertex2":19277}},{"type":"Feature","geometry":{"type":"LineString","coordinates":[[3.773956,51.06628],[3.773388,51.06617]]},"properties":{"name":"Mezenstraat","highway":"residential","maxspeed":"30","vertex1":19309,"vertex2":19283}},{"type":"Feature","geometry":{"type":"LineString","coordinates":[[3.773956,51.06628],[3.774259,51.06635]]},"properties":{"name":"Mezenstraat","highway":"residential","maxspeed":"30","vertex1":19309,"vertex2":19271}},{"type":"Feature","geometry":{"type":"LineString","coordinates":[[3.775501,51.06732],[3.776431,51.0671]]},"properties":{"name":"Westveldstraat","highway":"residential","maxspeed":"30","vertex1":19305,"vertex2":19281}},{"type":"Feature","geometry":{"type":"LineString","coordinates":[[3.775501,51.06732],[3.775571,51.06762],[3.776124,51.0692]]},"properties":{"name":"Schuurstraat","maxspeed":"50","highway":"residential","vertex1":19305,"vertex2":19264}},{"type":"Feature","geometry":{"type":"LineString","coordinates":[[3.77462,51.06689],[3.774703,51.06656],[3.77422,51.06648]]},"properties":{"highway":"path","vertex1":19304,"vertex2":19268}},{"type":"Feature","geometry":{"type":"LineString","coordinates":[[3.773584,51.06557],[3.773207,51.06549]]},"properties":{"name":"Valkenstraat","highway":"residential","maxspeed":"30","vertex1":19303,"vertex2":19267}},{"type":"Feature","geometry":{"type":"LineString","coordinates":[[3.777966,51.06533],[3.777958,51.06574],[3.77795,51.06601],[3.777943,51.06636]]},"properties":{"name":"Westveldstraat","highway":"residential","maxspeed":"30","vertex1":19302,"vertex2":19300}},{"type":"Feature","geometry":{"type":"LineString","coordinates":[[3.777966,51.06533],[3.782365,51.06633]]},"properties":{"name":"Alfons Braeckmanlaan","highway":"residential","vertex1":19302,"vertex2":19374}},{"type":"Feature","geometry":{"type":"LineString","coordinates":[[3.773718,51.06749],[3.773814,51.06747]]},"properties":{"highway":"path","vertex1":19301,"vertex2":19279}},{"type":"Feature","geometry":{"type":"LineString","coordinates":[[3.777943,51.06636],[3.777102,51.06637]]},"properties":{"highway":"path","vertex1":19300,"vertex2":19273}},{"type":"Feature","geometry":{"type":"LineString","coordinates":[[3.773997,51.06711],[3.774093,51.06683]]},"properties":{"highway":"path","vertex1":19299,"vertex2":19286}},{"type":"Feature","geometry":{"type":"LineString","coordinates":[[3.770275,51.06633],[3.770392,51.06612]]},"properties":{"name":"Heilig Kruisplein","highway":"residential","maxspeed":"30","vertex1":19298,"vertex2":19296}},{"type":"Feature","geometry":{"type":"LineString","coordinates":[[3.770392,51.06612],[3.770719,51.06555]]},"properties":{"name":"Heilig Kruisplein","highway":"residential","maxspeed":"30","vertex1":19296,"vertex2":19294}},{"type":"Feature","geometry":{"type":"LineString","coordinates":[[3.770392,51.06612],[3.770153,51.06599]]},"properties":{"highway":"residential","maxspeed":"30","vertex1":19296,"vertex2":19282}},{"type":"Feature","geometry":{"type":"LineString","coordinates":[[3.769994,51.06894],[3.771583,51.06929]]},"properties":{"name":"Hippodroomlaan","highway":"residential","maxspeed":"30","vertex1":19295,"vertex2":19345}},{"type":"Feature","geometry":{"type":"LineString","coordinates":[[3.771583,51.06929],[3.772843,51.06689]]},"properties":{"name":"Gustaaf Carelshof","highway":"residential","maxspeed":"30","vertex1":19345,"vertex2":19269}},{"type":"Feature","geometry":{"type":"LineString","coordinates":[[3.770719,51.06555],[3.771087,51.06493]]},"properties":{"name":"Heilig Kruisplein","highway":"residential","maxspeed":"30","vertex1":19294,"vertex2":19292}},{"type":"Feature","geometry":{"type":"LineString","coordinates":[[3.770719,51.06555],[3.770438,51.06556],[3.770328,51.0656],[3.770128,51.06594],[3.770153,51.06599]]},"properties":{"highway":"residential","maxspeed":"30","vertex1":19294,"vertex2":19282}},{"type":"Feature","geometry":{"type":"LineString","coordinates":[[3.771087,51.06493],[3.771764,51.06474],[3.771872,51.06467]]},"properties":{"name":"Jozef Goossenaertstraat","highway":"residential","maxspeed":"30","vertex1":19292,"vertex2":19290}},{"type":"Feature","geometry":{"type":"LineString","coordinates":[[3.771087,51.06493],[3.770924,51.0649],[3.770156,51.0647]]},"properties":{"name":"Jozef Goossenaertstraat","highway":"residential","maxspeed":"30","vertex1":19292,"vertex2":19288}},{"type":"Feature","geometry":{"type":"LineString","coordinates":[[3.770156,51.0647],[3.769778,51.0652],[3.769692,51.06527],[3.76958,51.06531]]},"properties":{"name":"Heilig Kruisplein","highway":"residential","maxspeed":"30","vertex1":19288,"vertex2":19284}},{"type":"Feature","geometry":{"type":"LineString","coordinates":[[3.770156,51.0647],[3.769956,51.06468],[3.769725,51.06461]]},"properties":{"name":"Jozef Goossenaertsstraat","highway":"residential","vertex1":19288,"vertex2":19266}},{"type":"Feature","geometry":{"type":"LineString","coordinates":[[3.774093,51.06683],[3.77422,51.06648]]},"properties":{"highway":"path","vertex1":19286,"vertex2":19268}},{"type":"Feature","geometry":{"type":"LineString","coordinates":[[3.76958,51.06531],[3.769605,51.06538],[3.769581,51.06547],[3.769475,51.06554],[3.769261,51.06554]]},"properties":{"name":"Heilig Kruisplein","highway":"residential","maxspeed":"30","vertex1":19284,"vertex2":19278}},{"type":"Feature","geometry":{"type":"LineString","coordinates":[[3.76958,51.06531],[3.769421,51.06526]]},"properties":{"name":"Heilig Kruisplein","highway":"residential","vertex1":19284,"vertex2":19274}},{"type":"Feature","geometry":{"type":"LineString","coordinates":[[3.768978,51.06609],[3.769261,51.06554]]},"properties":{"name":"Heilig Kruisplein","highway":"residential","maxspeed":"30","vertex1":19280,"vertex2":19278}},{"type":"Feature","geometry":{"type":"LineString","coordinates":[[3.768978,51.06609],[3.76749,51.06606],[3.767205,51.06606]]},"properties":{"name":"Heiveldstraat","maxspeed":"50","highway":"residential","vertex1":19280,"vertex2":19037}},{"type":"Feature","geometry":{"type":"LineString","coordinates":[[3.769261,51.06554],[3.769421,51.06526]]},"properties":{"name":"Heilig Kruisplein","highway":"residential","maxspeed":"30","vertex1":19278,"vertex2":19274}},{"type":"Feature","geometry":{"type":"LineString","coordinates":[[3.772706,51.06537],[3.773207,51.06549]]},"properties":{"name":"Valkenstraat","highway":"residential","maxspeed":"30","vertex1":19277,"vertex2":19267}},{"type":"Feature","geometry":{"type":"LineString","coordinates":[[3.769421,51.06526],[3.769692,51.0647],[3.769725,51.06461]]},"properties":{"name":"Heilig Kruisplein","highway":"residential","maxspeed":"30","vertex1":19274,"vertex2":19266}},{"type":"Feature","geometry":{"type":"LineString","coordinates":[[3.777102,51.06637],[3.777062,51.0663]]},"properties":{"name":"Parkietstraat","highway":"residential","maxspeed":"30","vertex1":19273,"vertex2":19265}},{"type":"Feature","geometry":{"type":"LineString","coordinates":[[3.774259,51.06635],[3.774325,51.06632],[3.774657,51.06568]]},"properties":{"name":"Pimpelmeesstraat","highway":"residential","maxspeed":"30","vertex1":19271,"vertex2":19261}},{"type":"Feature","geometry":{"type":"LineString","coordinates":[[3.761015,51.06683],[3.761364,51.06696]]},"properties":{"highway":"service","vertex1":19109,"vertex2":19086}},{"type":"Feature","geometry":{"type":"LineString","coordinates":[[3.761015,51.06683],[3.760794,51.06706]]},"properties":{"highway":"service","vertex1":19109,"vertex2":19058}},{"type":"Feature","geometry":{"type":"LineString","coordinates":[[3.761015,51.06683],[3.7613,51.06652],[3.761649,51.06665]]},"properties":{"highway":"service","vertex1":19109,"vertex2":19108}},{"type":"Feature","geometry":{"type":"LineString","coordinates":[[3.761649,51.06665],[3.761482,51.06683],[3.761364,51.06696]]},"properties":{"highway":"service","vertex1":19108,"vertex2":19086}},{"type":"Feature","geometry":{"type":"LineString","coordinates":[[3.761649,51.06665],[3.761702,51.0666]]},"properties":{"highway":"service","vertex1":19108,"vertex2":19107}},{"type":"Feature","geometry":{"type":"LineString","coordinates":[[3.761649,51.06665],[3.761846,51.06673]]},"properties":{"highway":"service","vertex1":19108,"vertex2":19101}},{"type":"Feature","geometry":{"type":"LineString","coordinates":[[3.762827,51.06776],[3.762963,51.06781],[3.762998,51.06784],[3.763027,51.06787],[3.763069,51.06804],[3.7631,51.06808],[3.763147,51.0681],[3.76335,51.06818],[3.763405,51.06818],[3.763461,51.06818]]},"properties":{"highway":"service","vertex1":19106,"vertex2":19028}},{"type":"Feature","geometry":{"type":"LineString","coordinates":[[3.761363,51.06724],[3.761312,51.0673]]},"properties":{"highway":"service","vertex1":19105,"vertex2":19046}},{"type":"Feature","geometry":{"type":"LineString","coordinates":[[3.761363,51.06724],[3.76156,51.06703]]},"properties":{"highway":"service","vertex1":19105,"vertex2":19027}},{"type":"Feature","geometry":{"type":"LineString","coordinates":[[3.761363,51.06724],[3.761166,51.06717]]},"properties":{"highway":"service","vertex1":19105,"vertex2":19066}},{"type":"Feature","geometry":{"type":"LineString","coordinates":[[3.766333,51.06613],[3.766279,51.0662]]},"properties":{"name":"Heiveldstraat","highway":"residential","vertex1":19104,"vertex2":19032}},{"type":"Feature","geometry":{"type":"LineString","coordinates":[[3.766333,51.06613],[3.766478,51.0661],[3.766829,51.06606],[3.767037,51.06606]]},"properties":{"name":"Heiveldstraat","highway":"residential","vertex1":19104,"vertex2":19048}},{"type":"Feature","geometry":{"type":"LineString","coordinates":[[3.765557,51.06462],[3.765886,51.06532],[3.765919,51.06538]]},"properties":{"name":"Nieuwelaan","highway":"primary","maxspeed":"70","vertex1":19102,"vertex2":19095}},{"type":"Feature","geometry":{"type":"LineString","coordinates":[[3.761846,51.06673],[3.76168,51.06691],[3.76156,51.06703]]},"properties":{"highway":"service","vertex1":19101,"vertex2":19027}},{"type":"Feature","geometry":{"type":"LineString","coordinates":[[3.761846,51.06673],[3.76199,51.06657]]},"properties":{"highway":"service","vertex1":19101,"vertex2":19099}},{"type":"Feature","geometry":{"type":"LineString","coordinates":[[3.767195,51.06814],[3.7673,51.06835],[3.76744,51.06859],[3.767611,51.06879],[3.767848,51.06905],[3.768155,51.06932]]},"properties":{"name":"Nieuwelaan","highway":"primary","maxspeed":"70","vertex1":19100,"vertex2":19064}},{"type":"Feature","geometry":{"type":"LineString","coordinates":[[3.767195,51.06814],[3.767036,51.06783],[3.766361,51.06638],[3.766279,51.0662]]},"properties":{"name":"Nieuwelaan","highway":"primary","maxspeed":"70","vertex1":19100,"vertex2":19032}},{"type":"Feature","geometry":{"type":"LineString","coordinates":[[3.76199,51.06657],[3.76214,51.06663],[3.762205,51.06668],[3.762267,51.06675],[3.76229,51.06681],[3.76228,51.06687],[3.761984,51.06719]]},"properties":{"highway":"service","vertex1":19099,"vertex2":19070}},{"type":"Feature","geometry":{"type":"LineString","coordinates":[[3.76199,51.06657],[3.761544,51.06641]]},"properties":{"highway":"service","vertex1":19099,"vertex2":19089}},{"type":"Feature","geometry":{"type":"LineString","coordinates":[[3.763874,51.06778],[3.763524,51.06816],[3.763461,51.06818]]},"properties":{"highway":"service","vertex1":19098,"vertex2":19028}},{"type":"Feature","geometry":{"type":"LineString","coordinates":[[3.763874,51.06778],[3.763969,51.06769],[3.763983,51.06763],[3.763954,51.06758],[3.763859,51.06753],[3.763771,51.06747],[3.763739,51.06742],[3.763742,51.06736],[3.763774,51.06731],[3.76382,51.06727],[3.763894,51.06723],[3.764008,51.0672],[3.76422,51.06714],[3.764252,51.06713],[3.764278,51.0671],[3.764292,51.06707],[3.764295,51.06701],[3.764287,51.06696],[3.764259,51.06693],[3.764218,51.0669],[3.76415,51.06686],[3.763342,51.06656],[3.76326,51.06653],[3.763192,51.06653],[3.763117,51.06653],[3.763051,51.06655],[3.762969,51.06658],[3.762912,51.06662],[3.762859,51.06667],[3.762808,51.06672],[3.762768,51.06674],[3.762615,51.06681]]},"properties":{"highway":"path","vertex1":19098,"vertex2":19056}},{"type":"Feature","geometry":{"type":"LineString","coordinates":[[3.762174,51.06778],[3.761919,51.06805]]},"properties":{"highway":"path","vertex1":19096,"vertex2":19073}},{"type":"Feature","geometry":{"type":"LineString","coordinates":[[3.765919,51.06538],[3.766279,51.0662]]},"properties":{"name":"Nieuwelaan","highway":"primary","maxspeed":"70","vertex1":19095,"vertex2":19032}},{"type":"Feature","geometry":{"type":"LineString","coordinates":[[3.761144,51.06719],[3.760794,51.06706]]},"properties":{"highway":"service","vertex1":19094,"vertex2":19058}},{"type":"Feature","geometry":{"type":"LineString","coordinates":[[3.761144,51.06719],[3.761166,51.06717]]},"properties":{"highway":"service","vertex1":19094,"vertex2":19066}},{"type":"Feature","geometry":{"type":"LineString","coordinates":[[3.761144,51.06719],[3.760985,51.06736],[3.760753,51.06728],[3.760661,51.06738]]},"properties":{"highway":"service","vertex1":19094,"vertex2":19040}},{"type":"Feature","geometry":{"type":"LineString","coordinates":[[3.763286,51.06557],[3.763206,51.06572],[3.763098,51.06585],[3.762894,51.06601],[3.762733,51.0661],[3.762458,51.0662],[3.762001,51.06631]]},"properties":{"name":"Quinten Metsijsstraat","highway":"residential","maxspeed":"30","vertex1":19093,"vertex2":19091}},{"type":"Feature","geometry":{"type":"LineString","coordinates":[[3.763286,51.06557],[3.764221,51.06578],[3.765459,51.06606],[3.765971,51.06618],[3.766279,51.0662]]},"properties":{"name":"Heiveldstraat","highway":"residential","maxspeed":"30","vertex1":19093,"vertex2":19032}},{"type":"Feature","geometry":{"type":"LineString","coordinates":[[3.763286,51.06557],[3.763007,51.06549],[3.761378,51.06488]]},"properties":{"name":"Heiveldstraat","highway":"residential","maxspeed":"30","vertex1":19093,"vertex2":19078}},{"type":"Feature","geometry":{"type":"LineString","coordinates":[[3.760543,51.06733],[3.760661,51.06738]]},"properties":{"highway":"service","vertex1":19092,"vertex2":19040}},{"type":"Feature","geometry":{"type":"LineString","coordinates":[[3.760543,51.06733],[3.760415,51.06747]]},"properties":{"highway":"service","vertex1":19092,"vertex2":19081}},{"type":"Feature","geometry":{"type":"LineString","coordinates":[[3.760543,51.06733],[3.760794,51.06706]]},"properties":{"highway":"service","vertex1":19092,"vertex2":19058}},{"type":"Feature","geometry":{"type":"LineString","coordinates":[[3.762001,51.06631],[3.761544,51.06641]]},"properties":{"name":"Quinten Metsijsstraat","highway":"residential","maxspeed":"30","vertex1":19091,"vertex2":19089}},{"type":"Feature","geometry":{"type":"LineString","coordinates":[[3.762001,51.06631],[3.762615,51.06681]]},"properties":{"highway":"service","vertex1":19091,"vertex2":19056}},{"type":"Feature","geometry":{"type":"LineString","coordinates":[[3.761088,51.06754],[3.760661,51.06738]]},"properties":{"highway":"service","vertex1":19090,"vertex2":19040}},{"type":"Feature","geometry":{"type":"LineString","coordinates":[[3.761088,51.06754],[3.760955,51.06768]]},"properties":{"highway":"service","vertex1":19090,"vertex2":19079}},{"type":"Feature","geometry":{"type":"LineString","coordinates":[[3.761088,51.06754],[3.761312,51.0673]]},"properties":{"highway":"service","vertex1":19090,"vertex2":19046}},{"type":"Feature","geometry":{"type":"LineString","coordinates":[[3.761544,51.06641],[3.760778,51.06658],[3.760468,51.06661],[3.760228,51.0666],[3.760056,51.06657]]},"properties":{"name":"Quinten Metsijsstraat","highway":"residential","maxspeed":"30","vertex1":19089,"vertex2":19042}},{"type":"Feature","geometry":{"type":"LineString","coordinates":[[3.763052,51.06717],[3.762615,51.06681]]},"properties":{"highway":"service","vertex1":19088,"vertex2":19056}},{"type":"Feature","geometry":{"type":"LineString","coordinates":[[3.759973,51.06666],[3.759588,51.06714]]},"properties":{"name":"Zavelput","highway":"residential","maxspeed":"30","vertex1":19087,"vertex2":19038}},{"type":"Feature","geometry":{"type":"LineString","coordinates":[[3.759973,51.06666],[3.760056,51.06657]]},"properties":{"name":"Zavelput","highway":"residential","maxspeed":"30","vertex1":19087,"vertex2":19042}},{"type":"Feature","geometry":{"type":"LineString","coordinates":[[3.759973,51.06666],[3.759576,51.0665],[3.759318,51.06636],[3.759142,51.0662],[3.759148,51.06601],[3.75925,51.06583]]},"properties":{"name":"Palmendreef","highway":"residential","maxspeed":"30","vertex1":19087,"vertex2":19067}},{"type":"Feature","geometry":{"type":"LineString","coordinates":[[3.761364,51.06696],[3.76156,51.06703]]},"properties":{"highway":"service","vertex1":19086,"vertex2":19027}},{"type":"Feature","geometry":{"type":"LineString","coordinates":[[3.761364,51.06696],[3.761166,51.06717]]},"properties":{"highway":"service","vertex1":19086,"vertex2":19066}},{"type":"Feature","geometry":{"type":"LineString","coordinates":[[3.759269,51.06874],[3.759496,51.06844],[3.760005,51.06769]]},"properties":{"name":"Sint-Dorotheastraat","highway":"residential","vertex1":19084,"vertex2":19054}},{"type":"Feature","geometry":{"type":"LineString","coordinates":[[3.759269,51.06874],[3.759159,51.06889],[3.758353,51.06951]]},"properties":{"name":"Sint-Dorotheastraat","highway":"residential","vertex1":19084,"vertex2":19044}},{"type":"Feature","geometry":{"type":"LineString","coordinates":[[3.759269,51.06874],[3.757174,51.06799]]},"properties":{"name":"Isidoor De Vosstraat","highway":"residential","vertex1":19084,"vertex2":18999}},{"type":"Feature","geometry":{"type":"LineString","coordinates":[[3.757174,51.06799],[3.756983,51.06789],[3.756926,51.06784],[3.756884,51.06778]]},"properties":{"name":"Isidoor De Vosstraat","highway":"residential","vertex1":18999,"vertex2":19025}},{"type":"Feature","geometry":{"type":"LineString","coordinates":[[3.759897,51.06726],[3.760212,51.06739],[3.760372,51.06745],[3.760415,51.06747]]},"properties":{"name":"Antwerpsesteenweg","maxspeed":"50","highway":"secondary","cycleway":"lane","vertex1":19083,"vertex2":19081}},{"type":"Feature","geometry":{"type":"LineString","coordinates":[[3.759897,51.06726],[3.759851,51.06734],[3.760005,51.06769]]},"properties":{"name":"Lijnmolenstraat","highway":"residential","vertex1":19083,"vertex2":19054}},{"type":"Feature","geometry":{"type":"LineString","coordinates":[[3.759897,51.06726],[3.759734,51.0672],[3.759588,51.06714]]},"properties":{"name":"Antwerpsesteenweg","maxspeed":"50","highway":"secondary","cycleway":"lane","vertex1":19083,"vertex2":19038}},{"type":"Feature","geometry":{"type":"LineString","coordinates":[[3.757523,51.06648],[3.756884,51.06778]]},"properties":{"name":"Isidoor De Vosstraat","highway":"residential","vertex1":19082,"vertex2":19025}},{"type":"Feature","geometry":{"type":"LineString","coordinates":[[3.757523,51.06648],[3.758139,51.06663],[3.758859,51.06686],[3.759588,51.06714]]},"properties":{"name":"Antwerpsesteenweg","maxspeed":"50","highway":"secondary","cycleway":"lane","vertex1":19082,"vertex2":19038}},{"type":"Feature","geometry":{"type":"LineString","coordinates":[[3.757523,51.06648],[3.756609,51.06629],[3.755508,51.06612]]},"properties":{"name":"Antwerpsesteenweg","maxspeed":"50","highway":"secondary","cycleway":"lane","vertex1":19082,"vertex2":18952}},{"type":"Feature","geometry":{"type":"LineString","coordinates":[[3.760415,51.06747],[3.760773,51.06761],[3.760955,51.06768]]},"properties":{"name":"Antwerpsesteenweg","maxspeed":"50","highway":"secondary","cycleway":"lane","vertex1":19081,"vertex2":19079}},{"type":"Feature","geometry":{"type":"LineString","coordinates":[[3.766612,51.06616],[3.766843,51.06642],[3.766897,51.06659]]},"properties":{"highway":"cycleway","vertex1":19080,"vertex2":19076}},{"type":"Feature","geometry":{"type":"LineString","coordinates":[[3.766612,51.06616],[3.766837,51.06612],[3.767037,51.06606]]},"properties":{"name":"Heiveldstraat","maxspeed":"50","highway":"residential","vertex1":19080,"vertex2":19048}},{"type":"Feature","geometry":{"type":"LineString","coordinates":[[3.766612,51.06616],[3.76638,51.06622]]},"properties":{"name":"Heiveldstraat","maxspeed":"50","highway":"residential","vertex1":19080,"vertex2":19072}},{"type":"Feature","geometry":{"type":"LineString","coordinates":[[3.760955,51.06768],[3.761907,51.06805],[3.761919,51.06805]]},"properties":{"name":"Antwerpsesteenweg","maxspeed":"50","highway":"secondary","cycleway":"lane","vertex1":19079,"vertex2":19073}},{"type":"Feature","geometry":{"type":"LineString","coordinates":[[3.761378,51.06488],[3.760056,51.06657]]},"properties":{"name":"Zavelput","highway":"residential","maxspeed":"30","vertex1":19078,"vertex2":19042}},{"type":"Feature","geometry":{"type":"LineString","coordinates":[[3.761378,51.06488],[3.760533,51.06457]]},"properties":{"name":"Heiveldstraat","highway":"residential","maxspeed":"30","vertex1":19078,"vertex2":19030}},{"type":"Feature","geometry":{"type":"LineString","coordinates":[[3.762824,51.06833],[3.762794,51.06836]]},"properties":{"highway":"footway","vertex1":19077,"vertex2":19053}},{"type":"Feature","geometry":{"type":"LineString","coordinates":[[3.766897,51.06659],[3.766921,51.06664],[3.767338,51.06726],[3.767425,51.06733],[3.767571,51.06741],[3.767841,51.06747]]},"properties":{"name":"Sulkystraat","highway":"residential","maxspeed":"30","vertex1":19076,"vertex2":19036}},{"type":"Feature","geometry":{"type":"LineString","coordinates":[[3.764599,51.06847],[3.764274,51.06888]]},"properties":{"name":"Everstraat","highway":"residential","maxspeed":"30","vertex1":19074,"vertex2":19026}},{"type":"Feature","geometry":{"type":"LineString","coordinates":[[3.764599,51.06847],[3.764656,51.0684],[3.764692,51.06833],[3.764764,51.06791],[3.76484,51.06776],[3.765485,51.06699],[3.765655,51.06684],[3.766094,51.06632],[3.766279,51.0662]]},"properties":{"name":"Everstraat","highway":"residential","maxspeed":"30","vertex1":19074,"vertex2":19032}},{"type":"Feature","geometry":{"type":"LineString","coordinates":[[3.764599,51.06847],[3.764038,51.06825]]},"properties":{"highway":"service","vertex1":19074,"vertex2":19052}},{"type":"Feature","geometry":{"type":"LineString","coordinates":[[3.761919,51.06805],[3.762064,51.0681]]},"properties":{"name":"Antwerpsesteenweg","maxspeed":"50","highway":"secondary","cycleway":"lane","vertex1":19073,"vertex2":19071}},{"type":"Feature","geometry":{"type":"LineString","coordinates":[[3.76638,51.06622],[3.766279,51.0662]]},"properties":{"name":"Heiveldstraat","maxspeed":"50","highway":"residential","vertex1":19072,"vertex2":19032}},{"type":"Feature","geometry":{"type":"LineString","coordinates":[[3.762064,51.0681],[3.762114,51.06812]]},"properties":{"name":"Antwerpsesteenweg","maxspeed":"50","highway":"secondary","cycleway":"lane","vertex1":19071,"vertex2":19069}},{"type":"Feature","geometry":{"type":"LineString","coordinates":[[3.762064,51.0681],[3.761745,51.06845],[3.76146,51.0688],[3.761272,51.06894],[3.760812,51.06909]]},"properties":{"name":"Georges Wibierdreef","highway":"residential","vertex1":19071,"vertex2":19050}},{"type":"Feature","geometry":{"type":"LineString","coordinates":[[3.760812,51.06909],[3.76061,51.06887],[3.760494,51.06875],[3.760298,51.06836],[3.760005,51.06769]]},"properties":{"name":"Lijnmolenstraat","highway":"residential","vertex1":19050,"vertex2":19054}},{"type":"Feature","geometry":{"type":"LineString","coordinates":[[3.761984,51.06719],[3.76156,51.06703]]},"properties":{"highway":"service","vertex1":19070,"vertex2":19027}},{"type":"Feature","geometry":{"type":"LineString","coordinates":[[3.761984,51.06719],[3.761736,51.06745]]},"properties":{"highway":"service","vertex1":19070,"vertex2":19068}},{"type":"Feature","geometry":{"type":"LineString","coordinates":[[3.762114,51.06812],[3.762794,51.06836]]},"properties":{"name":"Antwerpsesteenweg","maxspeed":"50","highway":"secondary","cycleway":"lane","vertex1":19069,"vertex2":19053}},{"type":"Feature","geometry":{"type":"LineString","coordinates":[[3.762114,51.06812],[3.762192,51.06804],[3.762314,51.06791],[3.76335,51.0683]]},"properties":{"highway":"service","vertex1":19069,"vertex2":19060}},{"type":"Feature","geometry":{"type":"LineString","coordinates":[[3.761736,51.06745],[3.761312,51.0673]]},"properties":{"highway":"service","vertex1":19068,"vertex2":19046}},{"type":"Feature","geometry":{"type":"LineString","coordinates":[[3.761736,51.06745],[3.761961,51.06754]]},"properties":{"highway":"service","vertex1":19068,"vertex2":19034}},{"type":"Feature","geometry":{"type":"LineString","coordinates":[[3.75925,51.06583],[3.759545,51.06539]]},"properties":{"name":"Palmendreef","highway":"residential","maxspeed":"30","vertex1":19067,"vertex2":19065}},{"type":"Feature","geometry":{"type":"LineString","coordinates":[[3.75925,51.06583],[3.75903,51.06577],[3.758731,51.06567],[3.758451,51.06553],[3.758355,51.06537],[3.758392,51.06509]]},"properties":{"name":"Palmendreef","highway":"residential","maxspeed":"30","vertex1":19067,"vertex2":19059}},{"type":"Feature","geometry":{"type":"LineString","coordinates":[[3.759545,51.06539],[3.759638,51.06527]]},"properties":{"name":"Palmendreef","highway":"residential","maxspeed":"30","vertex1":19065,"vertex2":19063}},{"type":"Feature","geometry":{"type":"LineString","coordinates":[[3.759545,51.06539],[3.759638,51.06541]]},"properties":{"name":"Palmendreef","highway":"residential","maxspeed":"30","vertex1":19065,"vertex2":19061}},{"type":"Feature","geometry":{"type":"LineString","coordinates":[[3.759638,51.06527],[3.75973,51.06522],[3.759831,51.06523],[3.75989,51.06525],[3.759941,51.0653],[3.75987,51.06538],[3.759789,51.0654],[3.759638,51.06541]]},"properties":{"name":"Palmendreef","highway":"residential","maxspeed":"30","vertex1":19063,"vertex2":19061}},{"type":"Feature","geometry":{"type":"LineString","coordinates":[[3.767836,51.06748],[3.767841,51.06747]]},"properties":{"name":"Hippodroomlaan","highway":"residential","maxspeed":"30","vertex1":19062,"vertex2":19036}},{"type":"Feature","geometry":{"type":"LineString","coordinates":[[3.76335,51.0683],[3.763461,51.06818]]},"properties":{"highway":"service","vertex1":19060,"vertex2":19028}},{"type":"Feature","geometry":{"type":"LineString","coordinates":[[3.76335,51.0683],[3.763212,51.06843],[3.763194,51.06845],[3.763152,51.06849]]},"properties":{"highway":"service","vertex1":19060,"vertex2":19029}},{"type":"Feature","geometry":{"type":"LineString","coordinates":[[3.758392,51.06509],[3.75837,51.06503]]},"properties":{"name":"Palmendreef","highway":"residential","maxspeed":"30","vertex1":19059,"vertex2":19057}},{"type":"Feature","geometry":{"type":"LineString","coordinates":[[3.758392,51.06509],[3.758474,51.06511]]},"properties":{"name":"Palmendreef","highway":"residential","maxspeed":"30","vertex1":19059,"vertex2":19055}},{"type":"Feature","geometry":{"type":"LineString","coordinates":[[3.75837,51.06503],[3.758404,51.06496],[3.758502,51.06492],[3.758595,51.06495],[3.758637,51.06501],[3.758569,51.0651],[3.758474,51.06511]]},"properties":{"name":"Palmendreef","highway":"residential","maxspeed":"30","vertex1":19057,"vertex2":19055}},{"type":"Feature","geometry":{"type":"LineString","coordinates":[[3.762794,51.06836],[3.762913,51.06841]]},"properties":{"name":"Antwerpsesteenweg","maxspeed":"50","highway":"secondary","cycleway":"lane","vertex1":19053,"vertex2":19031}},{"type":"Feature","geometry":{"type":"LineString","coordinates":[[3.767037,51.06606],[3.767205,51.06606]]},"properties":{"name":"Heiveldstraat","maxspeed":"50","highway":"residential","vertex1":19048,"vertex2":19037}},{"type":"Feature","geometry":{"type":"LineString","coordinates":[[3.765672,51.06817],[3.765292,51.06864],[3.765268,51.06867],[3.7649,51.0691]]},"properties":{"bicycle":"no","motorcar":"no","foot":"no","highway":"service","vertex1":19047,"vertex2":19075}},{"type":"Feature","geometry":{"type":"LineString","coordinates":[[3.7649,51.0691],[3.764772,51.06906],[3.764274,51.06888]]},"properties":{"name":"Antwerpsesteenweg","maxspeed":"50","highway":"secondary","cycleway":"lane","vertex1":19075,"vertex2":19026}},{"type":"Feature","geometry":{"type":"LineString","coordinates":[[3.762913,51.06841],[3.762992,51.06843],[3.763152,51.06849]]},"properties":{"name":"Antwerpsesteenweg","maxspeed":"50","highway":"secondary","cycleway":"lane","vertex1":19031,"vertex2":19029}},{"type":"Feature","geometry":{"type":"LineString","coordinates":[[3.762913,51.06841],[3.762889,51.06843],[3.762751,51.0686],[3.762714,51.06864],[3.762726,51.06868],[3.762776,51.06872],[3.762782,51.06881],[3.762579,51.06903]]},"properties":{"bicycle":"no","motorcar":"no","foot":"no","highway":"service","vertex1":19031,"vertex2":19103}},{"type":"Feature","geometry":{"type":"LineString","coordinates":[[3.763152,51.06849],[3.763258,51.06852],[3.763886,51.06874],[3.764274,51.06888]]},"properties":{"name":"Antwerpsesteenweg","maxspeed":"50","highway":"secondary","cycleway":"lane","vertex1":19029,"vertex2":19026}},{"type":"Feature","geometry":{"type":"LineString","coordinates":[[3.764274,51.06888],[3.762356,51.0702]]},"properties":{"name":"Emiel Maeyensstraat","highway":"residential","vertex1":19026,"vertex2":19138}}]}