{"type":"FeatureCollection","features":[{"type":"Feature","geometry":{"type":"LineString","coordinates":[[3.757324,51.05521],[3.779297,51.05521],[3.779297,51.04139],[3.757324,51.04139],[3.757324,51.05521]]},"properties":{"id":"89809067","zoom":"14"}},{"type":"Feature","geometry":{"type":"LineString","coordinates":[[3.758227,51.0418],[3.757923,51.04223]]},"properties":{"name":"Racingstraat","highway":"residential","vertex1":7111,"vertex2":7087}},{"type":"Feature","geometry":{"type":"LineString","coordinates":[[3.758227,51.0418],[3.758285,51.04175]]},"properties":{"bicycle":"no","motorcar":"no","foot":"no","highway":"service","vertex1":7111,"vertex2":7107}},{"type":"Feature","geometry":{"type":"LineString","coordinates":[[3.758285,51.04175],[3.75781,51.04154],[3.757553,51.04137],[3.757523,51.04126],[3.75755,51.04114],[3.757542,51.04105],[3.757548,51.0409],[3.757655,51.04081],[3.757797,51.04077],[3.758213,51.04077],[3.758373,51.04073],[3.758484,51.04063],[3.7585,51.04042]]},"properties":{"bicycle":"no","motorcar":"no","foot":"no","highway":"service","vertex1":7107,"vertex2":7098}},{"type":"Feature","geometry":{"type":"LineString","coordinates":[[3.758285,51.04175],[3.758334,51.0417],[3.758792,51.0419],[3.758665,51.04201],[3.759184,51.04223]]},"properties":{"bicycle":"no","motorcar":"no","foot":"no","highway":"service","vertex1":7107,"vertex2":7031}},{"type":"Feature","geometry":{"type":"LineString","coordinates":[[3.762847,51.0416],[3.762948,51.04111]]},"properties":{"name":"Jules Mac Leodstraat","highway":"residential","maxspeed":"30","vertex1":7097,"vertex2":7029}},{"type":"Feature","geometry":{"type":"LineString","coordinates":[[3.762847,51.0416],[3.762679,51.04223]]},"properties":{"name":"Jules Mac Leodstraat","highway":"residential","maxspeed":"30","vertex1":7097,"vertex2":7051}},{"type":"Feature","geometry":{"type":"LineString","coordinates":[[3.762847,51.0416],[3.763779,51.04169],[3.763862,51.04168],[3.763944,51.04163],[3.764242,51.04089],[3.764378,51.04061]]},"properties":{"name":"Jan Delorilaan","highway":"residential","maxspeed":"30","vertex1":7097,"vertex2":7033}},{"type":"Feature","geometry":{"type":"LineString","coordinates":[[3.762847,51.0416],[3.762259,51.04154],[3.761985,51.04142],[3.761874,51.04138]]},"properties":{"highway":"footway","vertex1":7097,"vertex2":7085}},{"type":"Feature","geometry":{"type":"LineString","coordinates":[[3.764378,51.04061],[3.764744,51.0407]]},"properties":{"name":"Voordries","highway":"residential","maxspeed":"30","vertex1":7033,"vertex2":7025}},{"type":"Feature","geometry":{"type":"LineString","coordinates":[[3.761874,51.04138],[3.761761,51.04149],[3.761626,51.04211],[3.761691,51.04214],[3.762679,51.04223]]},"properties":{"name":"Armand Lonquestraat","highway":"residential","maxspeed":"30","vertex1":7085,"vertex2":7051}},{"type":"Feature","geometry":{"type":"LineString","coordinates":[[3.757923,51.04223],[3.759274,51.0432]]},"properties":{"name":"Jef Vandermeulenstraat","oneway":"yes","highway":"residential","maxspeed":"30","vertex1":7087,"vertex2":6698}},{"type":"Feature","geometry":{"type":"LineString","coordinates":[[3.757923,51.04223],[3.756034,51.04083]]},"properties":{"name":"Jef Vandermeulenstraat","oneway":"yes","highway":"residential","maxspeed":"30","vertex1":7087,"vertex2":8229}},{"type":"Feature","geometry":{"type":"LineString","coordinates":[[3.762679,51.04223],[3.762533,51.04279]]},"properties":{"name":"Jules Mac Leodstraat","highway":"residential","maxspeed":"30","vertex1":7051,"vertex2":6735}},{"type":"Feature","geometry":{"type":"LineString","coordinates":[[3.763413,51.04248],[3.763293,51.04268],[3.763121,51.04279],[3.762982,51.04293]]},"properties":{"highway":"service","vertex1":7024,"vertex2":6753}},{"type":"Feature","geometry":{"type":"LineString","coordinates":[[3.763413,51.04248],[3.763482,51.04248]]},"properties":{"highway":"service","vertex1":7024,"vertex2":6752}},{"type":"Feature","geometry":{"type":"LineString","coordinates":[[3.763413,51.04248],[3.763225,51.04243]]},"properties":{"highway":"service","vertex1":7024,"vertex2":7018}},{"type":"Feature","geometry":{"type":"LineString","coordinates":[[3.763595,51.04227],[3.763482,51.04248]]},"properties":{"highway":"service","vertex1":7022,"vertex2":6752}},{"type":"Feature","geometry":{"type":"LineString","coordinates":[[3.763333,51.04225],[3.763225,51.04243]]},"properties":{"highway":"service","vertex1":7020,"vertex2":7018}},{"type":"Feature","geometry":{"type":"LineString","coordinates":[[3.763872,51.04232],[3.76372,51.04254]]},"properties":{"highway":"service","vertex1":7014,"vertex2":6714}},{"type":"Feature","geometry":{"type":"LineString","coordinates":[[3.768912,51.04202],[3.769272,51.04248],[3.76966,51.0428],[3.770946,51.04349]]},"properties":{"name":"De GuchteneÃ«restraat","highway":"residential","maxspeed":"30","vertex1":7007,"vertex2":6864}},{"type":"Feature","geometry":{"type":"LineString","coordinates":[[3.768912,51.04202],[3.768314,51.04205]]},"properties":{"name":"Achterdries","oneway":"yes","highway":"residential","vertex1":7007,"vertex2":6930}},{"type":"Feature","geometry":{"type":"LineString","coordinates":[[3.768912,51.04202],[3.768446,51.04185]]},"properties":{"name":"Voordries","highway":"residential","maxspeed":"30","vertex1":7007,"vertex2":6932}},{"type":"Feature","geometry":{"type":"LineString","coordinates":[[3.768912,51.04202],[3.769371,51.04203]]},"properties":{"name":"Emiel Van Swedenlaan","maxspeed":"50","highway":"residential","vertex1":7007,"vertex2":6906}},{"type":"Feature","geometry":{"type":"LineString","coordinates":[[3.774285,51.04205],[3.774294,51.0421],[3.774487,51.04234],[3.774477,51.0424],[3.77382,51.04271],[3.773746,51.04272]]},"properties":{"name":"Groeningestraat","highway":"residential","maxspeed":"30","vertex1":6992,"vertex2":6872}},{"type":"Feature","geometry":{"type":"LineString","coordinates":[[3.774285,51.04205],[3.773807,51.04235]]},"properties":{"name":"Groeningestraat","highway":"residential","maxspeed":"30","vertex1":6992,"vertex2":6898}},{"type":"Feature","geometry":{"type":"LineString","coordinates":[[3.774285,51.04205],[3.774852,51.04165]]},"properties":{"name":"Groeningestraat","highway":"residential","maxspeed":"30","vertex1":6992,"vertex2":6991}},{"type":"Feature","geometry":{"type":"LineString","coordinates":[[3.774285,51.04205],[3.774016,51.0419],[3.773703,51.04172]]},"properties":{"highway":"footway","vertex1":6992,"vertex2":6928}},{"type":"Feature","geometry":{"type":"LineString","coordinates":[[3.774852,51.04165],[3.775508,51.04239],[3.776013,51.04309],[3.776058,51.04316],[3.776096,51.04322],[3.776145,51.04333]]},"properties":{"name":"Hoogoeverstraat","highway":"unclassified","vertex1":6991,"vertex2":6857}},{"type":"Feature","geometry":{"type":"LineString","coordinates":[[3.774852,51.04165],[3.774722,51.04147],[3.774673,51.04141],[3.774652,51.04139],[3.774559,51.04131]]},"properties":{"name":"Hoogoeverstraat","highway":"unclassified","vertex1":6991,"vertex2":6907}},{"type":"Feature","geometry":{"type":"LineString","coordinates":[[3.774559,51.04131],[3.774383,51.0413]]},"properties":{"name":"Boer Janssensstraat","oneway":"yes","highway":"residential","maxspeed":"30","vertex1":6907,"vertex2":6993}},{"type":"Feature","geometry":{"type":"LineString","coordinates":[[3.771645,51.04158],[3.770736,51.04093]]},"properties":{"name":"Philippe van de Veldehof","highway":"residential","maxspeed":"30","vertex1":6984,"vertex2":6982}},{"type":"Feature","geometry":{"type":"LineString","coordinates":[[3.771645,51.04158],[3.772614,51.04115]]},"properties":{"name":"Emiel Van Swedenlaan","maxspeed":"50","highway":"residential","vertex1":6984,"vertex2":6916}},{"type":"Feature","geometry":{"type":"LineString","coordinates":[[3.771645,51.04158],[3.77156,51.04162]]},"properties":{"name":"Emiel Van Swedenlaan","maxspeed":"50","highway":"residential","vertex1":6984,"vertex2":6922}},{"type":"Feature","geometry":{"type":"LineString","coordinates":[[3.770736,51.04093],[3.76968,51.04148],[3.769469,51.04151]]},"properties":{"name":"Philippe van de Veldehof","highway":"residential","maxspeed":"30","vertex1":6982,"vertex2":6942}},{"type":"Feature","geometry":{"type":"LineString","coordinates":[[3.773235,51.04201],[3.773549,51.0422],[3.773807,51.04235]]},"properties":{"highway":"footway","vertex1":6956,"vertex2":6898}},{"type":"Feature","geometry":{"type":"LineString","coordinates":[[3.773235,51.04201],[3.772533,51.04244]]},"properties":{"name":"Jules Van Biesbroeckstraat","highway":"residential","maxspeed":"30","vertex1":6956,"vertex2":6949}},{"type":"Feature","geometry":{"type":"LineString","coordinates":[[3.773235,51.04201],[3.773703,51.04172]]},"properties":{"name":"Jules Van Biesbroeckstraat","highway":"residential","maxspeed":"30","vertex1":6956,"vertex2":6928}},{"type":"Feature","geometry":{"type":"LineString","coordinates":[[3.772533,51.04244],[3.772858,51.04272]]},"properties":{"name":"Leeuw Van Vlaanderenstraat","highway":"residential","maxspeed":"30","vertex1":6949,"vertex2":6862}},{"type":"Feature","geometry":{"type":"LineString","coordinates":[[3.772533,51.04244],[3.77156,51.04162]]},"properties":{"name":"Leeuw Van Vlaanderenstraat","highway":"residential","maxspeed":"30","vertex1":6949,"vertex2":6922}},{"type":"Feature","geometry":{"type":"LineString","coordinates":[[3.772533,51.04244],[3.770946,51.04349]]},"properties":{"name":"Jules Van Biesbroeckstraat","highway":"residential","maxspeed":"30","vertex1":6949,"vertex2":6864}},{"type":"Feature","geometry":{"type":"LineString","coordinates":[[3.769469,51.04151],[3.769414,51.04163],[3.769393,51.04169],[3.769371,51.04203]]},"properties":{"highway":"footway","vertex1":6942,"vertex2":6906}},{"type":"Feature","geometry":{"type":"LineString","coordinates":[[3.768446,51.04185],[3.768314,51.04205]]},"properties":{"name":"Achterdries","oneway":"yes","highway":"residential","vertex1":6932,"vertex2":6930}},{"type":"Feature","geometry":{"type":"LineString","coordinates":[[3.768446,51.04185],[3.766633,51.04124],[3.764744,51.0407]]},"properties":{"name":"Voordries","highway":"residential","maxspeed":"30","vertex1":6932,"vertex2":7025}},{"type":"Feature","geometry":{"type":"LineString","coordinates":[[3.768314,51.04205],[3.767904,51.04213],[3.767055,51.04256]]},"properties":{"name":"Achterdries","highway":"residential","maxspeed":"30","vertex1":6930,"vertex2":6702}},{"type":"Feature","geometry":{"type":"LineString","coordinates":[[3.773703,51.04172],[3.774272,51.04136],[3.774383,51.0413]]},"properties":{"name":"Jules Van Biesbroeckstraat","highway":"residential","maxspeed":"30","vertex1":6928,"vertex2":6993}},{"type":"Feature","geometry":{"type":"LineString","coordinates":[[3.77156,51.04162],[3.770548,51.04202],[3.770286,51.04205],[3.769371,51.04203]]},"properties":{"name":"Emiel Van Swedenlaan","maxspeed":"50","highway":"residential","vertex1":6922,"vertex2":6906}},{"type":"Feature","geometry":{"type":"LineString","coordinates":[[3.773807,51.04235],[3.773578,51.0425],[3.773588,51.04251]]},"properties":{"name":"Groeningestraat","highway":"residential","maxspeed":"30","vertex1":6898,"vertex2":6847}},{"type":"Feature","geometry":{"type":"LineString","coordinates":[[3.770828,51.04589],[3.770252,51.0463]]},"properties":{"maxspeed":"30","highway":"footway","vertex1":6880,"vertex2":6842}},{"type":"Feature","geometry":{"type":"LineString","coordinates":[[3.770828,51.04589],[3.771891,51.04522]]},"properties":{"maxspeed":"30","highway":"footway","vertex1":6880,"vertex2":6856}},{"type":"Feature","geometry":{"type":"LineString","coordinates":[[3.770828,51.04589],[3.771353,51.04623],[3.771677,51.04644],[3.771944,51.04657]]},"properties":{"name":"Bosakker","highway":"residential","maxspeed":"30","vertex1":6880,"vertex2":6876}},{"type":"Feature","geometry":{"type":"LineString","coordinates":[[3.773422,51.0432],[3.773125,51.04295]]},"properties":{"name":"Leeuw Van Vlaanderenstraat","highway":"residential","maxspeed":"30","vertex1":6879,"vertex2":6874}},{"type":"Feature","geometry":{"type":"LineString","coordinates":[[3.773422,51.0432],[3.774225,51.04384]]},"properties":{"highway":"track","vertex1":6879,"vertex2":6851}},{"type":"Feature","geometry":{"type":"LineString","coordinates":[[3.771734,51.04727],[3.771808,51.04815]]},"properties":{"name":"Emiel Claeyslaan","highway":"residential","maxspeed":"30","vertex1":6878,"vertex2":6832}},{"type":"Feature","geometry":{"type":"LineString","coordinates":[[3.771734,51.04727],[3.77172,51.04703],[3.77179,51.04682]]},"properties":{"name":"Emiel Claeyslaan","highway":"residential","maxspeed":"30","vertex1":6878,"vertex2":6866}},{"type":"Feature","geometry":{"type":"LineString","coordinates":[[3.771734,51.04727],[3.770237,51.04713],[3.768673,51.04697]]},"properties":{"name":"Oudekouter","highway":"residential","maxspeed":"30","vertex1":6878,"vertex2":6859}},{"type":"Feature","geometry":{"type":"LineString","coordinates":[[3.776907,51.04414],[3.777033,51.04419],[3.777204,51.04422],[3.777386,51.04425],[3.777658,51.04428],[3.777813,51.04428],[3.777993,51.04428],[3.778122,51.04428],[3.778318,51.04425],[3.778589,51.04421],[3.779133,51.04411],[3.779377,51.04405],[3.779589,51.04397],[3.780308,51.04366],[3.780706,51.04347],[3.780886,51.04342],[3.781044,51.04339],[3.781247,51.04336],[3.781457,51.04335],[3.781613,51.04335],[3.781748,51.04337],[3.781902,51.04341],[3.782015,51.04345],[3.782352,51.04362],[3.78261,51.04375],[3.782933,51.04389],[3.783506,51.04409],[3.783577,51.04412]]},"properties":{"name":"Oude Scheldeweg","highway":"unclassified","vertex1":6877,"vertex2":5125}},{"type":"Feature","geometry":{"type":"LineString","coordinates":[[3.776907,51.04414],[3.776811,51.04411],[3.776741,51.04408],[3.776639,51.04402],[3.776553,51.04395],[3.776452,51.04385],[3.77635,51.04374],[3.776285,51.04363],[3.776219,51.0435],[3.776171,51.0434],[3.776145,51.04333]]},"properties":{"name":"Oude Scheldeweg","highway":"unclassified","vertex1":6877,"vertex2":6857}},{"type":"Feature","geometry":{"type":"LineString","coordinates":[[3.776907,51.04414],[3.776893,51.04438]]},"properties":{"highway":"unclassified","vertex1":6877,"vertex2":6865}},{"type":"Feature","geometry":{"type":"LineString","coordinates":[[3.783577,51.04412],[3.78359,51.04419],[3.78354,51.04428],[3.783326,51.04456],[3.783224,51.04474],[3.783166,51.04485],[3.783142,51.04494],[3.783115,51.0451],[3.783139,51.04525],[3.783182,51.04536],[3.783305,51.04559],[3.783415,51.04573]]},"properties":{"name":"Oude Scheldeweg","highway":"unclassified","vertex1":5125,"vertex2":5134}},{"type":"Feature","geometry":{"type":"LineString","coordinates":[[3.771944,51.04657],[3.771853,51.04668],[3.77179,51.04682]]},"properties":{"name":"Emiel Claeyslaan","highway":"residential","maxspeed":"30","vertex1":6876,"vertex2":6866}},{"type":"Feature","geometry":{"type":"LineString","coordinates":[[3.771944,51.04657],[3.772166,51.04634],[3.772772,51.04597],[3.772816,51.0459]]},"properties":{"name":"Emiel Claeyslaan","highway":"residential","maxspeed":"30","vertex1":6876,"vertex2":6845}},{"type":"Feature","geometry":{"type":"LineString","coordinates":[[3.778913,51.04647],[3.780621,51.0461],[3.781013,51.04602],[3.782358,51.04577],[3.782569,51.04575],[3.782753,51.04574],[3.783273,51.04574],[3.783415,51.04573]]},"properties":{"highway":"track","vertex1":6875,"vertex2":5134}},{"type":"Feature","geometry":{"type":"LineString","coordinates":[[3.778913,51.04647],[3.778178,51.04549],[3.77714,51.04466]]},"properties":{"highway":"track","vertex1":6875,"vertex2":6855}},{"type":"Feature","geometry":{"type":"LineString","coordinates":[[3.778913,51.04647],[3.779552,51.0473],[3.776173,51.048],[3.775986,51.04768],[3.774605,51.04784]]},"properties":{"bicycle":"yes","highway":"footway","vertex1":6875,"vertex2":6863}},{"type":"Feature","geometry":{"type":"LineString","coordinates":[[3.773125,51.04295],[3.772858,51.04272]]},"properties":{"name":"Leeuw Van Vlaanderenstraat","highway":"residential","maxspeed":"30","vertex1":6874,"vertex2":6862}},{"type":"Feature","geometry":{"type":"LineString","coordinates":[[3.773125,51.04295],[3.7737,51.04277],[3.773746,51.04272]]},"properties":{"highway":"footway","vertex1":6874,"vertex2":6872}},{"type":"Feature","geometry":{"type":"LineString","coordinates":[[3.77381,51.04624],[3.773605,51.04623],[3.773437,51.04619],[3.773158,51.04601],[3.772973,51.0459],[3.772816,51.0459]]},"properties":{"highway":"residential","maxspeed":"30","vertex1":6873,"vertex2":6845}},{"type":"Feature","geometry":{"type":"LineString","coordinates":[[3.773746,51.04272],[3.77371,51.04272],[3.773588,51.04251]]},"properties":{"name":"Groeningestraat","highway":"residential","maxspeed":"30","vertex1":6872,"vertex2":6847}},{"type":"Feature","geometry":{"type":"LineString","coordinates":[[3.77195,51.04416],[3.770886,51.04353]]},"properties":{"foot":"no","highway":"footway","vertex1":6871,"vertex2":6852}},{"type":"Feature","geometry":{"type":"LineString","coordinates":[[3.769009,51.04471],[3.76848,51.04504]]},"properties":{"name":"Jules Van Biesbroeckstraat","highway":"residential","maxspeed":"30","vertex1":6870,"vertex2":6868}},{"type":"Feature","geometry":{"type":"LineString","coordinates":[[3.769009,51.04471],[3.769281,51.04454]]},"properties":{"name":"Jules Van Biesbroeckstraat","highway":"residential","maxspeed":"30","vertex1":6870,"vertex2":6853}},{"type":"Feature","geometry":{"type":"LineString","coordinates":[[3.769009,51.04471],[3.768621,51.04446]]},"properties":{"highway":"footway","vertex1":6870,"vertex2":6848}},{"type":"Feature","geometry":{"type":"LineString","coordinates":[[3.769301,51.04585],[3.76827,51.04517]]},"properties":{"maxspeed":"30","highway":"footway","vertex1":6869,"vertex2":6757}},{"type":"Feature","geometry":{"type":"LineString","coordinates":[[3.769301,51.04585],[3.769619,51.04615],[3.769728,51.04636]]},"properties":{"maxspeed":"30","highway":"footway","vertex1":6869,"vertex2":6841}},{"type":"Feature","geometry":{"type":"LineString","coordinates":[[3.769301,51.04585],[3.770864,51.04485]]},"properties":{"name":"Klaverpoel","highway":"residential","maxspeed":"30","vertex1":6869,"vertex2":6854}},{"type":"Feature","geometry":{"type":"LineString","coordinates":[[3.76848,51.04504],[3.767493,51.04459]]},"properties":{"name":"Robiniadreef","highway":"residential","maxspeed":"30","vertex1":6868,"vertex2":6744}},{"type":"Feature","geometry":{"type":"LineString","coordinates":[[3.76848,51.04504],[3.76827,51.04517]]},"properties":{"name":"Jules Van Biesbroeckstraat","highway":"residential","maxspeed":"30","vertex1":6868,"vertex2":6757}},{"type":"Feature","geometry":{"type":"LineString","coordinates":[[3.768862,51.04429],[3.767493,51.04341],[3.766756,51.0427]]},"properties":{"name":"Tuinwijk de Warande","highway":"residential","maxspeed":"30","vertex1":6867,"vertex2":6728}},{"type":"Feature","geometry":{"type":"LineString","coordinates":[[3.768862,51.04429],[3.769281,51.04454]]},"properties":{"name":"Tuinwijk de Warande","highway":"residential","maxspeed":"30","vertex1":6867,"vertex2":6853}},{"type":"Feature","geometry":{"type":"LineString","coordinates":[[3.768862,51.04429],[3.768621,51.04446]]},"properties":{"highway":"footway","vertex1":6867,"vertex2":6848}},{"type":"Feature","geometry":{"type":"LineString","coordinates":[[3.77179,51.04682],[3.771072,51.04674],[3.770252,51.0463]]},"properties":{"maxspeed":"30","highway":"footway","vertex1":6866,"vertex2":6842}},{"type":"Feature","geometry":{"type":"LineString","coordinates":[[3.776893,51.04438],[3.7757,51.04491],[3.775598,51.04492],[3.775526,51.0449],[3.77533,51.04474],[3.774225,51.04384]]},"properties":{"highway":"track","vertex1":6865,"vertex2":6851}},{"type":"Feature","geometry":{"type":"LineString","coordinates":[[3.776893,51.04438],[3.776901,51.04448],[3.77714,51.04466]]},"properties":{"highway":"unclassified","vertex1":6865,"vertex2":6855}},{"type":"Feature","geometry":{"type":"LineString","coordinates":[[3.770946,51.04349],[3.770886,51.04353]]},"properties":{"name":"Jules Van Biesbroeckstraat","highway":"residential","maxspeed":"30","vertex1":6864,"vertex2":6852}},{"type":"Feature","geometry":{"type":"LineString","coordinates":[[3.774605,51.04784],[3.773049,51.04801]]},"properties":{"highway":"footway","vertex1":6863,"vertex2":6825}},{"type":"Feature","geometry":{"type":"LineString","coordinates":[[3.772858,51.04272],[3.773588,51.04251]]},"properties":{"highway":"footway","vertex1":6862,"vertex2":6847}},{"type":"Feature","geometry":{"type":"LineString","coordinates":[[3.772437,51.0445],[3.771559,51.04506]]},"properties":{"name":"Emiel Claeyslaan","highway":"residential","maxspeed":"30","vertex1":6861,"vertex2":6844}},{"type":"Feature","geometry":{"type":"LineString","coordinates":[[3.772437,51.0445],[3.772409,51.04443],[3.77259,51.04443],[3.772958,51.04464],[3.774225,51.04384]]},"properties":{"highway":"path","vertex1":6861,"vertex2":6851}},{"type":"Feature","geometry":{"type":"LineString","coordinates":[[3.769819,51.0442],[3.770864,51.04485]]},"properties":{"name":"Emiel Claeyslaan","highway":"residential","maxspeed":"30","vertex1":6860,"vertex2":6854}},{"type":"Feature","geometry":{"type":"LineString","coordinates":[[3.769819,51.0442],[3.767055,51.04256]]},"properties":{"name":"Theophiel De Jaegerstraat","highway":"residential","maxspeed":"30","vertex1":6860,"vertex2":6702}},{"type":"Feature","geometry":{"type":"LineString","coordinates":[[3.769819,51.0442],[3.769281,51.04454]]},"properties":{"name":"Jules Van Biesbroeckstraat","highway":"residential","maxspeed":"30","vertex1":6860,"vertex2":6853}},{"type":"Feature","geometry":{"type":"LineString","coordinates":[[3.769819,51.0442],[3.770886,51.04353]]},"properties":{"name":"Jules Van Biesbroeckstraat","highway":"residential","maxspeed":"30","vertex1":6860,"vertex2":6852}},{"type":"Feature","geometry":{"type":"LineString","coordinates":[[3.768673,51.04697],[3.768154,51.04725]]},"properties":{"name":"Oudekouter","highway":"residential","maxspeed":"30","vertex1":6859,"vertex2":6700}},{"type":"Feature","geometry":{"type":"LineString","coordinates":[[3.768673,51.04697],[3.769728,51.04636]]},"properties":{"name":"Oudekouter","highway":"residential","maxspeed":"30","vertex1":6859,"vertex2":6841}},{"type":"Feature","geometry":{"type":"LineString","coordinates":[[3.772802,51.04583],[3.772734,51.04578],[3.771891,51.04522]]},"properties":{"name":"Emiel Claeyslaan","highway":"residential","maxspeed":"30","vertex1":6858,"vertex2":6856}},{"type":"Feature","geometry":{"type":"LineString","coordinates":[[3.772802,51.04583],[3.772816,51.0459]]},"properties":{"name":"Emiel Claeyslaan","highway":"residential","maxspeed":"30","vertex1":6858,"vertex2":6845}},{"type":"Feature","geometry":{"type":"LineString","coordinates":[[3.776145,51.04333],[3.776489,51.0428],[3.776935,51.0419],[3.777558,51.04106]]},"properties":{"highway":"track","vertex1":6857,"vertex2":6958}},{"type":"Feature","geometry":{"type":"LineString","coordinates":[[3.771891,51.04522],[3.771559,51.04506]]},"properties":{"name":"Emiel Claeyslaan","highway":"residential","maxspeed":"30","vertex1":6856,"vertex2":6844}},{"type":"Feature","geometry":{"type":"LineString","coordinates":[[3.770864,51.04485],[3.771019,51.0449]]},"properties":{"name":"Emiel Claeyslaan","highway":"residential","maxspeed":"30","vertex1":6854,"vertex2":6843}},{"type":"Feature","geometry":{"type":"LineString","coordinates":[[3.768576,51.04461],[3.767769,51.04411]]},"properties":{"name":"Robiniahof","highway":"residential","maxspeed":"30","vertex1":6850,"vertex2":6715}},{"type":"Feature","geometry":{"type":"LineString","coordinates":[[3.768576,51.04461],[3.768621,51.04446]]},"properties":{"highway":"footway","vertex1":6850,"vertex2":6848}},{"type":"Feature","geometry":{"type":"LineString","coordinates":[[3.771716,51.04424],[3.771628,51.04431],[3.771019,51.0449]]},"properties":{"highway":"footway","vertex1":6849,"vertex2":6843}},{"type":"Feature","geometry":{"type":"LineString","coordinates":[[3.768311,51.04643],[3.768151,51.04634]]},"properties":{"name":"Slootwede","highway":"residential","maxspeed":"30","vertex1":6846,"vertex2":6725}},{"type":"Feature","geometry":{"type":"LineString","coordinates":[[3.771559,51.04506],[3.7715,51.04505],[3.771019,51.0449]]},"properties":{"name":"Emiel Claeyslaan","highway":"residential","maxspeed":"30","vertex1":6844,"vertex2":6843}},{"type":"Feature","geometry":{"type":"LineString","coordinates":[[3.770252,51.0463],[3.769728,51.04636]]},"properties":{"maxspeed":"30","highway":"footway","vertex1":6842,"vertex2":6841}},{"type":"Feature","geometry":{"type":"LineString","coordinates":[[3.770669,51.05296],[3.770744,51.05227]]},"properties":{"name":"Mezenstraat","oneway":"yes","highway":"residential","vertex1":6840,"vertex2":6838}},{"type":"Feature","geometry":{"type":"LineString","coordinates":[[3.770669,51.05296],[3.770608,51.05385]]},"properties":{"name":"Mezenstraat","oneway":"yes","highway":"residential","vertex1":6840,"vertex2":5339}},{"type":"Feature","geometry":{"type":"LineString","coordinates":[[3.770669,51.05296],[3.772834,51.05302]]},"properties":{"name":"Vinkenstraat","highway":"residential","vertex1":6840,"vertex2":6828}},{"type":"Feature","geometry":{"type":"LineString","coordinates":[[3.770608,51.05385],[3.769593,51.05334],[3.769316,51.05323],[3.768996,51.05312]]},"properties":{"name":"Dendermondesteenweg","maxspeed":"50","highway":"secondary","vertex1":5339,"vertex2":6830}},{"type":"Feature","geometry":{"type":"LineString","coordinates":[[3.777423,51.05016],[3.77715,51.05019],[3.77685,51.05022],[3.776255,51.05026],[3.775557,51.05028],[3.775134,51.05029]]},"properties":{"name":"Scheldekant","highway":"residential","vertex1":6839,"vertex2":6834}},{"type":"Feature","geometry":{"type":"LineString","coordinates":[[3.777423,51.05016],[3.777745,51.05012],[3.778089,51.05007],[3.778473,51.05001],[3.77881,51.04995],[3.77956,51.0498],[3.78064,51.04956],[3.781678,51.04934]]},"properties":{"name":"Scheldekant","highway":"residential","vertex1":6839,"vertex2":5146}},{"type":"Feature","geometry":{"type":"LineString","coordinates":[[3.770744,51.05227],[3.768087,51.05249],[3.767779,51.0525],[3.767406,51.05262]]},"properties":{"name":"Nijverheidsstraat","oneway":"yes","highway":"residential","vertex1":6838,"vertex2":6773}},{"type":"Feature","geometry":{"type":"LineString","coordinates":[[3.770744,51.05227],[3.771444,51.05221],[3.772889,51.05218],[3.773412,51.05215]]},"properties":{"name":"Nijverheidsstraat","highway":"residential","vertex1":6838,"vertex2":6824}},{"type":"Feature","geometry":{"type":"LineString","coordinates":[[3.775951,51.0502],[3.776049,51.05019],[3.776528,51.05017],[3.777043,51.05012],[3.777834,51.05002],[3.778592,51.0499],[3.780589,51.0495],[3.78137,51.04933]]},"properties":{"name":"Scheldetragel","cyclenetwork":"yes","highway":"track","vertex1":6837,"vertex2":5150}},{"type":"Feature","geometry":{"type":"LineString","coordinates":[[3.775951,51.0502],[3.775554,51.05024],[3.775134,51.05029]]},"properties":{"name":"Scheldetragel","cyclenetwork":"yes","highway":"track","vertex1":6837,"vertex2":6834}},{"type":"Feature","geometry":{"type":"LineString","coordinates":[[3.773432,51.05304],[3.773684,51.05219]]},"properties":{"highway":"service","vertex1":6836,"vertex2":6831}},{"type":"Feature","geometry":{"type":"LineString","coordinates":[[3.773432,51.05304],[3.774219,51.05315],[3.774289,51.05314],[3.774351,51.05312],[3.774397,51.05308],[3.774598,51.05239],[3.774577,51.05234],[3.774534,51.0523],[3.774465,51.05228]]},"properties":{"highway":"service","vertex1":6836,"vertex2":6833}},{"type":"Feature","geometry":{"type":"LineString","coordinates":[[3.773432,51.05304],[3.772834,51.05302]]},"properties":{"highway":"service","vertex1":6836,"vertex2":6828}},{"type":"Feature","geometry":{"type":"LineString","coordinates":[[3.773012,51.05039],[3.774009,51.05031],[3.774459,51.05028]]},"properties":{"name":"Scheldekant","cyclenetwork":"yes","highway":"residential","vertex1":6835,"vertex2":6826}},{"type":"Feature","geometry":{"type":"LineString","coordinates":[[3.773012,51.05039],[3.771992,51.05045],[3.769602,51.05038],[3.768682,51.05032],[3.768241,51.05027],[3.766713,51.05003]]},"properties":{"name":"Scheldekant","cyclenetwork":"yes","motorcar":"no","highway":"track","vertex1":6835,"vertex2":6804}},{"type":"Feature","geometry":{"type":"LineString","coordinates":[[3.775134,51.05029],[3.774698,51.05029],[3.774459,51.05028]]},"properties":{"name":"Scheldekant","cyclenetwork":"yes","highway":"residential","vertex1":6834,"vertex2":6826}},{"type":"Feature","geometry":{"type":"LineString","coordinates":[[3.774465,51.05228],[3.773684,51.05219]]},"properties":{"highway":"service","vertex1":6833,"vertex2":6831}},{"type":"Feature","geometry":{"type":"LineString","coordinates":[[3.771808,51.04815],[3.773049,51.04801]]},"properties":{"name":"Gentbruggekouter","maxspeed":"50","highway":"residential","vertex1":6832,"vertex2":6825}},{"type":"Feature","geometry":{"type":"LineString","coordinates":[[3.771808,51.04815],[3.771398,51.04815],[3.76836,51.04786],[3.767892,51.04773]]},"properties":{"name":"Gentbruggekouter","maxspeed":"50","highway":"residential","vertex1":6832,"vertex2":6733}},{"type":"Feature","geometry":{"type":"LineString","coordinates":[[3.773684,51.05219],[3.773575,51.05211]]},"properties":{"highway":"service","vertex1":6831,"vertex2":6827}},{"type":"Feature","geometry":{"type":"LineString","coordinates":[[3.768996,51.05312],[3.768509,51.05377]]},"properties":{"name":"Verenigde Natieslaan","highway":"residential","vertex1":6830,"vertex2":5306}},{"type":"Feature","geometry":{"type":"LineString","coordinates":[[3.768996,51.05312],[3.767406,51.05262]]},"properties":{"name":"Dendermondesteenweg","maxspeed":"50","highway":"secondary","vertex1":6830,"vertex2":6773}},{"type":"Feature","geometry":{"type":"LineString","coordinates":[[3.77405,51.05179],[3.773983,51.05188],[3.773903,51.05194],[3.773575,51.05211]]},"properties":{"name":"Panhuisstraat","highway":"residential","vertex1":6829,"vertex2":6827}},{"type":"Feature","geometry":{"type":"LineString","coordinates":[[3.77405,51.05179],[3.774391,51.05065],[3.774459,51.05028]]},"properties":{"name":"Panhuisstraat","highway":"residential","vertex1":6829,"vertex2":6826}},{"type":"Feature","geometry":{"type":"LineString","coordinates":[[3.772834,51.05302],[3.77282,51.05313],[3.772835,51.05323],[3.772895,51.05329],[3.77323,51.05355],[3.773286,51.0536],[3.773309,51.05367],[3.773314,51.05376],[3.773295,51.05386],[3.773222,51.05423]]},"properties":{"name":"Panhuisstraat","oneway":"yes","highway":"residential","vertex1":6828,"vertex2":5337}},{"type":"Feature","geometry":{"type":"LineString","coordinates":[[3.772834,51.05302],[3.773341,51.05228],[3.773412,51.05215]]},"properties":{"name":"Panhuisstraat","highway":"residential","vertex1":6828,"vertex2":6824}},{"type":"Feature","geometry":{"type":"LineString","coordinates":[[3.773575,51.05211],[3.773412,51.05215]]},"properties":{"name":"Panhuisstraat","highway":"residential","vertex1":6827,"vertex2":6824}},{"type":"Feature","geometry":{"type":"LineString","coordinates":[[3.761262,51.05207],[3.762077,51.05218]]},"properties":{"name":"Dendermondesteenweg","maxspeed":"50","highway":"secondary","vertex1":6823,"vertex2":6763}},{"type":"Feature","geometry":{"type":"LineString","coordinates":[[3.761262,51.05207],[3.760705,51.05201]]},"properties":{"name":"Dendermondesteenweg","maxspeed":"50","highway":"secondary","vertex1":6823,"vertex2":6781}},{"type":"Feature","geometry":{"type":"LineString","coordinates":[[3.759722,51.04947],[3.760198,51.04824]]},"properties":{"name":"Emiel Lossystraat","highway":"residential","maxspeed":"30","vertex1":6822,"vertex2":6817}},{"type":"Feature","geometry":{"type":"LineString","coordinates":[[3.759722,51.04947],[3.759342,51.05045]]},"properties":{"name":"Emiel Lossystraat","highway":"residential","maxspeed":"30","vertex1":6822,"vertex2":6821}},{"type":"Feature","geometry":{"type":"LineString","coordinates":[[3.759722,51.04947],[3.757895,51.04927],[3.757299,51.04922],[3.75696,51.04922],[3.756621,51.04923]]},"properties":{"name":"Nekkersvijverstraat","highway":"residential","maxspeed":"30","vertex1":6822,"vertex2":6213}},{"type":"Feature","geometry":{"type":"LineString","coordinates":[[3.759342,51.05045],[3.759275,51.05062]]},"properties":{"name":"Emiel Lossystraat","highway":"residential","maxspeed":"30","vertex1":6821,"vertex2":6819}},{"type":"Feature","geometry":{"type":"LineString","coordinates":[[3.759342,51.05045],[3.758986,51.05046]]},"properties":{"name":"Asterdreef","highway":"residential","vertex1":6821,"vertex2":6776}},{"type":"Feature","geometry":{"type":"LineString","coordinates":[[3.765676,51.05294],[3.76521,51.05432]]},"properties":{"highway":"service","vertex1":6820,"vertex2":5382}},{"type":"Feature","geometry":{"type":"LineString","coordinates":[[3.765676,51.05294],[3.765613,51.05287],[3.765478,51.05282],[3.76531,51.05281],[3.764953,51.05283]]},"properties":{"highway":"service","vertex1":6820,"vertex2":6767}},{"type":"Feature","geometry":{"type":"LineString","coordinates":[[3.765676,51.05294],[3.765828,51.05287],[3.76591,51.0528],[3.765973,51.05264],[3.765982,51.05242]]},"properties":{"highway":"service","vertex1":6820,"vertex2":6795}},{"type":"Feature","geometry":{"type":"LineString","coordinates":[[3.76521,51.05432],[3.765424,51.05436],[3.765515,51.05441],[3.765544,51.05444],[3.765544,51.05448],[3.765336,51.05509],[3.763762,51.05489],[3.763992,51.05424]]},"properties":{"highway":"service","vertex1":5382,"vertex2":5384}},{"type":"Feature","geometry":{"type":"LineString","coordinates":[[3.76521,51.05432],[3.764913,51.05432],[3.764774,51.05434],[3.764642,51.05437],[3.76443,51.05437]]},"properties":{"highway":"service","vertex1":5382,"vertex2":5386}},{"type":"Feature","geometry":{"type":"LineString","coordinates":[[3.759275,51.05062],[3.758926,51.05148]]},"properties":{"name":"Emiel Lossystraat","highway":"residential","maxspeed":"30","vertex1":6819,"vertex2":6772}},{"type":"Feature","geometry":{"type":"LineString","coordinates":[[3.759275,51.05062],[3.758986,51.05046]]},"properties":{"name":"Asterdreef","highway":"residential","maxspeed":"30","vertex1":6819,"vertex2":6776}},{"type":"Feature","geometry":{"type":"LineString","coordinates":[[3.758272,51.0503],[3.758294,51.05038]]},"properties":{"name":"Asterdreef","highway":"residential","maxspeed":"30","vertex1":6818,"vertex2":6782}},{"type":"Feature","geometry":{"type":"LineString","coordinates":[[3.758272,51.0503],[3.758251,51.05021],[3.758334,51.05017],[3.758502,51.05018],[3.758587,51.05021],[3.758581,51.05033]]},"properties":{"name":"Asterdreef","highway":"residential","maxspeed":"30","vertex1":6818,"vertex2":6780}},{"type":"Feature","geometry":{"type":"LineString","coordinates":[[3.760198,51.04824],[3.761599,51.04867]]},"properties":{"name":"Nijverheidskaai","cyclenetwork":"yes","maxspeed":"50","highway":"residential","vertex1":6817,"vertex2":6791}},{"type":"Feature","geometry":{"type":"LineString","coordinates":[[3.760198,51.04824],[3.758798,51.04782],[3.757595,51.04752],[3.756346,51.04722],[3.755448,51.04705]]},"properties":{"name":"Nijverheidskaai","cyclenetwork":"yes","maxspeed":"50","highway":"residential","vertex1":6817,"vertex2":6694}},{"type":"Feature","geometry":{"type":"LineString","coordinates":[[3.763075,51.05233],[3.762944,51.05271],[3.762848,51.05299],[3.762674,51.0535],[3.762259,51.05469],[3.762194,51.0549]]},"properties":{"name":"Burgemeester Meirsonstraat","highway":"residential","maxspeed":"30","vertex1":6816,"vertex2":5435}},{"type":"Feature","geometry":{"type":"LineString","coordinates":[[3.763075,51.05233],[3.763216,51.05234]]},"properties":{"name":"Dendermondesteenweg","maxspeed":"50","highway":"secondary","vertex1":6816,"vertex2":6779}},{"type":"Feature","geometry":{"type":"LineString","coordinates":[[3.763075,51.05233],[3.762968,51.05231]]},"properties":{"name":"Dendermondesteenweg","maxspeed":"50","highway":"secondary","vertex1":6816,"vertex2":6793}},{"type":"Feature","geometry":{"type":"LineString","coordinates":[[3.767658,51.052],[3.768004,51.05108],[3.766866,51.05092],[3.766763,51.05091],[3.76667,51.05096],[3.766539,51.0513],[3.766265,51.05206],[3.766145,51.05243]]},"properties":{"name":"Scheldelaan","highway":"residential","vertex1":6815,"vertex2":6805}},{"type":"Feature","geometry":{"type":"LineString","coordinates":[[3.765451,51.05059],[3.765056,51.05053]]},"properties":{"name":"Zomerwee","highway":"residential","vertex1":6814,"vertex2":6810}},{"type":"Feature","geometry":{"type":"LineString","coordinates":[[3.765799,51.04983],[3.766124,51.04991]]},"properties":{"name":"Nijverheidskaai","cyclenetwork":"yes","highway":"track","vertex1":6813,"vertex2":6799}},{"type":"Feature","geometry":{"type":"LineString","coordinates":[[3.765799,51.04983],[3.765237,51.04969]]},"properties":{"name":"Nijverheidskaai","oneway":"yes","cyclenetwork":"yes","maxspeed":"50","highway":"residential","vertex1":6813,"vertex2":6787}},{"type":"Feature","geometry":{"type":"LineString","coordinates":[[3.765799,51.04983],[3.765714,51.04996],[3.765279,51.04986]]},"properties":{"name":"Nijverheidskaai","highway":"residential","oneway":"-1","vertex1":6813,"vertex2":6806}},{"type":"Feature","geometry":{"type":"LineString","coordinates":[[3.764655,51.05046],[3.765056,51.05053]]},"properties":{"name":"Zomerwee","highway":"residential","vertex1":6812,"vertex2":6810}},{"type":"Feature","geometry":{"type":"LineString","coordinates":[[3.764289,51.04945],[3.763972,51.04989]]},"properties":{"name":"Paul De Ryckstraat","oneway":"yes","highway":"residential","maxspeed":"30","vertex1":6811,"vertex2":6785}},{"type":"Feature","geometry":{"type":"LineString","coordinates":[[3.764289,51.04945],[3.765237,51.04969]]},"properties":{"name":"Nijverheidskaai","cyclenetwork":"yes","maxspeed":"50","highway":"residential","vertex1":6811,"vertex2":6787}},{"type":"Feature","geometry":{"type":"LineString","coordinates":[[3.764289,51.04945],[3.764015,51.04937]]},"properties":{"name":"Nijverheidskaai","cyclenetwork":"yes","maxspeed":"50","highway":"residential","vertex1":6811,"vertex2":6803}},{"type":"Feature","geometry":{"type":"LineString","coordinates":[[3.765056,51.05053],[3.764625,51.0515]]},"properties":{"name":"Zomerwee","highway":"residential","vertex1":6810,"vertex2":6800}},{"type":"Feature","geometry":{"type":"LineString","coordinates":[[3.76187,51.05],[3.762184,51.05008]]},"properties":{"name":"Scaldisstraat","highway":"residential","maxspeed":"30","vertex1":6809,"vertex2":6764}},{"type":"Feature","geometry":{"type":"LineString","coordinates":[[3.76187,51.05],[3.761991,51.05056],[3.761685,51.05051]]},"properties":{"name":"Scaldisstraat","maxspeed":"30","highway":"service","vertex1":6809,"vertex2":6771}},{"type":"Feature","geometry":{"type":"LineString","coordinates":[[3.76187,51.05],[3.761129,51.04988],[3.761026,51.04982],[3.760997,51.04974],[3.761178,51.04927],[3.761599,51.04867]]},"properties":{"name":"Scaldisstraat","highway":"residential","maxspeed":"30","vertex1":6809,"vertex2":6791}},{"type":"Feature","geometry":{"type":"LineString","coordinates":[[3.75736,51.05118],[3.757485,51.0513]]},"properties":{"name":"Destelbergenstraat","highway":"residential","maxspeed":"30","vertex1":6808,"vertex2":6786}},{"type":"Feature","geometry":{"type":"LineString","coordinates":[[3.75736,51.05118],[3.756998,51.051],[3.756566,51.05077],[3.756081,51.05065],[3.754916,51.05043],[3.754158,51.05027]]},"properties":{"name":"Destelbergenstraat","highway":"residential","maxspeed":"30","vertex1":6808,"vertex2":6133}},{"type":"Feature","geometry":{"type":"LineString","coordinates":[[3.75736,51.05118],[3.757709,51.05114]]},"properties":{"name":"Asterdreef","highway":"residential","vertex1":6808,"vertex2":6784}},{"type":"Feature","geometry":{"type":"LineString","coordinates":[[3.763613,51.05045],[3.76268,51.05017],[3.762403,51.05012],[3.762184,51.05008]]},"properties":{"name":"Scaldisstraat","highway":"residential","maxspeed":"30","vertex1":6807,"vertex2":6764}},{"type":"Feature","geometry":{"type":"LineString","coordinates":[[3.763613,51.05045],[3.763798,51.05019],[3.763972,51.04989]]},"properties":{"name":"Paul De Ryckstraat","highway":"residential","maxspeed":"30","vertex1":6807,"vertex2":6785}},{"type":"Feature","geometry":{"type":"LineString","coordinates":[[3.763613,51.05045],[3.763351,51.05067],[3.763153,51.05087]]},"properties":{"name":"Paul De Ryckstraat","highway":"residential","maxspeed":"30","vertex1":6807,"vertex2":6775}},{"type":"Feature","geometry":{"type":"LineString","coordinates":[[3.765279,51.04986],[3.765237,51.04969]]},"properties":{"name":"Nijverheidskaai","highway":"residential","oneway":"-1","vertex1":6806,"vertex2":6787}},{"type":"Feature","geometry":{"type":"LineString","coordinates":[[3.766145,51.05243],[3.766189,51.05243],[3.766394,51.05244],[3.76687,51.0525],[3.766946,51.05251],[3.766995,51.05252]]},"properties":{"name":"Dendermondesteenweg","maxspeed":"50","highway":"secondary","vertex1":6805,"vertex2":6783}},{"type":"Feature","geometry":{"type":"LineString","coordinates":[[3.766145,51.05243],[3.765982,51.05242]]},"properties":{"name":"Dendermondesteenweg","maxspeed":"50","highway":"secondary","vertex1":6805,"vertex2":6795}},{"type":"Feature","geometry":{"type":"LineString","coordinates":[[3.766713,51.05003],[3.766503,51.04999],[3.766366,51.04996],[3.766124,51.04991]]},"properties":{"name":"Nijverheidskaai","cyclenetwork":"yes","highway":"track","vertex1":6804,"vertex2":6799}},{"type":"Feature","geometry":{"type":"LineString","coordinates":[[3.764015,51.04937],[3.764036,51.04942],[3.764052,51.04947],[3.764058,51.04955],[3.76403,51.04968],[3.763972,51.04989]]},"properties":{"name":"Paul De Ryckstraat","oneway":"yes","highway":"residential","vertex1":6803,"vertex2":6785}},{"type":"Feature","geometry":{"type":"LineString","coordinates":[[3.764015,51.04937],[3.761599,51.04867]]},"properties":{"name":"Nijverheidskaai","cyclenetwork":"yes","maxspeed":"50","highway":"residential","vertex1":6803,"vertex2":6791}},{"type":"Feature","geometry":{"type":"LineString","coordinates":[[3.764232,51.05109],[3.764099,51.05141]]},"properties":{"name":"Burgemeester Williamehof","highway":"residential","vertex1":6802,"vertex2":6778}},{"type":"Feature","geometry":{"type":"LineString","coordinates":[[3.760431,51.05258],[3.760275,51.0529],[3.760226,51.05301]]},"properties":{"name":"Kasteelstraat","highway":"residential","vertex1":6801,"vertex2":6765}},{"type":"Feature","geometry":{"type":"LineString","coordinates":[[3.760431,51.05258],[3.760705,51.05201]]},"properties":{"name":"Kasteelstraat","highway":"residential","vertex1":6801,"vertex2":6781}},{"type":"Feature","geometry":{"type":"LineString","coordinates":[[3.760431,51.05258],[3.760804,51.05265],[3.760617,51.05308]]},"properties":{"name":"Woonpark Malpertuus","bicycle":"no","motorcar":"no","foot":"no","highway":"service","vertex1":6801,"vertex2":6792}},{"type":"Feature","geometry":{"type":"LineString","coordinates":[[3.764625,51.0515],[3.765025,51.05157],[3.764703,51.05247]]},"properties":{"name":"Burgemeester Williamehof","highway":"residential","vertex1":6800,"vertex2":6777}},{"type":"Feature","geometry":{"type":"LineString","coordinates":[[3.764625,51.0515],[3.764099,51.05141]]},"properties":{"name":"Burgemeester Williamehof","highway":"residential","vertex1":6800,"vertex2":6778}},{"type":"Feature","geometry":{"type":"LineString","coordinates":[[3.764003,51.05162],[3.764099,51.05141]]},"properties":{"name":"Burgemeester Williamehof","highway":"residential","vertex1":6798,"vertex2":6778}},{"type":"Feature","geometry":{"type":"LineString","coordinates":[[3.763107,51.05188],[3.763055,51.05166],[3.763014,51.05124]]},"properties":{"name":"Galgenberglaan","maxspeed":"50","highway":"residential","vertex1":6797,"vertex2":6789}},{"type":"Feature","geometry":{"type":"LineString","coordinates":[[3.763107,51.05188],[3.763216,51.05234]]},"properties":{"name":"Galgenberglaan","maxspeed":"50","highway":"residential","vertex1":6797,"vertex2":6779}},{"type":"Feature","geometry":{"type":"LineString","coordinates":[[3.763107,51.05188],[3.763046,51.05215],[3.762968,51.05231]]},"properties":{"name":"Galgenberglaan","oneway":"yes","maxspeed":"50","highway":"residential","vertex1":6797,"vertex2":6793}},{"type":"Feature","geometry":{"type":"LineString","coordinates":[[3.762231,51.05289],[3.761768,51.05283],[3.761696,51.05288],[3.761609,51.05314],[3.761592,51.0532],[3.761564,51.05328]]},"properties":{"highway":"service","vertex1":6796,"vertex2":6790}},{"type":"Feature","geometry":{"type":"LineString","coordinates":[[3.765982,51.05242],[3.765481,51.05244],[3.764703,51.05247]]},"properties":{"name":"Dendermondesteenweg","maxspeed":"50","highway":"secondary","vertex1":6795,"vertex2":6777}},{"type":"Feature","geometry":{"type":"LineString","coordinates":[[3.761409,51.05315],[3.761281,51.05345],[3.760584,51.05333],[3.760527,51.05328],[3.760617,51.05308]]},"properties":{"bicycle":"no","motorcar":"no","foot":"no","highway":"service","vertex1":6794,"vertex2":6792}},{"type":"Feature","geometry":{"type":"LineString","coordinates":[[3.762968,51.05231],[3.762077,51.05218]]},"properties":{"name":"Dendermondesteenweg","maxspeed":"50","highway":"secondary","vertex1":6793,"vertex2":6763}},{"type":"Feature","geometry":{"type":"LineString","coordinates":[[3.760617,51.05308],[3.760226,51.05301]]},"properties":{"name":"Woonpark Malpertuus","bicycle":"no","motorcar":"no","foot":"no","highway":"service","vertex1":6792,"vertex2":6765}},{"type":"Feature","geometry":{"type":"LineString","coordinates":[[3.761564,51.05328],[3.761369,51.05368],[3.761371,51.05384],[3.761152,51.05438],[3.761105,51.05445]]},"properties":{"name":"Herlegemhof","highway":"residential","vertex1":6790,"vertex2":5395}},{"type":"Feature","geometry":{"type":"LineString","coordinates":[[3.761105,51.05445],[3.75996,51.05387],[3.75986,51.05381]]},"properties":{"name":"Herlegemstraat","maxspeed":"50","highway":"residential","vertex1":5395,"vertex2":5437}},{"type":"Feature","geometry":{"type":"LineString","coordinates":[[3.763014,51.05124],[3.763048,51.05117],[3.763061,51.05114],[3.763121,51.05107],[3.763151,51.05101],[3.763152,51.05097],[3.763151,51.05094],[3.763153,51.05087]]},"properties":{"name":"Galgenberglaan","oneway":"yes","maxspeed":"50","highway":"residential","vertex1":6789,"vertex2":6775}},{"type":"Feature","geometry":{"type":"LineString","coordinates":[[3.763014,51.05124],[3.762988,51.05118]]},"properties":{"name":"Galgenberglaan","oneway":"yes","maxspeed":"50","highway":"residential","vertex1":6789,"vertex2":6766}},{"type":"Feature","geometry":{"type":"LineString","coordinates":[[3.757612,51.05175],[3.757485,51.0513]]},"properties":{"name":"Destelbergenstraat","highway":"residential","maxspeed":"30","vertex1":6788,"vertex2":6786}},{"type":"Feature","geometry":{"type":"LineString","coordinates":[[3.757612,51.05175],[3.758124,51.05178],[3.758789,51.05184]]},"properties":{"name":"Dendermondesteenweg","maxspeed":"50","highway":"secondary","vertex1":6788,"vertex2":6774}},{"type":"Feature","geometry":{"type":"LineString","coordinates":[[3.757612,51.05175],[3.756934,51.05176],[3.756073,51.05184]]},"properties":{"name":"Dendermondsesteenweg \/ Dendermondesteenweg","maxspeed":"50","highway":"secondary","vertex1":6788,"vertex2":6189}},{"type":"Feature","geometry":{"type":"LineString","coordinates":[[3.756073,51.05184],[3.756268,51.05194],[3.756869,51.05222],[3.757143,51.05236],[3.757593,51.05258],[3.758032,51.05281],[3.758876,51.05328],[3.759697,51.05373],[3.75986,51.05381]]},"properties":{"name":"Herlegemstraat","maxspeed":"50","highway":"residential","vertex1":6189,"vertex2":5437}},{"type":"Feature","geometry":{"type":"LineString","coordinates":[[3.757485,51.0513],[3.757709,51.05114]]},"properties":{"name":"Asterdreef","highway":"residential","maxspeed":"30","vertex1":6786,"vertex2":6784}},{"type":"Feature","geometry":{"type":"LineString","coordinates":[[3.757709,51.05114],[3.757861,51.05102],[3.758017,51.05076],[3.758294,51.05038]]},"properties":{"name":"Asterdreef","highway":"residential","maxspeed":"30","vertex1":6784,"vertex2":6782}},{"type":"Feature","geometry":{"type":"LineString","coordinates":[[3.766995,51.05252],[3.767406,51.05262]]},"properties":{"name":"Dendermondesteenweg","maxspeed":"50","highway":"secondary","vertex1":6783,"vertex2":6773}},{"type":"Feature","geometry":{"type":"LineString","coordinates":[[3.766995,51.05252],[3.766922,51.05264],[3.766826,51.05285],[3.766852,51.053],[3.766762,51.05317],[3.766639,51.05334],[3.766294,51.0536]]},"properties":{"name":"Denderhof","highway":"residential","vertex1":6783,"vertex2":5392}},{"type":"Feature","geometry":{"type":"LineString","coordinates":[[3.758294,51.05038],[3.758581,51.05033]]},"properties":{"name":"Asterdreef","highway":"residential","maxspeed":"30","vertex1":6782,"vertex2":6780}},{"type":"Feature","geometry":{"type":"LineString","coordinates":[[3.760705,51.05201],[3.758789,51.05184]]},"properties":{"name":"Dendermondesteenweg","maxspeed":"50","highway":"secondary","vertex1":6781,"vertex2":6774}},{"type":"Feature","geometry":{"type":"LineString","coordinates":[[3.758581,51.05033],[3.758754,51.05036],[3.758986,51.05046]]},"properties":{"name":"Asterdreef","highway":"residential","maxspeed":"30","vertex1":6780,"vertex2":6776}},{"type":"Feature","geometry":{"type":"LineString","coordinates":[[3.763216,51.05234],[3.764239,51.05246]]},"properties":{"name":"Dendermondesteenweg","maxspeed":"50","highway":"secondary","vertex1":6779,"vertex2":6770}},{"type":"Feature","geometry":{"type":"LineString","coordinates":[[3.764703,51.05247],[3.764239,51.05246]]},"properties":{"name":"Dendermondesteenweg","maxspeed":"50","highway":"secondary","vertex1":6777,"vertex2":6770}},{"type":"Feature","geometry":{"type":"LineString","coordinates":[[3.763153,51.05087],[3.763047,51.05092],[3.763011,51.05095],[3.762983,51.05098],[3.76298,51.05106],[3.762986,51.05114],[3.762988,51.05118]]},"properties":{"name":"Galgenberglaan","oneway":"yes","maxspeed":"50","highway":"residential","vertex1":6775,"vertex2":6766}},{"type":"Feature","geometry":{"type":"LineString","coordinates":[[3.758789,51.05184],[3.758926,51.05148]]},"properties":{"name":"Lossystraat","highway":"residential","maxspeed":"30","vertex1":6774,"vertex2":6772}},{"type":"Feature","geometry":{"type":"LineString","coordinates":[[3.761685,51.05051],[3.762184,51.05008]]},"properties":{"name":"Scaldisstraat","maxspeed":"30","highway":"service","vertex1":6771,"vertex2":6764}},{"type":"Feature","geometry":{"type":"LineString","coordinates":[[3.764239,51.05246],[3.763254,51.05528]]},"properties":{"name":"Pasteurstraat","maxspeed":"50","highway":"residential","vertex1":6770,"vertex2":5374}},{"type":"Feature","geometry":{"type":"LineString","coordinates":[[3.764274,51.04882],[3.764412,51.04887],[3.766407,51.04937],[3.768579,51.04973],[3.76948,51.04982],[3.770285,51.04984],[3.771236,51.04983],[3.772238,51.04987],[3.773594,51.04977],[3.775312,51.04967],[3.777248,51.04952],[3.778932,51.04926],[3.78103,51.04882],[3.783133,51.04837],[3.784796,51.04798],[3.785906,51.0477],[3.786754,51.04742],[3.787596,51.04707],[3.78876,51.04649]]},"properties":{"motorcar":"no","highway":"track","vertex1":6769,"vertex2":5129}},{"type":"Feature","geometry":{"type":"LineString","coordinates":[[3.764274,51.04882],[3.762516,51.04831],[3.76052,51.04771],[3.759697,51.04746],[3.759429,51.0474],[3.758769,51.04723],[3.758529,51.04718],[3.758397,51.04712],[3.758346,51.04711]]},"properties":{"name":"Nederbrugstraat","maxspeed":"30","highway":"track","vertex1":6769,"vertex2":6749}},{"type":"Feature","geometry":{"type":"LineString","coordinates":[[3.764274,51.04882],[3.764438,51.04857]]},"properties":{"name":"Jules Van Biesbroeckstraat","maxspeed":"30","highway":"track","vertex1":6769,"vertex2":6768}},{"type":"Feature","geometry":{"type":"LineString","coordinates":[[3.764438,51.04857],[3.76474,51.04808],[3.764831,51.04786],[3.764868,51.04764],[3.764819,51.04731]]},"properties":{"name":"Jules Van Biesbroeckstraat","highway":"residential","maxspeed":"30","vertex1":6768,"vertex2":6708}},{"type":"Feature","geometry":{"type":"LineString","coordinates":[[3.764953,51.05283],[3.76443,51.05437]]},"properties":{"highway":"service","vertex1":6767,"vertex2":5386}},{"type":"Feature","geometry":{"type":"LineString","coordinates":[[3.764953,51.05283],[3.764471,51.05285],[3.76439,51.05287],[3.764332,51.05293],[3.764246,51.05317],[3.764098,51.05361],[3.764062,51.05372],[3.764042,51.05384],[3.76396,51.0541],[3.763951,51.05417],[3.763992,51.05424]]},"properties":{"highway":"service","vertex1":6767,"vertex2":5384}},{"type":"Feature","geometry":{"type":"LineString","coordinates":[[3.76443,51.05437],[3.764254,51.05435],[3.764064,51.05429],[3.763992,51.05424]]},"properties":{"highway":"service","vertex1":5386,"vertex2":5384}},{"type":"Feature","geometry":{"type":"LineString","coordinates":[[3.760226,51.05301],[3.75986,51.05381]]},"properties":{"name":"Kasteelstraat","highway":"residential","vertex1":6765,"vertex2":5437}},{"type":"Feature","geometry":{"type":"LineString","coordinates":[[3.75808,51.04553],[3.757564,51.04541]]},"properties":{"name":"Kerkstraat","oneway":"yes","cyclenetwork":"yes","highway":"residential","maxspeed":"30","vertex1":6762,"vertex2":6756}},{"type":"Feature","geometry":{"type":"LineString","coordinates":[[3.75808,51.04553],[3.758218,51.04551],[3.758353,51.04546]]},"properties":{"name":"Emanuel Hielstraat","oneway":"yes","cyclenetwork":"yes","highway":"residential","maxspeed":"30","vertex1":6762,"vertex2":6707}},{"type":"Feature","geometry":{"type":"LineString","coordinates":[[3.766928,51.04597],[3.765143,51.04704]]},"properties":{"name":"Jules Van Biesbroeckstraat","highway":"residential","maxspeed":"30","vertex1":6761,"vertex2":6710}},{"type":"Feature","geometry":{"type":"LineString","coordinates":[[3.766928,51.04597],[3.76827,51.04517]]},"properties":{"name":"Jules Van Biesbroeckstraat","highway":"residential","maxspeed":"30","vertex1":6761,"vertex2":6757}},{"type":"Feature","geometry":{"type":"LineString","coordinates":[[3.766928,51.04597],[3.767807,51.04657]]},"properties":{"name":"Slootwede","highway":"residential","maxspeed":"30","vertex1":6761,"vertex2":6727}},{"type":"Feature","geometry":{"type":"LineString","coordinates":[[3.761907,51.04368],[3.762329,51.04379]]},"properties":{"name":"Meidoornhof","highway":"residential","maxspeed":"30","vertex1":6760,"vertex2":6696}},{"type":"Feature","geometry":{"type":"LineString","coordinates":[[3.765032,51.047],[3.764819,51.04731]]},"properties":{"name":"Jules Van Biesbroeckstraat","highway":"residential","vertex1":6759,"vertex2":6708}},{"type":"Feature","geometry":{"type":"LineString","coordinates":[[3.765032,51.047],[3.764393,51.04684]]},"properties":{"name":"Gentbruggekouter","highway":"residential","maxspeed":"30","vertex1":6759,"vertex2":6754}},{"type":"Feature","geometry":{"type":"LineString","coordinates":[[3.765032,51.047],[3.765143,51.04704]]},"properties":{"name":"Gentbruggekouter","maxspeed":"50","highway":"residential","vertex1":6759,"vertex2":6710}},{"type":"Feature","geometry":{"type":"LineString","coordinates":[[3.761766,51.04566],[3.763228,51.04631]]},"properties":{"name":"Gentbruggekouter","highway":"residential","maxspeed":"30","vertex1":6758,"vertex2":6726}},{"type":"Feature","geometry":{"type":"LineString","coordinates":[[3.761766,51.04566],[3.75939,51.04464]]},"properties":{"name":"Gentbruggekouter","highway":"residential","maxspeed":"30","vertex1":6758,"vertex2":6721}},{"type":"Feature","geometry":{"type":"LineString","coordinates":[[3.761766,51.04566],[3.76256,51.04522]]},"properties":{"maxspeed":"30","highway":"track","vertex1":6758,"vertex2":6719}},{"type":"Feature","geometry":{"type":"LineString","coordinates":[[3.757564,51.04541],[3.757169,51.04532]]},"properties":{"name":"Kerkstraat","oneway":"yes","cyclenetwork":"yes","highway":"residential","maxspeed":"30","vertex1":6756,"vertex2":6668}},{"type":"Feature","geometry":{"type":"LineString","coordinates":[[3.757564,51.04541],[3.757459,51.04569],[3.757469,51.04573],[3.757933,51.04583],[3.758005,51.04581],[3.758101,51.04581],[3.758138,51.04566],[3.758264,51.04568],[3.758358,51.04593],[3.75853,51.04592]]},"properties":{"highway":"service","vertex1":6756,"vertex2":6709}},{"type":"Feature","geometry":{"type":"LineString","coordinates":[[3.762628,51.0434],[3.762329,51.04379]]},"properties":{"name":"Achterdries","motorcar":"no","highway":"residential","maxspeed":"30","vertex1":6755,"vertex2":6696}},{"type":"Feature","geometry":{"type":"LineString","coordinates":[[3.762628,51.0434],[3.762982,51.04293]]},"properties":{"name":"Achterdries","motorcar":"no","highway":"residential","maxspeed":"30","vertex1":6755,"vertex2":6753}},{"type":"Feature","geometry":{"type":"LineString","coordinates":[[3.764393,51.04684],[3.764429,51.04693],[3.764819,51.04731]]},"properties":{"name":"Jules Van Biesbroeckstraat","highway":"residential","maxspeed":"30","vertex1":6754,"vertex2":6708}},{"type":"Feature","geometry":{"type":"LineString","coordinates":[[3.764393,51.04684],[3.763228,51.04631]]},"properties":{"name":"Gentbruggekouter","highway":"residential","maxspeed":"30","vertex1":6754,"vertex2":6726}},{"type":"Feature","geometry":{"type":"LineString","coordinates":[[3.762982,51.04293],[3.764098,51.04319]]},"properties":{"name":"Achterdries","highway":"residential","maxspeed":"30","vertex1":6753,"vertex2":6745}},{"type":"Feature","geometry":{"type":"LineString","coordinates":[[3.762982,51.04293],[3.76268,51.04286],[3.762533,51.04279]]},"properties":{"name":"Achterdries","highway":"residential","maxspeed":"30","vertex1":6753,"vertex2":6735}},{"type":"Feature","geometry":{"type":"LineString","coordinates":[[3.763482,51.04248],[3.76372,51.04254]]},"properties":{"highway":"service","vertex1":6752,"vertex2":6714}},{"type":"Feature","geometry":{"type":"LineString","coordinates":[[3.76783,51.04677],[3.767691,51.04666]]},"properties":{"name":"Slootwede","highway":"residential","maxspeed":"30","vertex1":6751,"vertex2":6737}},{"type":"Feature","geometry":{"type":"LineString","coordinates":[[3.7638,51.04526],[3.76407,51.04553],[3.76401,51.0456]]},"properties":{"name":"Rodebeukendreef","highway":"residential","oneway":"-1","vertex1":6750,"vertex2":6748}},{"type":"Feature","geometry":{"type":"LineString","coordinates":[[3.7638,51.04526],[3.764671,51.04496]]},"properties":{"name":"Rodebeukenhof","highway":"residential","maxspeed":"30","vertex1":6750,"vertex2":6742}},{"type":"Feature","geometry":{"type":"LineString","coordinates":[[3.7638,51.04526],[3.763492,51.04538]]},"properties":{"name":"Rodebeukenhof","highway":"residential","maxspeed":"30","vertex1":6750,"vertex2":6703}},{"type":"Feature","geometry":{"type":"LineString","coordinates":[[3.758346,51.04711],[3.75838,51.04707],[3.75823,51.04704],[3.758288,51.04686],[3.758493,51.04688]]},"properties":{"highway":"path","vertex1":6749,"vertex2":6711}},{"type":"Feature","geometry":{"type":"LineString","coordinates":[[3.758346,51.04711],[3.756715,51.04668]]},"properties":{"name":"Nederbrugstraat","maxspeed":"30","highway":"track","vertex1":6749,"vertex2":6688}},{"type":"Feature","geometry":{"type":"LineString","coordinates":[[3.76401,51.0456],[3.763994,51.04561]]},"properties":{"name":"Rodebeukendreef","highway":"residential","oneway":"-1","vertex1":6748,"vertex2":6720}},{"type":"Feature","geometry":{"type":"LineString","coordinates":[[3.76401,51.0456],[3.764774,51.04594]]},"properties":{"highway":"service","vertex1":6748,"vertex2":6731}},{"type":"Feature","geometry":{"type":"LineString","coordinates":[[3.764799,51.04424],[3.765164,51.04477]]},"properties":{"name":"Platanendreef","highway":"residential","maxspeed":"30","vertex1":6747,"vertex2":6738}},{"type":"Feature","geometry":{"type":"LineString","coordinates":[[3.764799,51.04424],[3.76459,51.04393]]},"properties":{"name":"Platanendreef","highway":"residential","maxspeed":"30","vertex1":6747,"vertex2":6706}},{"type":"Feature","geometry":{"type":"LineString","coordinates":[[3.764799,51.04424],[3.763856,51.0445]]},"properties":{"name":"Meidoorndreef","highway":"residential","maxspeed":"30","vertex1":6747,"vertex2":6722}},{"type":"Feature","geometry":{"type":"LineString","coordinates":[[3.764799,51.04424],[3.766224,51.04395]]},"properties":{"name":"Meidoorndreef","maxspeed":"30","highway":"track","vertex1":6747,"vertex2":6718}},{"type":"Feature","geometry":{"type":"LineString","coordinates":[[3.765332,51.04377],[3.76459,51.04393]]},"properties":{"name":"Platanenhof","highway":"residential","maxspeed":"30","vertex1":6746,"vertex2":6706}},{"type":"Feature","geometry":{"type":"LineString","coordinates":[[3.764098,51.04319],[3.76459,51.04393]]},"properties":{"name":"Platanendreef","highway":"residential","maxspeed":"30","vertex1":6745,"vertex2":6706}},{"type":"Feature","geometry":{"type":"LineString","coordinates":[[3.764098,51.04319],[3.764362,51.04322],[3.764798,51.04321],[3.765239,51.04317],[3.765606,51.04308]]},"properties":{"name":"Achterdries","highway":"residential","maxspeed":"30","vertex1":6745,"vertex2":6697}},{"type":"Feature","geometry":{"type":"LineString","coordinates":[[3.767493,51.04459],[3.767335,51.04453],[3.766596,51.04421]]},"properties":{"name":"Robiniadreef","highway":"residential","maxspeed":"30","vertex1":6744,"vertex2":6736}},{"type":"Feature","geometry":{"type":"LineString","coordinates":[[3.767493,51.04459],[3.767769,51.04411]]},"properties":{"name":"Robiniahof","highway":"residential","maxspeed":"30","vertex1":6744,"vertex2":6715}},{"type":"Feature","geometry":{"type":"LineString","coordinates":[[3.767573,51.04673],[3.767691,51.04666]]},"properties":{"name":"Slootwede","highway":"residential","maxspeed":"30","vertex1":6743,"vertex2":6737}},{"type":"Feature","geometry":{"type":"LineString","coordinates":[[3.764671,51.04496],[3.765017,51.04536],[3.764841,51.04545]]},"properties":{"name":"Rodebeukenhof","highway":"residential","maxspeed":"30","vertex1":6742,"vertex2":6740}},{"type":"Feature","geometry":{"type":"LineString","coordinates":[[3.764671,51.04496],[3.765164,51.04477]]},"properties":{"name":"Rodebeukenhof","highway":"residential","maxspeed":"30","vertex1":6742,"vertex2":6738}},{"type":"Feature","geometry":{"type":"LineString","coordinates":[[3.762514,51.04383],[3.761854,51.04445]]},"properties":{"name":"Meidoornhof","highway":"residential","maxspeed":"30","vertex1":6741,"vertex2":6739}},{"type":"Feature","geometry":{"type":"LineString","coordinates":[[3.762514,51.04383],[3.763173,51.044],[3.763406,51.04408],[3.763624,51.04422],[3.763856,51.0445]]},"properties":{"name":"Meidoornhof","highway":"residential","maxspeed":"30","vertex1":6741,"vertex2":6722}},{"type":"Feature","geometry":{"type":"LineString","coordinates":[[3.762514,51.04383],[3.762329,51.04379]]},"properties":{"name":"Meidoornhof","highway":"residential","maxspeed":"30","vertex1":6741,"vertex2":6696}},{"type":"Feature","geometry":{"type":"LineString","coordinates":[[3.765164,51.04477],[3.765502,51.04465]]},"properties":{"name":"Berkendreef","highway":"residential","maxspeed":"30","vertex1":6738,"vertex2":6704}},{"type":"Feature","geometry":{"type":"LineString","coordinates":[[3.767691,51.04666],[3.767807,51.04657]]},"properties":{"name":"Slootwede","highway":"residential","maxspeed":"30","vertex1":6737,"vertex2":6727}},{"type":"Feature","geometry":{"type":"LineString","coordinates":[[3.766596,51.04421],[3.765834,51.04453],[3.765502,51.04465]]},"properties":{"name":"Berkendreef","highway":"residential","maxspeed":"30","vertex1":6736,"vertex2":6704}},{"type":"Feature","geometry":{"type":"LineString","coordinates":[[3.766596,51.04421],[3.766414,51.04409],[3.766224,51.04395]]},"properties":{"name":"Robiniadreef","highway":"residential","maxspeed":"30","vertex1":6736,"vertex2":6718}},{"type":"Feature","geometry":{"type":"LineString","coordinates":[[3.762533,51.04279],[3.761279,51.04352]]},"properties":{"name":"Klokstraat","highway":"residential","maxspeed":"30","vertex1":6735,"vertex2":6729}},{"type":"Feature","geometry":{"type":"LineString","coordinates":[[3.763566,51.04274],[3.76372,51.04254]]},"properties":{"highway":"service","vertex1":6734,"vertex2":6714}},{"type":"Feature","geometry":{"type":"LineString","coordinates":[[3.767892,51.04773],[3.768154,51.04725]]},"properties":{"name":"Oudekouter","highway":"footway","vertex1":6733,"vertex2":6700}},{"type":"Feature","geometry":{"type":"LineString","coordinates":[[3.767892,51.04773],[3.765143,51.04704]]},"properties":{"name":"Gentbruggekouter","maxspeed":"50","highway":"residential","vertex1":6733,"vertex2":6710}},{"type":"Feature","geometry":{"type":"LineString","coordinates":[[3.758604,51.04486],[3.75892,51.04496],[3.759233,51.04458]]},"properties":{"name":"Gentbruggeplein","highway":"residential","maxspeed":"30","vertex1":6732,"vertex2":6724}},{"type":"Feature","geometry":{"type":"LineString","coordinates":[[3.758604,51.04486],[3.758594,51.0449],[3.758452,51.04538],[3.758353,51.04546]]},"properties":{"name":"Emanuel Hielstraat","oneway":"yes","cyclenetwork":"yes","highway":"residential","maxspeed":"30","vertex1":6732,"vertex2":6707}},{"type":"Feature","geometry":{"type":"LineString","coordinates":[[3.758604,51.04486],[3.758716,51.04469]]},"properties":{"name":"Emanuel Hielstraat","cyclenetwork":"yes","highway":"residential","maxspeed":"30","vertex1":6732,"vertex2":6699}},{"type":"Feature","geometry":{"type":"LineString","coordinates":[[3.758452,51.04707],[3.758473,51.04705]]},"properties":{"highway":"path","vertex1":6730,"vertex2":6713}},{"type":"Feature","geometry":{"type":"LineString","coordinates":[[3.761279,51.04352],[3.75939,51.04464]]},"properties":{"name":"Klokstraat","highway":"residential","maxspeed":"30","vertex1":6729,"vertex2":6721}},{"type":"Feature","geometry":{"type":"LineString","coordinates":[[3.761279,51.04352],[3.759394,51.04288]]},"properties":{"name":"Antoon van Dyckstraat","highway":"residential","maxspeed":"30","vertex1":6729,"vertex2":6712}},{"type":"Feature","geometry":{"type":"LineString","coordinates":[[3.766756,51.0427],[3.767055,51.04256]]},"properties":{"name":"Achterdries","highway":"residential","maxspeed":"30","vertex1":6728,"vertex2":6702}},{"type":"Feature","geometry":{"type":"LineString","coordinates":[[3.766756,51.0427],[3.766227,51.04289],[3.765606,51.04308]]},"properties":{"name":"Achterdries","highway":"residential","maxspeed":"30","vertex1":6728,"vertex2":6697}},{"type":"Feature","geometry":{"type":"LineString","coordinates":[[3.767807,51.04657],[3.768151,51.04634]]},"properties":{"name":"Slootwede","highway":"residential","maxspeed":"30","vertex1":6727,"vertex2":6725}},{"type":"Feature","geometry":{"type":"LineString","coordinates":[[3.763228,51.04631],[3.763966,51.0457],[3.763984,51.04563],[3.763994,51.04561]]},"properties":{"name":"Rodebeukendreef","highway":"residential","maxspeed":"30","vertex1":6726,"vertex2":6720}},{"type":"Feature","geometry":{"type":"LineString","coordinates":[[3.768151,51.04634],[3.768304,51.04623]]},"properties":{"name":"Slootwede","highway":"residential","maxspeed":"30","vertex1":6725,"vertex2":6723}},{"type":"Feature","geometry":{"type":"LineString","coordinates":[[3.759233,51.04458],[3.75939,51.04464]]},"properties":{"name":"Gentbruggeplein","highway":"residential","maxspeed":"30","vertex1":6724,"vertex2":6721}},{"type":"Feature","geometry":{"type":"LineString","coordinates":[[3.759233,51.04458],[3.758883,51.04448]]},"properties":{"name":"Gentbruggeplein","highway":"residential","maxspeed":"30","vertex1":6724,"vertex2":6701}},{"type":"Feature","geometry":{"type":"LineString","coordinates":[[3.763856,51.0445],[3.763464,51.04465],[3.76289,51.04494],[3.762857,51.04507]]},"properties":{"name":"Meidoorndreef","highway":"residential","maxspeed":"30","vertex1":6722,"vertex2":6705}},{"type":"Feature","geometry":{"type":"LineString","coordinates":[[3.763994,51.04561],[3.763492,51.04538]]},"properties":{"name":"Rodebeukendreef","oneway":"yes","highway":"residential","maxspeed":"30","vertex1":6720,"vertex2":6703}},{"type":"Feature","geometry":{"type":"LineString","coordinates":[[3.76256,51.04522],[3.762857,51.04507]]},"properties":{"highway":"residential","maxspeed":"30","vertex1":6719,"vertex2":6705}},{"type":"Feature","geometry":{"type":"LineString","coordinates":[[3.766224,51.04395],[3.766002,51.04372],[3.765606,51.04308]]},"properties":{"name":"Robiniadreef","highway":"residential","maxspeed":"30","vertex1":6718,"vertex2":6697}},{"type":"Feature","geometry":{"type":"LineString","coordinates":[[3.767408,51.04388],[3.767769,51.04411]]},"properties":{"name":"Robiniahof","highway":"residential","maxspeed":"30","vertex1":6717,"vertex2":6715}},{"type":"Feature","geometry":{"type":"LineString","coordinates":[[3.765961,51.04508],[3.765881,51.04505],[3.765502,51.04465]]},"properties":{"name":"Berkenhof","highway":"residential","maxspeed":"30","vertex1":6716,"vertex2":6704}},{"type":"Feature","geometry":{"type":"LineString","coordinates":[[3.758473,51.04705],[3.758493,51.04688]]},"properties":{"name":"Gentbruggeaard","highway":"residential","maxspeed":"30","vertex1":6713,"vertex2":6711}},{"type":"Feature","geometry":{"type":"LineString","coordinates":[[3.759394,51.04288],[3.759288,51.04305],[3.759274,51.0432]]},"properties":{"name":"Emanuel Hielstraat","highway":"residential","vertex1":6712,"vertex2":6698}},{"type":"Feature","geometry":{"type":"LineString","coordinates":[[3.759394,51.04288],[3.759698,51.04249],[3.761194,51.04119],[3.761415,51.041]]},"properties":{"name":"Emanuel Hielstraat","highway":"residential","vertex1":6712,"vertex2":7068}},{"type":"Feature","geometry":{"type":"LineString","coordinates":[[3.758493,51.04688],[3.758612,51.04604],[3.75853,51.04592]]},"properties":{"name":"Gentbruggeaard","highway":"residential","maxspeed":"30","vertex1":6711,"vertex2":6709}},{"type":"Feature","geometry":{"type":"LineString","coordinates":[[3.75853,51.04592],[3.758353,51.04546]]},"properties":{"name":"Gentbruggeaard","highway":"residential","maxspeed":"30","vertex1":6709,"vertex2":6707}},{"type":"Feature","geometry":{"type":"LineString","coordinates":[[3.762857,51.04507],[3.762908,51.04512],[3.763046,51.0452],[3.763492,51.04538]]},"properties":{"name":"Meidoorndreef","highway":"residential","maxspeed":"30","vertex1":6705,"vertex2":6703}},{"type":"Feature","geometry":{"type":"LineString","coordinates":[[3.758883,51.04448],[3.758716,51.04469]]},"properties":{"name":"Emanuel Hielstraat","highway":"residential","maxspeed":"30","vertex1":6701,"vertex2":6699}},{"type":"Feature","geometry":{"type":"LineString","coordinates":[[3.758883,51.04448],[3.758779,51.04444],[3.758736,51.04436],[3.759228,51.04351],[3.759274,51.0432]]},"properties":{"name":"Emanuel Hielstraat","oneway":"yes","highway":"residential","maxspeed":"30","vertex1":6701,"vertex2":6698}},{"type":"Feature","geometry":{"type":"LineString","coordinates":[[3.758716,51.04469],[3.755689,51.04396]]},"properties":{"name":"Sint-Simonstraat","oneway":"yes","cyclenetwork":"yes","highway":"residential","maxspeed":"30","vertex1":6699,"vertex2":6616}},{"type":"Feature","geometry":{"type":"LineString","coordinates":[[3.755689,51.04396],[3.755853,51.04387],[3.757178,51.0436]]},"properties":{"name":"Tweekapellenstraat","oneway":"yes","highway":"residential","maxspeed":"30","vertex1":6616,"vertex2":6651}},{"type":"Feature","geometry":{"type":"LineString","coordinates":[[3.759274,51.0432],[3.757928,51.04345],[3.757178,51.0436]]},"properties":{"name":"Tweekapellenstraat","oneway":"yes","highway":"residential","maxspeed":"30","vertex1":6698,"vertex2":6651}}]}