{"type":"FeatureCollection","features":[{"type":"Feature","geometry":{"type":"LineString","coordinates":[[3.757324,51.04139],[3.779297,51.04139],[3.779297,51.02758],[3.757324,51.02758],[3.757324,51.04139]]},"properties":{"id":"89825451","zoom":"14"}},{"type":"Feature","geometry":{"type":"LineString","coordinates":[[3.757484,51.02799],[3.75785,51.02783]]},"properties":{"highway":"footway","vertex1":7549,"vertex2":7487}},{"type":"Feature","geometry":{"type":"LineString","coordinates":[[3.757484,51.02799],[3.757383,51.02803],[3.757214,51.02811],[3.757057,51.02818]]},"properties":{"highway":"footway","vertex1":7549,"vertex2":7558}},{"type":"Feature","geometry":{"type":"LineString","coordinates":[[3.757484,51.02799],[3.757609,51.02802]]},"properties":{"highway":"footway","vertex1":7549,"vertex2":7543}},{"type":"Feature","geometry":{"type":"LineString","coordinates":[[3.757484,51.02799],[3.757402,51.02795]]},"properties":{"highway":"footway","vertex1":7549,"vertex2":7489}},{"type":"Feature","geometry":{"type":"LineString","coordinates":[[3.757057,51.02818],[3.757085,51.0282]]},"properties":{"highway":"footway","vertex1":7558,"vertex2":7634}},{"type":"Feature","geometry":{"type":"LineString","coordinates":[[3.758739,51.02792],[3.75872,51.02794],[3.758727,51.02797],[3.758728,51.02802],[3.758787,51.02807],[3.758795,51.02811],[3.758827,51.02816],[3.758816,51.02819],[3.758765,51.02821]]},"properties":{"highway":"footway","vertex1":7547,"vertex2":7536}},{"type":"Feature","geometry":{"type":"LineString","coordinates":[[3.758739,51.02792],[3.758723,51.0279],[3.758724,51.02788],[3.75871,51.02785],[3.75873,51.02784]]},"properties":{"highway":"footway","vertex1":7547,"vertex2":7485}},{"type":"Feature","geometry":{"type":"LineString","coordinates":[[3.757878,51.02775],[3.757801,51.02779]]},"properties":{"name":"Wijkpark De Porre","highway":"service","vertex1":7545,"vertex2":7453}},{"type":"Feature","geometry":{"type":"LineString","coordinates":[[3.757878,51.02775],[3.758013,51.02769],[3.758091,51.02776]]},"properties":{"highway":"footway","vertex1":7545,"vertex2":7475}},{"type":"Feature","geometry":{"type":"LineString","coordinates":[[3.757609,51.02802],[3.75764,51.02808],[3.757689,51.02817],[3.757725,51.02819]]},"properties":{"highway":"footway","vertex1":7543,"vertex2":7539}},{"type":"Feature","geometry":{"type":"LineString","coordinates":[[3.757609,51.02802],[3.757694,51.02801],[3.757757,51.02802],[3.757841,51.02806],[3.757883,51.02809]]},"properties":{"highway":"footway","vertex1":7543,"vertex2":7510}},{"type":"Feature","geometry":{"type":"LineString","coordinates":[[3.759165,51.02835],[3.759123,51.02831]]},"properties":{"highway":"footway","vertex1":7541,"vertex2":7465}},{"type":"Feature","geometry":{"type":"LineString","coordinates":[[3.759165,51.02835],[3.759213,51.02843],[3.759212,51.02853]]},"properties":{"foot":"no","highway":"footway","vertex1":7541,"vertex2":7468}},{"type":"Feature","geometry":{"type":"LineString","coordinates":[[3.759155,51.02821],[3.75875,51.02783]]},"properties":{"highway":"footway","vertex1":7540,"vertex2":7483}},{"type":"Feature","geometry":{"type":"LineString","coordinates":[[3.759155,51.02821],[3.759213,51.02829]]},"properties":{"highway":"footway","vertex1":7540,"vertex2":7530}},{"type":"Feature","geometry":{"type":"LineString","coordinates":[[3.757725,51.02819],[3.757861,51.02813]]},"properties":{"name":"Wijkpark De Porre","highway":"pedestrian","vertex1":7539,"vertex2":7473}},{"type":"Feature","geometry":{"type":"LineString","coordinates":[[3.757725,51.02819],[3.757487,51.0283]]},"properties":{"name":"Wijkpark De Porre","highway":"pedestrian","vertex1":7539,"vertex2":7491}},{"type":"Feature","geometry":{"type":"LineString","coordinates":[[3.758695,51.02814],[3.758614,51.02808],[3.75852,51.0281]]},"properties":{"highway":"footway","vertex1":7538,"vertex2":7445}},{"type":"Feature","geometry":{"type":"LineString","coordinates":[[3.758695,51.02814],[3.758765,51.02821]]},"properties":{"highway":"footway","vertex1":7538,"vertex2":7536}},{"type":"Feature","geometry":{"type":"LineString","coordinates":[[3.758695,51.02814],[3.758658,51.0282],[3.758624,51.02823],[3.75858,51.02824],[3.758543,51.02823],[3.758503,51.0282]]},"properties":{"highway":"footway","vertex1":7538,"vertex2":7521}},{"type":"Feature","geometry":{"type":"LineString","coordinates":[[3.764589,51.02967],[3.764662,51.02974]]},"properties":{"oneway":"yes","highway":"service","vertex1":7537,"vertex2":7448}},{"type":"Feature","geometry":{"type":"LineString","coordinates":[[3.764589,51.02967],[3.764002,51.0295],[3.764174,51.02927],[3.764618,51.0294],[3.764768,51.0294],[3.765016,51.02946],[3.765103,51.02953]]},"properties":{"oneway":"yes","highway":"service","vertex1":7537,"vertex2":7450}},{"type":"Feature","geometry":{"type":"LineString","coordinates":[[3.758765,51.02821],[3.758926,51.02835]]},"properties":{"highway":"footway","vertex1":7536,"vertex2":7534}},{"type":"Feature","geometry":{"type":"LineString","coordinates":[[3.758926,51.02835],[3.758933,51.02839],[3.75887,51.02842],[3.758768,51.02843],[3.758706,51.02844]]},"properties":{"highway":"footway","vertex1":7534,"vertex2":7532}},{"type":"Feature","geometry":{"type":"LineString","coordinates":[[3.758926,51.02835],[3.758983,51.02832],[3.759024,51.02831],[3.759123,51.02831]]},"properties":{"highway":"footway","vertex1":7534,"vertex2":7465}},{"type":"Feature","geometry":{"type":"LineString","coordinates":[[3.757698,51.02771],[3.757801,51.02779]]},"properties":{"highway":"footway","vertex1":7533,"vertex2":7453}},{"type":"Feature","geometry":{"type":"LineString","coordinates":[[3.757698,51.02771],[3.757665,51.02768],[3.757626,51.02764],[3.757455,51.02749]]},"properties":{"highway":"footway","vertex1":7533,"vertex2":7463}},{"type":"Feature","geometry":{"type":"LineString","coordinates":[[3.757698,51.02771],[3.757203,51.02793],[3.757292,51.028]]},"properties":{"highway":"footway","vertex1":7533,"vertex2":7563}},{"type":"Feature","geometry":{"type":"LineString","coordinates":[[3.757698,51.02771],[3.757787,51.02767],[3.757752,51.02764],[3.757896,51.02757],[3.758036,51.0275]]},"properties":{"highway":"footway","vertex1":7533,"vertex2":7546}},{"type":"Feature","geometry":{"type":"LineString","coordinates":[[3.757292,51.028],[3.757319,51.02799],[3.757402,51.02795]]},"properties":{"name":"Wijkpark De Porre","highway":"service","vertex1":7563,"vertex2":7489}},{"type":"Feature","geometry":{"type":"LineString","coordinates":[[3.758036,51.0275],[3.758115,51.02747]]},"properties":{"highway":"footway","vertex1":7546,"vertex2":7548}},{"type":"Feature","geometry":{"type":"LineString","coordinates":[[3.759213,51.02829],[3.759123,51.02831]]},"properties":{"highway":"footway","vertex1":7530,"vertex2":7465}},{"type":"Feature","geometry":{"type":"LineString","coordinates":[[3.767818,51.02837],[3.767895,51.02841],[3.76793,51.02843],[3.768841,51.02892]]},"properties":{"name":"Jan Van Aelbroecklaan","highway":"residential","vertex1":7528,"vertex2":7293}},{"type":"Feature","geometry":{"type":"LineString","coordinates":[[3.767818,51.02837],[3.768709,51.02791],[3.769044,51.0277],[3.769629,51.02731],[3.77161,51.02575]]},"properties":{"name":"Brusselsesteenweg","oneway":"yes","highway":"primary","maxspeed":"70","vertex1":7528,"vertex2":7321}},{"type":"Feature","geometry":{"type":"LineString","coordinates":[[3.767818,51.02837],[3.76756,51.0285],[3.766516,51.02901]]},"properties":{"name":"Brusselsesteenweg","oneway":"yes","highway":"primary","maxspeed":"70","vertex1":7528,"vertex2":7517}},{"type":"Feature","geometry":{"type":"LineString","coordinates":[[3.75868,51.02842],[3.758474,51.02823],[3.758503,51.0282]]},"properties":{"highway":"footway","vertex1":7525,"vertex2":7521}},{"type":"Feature","geometry":{"type":"LineString","coordinates":[[3.765725,51.02922],[3.76296,51.02836]]},"properties":{"name":"Rode-Kruisstraat","maxspeed":"50","highway":"residential","vertex1":7523,"vertex2":7481}},{"type":"Feature","geometry":{"type":"LineString","coordinates":[[3.765725,51.02922],[3.765362,51.0294],[3.765103,51.02953]]},"properties":{"name":"Brusselsesteenweg","oneway":"yes","highway":"primary","maxspeed":"70","vertex1":7523,"vertex2":7450}},{"type":"Feature","geometry":{"type":"LineString","coordinates":[[3.765725,51.02922],[3.76728,51.02845]]},"properties":{"name":"Brusselsesteenweg","oneway":"yes","highway":"primary","maxspeed":"70","vertex1":7523,"vertex2":7515}},{"type":"Feature","geometry":{"type":"LineString","coordinates":[[3.758503,51.0282],[3.75852,51.0281]]},"properties":{"highway":"footway","vertex1":7521,"vertex2":7445}},{"type":"Feature","geometry":{"type":"LineString","coordinates":[[3.761389,51.02913],[3.761355,51.02951]]},"properties":{"name":"Peter Benoitlaan","oneway":"yes","maxspeed":"50","highway":"residential","vertex1":7520,"vertex2":7498}},{"type":"Feature","geometry":{"type":"LineString","coordinates":[[3.761389,51.02913],[3.761478,51.02916],[3.761698,51.02927]]},"properties":{"oneway":"yes","maxspeed":"50","highway":"residential","vertex1":7520,"vertex2":7501}},{"type":"Feature","geometry":{"type":"LineString","coordinates":[[3.761389,51.02913],[3.760856,51.02853]]},"properties":{"name":"Peter Benoitlaan","maxspeed":"50","highway":"residential","vertex1":7520,"vertex2":7467}},{"type":"Feature","geometry":{"type":"LineString","coordinates":[[3.762505,51.03099],[3.762594,51.03103],[3.763861,51.0315]]},"properties":{"name":"Bruiloftstraat","highway":"residential","vertex1":7519,"vertex2":7124}},{"type":"Feature","geometry":{"type":"LineString","coordinates":[[3.762505,51.03099],[3.762805,51.03085],[3.764635,51.02994]]},"properties":{"name":"Brusselsesteenweg","oneway":"yes","highway":"primary","maxspeed":"70","vertex1":7519,"vertex2":7472}},{"type":"Feature","geometry":{"type":"LineString","coordinates":[[3.762505,51.03099],[3.762232,51.03112]]},"properties":{"name":"Brusselsesteenweg","oneway":"yes","highway":"primary","maxspeed":"70","vertex1":7519,"vertex2":7459}},{"type":"Feature","geometry":{"type":"LineString","coordinates":[[3.766516,51.02901],[3.766547,51.02905],[3.770458,51.03123]]},"properties":{"name":"Voetbalstraat","highway":"residential","vertex1":7517,"vertex2":7289}},{"type":"Feature","geometry":{"type":"LineString","coordinates":[[3.766516,51.02901],[3.765562,51.02949],[3.764894,51.02982]]},"properties":{"name":"Brusselsesteenweg","oneway":"yes","highway":"primary","maxspeed":"70","vertex1":7517,"vertex2":7479}},{"type":"Feature","geometry":{"type":"LineString","coordinates":[[3.76728,51.02845],[3.767198,51.02842],[3.76571,51.02783],[3.76481,51.02752],[3.764393,51.02742],[3.763944,51.02736]]},"properties":{"name":"Jean Jaurèslaan","oneway":"yes","maxspeed":"50","highway":"residential","vertex1":7515,"vertex2":7509}},{"type":"Feature","geometry":{"type":"LineString","coordinates":[[3.76728,51.02845],[3.767411,51.02839],[3.767833,51.02819]]},"properties":{"name":"Brusselsesteenweg","oneway":"yes","highway":"primary","maxspeed":"70","vertex1":7515,"vertex2":7493}},{"type":"Feature","geometry":{"type":"LineString","coordinates":[[3.763944,51.02736],[3.763855,51.02753],[3.763775,51.02766],[3.763685,51.02778],[3.763581,51.0279],[3.763441,51.02802],[3.76296,51.02836]]},"properties":{"name":"Oscar De Gruyterstraat","maxspeed":"50","highway":"residential","vertex1":7509,"vertex2":7481}},{"type":"Feature","geometry":{"type":"LineString","coordinates":[[3.758493,51.02759],[3.758463,51.02761]]},"properties":{"highway":"footway","vertex1":7513,"vertex2":7502}},{"type":"Feature","geometry":{"type":"LineString","coordinates":[[3.758493,51.02759],[3.759663,51.0271]]},"properties":{"highway":"footway","vertex1":7513,"vertex2":7477}},{"type":"Feature","geometry":{"type":"LineString","coordinates":[[3.758493,51.02759],[3.758648,51.02773],[3.75875,51.02783]]},"properties":{"highway":"footway","vertex1":7513,"vertex2":7483}},{"type":"Feature","geometry":{"type":"LineString","coordinates":[[3.759663,51.0271],[3.759681,51.02713]]},"properties":{"name":"Peter Benoitlaan","maxspeed":"50","highway":"residential","vertex1":7477,"vertex2":7522}},{"type":"Feature","geometry":{"type":"LineString","coordinates":[[3.758304,51.02767],[3.758091,51.02776]]},"properties":{"highway":"footway","vertex1":7511,"vertex2":7475}},{"type":"Feature","geometry":{"type":"LineString","coordinates":[[3.758304,51.02767],[3.758358,51.02765],[3.758422,51.02763]]},"properties":{"highway":"footway","vertex1":7511,"vertex2":7449}},{"type":"Feature","geometry":{"type":"LineString","coordinates":[[3.758304,51.02767],[3.758115,51.02747]]},"properties":{"highway":"footway","vertex1":7511,"vertex2":7548}},{"type":"Feature","geometry":{"type":"LineString","coordinates":[[3.758115,51.02747],[3.758212,51.02743],[3.758422,51.02763]]},"properties":{"highway":"footway","vertex1":7548,"vertex2":7449}},{"type":"Feature","geometry":{"type":"LineString","coordinates":[[3.757883,51.02809],[3.757917,51.02808],[3.75794,51.02806],[3.757981,51.02805],[3.758042,51.02804],[3.758098,51.02802],[3.758144,51.02797]]},"properties":{"highway":"footway","vertex1":7510,"vertex2":7508}},{"type":"Feature","geometry":{"type":"LineString","coordinates":[[3.757883,51.02809],[3.757861,51.02813]]},"properties":{"highway":"footway","vertex1":7510,"vertex2":7473}},{"type":"Feature","geometry":{"type":"LineString","coordinates":[[3.758144,51.02797],[3.758174,51.02793],[3.758198,51.02787]]},"properties":{"highway":"footway","vertex1":7508,"vertex2":7506}},{"type":"Feature","geometry":{"type":"LineString","coordinates":[[3.758144,51.02797],[3.75819,51.02801]]},"properties":{"highway":"footway","vertex1":7508,"vertex2":7486}},{"type":"Feature","geometry":{"type":"LineString","coordinates":[[3.758198,51.02787],[3.758228,51.02785],[3.758265,51.02783],[3.758307,51.02782],[3.758334,51.02784],[3.758382,51.02786],[3.758616,51.02774]]},"properties":{"highway":"footway","vertex1":7506,"vertex2":7504}},{"type":"Feature","geometry":{"type":"LineString","coordinates":[[3.758198,51.02787],[3.75799,51.02781]]},"properties":{"highway":"footway","vertex1":7506,"vertex2":7457}},{"type":"Feature","geometry":{"type":"LineString","coordinates":[[3.758198,51.02787],[3.758297,51.0279],[3.758396,51.02796],[3.75848,51.02803],[3.75852,51.0281]]},"properties":{"highway":"footway","vertex1":7506,"vertex2":7445}},{"type":"Feature","geometry":{"type":"LineString","coordinates":[[3.758616,51.02774],[3.758463,51.02761]]},"properties":{"highway":"footway","vertex1":7504,"vertex2":7502}},{"type":"Feature","geometry":{"type":"LineString","coordinates":[[3.758616,51.02774],[3.758639,51.02775],[3.75873,51.02784]]},"properties":{"highway":"footway","vertex1":7504,"vertex2":7485}},{"type":"Feature","geometry":{"type":"LineString","coordinates":[[3.758463,51.02761],[3.758422,51.02763]]},"properties":{"highway":"footway","vertex1":7502,"vertex2":7449}},{"type":"Feature","geometry":{"type":"LineString","coordinates":[[3.761698,51.02927],[3.761355,51.02951]]},"properties":{"name":"Oscar De Gruyterstraat","maxspeed":"50","highway":"residential","vertex1":7501,"vertex2":7498}},{"type":"Feature","geometry":{"type":"LineString","coordinates":[[3.761698,51.02927],[3.76296,51.02836]]},"properties":{"name":"Oscar De Gruyterstraat","maxspeed":"50","highway":"residential","vertex1":7501,"vertex2":7481}},{"type":"Feature","geometry":{"type":"LineString","coordinates":[[3.761355,51.02951],[3.761303,51.02975],[3.76123,51.03022],[3.761186,51.03069]]},"properties":{"name":"Peter Benoitlaan","oneway":"yes","maxspeed":"50","highway":"residential","vertex1":7498,"vertex2":7496}},{"type":"Feature","geometry":{"type":"LineString","coordinates":[[3.761186,51.03069],[3.761175,51.03136],[3.761173,51.03145]]},"properties":{"name":"Peter Benoitlaan","oneway":"yes","maxspeed":"50","highway":"residential","vertex1":7496,"vertex2":7494}},{"type":"Feature","geometry":{"type":"LineString","coordinates":[[3.761186,51.03069],[3.761283,51.0307],[3.761416,51.03073],[3.761559,51.03077],[3.761872,51.03086],[3.761942,51.03086],[3.762037,51.03082],[3.762139,51.03087],[3.762226,51.03093]]},"properties":{"highway":"service","vertex1":7496,"vertex2":7470}},{"type":"Feature","geometry":{"type":"LineString","coordinates":[[3.759455,51.02892],[3.760856,51.02853]]},"properties":{"name":"Alfons Biebuycklaan","oneway":"yes","highway":"residential","maxspeed":"30","vertex1":7495,"vertex2":7467}},{"type":"Feature","geometry":{"type":"LineString","coordinates":[[3.759455,51.02892],[3.758861,51.02909],[3.758132,51.02929]]},"properties":{"name":"Alfons Biebuycklaan","oneway":"yes","highway":"residential","maxspeed":"30","vertex1":7495,"vertex2":7490}},{"type":"Feature","geometry":{"type":"LineString","coordinates":[[3.759455,51.02892],[3.759212,51.02853]]},"properties":{"highway":"service","vertex1":7495,"vertex2":7468}},{"type":"Feature","geometry":{"type":"LineString","coordinates":[[3.761173,51.03145],[3.761113,51.03148],[3.760914,51.03157],[3.76084,51.03161]]},"properties":{"name":"Brusselsesteenweg","oneway":"yes","highway":"primary","maxspeed":"70","vertex1":7494,"vertex2":7161}},{"type":"Feature","geometry":{"type":"LineString","coordinates":[[3.761173,51.03145],[3.762226,51.03093]]},"properties":{"name":"Brusselsesteenweg","oneway":"yes","highway":"primary","maxspeed":"70","vertex1":7494,"vertex2":7470}},{"type":"Feature","geometry":{"type":"LineString","coordinates":[[3.767833,51.02819],[3.76836,51.02792]]},"properties":{"name":"Brusselsesteenweg","oneway":"yes","highway":"primary","maxspeed":"70","vertex1":7493,"vertex2":7300}},{"type":"Feature","geometry":{"type":"LineString","coordinates":[[3.767833,51.02819],[3.768109,51.02774]]},"properties":{"highway":"service","vertex1":7493,"vertex2":7444}},{"type":"Feature","geometry":{"type":"LineString","coordinates":[[3.760629,51.03144],[3.76053,51.03135],[3.758132,51.02929]]},"properties":{"name":"Jules de Saint-Genoisstraat","oneway":"yes","maxspeed":"50","highway":"residential","vertex1":7492,"vertex2":7490}},{"type":"Feature","geometry":{"type":"LineString","coordinates":[[3.760629,51.03144],[3.760707,51.0315],[3.760734,51.03152],[3.76084,51.03161]]},"properties":{"name":"Jules de Saint-Genoisstraat","oneway":"yes","highway":"residential","vertex1":7492,"vertex2":7161}},{"type":"Feature","geometry":{"type":"LineString","coordinates":[[3.757487,51.0283],[3.757287,51.02839]]},"properties":{"name":"Wijkpark De Porre","highway":"pedestrian","vertex1":7491,"vertex2":7628}},{"type":"Feature","geometry":{"type":"LineString","coordinates":[[3.757487,51.0283],[3.757466,51.02829],[3.757418,51.02825],[3.757275,51.02821],[3.757198,51.02819],[3.757135,51.02819],[3.757085,51.0282]]},"properties":{"highway":"footway","vertex1":7491,"vertex2":7634}},{"type":"Feature","geometry":{"type":"LineString","coordinates":[[3.757287,51.02839],[3.757085,51.0282]]},"properties":{"highway":"footway","vertex1":7628,"vertex2":7634}},{"type":"Feature","geometry":{"type":"LineString","coordinates":[[3.758132,51.02929],[3.757171,51.02845]]},"properties":{"name":"Jules de Saint-Genoisstraat","highway":"residential","maxspeed":"30","vertex1":7490,"vertex2":7605}},{"type":"Feature","geometry":{"type":"LineString","coordinates":[[3.757402,51.02795],[3.757662,51.02784],[3.757801,51.02779]]},"properties":{"name":"Wijkpark De Porre","highway":"service","vertex1":7489,"vertex2":7453}},{"type":"Feature","geometry":{"type":"LineString","coordinates":[[3.75785,51.02783],[3.757801,51.02779]]},"properties":{"highway":"footway","vertex1":7487,"vertex2":7453}},{"type":"Feature","geometry":{"type":"LineString","coordinates":[[3.75785,51.02783],[3.757882,51.02782],[3.75799,51.02781]]},"properties":{"highway":"footway","vertex1":7487,"vertex2":7457}},{"type":"Feature","geometry":{"type":"LineString","coordinates":[[3.75873,51.02784],[3.75875,51.02783]]},"properties":{"highway":"footway","vertex1":7485,"vertex2":7483}},{"type":"Feature","geometry":{"type":"LineString","coordinates":[[3.764437,51.03115],[3.764246,51.03107]]},"properties":{"highway":"service","vertex1":7484,"vertex2":7482}},{"type":"Feature","geometry":{"type":"LineString","coordinates":[[3.764246,51.03107],[3.764,51.03099]]},"properties":{"highway":"service","vertex1":7482,"vertex2":7480}},{"type":"Feature","geometry":{"type":"LineString","coordinates":[[3.764246,51.03107],[3.764367,51.03093]]},"properties":{"highway":"service","vertex1":7482,"vertex2":7476}},{"type":"Feature","geometry":{"type":"LineString","coordinates":[[3.764246,51.03107],[3.763861,51.0315]]},"properties":{"highway":"service","vertex1":7482,"vertex2":7124}},{"type":"Feature","geometry":{"type":"LineString","coordinates":[[3.764894,51.02982],[3.764976,51.02985],[3.766894,51.0305],[3.769436,51.03212]]},"properties":{"name":"Tennisstraat","oneway":"yes","oneway:bicycle":"no","highway":"residential","vertex1":7479,"vertex2":7202}},{"type":"Feature","geometry":{"type":"LineString","coordinates":[[3.764894,51.02982],[3.764635,51.02994]]},"properties":{"name":"Brusselsesteenweg","oneway":"yes","highway":"primary","maxspeed":"70","vertex1":7479,"vertex2":7472}},{"type":"Feature","geometry":{"type":"LineString","coordinates":[[3.76458,51.03101],[3.764367,51.03093]]},"properties":{"highway":"service","vertex1":7478,"vertex2":7476}},{"type":"Feature","geometry":{"type":"LineString","coordinates":[[3.764367,51.03093],[3.764188,51.03086]]},"properties":{"highway":"service","vertex1":7476,"vertex2":7474}},{"type":"Feature","geometry":{"type":"LineString","coordinates":[[3.758091,51.02776],[3.75799,51.02781]]},"properties":{"highway":"footway","vertex1":7475,"vertex2":7457}},{"type":"Feature","geometry":{"type":"LineString","coordinates":[[3.764635,51.02994],[3.764702,51.02998],[3.764832,51.03009],[3.765341,51.03051],[3.765596,51.03069],[3.765693,51.03073],[3.765792,51.03074],[3.765907,51.03075],[3.766173,51.03071],[3.766352,51.03068],[3.766513,51.03071],[3.76669,51.03082],[3.766824,51.03091],[3.767023,51.03111],[3.767047,51.0312],[3.766977,51.03144],[3.767123,51.03152]]},"properties":{"maxspeed":"20","highway":"service","vertex1":7472,"vertex2":7199}},{"type":"Feature","geometry":{"type":"LineString","coordinates":[[3.762226,51.03093],[3.762655,51.03072],[3.764176,51.02998]]},"properties":{"name":"Brusselsesteenweg","oneway":"yes","highway":"primary","maxspeed":"70","vertex1":7470,"vertex2":7452}},{"type":"Feature","geometry":{"type":"LineString","coordinates":[[3.760856,51.02853],[3.759681,51.02713]]},"properties":{"name":"Peter Benoitlaan","maxspeed":"50","highway":"residential","vertex1":7467,"vertex2":7522}},{"type":"Feature","geometry":{"type":"LineString","coordinates":[[3.764377,51.02988],[3.764254,51.02984],[3.763736,51.02971]]},"properties":{"oneway":"yes","highway":"service","vertex1":7466,"vertex2":7454}},{"type":"Feature","geometry":{"type":"LineString","coordinates":[[3.764377,51.02988],[3.764176,51.02998]]},"properties":{"name":"Brusselsesteenweg","oneway":"yes","highway":"primary","maxspeed":"70","vertex1":7466,"vertex2":7452}},{"type":"Feature","geometry":{"type":"LineString","coordinates":[[3.764377,51.02988],[3.764515,51.02982]]},"properties":{"name":"Brusselsesteenweg","oneway":"yes","highway":"primary","maxspeed":"70","vertex1":7466,"vertex2":7464}},{"type":"Feature","geometry":{"type":"LineString","coordinates":[[3.764515,51.02982],[3.764415,51.02977],[3.763875,51.02964],[3.763736,51.02971]]},"properties":{"oneway":"yes","highway":"service","vertex1":7464,"vertex2":7454}},{"type":"Feature","geometry":{"type":"LineString","coordinates":[[3.764515,51.02982],[3.764662,51.02974]]},"properties":{"name":"Brusselsesteenweg","oneway":"yes","highway":"primary","maxspeed":"70","vertex1":7464,"vertex2":7448}},{"type":"Feature","geometry":{"type":"LineString","coordinates":[[3.762232,51.03112],[3.762301,51.03118],[3.762926,51.03169]]},"properties":{"name":"Sint-Eligiusstraat","highway":"residential","vertex1":7459,"vertex2":7195}},{"type":"Feature","geometry":{"type":"LineString","coordinates":[[3.762232,51.03112],[3.761303,51.03157],[3.761266,51.03159]]},"properties":{"name":"Brusselsesteenweg","oneway":"yes","highway":"primary","maxspeed":"70","vertex1":7459,"vertex2":7169}},{"type":"Feature","geometry":{"type":"LineString","coordinates":[[3.763736,51.02971],[3.763653,51.02975],[3.763637,51.0298],[3.764101,51.02993],[3.764176,51.02998]]},"properties":{"oneway":"yes","highway":"service","vertex1":7454,"vertex2":7452}},{"type":"Feature","geometry":{"type":"LineString","coordinates":[[3.765103,51.02953],[3.764662,51.02974]]},"properties":{"name":"Brusselsesteenweg","oneway":"yes","highway":"primary","maxspeed":"70","vertex1":7450,"vertex2":7448}},{"type":"Feature","geometry":{"type":"LineString","coordinates":[[3.768109,51.02774],[3.767661,51.02802],[3.76836,51.02792]]},"properties":{"highway":"service","vertex1":7444,"vertex2":7300}},{"type":"Feature","geometry":{"type":"LineString","coordinates":[[3.768572,51.0278],[3.767518,51.02719],[3.767404,51.02713],[3.767339,51.0271],[3.767319,51.02705]]},"properties":{"name":"Eduard Pêcherstraat","highway":"residential","vertex1":7307,"vertex2":7514}},{"type":"Feature","geometry":{"type":"LineString","coordinates":[[3.768572,51.0278],[3.76836,51.02792]]},"properties":{"name":"Brusselsesteenweg","oneway":"yes","highway":"primary","maxspeed":"70","vertex1":7307,"vertex2":7300}},{"type":"Feature","geometry":{"type":"LineString","coordinates":[[3.768572,51.0278],[3.769165,51.02743],[3.769511,51.02718],[3.770315,51.02657]]},"properties":{"name":"Brusselsesteenweg","oneway":"yes","highway":"primary","maxspeed":"70","vertex1":7307,"vertex2":7282}},{"type":"Feature","geometry":{"type":"LineString","coordinates":[[3.773142,51.03003],[3.774064,51.03067],[3.774189,51.03084]]},"properties":{"name":"Petrus Jozef Triesthof","highway":"residential","vertex1":7306,"vertex2":7305}},{"type":"Feature","geometry":{"type":"LineString","coordinates":[[3.773142,51.03003],[3.772379,51.02954]]},"properties":{"name":"Petrus Jozef Triesthof","highway":"residential","vertex1":7306,"vertex2":7286}},{"type":"Feature","geometry":{"type":"LineString","coordinates":[[3.773142,51.03003],[3.772126,51.03067]]},"properties":{"name":"Petrus Jozef Triesthof","highway":"residential","vertex1":7306,"vertex2":7299}},{"type":"Feature","geometry":{"type":"LineString","coordinates":[[3.774189,51.03084],[3.77411,51.03097],[3.773596,51.03138]]},"properties":{"highway":"path","vertex1":7305,"vertex2":7303}},{"type":"Feature","geometry":{"type":"LineString","coordinates":[[3.773596,51.03138],[3.774011,51.03157]]},"properties":{"name":"Jan Van Aelbroecklaan","highway":"residential","vertex1":7303,"vertex2":7218}},{"type":"Feature","geometry":{"type":"LineString","coordinates":[[3.773596,51.03138],[3.772777,51.03099]]},"properties":{"name":"Jan Van Aelbroecklaan","highway":"residential","vertex1":7303,"vertex2":7301}},{"type":"Feature","geometry":{"type":"LineString","coordinates":[[3.772777,51.03099],[3.772126,51.03067]]},"properties":{"name":"Jan Van Aelbroecklaan","highway":"residential","vertex1":7301,"vertex2":7299}},{"type":"Feature","geometry":{"type":"LineString","coordinates":[[3.772777,51.03099],[3.772116,51.0315],[3.771602,51.03169]]},"properties":{"name":"Bunderhof","highway":"residential","vertex1":7301,"vertex2":7239}},{"type":"Feature","geometry":{"type":"LineString","coordinates":[[3.772126,51.03067],[3.771385,51.0303]]},"properties":{"name":"Jan Van Aelbroecklaan","highway":"residential","vertex1":7299,"vertex2":7291}},{"type":"Feature","geometry":{"type":"LineString","coordinates":[[3.779194,51.0309],[3.778008,51.03116],[3.77658,51.03149],[3.774678,51.03191]]},"properties":{"name":"Weverbosdreef","highway":"track","vertex1":7298,"vertex2":7277}},{"type":"Feature","geometry":{"type":"LineString","coordinates":[[3.779194,51.0309],[3.780245,51.03067],[3.780466,51.03062]]},"properties":{"name":"Weverbosdreef","highway":"track","vertex1":7298,"vertex2":4185}},{"type":"Feature","geometry":{"type":"LineString","coordinates":[[3.779194,51.0309],[3.779298,51.03109]]},"properties":{"highway":"path","vertex1":7298,"vertex2":4196}},{"type":"Feature","geometry":{"type":"LineString","coordinates":[[3.779298,51.03109],[3.777994,51.03239]]},"properties":{"name":"Houw","highway":"residential","vertex1":4196,"vertex2":7273}},{"type":"Feature","geometry":{"type":"LineString","coordinates":[[3.776907,51.0297],[3.775872,51.03067],[3.775747,51.0307]]},"properties":{"highway":"service","vertex1":7297,"vertex2":7287}},{"type":"Feature","geometry":{"type":"LineString","coordinates":[[3.776907,51.0297],[3.777336,51.02929],[3.777355,51.02919],[3.777306,51.02909],[3.775287,51.02824]]},"properties":{"highway":"service","vertex1":7297,"vertex2":7285}},{"type":"Feature","geometry":{"type":"LineString","coordinates":[[3.776907,51.0297],[3.777425,51.02993],[3.777451,51.02998],[3.777451,51.03002],[3.776325,51.03108],[3.776258,51.0311],[3.776172,51.03109],[3.775756,51.03077]]},"properties":{"highway":"service","vertex1":7297,"vertex2":7288}},{"type":"Feature","geometry":{"type":"LineString","coordinates":[[3.770296,51.03137],[3.770278,51.03139],[3.769436,51.03212]]},"properties":{"name":"Arthur Van Laethemstraat","highway":"residential","vertex1":7295,"vertex2":7202}},{"type":"Feature","geometry":{"type":"LineString","coordinates":[[3.770296,51.03137],[3.770458,51.03123]]},"properties":{"name":"Arthur Van Laethemstraat","highway":"residential","vertex1":7295,"vertex2":7289}},{"type":"Feature","geometry":{"type":"LineString","coordinates":[[3.770296,51.03137],[3.770654,51.03152]]},"properties":{"highway":"footway","vertex1":7295,"vertex2":7203}},{"type":"Feature","geometry":{"type":"LineString","coordinates":[[3.768841,51.02892],[3.771385,51.0303]]},"properties":{"name":"Jan Van Aelbroecklaan","highway":"residential","vertex1":7293,"vertex2":7291}},{"type":"Feature","geometry":{"type":"LineString","coordinates":[[3.768841,51.02892],[3.7723,51.02736]]},"properties":{"name":"Jules Destreelaan","highway":"residential","vertex1":7293,"vertex2":7296}},{"type":"Feature","geometry":{"type":"LineString","coordinates":[[3.7723,51.02736],[3.772772,51.02716]]},"properties":{"name":"Jules Destreelaan","highway":"residential","maxspeed":"30","vertex1":7296,"vertex2":7294}},{"type":"Feature","geometry":{"type":"LineString","coordinates":[[3.771385,51.0303],[3.770458,51.03123]]},"properties":{"name":"Arthur Van Laethemstraat","highway":"residential","vertex1":7291,"vertex2":7289}},{"type":"Feature","geometry":{"type":"LineString","coordinates":[[3.775756,51.03077],[3.775747,51.0307]]},"properties":{"highway":"service","vertex1":7288,"vertex2":7287}},{"type":"Feature","geometry":{"type":"LineString","coordinates":[[3.775747,51.0307],[3.775587,51.03067],[3.774632,51.03027],[3.774579,51.03023],[3.773927,51.02961],[3.773911,51.02956],[3.773954,51.02948],[3.775287,51.02824]]},"properties":{"highway":"service","vertex1":7287,"vertex2":7285}},{"type":"Feature","geometry":{"type":"LineString","coordinates":[[3.775287,51.02824],[3.772772,51.02716]]},"properties":{"highway":"service","vertex1":7285,"vertex2":7294}},{"type":"Feature","geometry":{"type":"LineString","coordinates":[[3.768466,51.03398],[3.767843,51.0336]]},"properties":{"highway":"service","vertex1":7281,"vertex2":7148}},{"type":"Feature","geometry":{"type":"LineString","coordinates":[[3.774404,51.0319],[3.774518,51.03191]]},"properties":{"name":"Houw","highway":"residential","vertex1":7280,"vertex2":7279}},{"type":"Feature","geometry":{"type":"LineString","coordinates":[[3.774404,51.0319],[3.774435,51.03201]]},"properties":{"name":"Jan Van Aelbroekstraat","oneway":"yes","highway":"residential","vertex1":7280,"vertex2":7204}},{"type":"Feature","geometry":{"type":"LineString","coordinates":[[3.774404,51.0319],[3.774392,51.03186]]},"properties":{"name":"Jan Van Aelbroekstraat","oneway":"yes","highway":"residential","vertex1":7280,"vertex2":7257}},{"type":"Feature","geometry":{"type":"LineString","coordinates":[[3.774518,51.03191],[3.774678,51.03191]]},"properties":{"name":"Houw","highway":"residential","vertex1":7279,"vertex2":7277}},{"type":"Feature","geometry":{"type":"LineString","coordinates":[[3.774518,51.03191],[3.774512,51.03199]]},"properties":{"highway":"footway","vertex1":7279,"vertex2":7222}},{"type":"Feature","geometry":{"type":"LineString","coordinates":[[3.774518,51.03191],[3.774545,51.03182],[3.774392,51.03186]]},"properties":{"highway":"footway","vertex1":7279,"vertex2":7257}},{"type":"Feature","geometry":{"type":"LineString","coordinates":[[3.77182,51.03249],[3.768652,51.0332]]},"properties":{"name":"Weverboslaan","oneway":"yes","highway":"residential","vertex1":7278,"vertex2":7274}},{"type":"Feature","geometry":{"type":"LineString","coordinates":[[3.77182,51.03249],[3.772064,51.03258],[3.772089,51.03263]]},"properties":{"name":"Bruiloftstraat","oneway":"yes","highway":"residential","vertex1":7278,"vertex2":7272}},{"type":"Feature","geometry":{"type":"LineString","coordinates":[[3.77182,51.03249],[3.772263,51.03241]]},"properties":{"name":"Weverboslaan","highway":"cycleway","vertex1":7278,"vertex2":7243}},{"type":"Feature","geometry":{"type":"LineString","coordinates":[[3.774678,51.03191],[3.775055,51.03203]]},"properties":{"name":"Houw","highway":"residential","vertex1":7277,"vertex2":7275}},{"type":"Feature","geometry":{"type":"LineString","coordinates":[[3.768453,51.03313],[3.76833,51.03322]]},"properties":{"name":"Arthur Van Laethemstraat","highway":"residential","vertex1":7276,"vertex2":7236}},{"type":"Feature","geometry":{"type":"LineString","coordinates":[[3.768453,51.03313],[3.769436,51.03212]]},"properties":{"name":"Arthur Van Laethemstraat","highway":"residential","vertex1":7276,"vertex2":7202}},{"type":"Feature","geometry":{"type":"LineString","coordinates":[[3.768453,51.03313],[3.768652,51.0332]]},"properties":{"name":"Bruiloftstraat","highway":"residential","vertex1":7276,"vertex2":7274}},{"type":"Feature","geometry":{"type":"LineString","coordinates":[[3.775055,51.03203],[3.776167,51.03179],[3.777994,51.03239]]},"properties":{"name":"Houw","highway":"residential","vertex1":7275,"vertex2":7273}},{"type":"Feature","geometry":{"type":"LineString","coordinates":[[3.775055,51.03203],[3.776231,51.03244]]},"properties":{"name":"Jan Van Aelbroeckdreef","highway":"track","vertex1":7275,"vertex2":7212}},{"type":"Feature","geometry":{"type":"LineString","coordinates":[[3.768652,51.0332],[3.768934,51.03329],[3.771526,51.03368],[3.771938,51.03291]]},"properties":{"name":"Bruiloftstraat","oneway":"yes","highway":"residential","vertex1":7274,"vertex2":7216}},{"type":"Feature","geometry":{"type":"LineString","coordinates":[[3.777994,51.03239],[3.778229,51.03249]]},"properties":{"name":"Houw","highway":"residential","vertex1":7273,"vertex2":7271}},{"type":"Feature","geometry":{"type":"LineString","coordinates":[[3.772089,51.03263],[3.771938,51.03291]]},"properties":{"name":"Bruiloftstraat","oneway":"yes","highway":"residential","vertex1":7272,"vertex2":7216}},{"type":"Feature","geometry":{"type":"LineString","coordinates":[[3.772089,51.03263],[3.772263,51.03241]]},"properties":{"name":"Weverboslaan","highway":"cycleway","vertex1":7272,"vertex2":7243}},{"type":"Feature","geometry":{"type":"LineString","coordinates":[[3.778229,51.03249],[3.778726,51.03264]]},"properties":{"highway":"path","vertex1":7271,"vertex2":7241}},{"type":"Feature","geometry":{"type":"LineString","coordinates":[[3.774062,51.03173],[3.774011,51.03157]]},"properties":{"name":"Jan Van Aelbroekstraat","oneway":"yes","highway":"residential","vertex1":7270,"vertex2":7218}},{"type":"Feature","geometry":{"type":"LineString","coordinates":[[3.774062,51.03173],[3.774114,51.03192]]},"properties":{"name":"Jan Van Aelbroeckstraat","oneway":"yes","highway":"residential","vertex1":7270,"vertex2":7224}},{"type":"Feature","geometry":{"type":"LineString","coordinates":[[3.774062,51.03173],[3.774216,51.03166]]},"properties":{"name":"Jan Van Aelbroeckstraat","oneway":"yes","highway":"residential","vertex1":7270,"vertex2":7242}},{"type":"Feature","geometry":{"type":"LineString","coordinates":[[3.775981,51.03479],[3.7759,51.03481]]},"properties":{"name":"Lamme Goedzakstraat","highway":"residential","vertex1":7269,"vertex2":7258}},{"type":"Feature","geometry":{"type":"LineString","coordinates":[[3.775981,51.03479],[3.776404,51.03469],[3.776953,51.03415],[3.77616,51.03269]]},"properties":{"name":"Lamme Goedzakstraat","highway":"residential","vertex1":7269,"vertex2":7267}},{"type":"Feature","geometry":{"type":"LineString","coordinates":[[3.775981,51.03479],[3.776048,51.0349],[3.776111,51.03501],[3.776163,51.03505]]},"properties":{"highway":"path","vertex1":7269,"vertex2":7206}},{"type":"Feature","geometry":{"type":"LineString","coordinates":[[3.773662,51.03502],[3.773646,51.03512],[3.772357,51.03531],[3.77223,51.03498]]},"properties":{"name":"Ooievaarsnest","highway":"residential","vertex1":7268,"vertex2":7232}},{"type":"Feature","geometry":{"type":"LineString","coordinates":[[3.773662,51.03502],[3.77337,51.03501]]},"properties":{"name":"Ooievaarsnest","highway":"residential","vertex1":7268,"vertex2":7254}},{"type":"Feature","geometry":{"type":"LineString","coordinates":[[3.773662,51.03502],[3.774323,51.03505],[3.77441,51.0351],[3.775034,51.03582]]},"properties":{"name":"Ooievaarsnest","highway":"residential","vertex1":7268,"vertex2":7245}},{"type":"Feature","geometry":{"type":"LineString","coordinates":[[3.77616,51.03269],[3.776231,51.03244]]},"properties":{"name":"Lamme Goedzakstraat","highway":"path","vertex1":7267,"vertex2":7212}},{"type":"Feature","geometry":{"type":"LineString","coordinates":[[3.77903,51.03568],[3.779045,51.03565]]},"properties":{"highway":"track","vertex1":7266,"vertex2":7214}},{"type":"Feature","geometry":{"type":"LineString","coordinates":[[3.77903,51.03568],[3.779716,51.03584],[3.780108,51.03592],[3.780229,51.03593]]},"properties":{"name":"Sloversdreef","highway":"track","vertex1":7266,"vertex2":4228}},{"type":"Feature","geometry":{"type":"LineString","coordinates":[[3.77903,51.03568],[3.778087,51.03548],[3.777617,51.03537],[3.777192,51.03528],[3.776734,51.03518],[3.776367,51.03511],[3.776214,51.03509],[3.776163,51.03505]]},"properties":{"name":"Sloversdreef","highway":"track","vertex1":7266,"vertex2":7206}},{"type":"Feature","geometry":{"type":"LineString","coordinates":[[3.77903,51.03568],[3.778844,51.036]]},"properties":{"highway":"path","vertex1":7266,"vertex2":7221}},{"type":"Feature","geometry":{"type":"LineString","coordinates":[[3.773623,51.03363],[3.775054,51.03333]]},"properties":{"name":"Nelestraat","highway":"residential","vertex1":7265,"vertex2":7250}},{"type":"Feature","geometry":{"type":"LineString","coordinates":[[3.773623,51.03363],[3.773571,51.03416]]},"properties":{"name":"Nelestraat","highway":"residential","vertex1":7265,"vertex2":7259}},{"type":"Feature","geometry":{"type":"LineString","coordinates":[[3.773623,51.03363],[3.773346,51.03318],[3.773333,51.0331]]},"properties":{"name":"Nelestraat","highway":"residential","vertex1":7265,"vertex2":7255}},{"type":"Feature","geometry":{"type":"LineString","coordinates":[[3.779132,51.0355],[3.779076,51.03559]]},"properties":{"bicycle":"no","motorcar":"no","foot":"no","highway":"track","vertex1":7264,"vertex2":7230}},{"type":"Feature","geometry":{"type":"LineString","coordinates":[[3.773396,51.03651],[3.773657,51.03657],[3.773748,51.0366]]},"properties":{"highway":"track","vertex1":7263,"vertex2":7237}},{"type":"Feature","geometry":{"type":"LineString","coordinates":[[3.773396,51.03651],[3.773367,51.03651],[3.773152,51.03647],[3.772518,51.03644]]},"properties":{"highway":"track","vertex1":7263,"vertex2":7261}},{"type":"Feature","geometry":{"type":"LineString","coordinates":[[3.773396,51.03651],[3.773487,51.03618]]},"properties":{"highway":"path","vertex1":7263,"vertex2":7233}},{"type":"Feature","geometry":{"type":"LineString","coordinates":[[3.773693,51.03594],[3.773768,51.03611]]},"properties":{"name":"Charles De Costerstraat","highway":"living_street","vertex1":7262,"vertex2":7200}},{"type":"Feature","geometry":{"type":"LineString","coordinates":[[3.772518,51.03644],[3.772023,51.03649],[3.771756,51.03655],[3.771709,51.03656]]},"properties":{"highway":"track","vertex1":7261,"vertex2":7209}},{"type":"Feature","geometry":{"type":"LineString","coordinates":[[3.772518,51.03644],[3.772851,51.03632],[3.773487,51.03618]]},"properties":{"highway":"path","vertex1":7261,"vertex2":7233}},{"type":"Feature","geometry":{"type":"LineString","coordinates":[[3.7744,51.03603],[3.773768,51.03611]]},"properties":{"name":"Charles De Costerstraat","highway":"living_street","vertex1":7260,"vertex2":7200}},{"type":"Feature","geometry":{"type":"LineString","coordinates":[[3.7744,51.03603],[3.775034,51.03582]]},"properties":{"name":"Charles De Costerstraat","highway":"residential","vertex1":7260,"vertex2":7245}},{"type":"Feature","geometry":{"type":"LineString","coordinates":[[3.773571,51.03416],[3.773464,51.03428],[3.77337,51.03501]]},"properties":{"highway":"footway","vertex1":7259,"vertex2":7254}},{"type":"Feature","geometry":{"type":"LineString","coordinates":[[3.7759,51.03481],[3.776028,51.03504],[3.776234,51.0354]]},"properties":{"name":"Tijl Uilenspiegelstraat","highway":"residential","vertex1":7258,"vertex2":7228}},{"type":"Feature","geometry":{"type":"LineString","coordinates":[[3.7759,51.03481],[3.775054,51.03333]]},"properties":{"name":"Tijl Uilenspiegelstraat","highway":"residential","vertex1":7258,"vertex2":7250}},{"type":"Feature","geometry":{"type":"LineString","coordinates":[[3.774392,51.03186],[3.774372,51.03178],[3.774321,51.03171],[3.774216,51.03166]]},"properties":{"name":"Jan Van Aelbroekstraat","oneway":"yes","highway":"residential","vertex1":7257,"vertex2":7242}},{"type":"Feature","geometry":{"type":"LineString","coordinates":[[3.774392,51.03186],[3.774114,51.03192]]},"properties":{"highway":"footway","vertex1":7257,"vertex2":7224}},{"type":"Feature","geometry":{"type":"LineString","coordinates":[[3.778245,51.03316],[3.777957,51.03305],[3.776231,51.03244]]},"properties":{"name":"Jan Van Aelbroeckdreef","highway":"track","vertex1":7256,"vertex2":7212}},{"type":"Feature","geometry":{"type":"LineString","coordinates":[[3.778245,51.03316],[3.781262,51.03423]]},"properties":{"name":"Jan Van Aelbroeckdreef","highway":"track","vertex1":7256,"vertex2":4241}},{"type":"Feature","geometry":{"type":"LineString","coordinates":[[3.778245,51.03316],[3.778726,51.03264]]},"properties":{"highway":"path","vertex1":7256,"vertex2":7241}},{"type":"Feature","geometry":{"type":"LineString","coordinates":[[3.773333,51.0331],[3.773174,51.03304],[3.772793,51.03311],[3.771938,51.03291]]},"properties":{"highway":"path","vertex1":7255,"vertex2":7216}},{"type":"Feature","geometry":{"type":"LineString","coordinates":[[3.77337,51.03501],[3.772754,51.03498],[3.77223,51.03498]]},"properties":{"name":"Ooievaarsnest","highway":"residential","vertex1":7254,"vertex2":7232}},{"type":"Feature","geometry":{"type":"LineString","coordinates":[[3.774138,51.03198],[3.774076,51.032]]},"properties":{"name":"Weverboslaan","highway":"residential","vertex1":7253,"vertex2":7251}},{"type":"Feature","geometry":{"type":"LineString","coordinates":[[3.774138,51.03198],[3.774212,51.03206]]},"properties":{"name":"Jan Van Aelbroekstraat","oneway":"yes","highway":"residential","vertex1":7253,"vertex2":7252}},{"type":"Feature","geometry":{"type":"LineString","coordinates":[[3.774138,51.03198],[3.774114,51.03192]]},"properties":{"name":"Jan Van Aelbroeckstraat","oneway":"yes","highway":"residential","vertex1":7253,"vertex2":7224}},{"type":"Feature","geometry":{"type":"LineString","coordinates":[[3.774212,51.03206],[3.774257,51.0321]]},"properties":{"name":"Jan Van Aelbroekstraat","oneway":"yes","highway":"residential","vertex1":7252,"vertex2":7240}},{"type":"Feature","geometry":{"type":"LineString","coordinates":[[3.774212,51.03206],[3.774435,51.03201]]},"properties":{"highway":"footway","vertex1":7252,"vertex2":7204}},{"type":"Feature","geometry":{"type":"LineString","coordinates":[[3.774212,51.03206],[3.77414,51.03208]]},"properties":{"highway":"footway","vertex1":7252,"vertex2":7201}},{"type":"Feature","geometry":{"type":"LineString","coordinates":[[3.774076,51.032],[3.772263,51.03241]]},"properties":{"name":"Weverboslaan","highway":"residential","vertex1":7251,"vertex2":7243}},{"type":"Feature","geometry":{"type":"LineString","coordinates":[[3.774076,51.032],[3.774016,51.03194],[3.774114,51.03192]]},"properties":{"highway":"footway","vertex1":7251,"vertex2":7224}},{"type":"Feature","geometry":{"type":"LineString","coordinates":[[3.774076,51.032],[3.774121,51.03206],[3.77414,51.03208]]},"properties":{"highway":"footway","vertex1":7251,"vertex2":7201}},{"type":"Feature","geometry":{"type":"LineString","coordinates":[[3.775054,51.03333],[3.774575,51.03248]]},"properties":{"name":"Tijl Uilenspiegelstraat","highway":"residential","vertex1":7250,"vertex2":7210}},{"type":"Feature","geometry":{"type":"LineString","coordinates":[[3.769658,51.03693],[3.769078,51.03674],[3.769056,51.03672]]},"properties":{"bridge":"yes","highway":"track","vertex1":7249,"vertex2":7247}},{"type":"Feature","geometry":{"type":"LineString","coordinates":[[3.769658,51.03693],[3.7697,51.03694]]},"properties":{"highway":"track","vertex1":7249,"vertex2":7246}},{"type":"Feature","geometry":{"type":"LineString","coordinates":[[3.774591,51.03231],[3.774512,51.03199]]},"properties":{"highway":"footway","vertex1":7248,"vertex2":7222}},{"type":"Feature","geometry":{"type":"LineString","coordinates":[[3.769056,51.03672],[3.768318,51.03659]]},"properties":{"bridge":"yes","highway":"track","vertex1":7247,"vertex2":7238}},{"type":"Feature","geometry":{"type":"LineString","coordinates":[[3.769056,51.03672],[3.769075,51.03659]]},"properties":{"highway":"path","vertex1":7247,"vertex2":7215}},{"type":"Feature","geometry":{"type":"LineString","coordinates":[[3.7697,51.03694],[3.769696,51.0371],[3.769731,51.03728]]},"properties":{"highway":"path","vertex1":7246,"vertex2":6896}},{"type":"Feature","geometry":{"type":"LineString","coordinates":[[3.7697,51.03694],[3.770501,51.03706]]},"properties":{"highway":"track","vertex1":7246,"vertex2":6914}},{"type":"Feature","geometry":{"type":"LineString","coordinates":[[3.775034,51.03582],[3.776234,51.0354]]},"properties":{"name":"Charles De Costerstraat","highway":"residential","vertex1":7245,"vertex2":7228}},{"type":"Feature","geometry":{"type":"LineString","coordinates":[[3.775034,51.03582],[3.775944,51.03693]]},"properties":{"highway":"track","vertex1":7245,"vertex2":7235}},{"type":"Feature","geometry":{"type":"LineString","coordinates":[[3.770444,51.03639],[3.770621,51.03639],[3.770817,51.03638],[3.77101,51.03637],[3.771024,51.03642],[3.771019,51.03647],[3.770992,51.03651]]},"properties":{"highway":"path","vertex1":7244,"vertex2":7211}},{"type":"Feature","geometry":{"type":"LineString","coordinates":[[3.770444,51.03639],[3.770205,51.03639],[3.769605,51.0364],[3.769312,51.03642]]},"properties":{"highway":"path","vertex1":7244,"vertex2":7220}},{"type":"Feature","geometry":{"type":"LineString","coordinates":[[3.770444,51.03639],[3.770444,51.03656]]},"properties":{"highway":"path","vertex1":7244,"vertex2":7213}},{"type":"Feature","geometry":{"type":"LineString","coordinates":[[3.774216,51.03166],[3.774011,51.03157]]},"properties":{"name":"Jan Van Aelbroekstraat","oneway":"yes","highway":"residential","vertex1":7242,"vertex2":7218}},{"type":"Feature","geometry":{"type":"LineString","coordinates":[[3.778726,51.03264],[3.779803,51.03162],[3.780266,51.0311],[3.780483,51.0307]]},"properties":{"highway":"path","vertex1":7241,"vertex2":4211}},{"type":"Feature","geometry":{"type":"LineString","coordinates":[[3.774257,51.0321],[3.774575,51.03248]]},"properties":{"name":"Tijl Uilenspiegelstraat","highway":"residential","vertex1":7240,"vertex2":7210}},{"type":"Feature","geometry":{"type":"LineString","coordinates":[[3.774257,51.0321],[3.774371,51.0321],[3.77445,51.03207]]},"properties":{"name":"Jan Van Aelbroekstraat","oneway":"yes","highway":"residential","vertex1":7240,"vertex2":7226}},{"type":"Feature","geometry":{"type":"LineString","coordinates":[[3.771602,51.03169],[3.771234,51.03173],[3.771051,51.03167]]},"properties":{"highway":"footway","vertex1":7239,"vertex2":7205}},{"type":"Feature","geometry":{"type":"LineString","coordinates":[[3.768318,51.03659],[3.768295,51.03656],[3.767802,51.03656],[3.767528,51.03656],[3.767462,51.03654]]},"properties":{"bridge":"yes","highway":"track","vertex1":7238,"vertex2":7139}},{"type":"Feature","geometry":{"type":"LineString","coordinates":[[3.773748,51.0366],[3.773746,51.03662],[3.773685,51.03681],[3.773693,51.03699],[3.773876,51.03702],[3.774076,51.03716]]},"properties":{"highway":"path","vertex1":7237,"vertex2":6925}},{"type":"Feature","geometry":{"type":"LineString","coordinates":[[3.773748,51.0366],[3.774357,51.03675],[3.775005,51.03694],[3.775341,51.03706]]},"properties":{"highway":"track","vertex1":7237,"vertex2":6972}},{"type":"Feature","geometry":{"type":"LineString","coordinates":[[3.76833,51.03322],[3.765864,51.0323]]},"properties":{"name":"Bruiloftstraat","highway":"residential","vertex1":7236,"vertex2":7159}},{"type":"Feature","geometry":{"type":"LineString","coordinates":[[3.76833,51.03322],[3.767603,51.03347]]},"properties":{"name":"Emiel Verhaerenlaan","highway":"residential","vertex1":7236,"vertex2":7138}},{"type":"Feature","geometry":{"type":"LineString","coordinates":[[3.76833,51.03322],[3.76795,51.03352]]},"properties":{"highway":"residential","vertex1":7236,"vertex2":7186}},{"type":"Feature","geometry":{"type":"LineString","coordinates":[[3.775944,51.03693],[3.775774,51.03709]]},"properties":{"highway":"track","vertex1":7235,"vertex2":6998}},{"type":"Feature","geometry":{"type":"LineString","coordinates":[[3.775944,51.03693],[3.776273,51.03671],[3.776695,51.03647],[3.777048,51.03632],[3.777705,51.03614],[3.778242,51.03605],[3.778738,51.036],[3.778844,51.036]]},"properties":{"highway":"track","vertex1":7235,"vertex2":7221}},{"type":"Feature","geometry":{"type":"LineString","coordinates":[[3.768661,51.03551],[3.768508,51.03545],[3.766709,51.0343]]},"properties":{"name":"Hazenakker","highway":"residential","maxspeed":"30","vertex1":7234,"vertex2":7188}},{"type":"Feature","geometry":{"type":"LineString","coordinates":[[3.768661,51.03551],[3.768028,51.036]]},"properties":{"highway":"path","vertex1":7234,"vertex2":7197}},{"type":"Feature","geometry":{"type":"LineString","coordinates":[[3.768661,51.03551],[3.768734,51.0355],[3.770042,51.03526]]},"properties":{"name":"Ooievaarsnest","highway":"residential","maxspeed":"30","vertex1":7234,"vertex2":7229}},{"type":"Feature","geometry":{"type":"LineString","coordinates":[[3.773487,51.03618],[3.773768,51.03611]]},"properties":{"highway":"path","vertex1":7233,"vertex2":7200}},{"type":"Feature","geometry":{"type":"LineString","coordinates":[[3.77223,51.03498],[3.77134,51.03506]]},"properties":{"name":"Ooievaarsnest","highway":"residential","vertex1":7232,"vertex2":7225}},{"type":"Feature","geometry":{"type":"LineString","coordinates":[[3.771044,51.03688],[3.771448,51.03664],[3.771709,51.03656]]},"properties":{"highway":"track","vertex1":7231,"vertex2":7209}},{"type":"Feature","geometry":{"type":"LineString","coordinates":[[3.771044,51.03688],[3.770969,51.03693]]},"properties":{"bridge":"yes","highway":"track","vertex1":7231,"vertex2":7219}},{"type":"Feature","geometry":{"type":"LineString","coordinates":[[3.779076,51.03559],[3.779045,51.03565]]},"properties":{"bridge":"yes","highway":"track","vertex1":7230,"vertex2":7214}},{"type":"Feature","geometry":{"type":"LineString","coordinates":[[3.770042,51.03526],[3.77023,51.03577]]},"properties":{"name":"Ooievaarsnest","highway":"residential","vertex1":7229,"vertex2":7227}},{"type":"Feature","geometry":{"type":"LineString","coordinates":[[3.770042,51.03526],[3.77134,51.03506]]},"properties":{"name":"Ooievaarsnest","highway":"residential","vertex1":7229,"vertex2":7225}},{"type":"Feature","geometry":{"type":"LineString","coordinates":[[3.77445,51.03207],[3.774575,51.03248]]},"properties":{"name":"Tijl Uilenspiegelstraat","oneway":"yes","highway":"residential","vertex1":7226,"vertex2":7210}},{"type":"Feature","geometry":{"type":"LineString","coordinates":[[3.77445,51.03207],[3.774435,51.03201]]},"properties":{"name":"Jan Van Aelbroekstraat","oneway":"yes","highway":"residential","vertex1":7226,"vertex2":7204}},{"type":"Feature","geometry":{"type":"LineString","coordinates":[[3.77134,51.03506],[3.771106,51.03447],[3.770986,51.03442],[3.769014,51.03415],[3.76891,51.03416]]},"properties":{"name":"Jovastraat","highway":"residential","vertex1":7225,"vertex2":7223}},{"type":"Feature","geometry":{"type":"LineString","coordinates":[[3.76891,51.03416],[3.76884,51.03407],[3.76795,51.03352]]},"properties":{"highway":"cycleway","vertex1":7223,"vertex2":7186}},{"type":"Feature","geometry":{"type":"LineString","coordinates":[[3.774512,51.03199],[3.774435,51.03201]]},"properties":{"highway":"footway","vertex1":7222,"vertex2":7204}},{"type":"Feature","geometry":{"type":"LineString","coordinates":[[3.778844,51.036],[3.779169,51.036],[3.779504,51.03601],[3.779819,51.03606],[3.780126,51.0361]]},"properties":{"highway":"track","vertex1":7221,"vertex2":4225}},{"type":"Feature","geometry":{"type":"LineString","coordinates":[[3.780126,51.0361],[3.779622,51.03688],[3.779322,51.03709],[3.779302,51.03715]]},"properties":{"name":"Tweebunders","highway":"track","vertex1":4225,"vertex2":4246}},{"type":"Feature","geometry":{"type":"LineString","coordinates":[[3.770969,51.03693],[3.77096,51.03694]]},"properties":{"highway":"track","vertex1":7219,"vertex2":7207}},{"type":"Feature","geometry":{"type":"LineString","coordinates":[[3.76858,51.03649],[3.76896,51.03654],[3.769075,51.03659]]},"properties":{"highway":"path","vertex1":7217,"vertex2":7215}},{"type":"Feature","geometry":{"type":"LineString","coordinates":[[3.76858,51.03649],[3.768493,51.03642],[3.768214,51.03624],[3.768028,51.036]]},"properties":{"highway":"path","vertex1":7217,"vertex2":7197}},{"type":"Feature","geometry":{"type":"LineString","coordinates":[[3.769075,51.03659],[3.769226,51.03658],[3.769667,51.03656],[3.770444,51.03656]]},"properties":{"highway":"path","vertex1":7215,"vertex2":7213}},{"type":"Feature","geometry":{"type":"LineString","coordinates":[[3.770444,51.03656],[3.770705,51.03656],[3.770992,51.03651]]},"properties":{"highway":"path","vertex1":7213,"vertex2":7211}},{"type":"Feature","geometry":{"type":"LineString","coordinates":[[3.770992,51.03651],[3.771071,51.03653],[3.771406,51.03654],[3.771709,51.03656]]},"properties":{"highway":"path","vertex1":7211,"vertex2":7209}},{"type":"Feature","geometry":{"type":"LineString","coordinates":[[3.774371,51.03231],[3.77414,51.03208]]},"properties":{"highway":"footway","vertex1":7208,"vertex2":7201}},{"type":"Feature","geometry":{"type":"LineString","coordinates":[[3.77096,51.03694],[3.771008,51.03696],[3.771046,51.03701],[3.771161,51.03716],[3.771236,51.0372],[3.771336,51.03722],[3.77147,51.03723],[3.771737,51.03723],[3.772048,51.03719],[3.772293,51.03718],[3.772535,51.03724],[3.772829,51.0373],[3.773058,51.03732],[3.77329,51.03732],[3.773407,51.03733],[3.773548,51.03735],[3.773892,51.03735],[3.774043,51.03737],[3.774186,51.03743],[3.774201,51.03746],[3.774199,51.03751],[3.774307,51.03754]]},"properties":{"highway":"path","vertex1":7207,"vertex2":6946}},{"type":"Feature","geometry":{"type":"LineString","coordinates":[[3.77096,51.03694],[3.770768,51.0371]]},"properties":{"highway":"track","vertex1":7207,"vertex2":6996}},{"type":"Feature","geometry":{"type":"LineString","coordinates":[[3.771051,51.03167],[3.770654,51.03152]]},"properties":{"highway":"footway","vertex1":7205,"vertex2":7203}},{"type":"Feature","geometry":{"type":"LineString","coordinates":[[3.762125,51.03268],[3.762506,51.03309],[3.762928,51.03352],[3.763731,51.03403]]},"properties":{"name":"Braemstraat","highway":"residential","vertex1":7198,"vertex2":7184}},{"type":"Feature","geometry":{"type":"LineString","coordinates":[[3.762125,51.03268],[3.76172,51.03229]]},"properties":{"name":"Braemstraat","highway":"residential","vertex1":7198,"vertex2":7196}},{"type":"Feature","geometry":{"type":"LineString","coordinates":[[3.762125,51.03268],[3.76235,51.03261],[3.762434,51.0326],[3.762506,51.03262],[3.762726,51.03269],[3.762796,51.0327],[3.762865,51.0327],[3.762941,51.03268],[3.763184,51.03254]]},"properties":{"highway":"service","vertex1":7198,"vertex2":7151}},{"type":"Feature","geometry":{"type":"LineString","coordinates":[[3.768028,51.036],[3.767462,51.03654]]},"properties":{"highway":"path","vertex1":7197,"vertex2":7139}},{"type":"Feature","geometry":{"type":"LineString","coordinates":[[3.768028,51.036],[3.767313,51.03568],[3.766675,51.03561],[3.766251,51.03544],[3.76606,51.03538],[3.765445,51.03513]]},"properties":{"highway":"path","vertex1":7197,"vertex2":7150}},{"type":"Feature","geometry":{"type":"LineString","coordinates":[[3.76172,51.03229],[3.76153,51.03214]]},"properties":{"name":"Braemstraat","highway":"residential","vertex1":7196,"vertex2":7194}},{"type":"Feature","geometry":{"type":"LineString","coordinates":[[3.76172,51.03229],[3.762649,51.03181],[3.762926,51.03169]]},"properties":{"name":"Henri Bouckaertstraat","highway":"residential","vertex1":7196,"vertex2":7195}},{"type":"Feature","geometry":{"type":"LineString","coordinates":[[3.762926,51.03169],[3.763122,51.0316],[3.763472,51.03189]]},"properties":{"name":"Sint-Eligiusstraat","highway":"residential","vertex1":7195,"vertex2":7133}},{"type":"Feature","geometry":{"type":"LineString","coordinates":[[3.76153,51.03214],[3.761466,51.03209],[3.76139,51.03204]]},"properties":{"name":"Braemstraat","highway":"residential","vertex1":7194,"vertex2":7163}},{"type":"Feature","geometry":{"type":"LineString","coordinates":[[3.761647,51.03341],[3.761548,51.03342],[3.760511,51.03399]]},"properties":{"name":"Jules Persynstraat","maxspeed":"50","highway":"residential","vertex1":7193,"vertex2":7168}},{"type":"Feature","geometry":{"type":"LineString","coordinates":[[3.761647,51.03341],[3.761675,51.03349],[3.761921,51.03409],[3.762035,51.03452],[3.762037,51.0348]]},"properties":{"name":"Schooldreef","maxspeed":"50","highway":"residential","vertex1":7193,"vertex2":7118}},{"type":"Feature","geometry":{"type":"LineString","coordinates":[[3.761647,51.03341],[3.761604,51.03331],[3.761324,51.03257],[3.761225,51.03215],[3.761209,51.03191]]},"properties":{"name":"Schooldreef","maxspeed":"50","highway":"residential","vertex1":7193,"vertex2":7173}},{"type":"Feature","geometry":{"type":"LineString","coordinates":[[3.760988,51.03173],[3.760812,51.03182],[3.758721,51.03284],[3.758482,51.03295]]},"properties":{"name":"Brusselsesteenweg","oneway":"yes","highway":"primary","maxspeed":"70","vertex1":7192,"vertex2":7140}},{"type":"Feature","geometry":{"type":"LineString","coordinates":[[3.760988,51.03173],[3.760938,51.03169],[3.760904,51.03166],[3.76084,51.03161]]},"properties":{"name":"Jules de Saint-Genoisstraat","highway":"residential","vertex1":7192,"vertex2":7161}},{"type":"Feature","geometry":{"type":"LineString","coordinates":[[3.760988,51.03173],[3.761101,51.03183],[3.761136,51.03186],[3.761209,51.03191]]},"properties":{"name":"Braemstraat","highway":"residential","vertex1":7192,"vertex2":7173}},{"type":"Feature","geometry":{"type":"LineString","coordinates":[[3.760988,51.03173],[3.761095,51.03168],[3.761118,51.03167],[3.761266,51.03159]]},"properties":{"name":"Brusselsesteenweg","oneway":"yes","highway":"primary","maxspeed":"70","vertex1":7192,"vertex2":7169}},{"type":"Feature","geometry":{"type":"LineString","coordinates":[[3.760072,51.03618],[3.76014,51.03618]]},"properties":{"name":"Magerstraat","highway":"residential","vertex1":7191,"vertex2":7122}},{"type":"Feature","geometry":{"type":"LineString","coordinates":[[3.760072,51.03618],[3.759968,51.03617],[3.759299,51.03597]]},"properties":{"name":"Magerstraat","highway":"residential","vertex1":7191,"vertex2":7189}},{"type":"Feature","geometry":{"type":"LineString","coordinates":[[3.760072,51.03618],[3.760002,51.03632],[3.759876,51.03651],[3.759856,51.03653]]},"properties":{"highway":"cycleway","vertex1":7191,"vertex2":7129}},{"type":"Feature","geometry":{"type":"LineString","coordinates":[[3.764766,51.03557],[3.764658,51.03564]]},"properties":{"name":"Braemkasteelstraat","highway":"residential","vertex1":7190,"vertex2":7116}},{"type":"Feature","geometry":{"type":"LineString","coordinates":[[3.764766,51.03557],[3.765445,51.03513]]},"properties":{"name":"Braemkasteelstraat","highway":"residential","vertex1":7190,"vertex2":7150}},{"type":"Feature","geometry":{"type":"LineString","coordinates":[[3.764766,51.03557],[3.764928,51.03566]]},"properties":{"highway":"track","vertex1":7190,"vertex2":7128}},{"type":"Feature","geometry":{"type":"LineString","coordinates":[[3.759299,51.03597],[3.758853,51.03582],[3.758527,51.03564]]},"properties":{"highway":"footway","vertex1":7189,"vertex2":7147}},{"type":"Feature","geometry":{"type":"LineString","coordinates":[[3.766709,51.0343],[3.765445,51.03513]]},"properties":{"name":"Braemkasteelstraat","highway":"residential","vertex1":7188,"vertex2":7150}},{"type":"Feature","geometry":{"type":"LineString","coordinates":[[3.766709,51.0343],[3.767755,51.03366]]},"properties":{"name":"Braemkasteelstraat","highway":"residential","vertex1":7188,"vertex2":7130}},{"type":"Feature","geometry":{"type":"LineString","coordinates":[[3.759113,51.03246],[3.759046,51.03241],[3.758962,51.0323]]},"properties":{"oneway":"yes","highway":"service","vertex1":7187,"vertex2":7185}},{"type":"Feature","geometry":{"type":"LineString","coordinates":[[3.759113,51.03246],[3.75848,51.03276],[3.758329,51.03284]]},"properties":{"name":"Brusselsesteenweg","oneway":"yes","highway":"primary","maxspeed":"70","vertex1":7187,"vertex2":7134}},{"type":"Feature","geometry":{"type":"LineString","coordinates":[[3.759113,51.03246],[3.759941,51.03205],[3.76019,51.03193]]},"properties":{"name":"Brusselsesteenweg","oneway":"yes","highway":"primary","maxspeed":"70","vertex1":7187,"vertex2":7157}},{"type":"Feature","geometry":{"type":"LineString","coordinates":[[3.76795,51.03352],[3.767843,51.0336]]},"properties":{"highway":"residential","vertex1":7186,"vertex2":7148}},{"type":"Feature","geometry":{"type":"LineString","coordinates":[[3.758962,51.0323],[3.759978,51.03178]]},"properties":{"oneway":"yes","highway":"service","vertex1":7185,"vertex2":7183}},{"type":"Feature","geometry":{"type":"LineString","coordinates":[[3.758962,51.0323],[3.75883,51.03211]]},"properties":{"oneway":"yes","highway":"service","vertex1":7185,"vertex2":7181}},{"type":"Feature","geometry":{"type":"LineString","coordinates":[[3.758962,51.0323],[3.757492,51.03303]]},"properties":{"oneway":"yes","highway":"service","vertex1":7185,"vertex2":7179}},{"type":"Feature","geometry":{"type":"LineString","coordinates":[[3.763731,51.03403],[3.764193,51.03355],[3.765864,51.0323]]},"properties":{"name":"Raf Verhaeststraat","highway":"residential","vertex1":7184,"vertex2":7159}},{"type":"Feature","geometry":{"type":"LineString","coordinates":[[3.763731,51.03403],[3.763378,51.03447]]},"properties":{"name":"Raf Verhaeststraat","highway":"residential","vertex1":7184,"vertex2":7135}},{"type":"Feature","geometry":{"type":"LineString","coordinates":[[3.763731,51.03403],[3.76413,51.03429]]},"properties":{"name":"Braemstraat","highway":"residential","vertex1":7184,"vertex2":7145}},{"type":"Feature","geometry":{"type":"LineString","coordinates":[[3.759978,51.03178],[3.760068,51.03173],[3.758979,51.03203],[3.75883,51.03211]]},"properties":{"oneway":"yes","highway":"service","vertex1":7183,"vertex2":7181}},{"type":"Feature","geometry":{"type":"LineString","coordinates":[[3.759978,51.03178],[3.76019,51.03193]]},"properties":{"highway":"footway","vertex1":7183,"vertex2":7157}},{"type":"Feature","geometry":{"type":"LineString","coordinates":[[3.766015,51.03647],[3.765995,51.03648]]},"properties":{"highway":"path","vertex1":7182,"vertex2":7146}},{"type":"Feature","geometry":{"type":"LineString","coordinates":[[3.766015,51.03647],[3.766084,51.03642]]},"properties":{"highway":"path","vertex1":7182,"vertex2":7120}},{"type":"Feature","geometry":{"type":"LineString","coordinates":[[3.766015,51.03647],[3.765444,51.03614],[3.764658,51.03564]]},"properties":{"highway":"service","vertex1":7182,"vertex2":7116}},{"type":"Feature","geometry":{"type":"LineString","coordinates":[[3.75883,51.03211],[3.757367,51.03284],[3.757492,51.03303]]},"properties":{"oneway":"yes","highway":"service","vertex1":7181,"vertex2":7179}},{"type":"Feature","geometry":{"type":"LineString","coordinates":[[3.765908,51.03654],[3.765728,51.03667],[3.765599,51.03669]]},"properties":{"highway":"path","vertex1":7180,"vertex2":7178}},{"type":"Feature","geometry":{"type":"LineString","coordinates":[[3.765908,51.03654],[3.765995,51.03648]]},"properties":{"highway":"path","vertex1":7180,"vertex2":7146}},{"type":"Feature","geometry":{"type":"LineString","coordinates":[[3.765908,51.03654],[3.765723,51.03643],[3.765582,51.03633],[3.765563,51.03632],[3.764744,51.03584],[3.764703,51.03579]]},"properties":{"highway":"path","vertex1":7180,"vertex2":7174}},{"type":"Feature","geometry":{"type":"LineString","coordinates":[[3.757492,51.03303],[3.757576,51.03315],[3.757606,51.0332]]},"properties":{"oneway":"yes","highway":"service","vertex1":7179,"vertex2":7177}},{"type":"Feature","geometry":{"type":"LineString","coordinates":[[3.765599,51.03669],[3.765443,51.0368]]},"properties":{"highway":"service","vertex1":7178,"vertex2":7144}},{"type":"Feature","geometry":{"type":"LineString","coordinates":[[3.757606,51.0332],[3.757154,51.03343]]},"properties":{"name":"Brusselsesteenweg","oneway":"yes","highway":"primary","maxspeed":"70","vertex1":7177,"vertex2":8176}},{"type":"Feature","geometry":{"type":"LineString","coordinates":[[3.757606,51.0332],[3.758329,51.03284]]},"properties":{"name":"Brusselsesteenweg","oneway":"yes","highway":"primary","maxspeed":"70","vertex1":7177,"vertex2":7134}},{"type":"Feature","geometry":{"type":"LineString","coordinates":[[3.757154,51.03343],[3.757203,51.03347],[3.757233,51.0335],[3.757291,51.03355]]},"properties":{"highway":"footway","vertex1":8176,"vertex2":8071}},{"type":"Feature","geometry":{"type":"LineString","coordinates":[[3.766712,51.03665],[3.766593,51.03666]]},"properties":{"highway":"track","vertex1":7176,"vertex2":7114}},{"type":"Feature","geometry":{"type":"LineString","coordinates":[[3.766712,51.03665],[3.766845,51.03663],[3.767115,51.03659]]},"properties":{"bridge":"yes","highway":"track","vertex1":7176,"vertex2":7127}},{"type":"Feature","geometry":{"type":"LineString","coordinates":[[3.759801,51.03662],[3.759992,51.03666],[3.762283,51.03726],[3.762568,51.03733]]},"properties":{"name":"Land Van Rodelaan","oneway":"yes","maxspeed":"50","highway":"residential","vertex1":7175,"vertex2":7094}},{"type":"Feature","geometry":{"type":"LineString","coordinates":[[3.759801,51.03662],[3.759084,51.03641],[3.758451,51.03619]]},"properties":{"name":"Land Van Rodelaan","oneway":"yes","maxspeed":"50","highway":"residential","vertex1":7175,"vertex2":7126}},{"type":"Feature","geometry":{"type":"LineString","coordinates":[[3.759801,51.03662],[3.759462,51.03716]]},"properties":{"name":"Jozef Wautersstraat","oneway":"yes","highway":"residential","maxspeed":"30","vertex1":7175,"vertex2":7069}},{"type":"Feature","geometry":{"type":"LineString","coordinates":[[3.759801,51.03662],[3.759856,51.03653]]},"properties":{"highway":"cycleway","vertex1":7175,"vertex2":7129}},{"type":"Feature","geometry":{"type":"LineString","coordinates":[[3.764703,51.03579],[3.764566,51.03571]]},"properties":{"highway":"path","vertex1":7174,"vertex2":7137}},{"type":"Feature","geometry":{"type":"LineString","coordinates":[[3.764703,51.03579],[3.764594,51.03588],[3.764096,51.03667]]},"properties":{"highway":"path","vertex1":7174,"vertex2":7136}},{"type":"Feature","geometry":{"type":"LineString","coordinates":[[3.764703,51.03579],[3.764928,51.03566]]},"properties":{"highway":"path","vertex1":7174,"vertex2":7128}},{"type":"Feature","geometry":{"type":"LineString","coordinates":[[3.761209,51.03191],[3.76139,51.03204]]},"properties":{"name":"Braemstraat","highway":"residential","vertex1":7173,"vertex2":7163}},{"type":"Feature","geometry":{"type":"LineString","coordinates":[[3.76177,51.03633],[3.763842,51.03656]]},"properties":{"name":"Magerstraat","highway":"residential","vertex1":7172,"vertex2":7162}},{"type":"Feature","geometry":{"type":"LineString","coordinates":[[3.76177,51.03633],[3.76014,51.03618]]},"properties":{"name":"Magerstraat","highway":"residential","vertex1":7172,"vertex2":7122}},{"type":"Feature","geometry":{"type":"LineString","coordinates":[[3.76177,51.03633],[3.761778,51.03629],[3.762025,51.03528],[3.762059,51.03489],[3.762037,51.0348]]},"properties":{"name":"Schooldreef","highway":"residential","vertex1":7172,"vertex2":7118}},{"type":"Feature","geometry":{"type":"LineString","coordinates":[[3.758137,51.03464],[3.758226,51.03477],[3.758371,51.03516]]},"properties":{"name":"Watertorenstraat","maxspeed":"50","highway":"residential","vertex1":7171,"vertex2":7152}},{"type":"Feature","geometry":{"type":"LineString","coordinates":[[3.758137,51.03464],[3.757981,51.03468]]},"properties":{"highway":"path","vertex1":7171,"vertex2":7153}},{"type":"Feature","geometry":{"type":"LineString","coordinates":[[3.758487,51.0361],[3.758451,51.03619]]},"properties":{"name":"Robert Rinskopflaan","maxspeed":"50","highway":"tertiary","vertex1":7170,"vertex2":7126}},{"type":"Feature","geometry":{"type":"LineString","coordinates":[[3.758487,51.0361],[3.757886,51.03589],[3.757476,51.03574]]},"properties":{"name":"Land Van Rodelaan","oneway":"yes","maxspeed":"50","highway":"tertiary","cycleway":"lane","vertex1":7170,"vertex2":7132}},{"type":"Feature","geometry":{"type":"LineString","coordinates":[[3.758487,51.0361],[3.759148,51.03633],[3.759856,51.03653]]},"properties":{"name":"Land Van Rodelaan","oneway":"yes","maxspeed":"50","highway":"residential","cycleway":"lane","vertex1":7170,"vertex2":7129}},{"type":"Feature","geometry":{"type":"LineString","coordinates":[[3.760511,51.03399],[3.758597,51.03301],[3.758548,51.03299],[3.758482,51.03295]]},"properties":{"name":"Maurice Verdoncklaan","maxspeed":"50","highway":"residential","vertex1":7168,"vertex2":7140}},{"type":"Feature","geometry":{"type":"LineString","coordinates":[[3.760511,51.03399],[3.76183,51.03464],[3.762037,51.0348]]},"properties":{"name":"Maurice Verdoncklaan","maxspeed":"50","highway":"residential","vertex1":7168,"vertex2":7118}},{"type":"Feature","geometry":{"type":"LineString","coordinates":[[3.760511,51.03399],[3.758371,51.03516]]},"properties":{"name":"Jules Persynstraat","maxspeed":"50","highway":"residential","vertex1":7168,"vertex2":7152}},{"type":"Feature","geometry":{"type":"LineString","coordinates":[[3.764093,51.0316],[3.764422,51.03172],[3.765864,51.0323]]},"properties":{"name":"Bruiloftstraat","highway":"residential","vertex1":7167,"vertex2":7159}},{"type":"Feature","geometry":{"type":"LineString","coordinates":[[3.764093,51.0316],[3.763861,51.0315]]},"properties":{"name":"Bruiloftstraat","highway":"residential","vertex1":7167,"vertex2":7124}},{"type":"Feature","geometry":{"type":"LineString","coordinates":[[3.764093,51.0316],[3.763472,51.03189]]},"properties":{"name":"Keiberg","highway":"residential","vertex1":7167,"vertex2":7133}},{"type":"Feature","geometry":{"type":"LineString","coordinates":[[3.765896,51.03625],[3.765305,51.03589],[3.764928,51.03566]]},"properties":{"highway":"track","vertex1":7166,"vertex2":7128}},{"type":"Feature","geometry":{"type":"LineString","coordinates":[[3.765896,51.03625],[3.766127,51.03639],[3.766323,51.03651],[3.766521,51.03662],[3.766593,51.03666]]},"properties":{"highway":"track","vertex1":7166,"vertex2":7114}},{"type":"Feature","geometry":{"type":"LineString","coordinates":[[3.760374,51.03184],[3.760598,51.03173],[3.76066,51.0317],[3.76084,51.03161]]},"properties":{"name":"Brusselsesteenweg","oneway":"yes","highway":"primary","maxspeed":"70","vertex1":7165,"vertex2":7161}},{"type":"Feature","geometry":{"type":"LineString","coordinates":[[3.760374,51.03184],[3.760223,51.03191]]},"properties":{"name":"Brusselsesteenweg","oneway":"yes","highway":"primary","maxspeed":"70","vertex1":7165,"vertex2":7119}},{"type":"Feature","geometry":{"type":"LineString","coordinates":[[3.765046,51.03679],[3.765215,51.03668],[3.765443,51.0368]]},"properties":{"highway":"service","vertex1":7164,"vertex2":7144}},{"type":"Feature","geometry":{"type":"LineString","coordinates":[[3.763842,51.03656],[3.764096,51.03667]]},"properties":{"name":"Driebeekstraat","highway":"unclassified","vertex1":7162,"vertex2":7136}},{"type":"Feature","geometry":{"type":"LineString","coordinates":[[3.763842,51.03656],[3.763542,51.03715],[3.763531,51.03716],[3.763399,51.03745]]},"properties":{"name":"Braemkasteelstraat","highway":"residential","vertex1":7162,"vertex2":7096}},{"type":"Feature","geometry":{"type":"LineString","coordinates":[[3.763842,51.03656],[3.764086,51.03607],[3.764189,51.03598],[3.764281,51.03588]]},"properties":{"name":"Braemkasteelstraat","highway":"residential","vertex1":7162,"vertex2":7141}},{"type":"Feature","geometry":{"type":"LineString","coordinates":[[3.764332,51.03678],[3.764096,51.03667]]},"properties":{"name":"Driebeekstraat","highway":"unclassified","vertex1":7160,"vertex2":7136}},{"type":"Feature","geometry":{"type":"LineString","coordinates":[[3.764332,51.03678],[3.765026,51.03709]]},"properties":{"name":"Driebeekstraat","highway":"unclassified","vertex1":7160,"vertex2":7058}},{"type":"Feature","geometry":{"type":"LineString","coordinates":[[3.764332,51.03678],[3.764593,51.03661]]},"properties":{"highway":"service","vertex1":7160,"vertex2":7115}},{"type":"Feature","geometry":{"type":"LineString","coordinates":[[3.765929,51.0369],[3.766082,51.03698],[3.765546,51.03735]]},"properties":{"highway":"service","vertex1":7158,"vertex2":7060}},{"type":"Feature","geometry":{"type":"LineString","coordinates":[[3.76019,51.03193],[3.760223,51.03191]]},"properties":{"name":"Brusselsesteenweg","oneway":"yes","highway":"primary","maxspeed":"70","vertex1":7157,"vertex2":7119}},{"type":"Feature","geometry":{"type":"LineString","coordinates":[[3.760548,51.03516],[3.76014,51.03618]]},"properties":{"name":"Edith Cavellstraat","maxspeed":"50","highway":"residential","vertex1":7156,"vertex2":7122}},{"type":"Feature","geometry":{"type":"LineString","coordinates":[[3.760548,51.03516],[3.761846,51.03484],[3.762037,51.0348]]},"properties":{"name":"Henri Pirennelaan","maxspeed":"50","highway":"residential","vertex1":7156,"vertex2":7118}},{"type":"Feature","geometry":{"type":"LineString","coordinates":[[3.760548,51.03516],[3.758527,51.03564]]},"properties":{"name":"Henri Pirennelaan","maxspeed":"50","highway":"residential","vertex1":7156,"vertex2":7147}},{"type":"Feature","geometry":{"type":"LineString","coordinates":[[3.758446,51.03545],[3.7583,51.03542],[3.758192,51.03532],[3.758157,51.0352],[3.758139,51.03508],[3.757981,51.03468]]},"properties":{"highway":"track","vertex1":7155,"vertex2":7153}},{"type":"Feature","geometry":{"type":"LineString","coordinates":[[3.758446,51.03545],[3.758371,51.03516]]},"properties":{"name":"Watertorenstraat","maxspeed":"50","highway":"residential","vertex1":7155,"vertex2":7152}},{"type":"Feature","geometry":{"type":"LineString","coordinates":[[3.758446,51.03545],[3.758453,51.03548]]},"properties":{"name":"Watertorenstraat","maxspeed":"50","highway":"residential","vertex1":7155,"vertex2":7123}},{"type":"Feature","geometry":{"type":"LineString","coordinates":[[3.757401,51.03582],[3.757476,51.03574]]},"properties":{"name":"Oude Brusselseweg","highway":"residential","maxspeed":"30","vertex1":7154,"vertex2":7132}},{"type":"Feature","geometry":{"type":"LineString","coordinates":[[3.757401,51.03582],[3.75728,51.03593],[3.757089,51.03605],[3.7562,51.03653],[3.755225,51.0371],[3.754974,51.03724]]},"properties":{"name":"Oude Brusselseweg","highway":"residential","maxspeed":"30","vertex1":7154,"vertex2":8226}},{"type":"Feature","geometry":{"type":"LineString","coordinates":[[3.757401,51.03582],[3.757814,51.03597],[3.758451,51.03619]]},"properties":{"name":"Land Van Rodelaan","oneway":"yes","maxspeed":"50","highway":"tertiary","cycleway":"lane","vertex1":7154,"vertex2":7126}},{"type":"Feature","geometry":{"type":"LineString","coordinates":[[3.757401,51.03582],[3.757114,51.0357],[3.757084,51.03569]]},"properties":{"name":"Land Van Rodelaan","oneway":"yes","maxspeed":"50","highway":"tertiary","cycleway":"lane","vertex1":7154,"vertex2":8106}},{"type":"Feature","geometry":{"type":"LineString","coordinates":[[3.757084,51.03569],[3.757414,51.03568],[3.758182,51.03568],[3.758304,51.03568],[3.758373,51.03567],[3.758527,51.03564]]},"properties":{"name":"Henri Pirennelaan","maxspeed":"50","highway":"residential","vertex1":8106,"vertex2":7147}},{"type":"Feature","geometry":{"type":"LineString","coordinates":[[3.757981,51.03468],[3.757957,51.03462],[3.757606,51.03408],[3.757304,51.03375],[3.757168,51.03361]]},"properties":{"highway":"path","vertex1":7153,"vertex2":8085}},{"type":"Feature","geometry":{"type":"LineString","coordinates":[[3.757168,51.03361],[3.757291,51.03355]]},"properties":{"name":"Brusselsesteenweg","oneway":"yes","highway":"primary","maxspeed":"70","vertex1":8085,"vertex2":8071}},{"type":"Feature","geometry":{"type":"LineString","coordinates":[[3.763429,51.03556],[3.764126,51.03556]]},"properties":{"highway":"service","vertex1":7149,"vertex2":7143}},{"type":"Feature","geometry":{"type":"LineString","coordinates":[[3.767843,51.0336],[3.767755,51.03366]]},"properties":{"highway":"residential","vertex1":7148,"vertex2":7130}},{"type":"Feature","geometry":{"type":"LineString","coordinates":[[3.758527,51.03564],[3.758453,51.03548]]},"properties":{"name":"Watertorenstraat","maxspeed":"50","highway":"residential","vertex1":7147,"vertex2":7123}},{"type":"Feature","geometry":{"type":"LineString","coordinates":[[3.765995,51.03648],[3.766058,51.03654],[3.766191,51.03679],[3.766507,51.03698]]},"properties":{"highway":"path","vertex1":7146,"vertex2":7125}},{"type":"Feature","geometry":{"type":"LineString","coordinates":[[3.76413,51.03429],[3.764126,51.03556]]},"properties":{"name":"Braemstraat","highway":"residential","vertex1":7145,"vertex2":7143}},{"type":"Feature","geometry":{"type":"LineString","coordinates":[[3.76413,51.03429],[3.767603,51.03347]]},"properties":{"name":"Emiel Verhaerenlaan","highway":"residential","vertex1":7145,"vertex2":7138}},{"type":"Feature","geometry":{"type":"LineString","coordinates":[[3.76413,51.03429],[3.763378,51.03447]]},"properties":{"name":"Henri Pirennelaan","maxspeed":"50","highway":"residential","vertex1":7145,"vertex2":7135}},{"type":"Feature","geometry":{"type":"LineString","coordinates":[[3.765443,51.0368],[3.765026,51.03709]]},"properties":{"highway":"service","vertex1":7144,"vertex2":7058}},{"type":"Feature","geometry":{"type":"LineString","coordinates":[[3.764126,51.03556],[3.764126,51.03571],[3.764166,51.03579],[3.764281,51.03588]]},"properties":{"name":"Braemstraat","highway":"residential","vertex1":7143,"vertex2":7141}},{"type":"Feature","geometry":{"type":"LineString","coordinates":[[3.758137,51.03698],[3.757992,51.03723],[3.757572,51.03774]]},"properties":{"name":"Robert Rinskopflaan","maxspeed":"50","highway":"tertiary","vertex1":7142,"vertex2":7070}},{"type":"Feature","geometry":{"type":"LineString","coordinates":[[3.758137,51.03698],[3.758249,51.03671],[3.758451,51.03619]]},"properties":{"name":"Robert Rinskopflaan","maxspeed":"50","highway":"tertiary","vertex1":7142,"vertex2":7126}},{"type":"Feature","geometry":{"type":"LineString","coordinates":[[3.758137,51.03698],[3.759462,51.03716]]},"properties":{"name":"Adolf Samuelstraat","highway":"residential","vertex1":7142,"vertex2":7069}},{"type":"Feature","geometry":{"type":"LineString","coordinates":[[3.764281,51.03588],[3.764566,51.03571]]},"properties":{"name":"Braemkasteelstraat","highway":"residential","vertex1":7141,"vertex2":7137}},{"type":"Feature","geometry":{"type":"LineString","coordinates":[[3.758482,51.03295],[3.758434,51.03292],[3.758396,51.03289],[3.758329,51.03284]]},"properties":{"highway":"residential","vertex1":7140,"vertex2":7134}},{"type":"Feature","geometry":{"type":"LineString","coordinates":[[3.758482,51.03295],[3.757291,51.03355]]},"properties":{"name":"Brusselsesteenweg","oneway":"yes","highway":"primary","maxspeed":"70","vertex1":7140,"vertex2":8071}},{"type":"Feature","geometry":{"type":"LineString","coordinates":[[3.767462,51.03654],[3.767115,51.03659]]},"properties":{"bridge":"yes","highway":"track","vertex1":7139,"vertex2":7127}},{"type":"Feature","geometry":{"type":"LineString","coordinates":[[3.767603,51.03347],[3.767755,51.03366]]},"properties":{"name":"Braemkasteelstraat","highway":"residential","vertex1":7138,"vertex2":7130}},{"type":"Feature","geometry":{"type":"LineString","coordinates":[[3.764566,51.03571],[3.764658,51.03564]]},"properties":{"name":"Braemkasteelstraat","highway":"residential","vertex1":7137,"vertex2":7116}},{"type":"Feature","geometry":{"type":"LineString","coordinates":[[3.764096,51.03667],[3.763826,51.0371],[3.76358,51.03751]]},"properties":{"highway":"path","vertex1":7136,"vertex2":7109}},{"type":"Feature","geometry":{"type":"LineString","coordinates":[[3.763378,51.03447],[3.762203,51.03476],[3.762037,51.0348]]},"properties":{"name":"Henri Pirennelaan","maxspeed":"50","highway":"residential","vertex1":7135,"vertex2":7118}},{"type":"Feature","geometry":{"type":"LineString","coordinates":[[3.757476,51.03574],[3.757191,51.03562],[3.75716,51.03561],[3.75713,51.0356],[3.757007,51.03555],[3.756778,51.03545],[3.7566,51.03539],[3.756208,51.03525],[3.755902,51.03515],[3.755694,51.03508],[3.755645,51.03507]]},"properties":{"name":"Land Van Rodelaan","oneway":"yes","maxspeed":"50","highway":"tertiary","cycleway":"lane","vertex1":7132,"vertex2":8149}},{"type":"Feature","geometry":{"type":"LineString","coordinates":[[3.757338,51.0354],[3.757646,51.03553]]},"properties":{"bridge":"viaduct","highway":"motorway","oneway":"yes","maxspeed":"90","vertex1":7131,"vertex2":7121}},{"type":"Feature","geometry":{"type":"LineString","coordinates":[[3.757338,51.0354],[3.756501,51.03506],[3.755563,51.0346]]},"properties":{"bridge":"viaduct","highway":"motorway","oneway":"yes","maxspeed":"90","vertex1":7131,"vertex2":8173}},{"type":"Feature","geometry":{"type":"LineString","coordinates":[[3.759856,51.03653],[3.760046,51.03658],[3.762337,51.03718],[3.762622,51.03725],[3.763399,51.03745]]},"properties":{"name":"Land Van Rodelaan","oneway":"yes","maxspeed":"50","highway":"residential","cycleway":"lane","vertex1":7129,"vertex2":7096}},{"type":"Feature","geometry":{"type":"LineString","coordinates":[[3.766507,51.03698],[3.767637,51.03745]]},"properties":{"highway":"path","vertex1":7125,"vertex2":7012}},{"type":"Feature","geometry":{"type":"LineString","coordinates":[[3.766507,51.03698],[3.766452,51.0371],[3.766201,51.03758]]},"properties":{"highway":"track","vertex1":7125,"vertex2":7062}},{"type":"Feature","geometry":{"type":"LineString","coordinates":[[3.766507,51.03698],[3.766574,51.03671],[3.766593,51.03666]]},"properties":{"highway":"track","vertex1":7125,"vertex2":7114}},{"type":"Feature","geometry":{"type":"LineString","coordinates":[[3.758453,51.03548],[3.758272,51.0355],[3.757959,51.03551],[3.757742,51.03544],[3.756604,51.03497],[3.756132,51.03474],[3.755799,51.03445]]},"properties":{"name":"Korte Magerstraat","highway":"residential","vertex1":7123,"vertex2":8117}},{"type":"Feature","geometry":{"type":"LineString","coordinates":[[3.755799,51.03445],[3.755732,51.03445],[3.755382,51.03462],[3.756426,51.03513],[3.757577,51.0356],[3.757771,51.03568],[3.757825,51.0357],[3.758262,51.03587],[3.7589,51.03608],[3.759315,51.03622],[3.759756,51.03635]]},"properties":{"highway":"service","vertex1":8117,"vertex2":7117}},{"type":"Feature","geometry":{"type":"LineString","coordinates":[[3.757646,51.03553],[3.757941,51.03565],[3.758326,51.03579],[3.758962,51.03601],[3.759372,51.03615],[3.75981,51.03628],[3.760337,51.03643],[3.76255,51.03699],[3.765706,51.03775],[3.770997,51.03902],[3.775997,51.0402]]},"properties":{"bridge":"viaduct","highway":"motorway","oneway":"yes","maxspeed":"90","vertex1":7121,"vertex2":6881}},{"type":"Feature","geometry":{"type":"LineString","coordinates":[[3.763176,51.04034],[3.762752,51.04051]]},"properties":{"name":"Meersemdries","motorcar":"no","highway":"track","vertex1":7113,"vertex2":7043}},{"type":"Feature","geometry":{"type":"LineString","coordinates":[[3.763176,51.04034],[3.763503,51.04041]]},"properties":{"name":"Voordries","highway":"residential","maxspeed":"30","vertex1":7113,"vertex2":7079}},{"type":"Feature","geometry":{"type":"LineString","coordinates":[[3.763176,51.04034],[3.762602,51.0402],[3.762431,51.04017]]},"properties":{"name":"Voordries","maxspeed":"50","highway":"residential","vertex1":7113,"vertex2":7026}},{"type":"Feature","geometry":{"type":"LineString","coordinates":[[3.765476,51.03941],[3.766176,51.03953],[3.766273,51.03938]]},"properties":{"name":"Meersemhof","highway":"residential","maxspeed":"30","vertex1":7112,"vertex2":7059}},{"type":"Feature","geometry":{"type":"LineString","coordinates":[[3.765476,51.03941],[3.765324,51.03968]]},"properties":{"name":"Meersemhof","highway":"residential","maxspeed":"30","vertex1":7112,"vertex2":7061}},{"type":"Feature","geometry":{"type":"LineString","coordinates":[[3.765476,51.03941],[3.765442,51.0392]]},"properties":{"name":"Meersemhof","highway":"residential","maxspeed":"30","vertex1":7112,"vertex2":7045}},{"type":"Feature","geometry":{"type":"LineString","coordinates":[[3.763088,51.03848],[3.763131,51.03825]]},"properties":{"name":"Braemkasteelstraat","maxspeed":"50","highway":"residential","vertex1":7110,"vertex2":7108}},{"type":"Feature","geometry":{"type":"LineString","coordinates":[[3.763088,51.03848],[3.762952,51.03889]]},"properties":{"name":"Braemkasteelstraat","maxspeed":"50","highway":"residential","vertex1":7110,"vertex2":7074}},{"type":"Feature","geometry":{"type":"LineString","coordinates":[[3.763088,51.03848],[3.763367,51.03851],[3.763532,51.0385]]},"properties":{"highway":"path","vertex1":7110,"vertex2":7105}},{"type":"Feature","geometry":{"type":"LineString","coordinates":[[3.76358,51.03751],[3.763399,51.03745]]},"properties":{"highway":"path","vertex1":7109,"vertex2":7096}},{"type":"Feature","geometry":{"type":"LineString","coordinates":[[3.76358,51.03751],[3.763811,51.03757],[3.76549,51.03796],[3.766544,51.03822]]},"properties":{"highway":"path","vertex1":7109,"vertex2":7035}},{"type":"Feature","geometry":{"type":"LineString","coordinates":[[3.763131,51.03825],[3.763208,51.03796]]},"properties":{"name":"Braemkasteelstraat","maxspeed":"50","highway":"residential","vertex1":7108,"vertex2":7072}},{"type":"Feature","geometry":{"type":"LineString","coordinates":[[3.760624,51.0379],[3.760817,51.03794]]},"properties":{"bridge":"yes","highway":"footway","vertex1":7106,"vertex2":7104}},{"type":"Feature","geometry":{"type":"LineString","coordinates":[[3.760624,51.0379],[3.760535,51.03789]]},"properties":{"highway":"footway","vertex1":7106,"vertex2":7099}},{"type":"Feature","geometry":{"type":"LineString","coordinates":[[3.763532,51.0385],[3.763644,51.03849],[3.764055,51.03835],[3.764786,51.03831]]},"properties":{"highway":"path","vertex1":7105,"vertex2":7093}},{"type":"Feature","geometry":{"type":"LineString","coordinates":[[3.763532,51.0385],[3.763629,51.03856],[3.763677,51.0386],[3.763779,51.03865],[3.76394,51.03875],[3.764112,51.039],[3.764235,51.03912],[3.764476,51.03921]]},"properties":{"highway":"path","vertex1":7105,"vertex2":7044}},{"type":"Feature","geometry":{"type":"LineString","coordinates":[[3.760817,51.03794],[3.760872,51.03794]]},"properties":{"highway":"footway","vertex1":7104,"vertex2":7048}},{"type":"Feature","geometry":{"type":"LineString","coordinates":[[3.762567,51.03766],[3.762662,51.03768],[3.762924,51.03778],[3.763111,51.03784],[3.76324,51.03786]]},"properties":{"name":"Frans Tochpark","highway":"residential","vertex1":7103,"vertex2":7066}},{"type":"Feature","geometry":{"type":"LineString","coordinates":[[3.762567,51.03766],[3.762583,51.0376],[3.762561,51.03754],[3.762505,51.03749],[3.762424,51.03746]]},"properties":{"name":"Frans Tochpark","highway":"residential","vertex1":7103,"vertex2":7057}},{"type":"Feature","geometry":{"type":"LineString","coordinates":[[3.762567,51.03766],[3.762517,51.03771],[3.762439,51.03774]]},"properties":{"name":"Frans Tochpark","highway":"residential","vertex1":7103,"vertex2":7042}},{"type":"Feature","geometry":{"type":"LineString","coordinates":[[3.767717,51.03798],[3.767898,51.03802]]},"properties":{"name":"Driebeekstraat","highway":"unclassified","vertex1":7102,"vertex2":7056}},{"type":"Feature","geometry":{"type":"LineString","coordinates":[[3.767717,51.03798],[3.766472,51.03766]]},"properties":{"name":"Driebeekstraat","highway":"unclassified","vertex1":7102,"vertex2":7037}},{"type":"Feature","geometry":{"type":"LineString","coordinates":[[3.767717,51.03798],[3.767643,51.03812],[3.767633,51.03815],[3.767434,51.03843]]},"properties":{"highway":"path","vertex1":7102,"vertex2":7065}},{"type":"Feature","geometry":{"type":"LineString","coordinates":[[3.76233,51.03745],[3.762295,51.0374],[3.762246,51.03736],[3.761966,51.03729],[3.761826,51.03728],[3.761421,51.03718],[3.761245,51.03715],[3.760904,51.03707],[3.760533,51.03704],[3.76034,51.03708],[3.760261,51.03716],[3.760198,51.03723]]},"properties":{"highway":"footway","vertex1":7101,"vertex2":7021}},{"type":"Feature","geometry":{"type":"LineString","coordinates":[[3.76233,51.03745],[3.762424,51.03746]]},"properties":{"name":"Frans Tochpark","highway":"residential","vertex1":7101,"vertex2":7057}},{"type":"Feature","geometry":{"type":"LineString","coordinates":[[3.76233,51.03745],[3.762237,51.03746],[3.76216,51.0375],[3.76211,51.03755],[3.762094,51.03761]]},"properties":{"name":"Frans Tochpark","highway":"residential","vertex1":7101,"vertex2":7046}},{"type":"Feature","geometry":{"type":"LineString","coordinates":[[3.761707,51.0408],[3.761608,51.04085],[3.76151,51.04091],[3.761415,51.041]]},"properties":{"name":"Emanuel Hielstraat","highway":"residential","vertex1":7100,"vertex2":7068}},{"type":"Feature","geometry":{"type":"LineString","coordinates":[[3.761707,51.0408],[3.76134,51.04065],[3.76115,51.04057],[3.760948,51.0405],[3.760639,51.04045],[3.759448,51.04042]]},"properties":{"name":"Frederik Burvenichstraat","highway":"residential","maxspeed":"30","vertex1":7100,"vertex2":7092}},{"type":"Feature","geometry":{"type":"LineString","coordinates":[[3.761707,51.0408],[3.761835,51.04076],[3.762031,51.04068],[3.762125,51.0406]]},"properties":{"name":"Meersemdries","maxspeed":"50","highway":"residential","vertex1":7100,"vertex2":7091}},{"type":"Feature","geometry":{"type":"LineString","coordinates":[[3.760535,51.03789],[3.76059,51.03782]]},"properties":{"highway":"footway","vertex1":7099,"vertex2":7017}},{"type":"Feature","geometry":{"type":"LineString","coordinates":[[3.760535,51.03789],[3.760432,51.03785],[3.760286,51.03778]]},"properties":{"highway":"footway","vertex1":7099,"vertex2":7053}},{"type":"Feature","geometry":{"type":"LineString","coordinates":[[3.7585,51.04042],[3.759448,51.04042]]},"properties":{"name":"Frederik Burvenichstraat","highway":"residential","maxspeed":"30","vertex1":7098,"vertex2":7092}},{"type":"Feature","geometry":{"type":"LineString","coordinates":[[3.7585,51.04042],[3.757276,51.04042]]},"properties":{"name":"Frederik Burvenichstraat","highway":"residential","maxspeed":"30","vertex1":7098,"vertex2":8232}},{"type":"Feature","geometry":{"type":"LineString","coordinates":[[3.7585,51.04042],[3.758484,51.04063],[3.758373,51.04073],[3.758213,51.04077],[3.757797,51.04077],[3.757655,51.04081],[3.757548,51.0409],[3.757542,51.04105],[3.75755,51.04114],[3.757523,51.04126],[3.757553,51.04137],[3.75781,51.04154],[3.758285,51.04175]]},"properties":{"bicycle":"no","motorcar":"no","foot":"no","highway":"service","vertex1":7098,"vertex2":7107}},{"type":"Feature","geometry":{"type":"LineString","coordinates":[[3.757276,51.04042],[3.758249,51.03888]]},"properties":{"name":"Jozef Wautersstraat","oneway":"yes","highway":"residential","maxspeed":"30","vertex1":8232,"vertex2":7071}},{"type":"Feature","geometry":{"type":"LineString","coordinates":[[3.763399,51.03745],[3.763359,51.03753]]},"properties":{"name":"Braemkasteelstraat","highway":"residential","vertex1":7096,"vertex2":7064}},{"type":"Feature","geometry":{"type":"LineString","coordinates":[[3.760695,51.0377],[3.76059,51.03782]]},"properties":{"bridge":"yes","highway":"footway","vertex1":7095,"vertex2":7017}},{"type":"Feature","geometry":{"type":"LineString","coordinates":[[3.760695,51.0377],[3.760768,51.03767],[3.760843,51.03767],[3.760952,51.03765],[3.761035,51.03762],[3.761091,51.03756],[3.761087,51.03751],[3.761028,51.03748],[3.760923,51.03747],[3.760855,51.03746]]},"properties":{"highway":"footway","vertex1":7095,"vertex2":7010}},{"type":"Feature","geometry":{"type":"LineString","coordinates":[[3.762568,51.03733],[3.763359,51.03753]]},"properties":{"name":"Land Van Rodelaan","oneway":"yes","maxspeed":"50","highway":"residential","vertex1":7094,"vertex2":7064}},{"type":"Feature","geometry":{"type":"LineString","coordinates":[[3.762568,51.03733],[3.762424,51.03746]]},"properties":{"highway":"footway","vertex1":7094,"vertex2":7057}},{"type":"Feature","geometry":{"type":"LineString","coordinates":[[3.764786,51.03831],[3.764358,51.03825],[3.764025,51.03816],[3.763452,51.03788],[3.763322,51.03787],[3.76324,51.03786]]},"properties":{"highway":"path","vertex1":7093,"vertex2":7066}},{"type":"Feature","geometry":{"type":"LineString","coordinates":[[3.764786,51.03831],[3.765215,51.03828]]},"properties":{"highway":"path","vertex1":7093,"vertex2":7055}},{"type":"Feature","geometry":{"type":"LineString","coordinates":[[3.764786,51.03831],[3.764685,51.03839],[3.764584,51.03852],[3.764466,51.03865],[3.76438,51.03882],[3.764353,51.03894],[3.764385,51.03905],[3.764476,51.03921]]},"properties":{"highway":"path","vertex1":7093,"vertex2":7044}},{"type":"Feature","geometry":{"type":"LineString","coordinates":[[3.759448,51.04042],[3.759456,51.04037],[3.759801,51.0398]]},"properties":{"name":"Valerius De Saedeleerstraat","highway":"residential","maxspeed":"30","vertex1":7092,"vertex2":7090}},{"type":"Feature","geometry":{"type":"LineString","coordinates":[[3.762125,51.0406],[3.762308,51.04065]]},"properties":{"name":"Meersemdries","highway":"residential","maxspeed":"30","vertex1":7091,"vertex2":7049}},{"type":"Feature","geometry":{"type":"LineString","coordinates":[[3.762125,51.0406],[3.762431,51.04017]]},"properties":{"name":"Meersemdries","maxspeed":"50","highway":"residential","vertex1":7091,"vertex2":7026}},{"type":"Feature","geometry":{"type":"LineString","coordinates":[[3.759801,51.0398],[3.759908,51.03965]]},"properties":{"name":"Valerius De Saedeleerstraat","highway":"residential","maxspeed":"30","vertex1":7090,"vertex2":7088}},{"type":"Feature","geometry":{"type":"LineString","coordinates":[[3.759801,51.0398],[3.760408,51.03984]]},"properties":{"name":"Leon Deloofstraat","highway":"residential","maxspeed":"30","vertex1":7090,"vertex2":7015}},{"type":"Feature","geometry":{"type":"LineString","coordinates":[[3.759801,51.0398],[3.758828,51.03964]]},"properties":{"name":"Leon Deloofstraat","highway":"residential","maxspeed":"30","vertex1":7090,"vertex2":7089}},{"type":"Feature","geometry":{"type":"LineString","coordinates":[[3.759908,51.03965],[3.760103,51.03921]]},"properties":{"name":"Valerius De Saedeleerstraat","highway":"residential","maxspeed":"30","vertex1":7088,"vertex2":7086}},{"type":"Feature","geometry":{"type":"LineString","coordinates":[[3.759908,51.03965],[3.760408,51.03984]]},"properties":{"name":"Leon Deloofstraat","highway":"residential","maxspeed":"30","vertex1":7088,"vertex2":7015}},{"type":"Feature","geometry":{"type":"LineString","coordinates":[[3.760103,51.03921],[3.760341,51.03866]]},"properties":{"name":"Valerius De Saedeleerstraat","highway":"residential","maxspeed":"30","vertex1":7086,"vertex2":7084}},{"type":"Feature","geometry":{"type":"LineString","coordinates":[[3.760103,51.03921],[3.758249,51.03888]]},"properties":{"name":"Hipoliet Persoonsstraat","oneway":"yes","highway":"residential","maxspeed":"30","vertex1":7086,"vertex2":7071}},{"type":"Feature","geometry":{"type":"LineString","coordinates":[[3.760103,51.03921],[3.762691,51.03962]]},"properties":{"name":"Hipoliet Persoonsstraat","oneway":"yes","highway":"residential","maxspeed":"30","vertex1":7086,"vertex2":7039}},{"type":"Feature","geometry":{"type":"LineString","coordinates":[[3.761874,51.04138],[3.761761,51.04149],[3.761626,51.04211],[3.761691,51.04214],[3.762679,51.04223]]},"properties":{"name":"Armand Lonquestraat","highway":"residential","maxspeed":"30","vertex1":7085,"vertex2":7051}},{"type":"Feature","geometry":{"type":"LineString","coordinates":[[3.761874,51.04138],[3.76192,51.04133]]},"properties":{"name":"Armand Lonquestraat","highway":"residential","maxspeed":"30","vertex1":7085,"vertex2":7011}},{"type":"Feature","geometry":{"type":"LineString","coordinates":[[3.761874,51.04138],[3.761985,51.04142],[3.762259,51.04154],[3.762847,51.0416]]},"properties":{"highway":"footway","vertex1":7085,"vertex2":7097}},{"type":"Feature","geometry":{"type":"LineString","coordinates":[[3.762679,51.04223],[3.762847,51.0416]]},"properties":{"name":"Jules Mac Leodstraat","highway":"residential","maxspeed":"30","vertex1":7051,"vertex2":7097}},{"type":"Feature","geometry":{"type":"LineString","coordinates":[[3.762847,51.0416],[3.762948,51.04111]]},"properties":{"name":"Jules Mac Leodstraat","highway":"residential","maxspeed":"30","vertex1":7097,"vertex2":7029}},{"type":"Feature","geometry":{"type":"LineString","coordinates":[[3.762847,51.0416],[3.763779,51.04169],[3.763862,51.04168],[3.763944,51.04163],[3.764242,51.04089],[3.764378,51.04061]]},"properties":{"name":"Jan Delorilaan","highway":"residential","maxspeed":"30","vertex1":7097,"vertex2":7033}},{"type":"Feature","geometry":{"type":"LineString","coordinates":[[3.760341,51.03866],[3.760497,51.03852]]},"properties":{"name":"Valerius De Saedeleerstraat","highway":"residential","maxspeed":"30","vertex1":7084,"vertex2":7078}},{"type":"Feature","geometry":{"type":"LineString","coordinates":[[3.760341,51.03866],[3.760355,51.03846]]},"properties":{"name":"Valerius De Saedeleerstraat","highway":"residential","vertex1":7084,"vertex2":7080}},{"type":"Feature","geometry":{"type":"LineString","coordinates":[[3.765126,51.04005],[3.765,51.04031]]},"properties":{"name":"Meersemhof","highway":"residential","maxspeed":"30","vertex1":7083,"vertex2":7023}},{"type":"Feature","geometry":{"type":"LineString","coordinates":[[3.765126,51.04005],[3.765324,51.03968]]},"properties":{"name":"Meersemhof","highway":"residential","maxspeed":"30","vertex1":7083,"vertex2":7061}},{"type":"Feature","geometry":{"type":"LineString","coordinates":[[3.765126,51.04005],[3.765716,51.04017]]},"properties":{"name":"Het Kamp","highway":"residential","maxspeed":"30","vertex1":7083,"vertex2":7036}},{"type":"Feature","geometry":{"type":"LineString","coordinates":[[3.758823,51.03803],[3.759446,51.03815],[3.759708,51.03821],[3.759966,51.03828],[3.760355,51.03846]]},"properties":{"name":"Le Fèvere de Ten Hovelaan","highway":"residential","maxspeed":"30","vertex1":7082,"vertex2":7080}},{"type":"Feature","geometry":{"type":"LineString","coordinates":[[3.758823,51.03803],[3.757572,51.03774]]},"properties":{"name":"Le Fèvere de Ten Hovelaan","highway":"residential","maxspeed":"30","vertex1":7082,"vertex2":7070}},{"type":"Feature","geometry":{"type":"LineString","coordinates":[[3.758823,51.03803],[3.759462,51.03716]]},"properties":{"name":"Jozef Wautersstraat","oneway":"yes","highway":"residential","maxspeed":"30","vertex1":7082,"vertex2":7069}},{"type":"Feature","geometry":{"type":"LineString","coordinates":[[3.758823,51.03803],[3.758249,51.03888]]},"properties":{"name":"Jozef Wautersstraat","oneway":"yes","highway":"residential","maxspeed":"30","vertex1":7082,"vertex2":7071}},{"type":"Feature","geometry":{"type":"LineString","coordinates":[[3.762714,51.04079],[3.762713,51.04064],[3.762752,51.04051]]},"properties":{"name":"Meersemdries","oneway":"yes","motorcar":"no","highway":"track","vertex1":7081,"vertex2":7043}},{"type":"Feature","geometry":{"type":"LineString","coordinates":[[3.762714,51.04079],[3.762906,51.04095],[3.762949,51.04102],[3.762948,51.04111]]},"properties":{"name":"Jules Mac Leodstraat","highway":"residential","maxspeed":"30","vertex1":7081,"vertex2":7029}},{"type":"Feature","geometry":{"type":"LineString","coordinates":[[3.762714,51.04079],[3.762638,51.04076],[3.762494,51.04071]]},"properties":{"name":"Meersemdries","highway":"residential","maxspeed":"30","vertex1":7081,"vertex2":7052}},{"type":"Feature","geometry":{"type":"LineString","coordinates":[[3.760355,51.03846],[3.760497,51.03852]]},"properties":{"name":"Le Fèvere de Ten Hovelaan","highway":"residential","maxspeed":"30","vertex1":7080,"vertex2":7078}},{"type":"Feature","geometry":{"type":"LineString","coordinates":[[3.763503,51.04041],[3.763518,51.04026],[3.76368,51.04],[3.76407,51.0401]]},"properties":{"highway":"footway","vertex1":7079,"vertex2":7041}},{"type":"Feature","geometry":{"type":"LineString","coordinates":[[3.763503,51.04041],[3.764378,51.04061]]},"properties":{"name":"Voordries","highway":"residential","maxspeed":"30","vertex1":7079,"vertex2":7033}},{"type":"Feature","geometry":{"type":"LineString","coordinates":[[3.760497,51.03852],[3.760576,51.03852]]},"properties":{"name":"Le Fèvere de Ten Hovelaan","highway":"residential","maxspeed":"30","vertex1":7078,"vertex2":7076}},{"type":"Feature","geometry":{"type":"LineString","coordinates":[[3.761284,51.04004],[3.761141,51.04003],[3.760408,51.03984]]},"properties":{"name":"Leon Deloofstraat","highway":"residential","maxspeed":"30","vertex1":7077,"vertex2":7015}},{"type":"Feature","geometry":{"type":"LineString","coordinates":[[3.760576,51.03852],[3.761765,51.0387],[3.762952,51.03889]]},"properties":{"name":"Le Fèvere de Ten Hovelaan","highway":"residential","maxspeed":"30","vertex1":7076,"vertex2":7074}},{"type":"Feature","geometry":{"type":"LineString","coordinates":[[3.760576,51.03852],[3.760694,51.03827]]},"properties":{"bicycle":"yes","motorcar":"yes","highway":"footway","vertex1":7076,"vertex2":7050}},{"type":"Feature","geometry":{"type":"LineString","coordinates":[[3.764159,51.04012],[3.765,51.04031]]},"properties":{"name":"Meersemhof","highway":"residential","maxspeed":"30","vertex1":7075,"vertex2":7023}},{"type":"Feature","geometry":{"type":"LineString","coordinates":[[3.764159,51.04012],[3.76407,51.0401]]},"properties":{"name":"Meersemhof","highway":"residential","maxspeed":"30","vertex1":7075,"vertex2":7041}},{"type":"Feature","geometry":{"type":"LineString","coordinates":[[3.764159,51.04012],[3.76434,51.04006],[3.76445,51.03985],[3.764381,51.03978],[3.764541,51.0395]]},"properties":{"name":"Meersemwegel","highway":"footway","vertex1":7075,"vertex2":7013}},{"type":"Feature","geometry":{"type":"LineString","coordinates":[[3.762952,51.03889],[3.762691,51.03962]]},"properties":{"name":"Braemkasteelstraat","maxspeed":"50","highway":"residential","vertex1":7074,"vertex2":7039}},{"type":"Feature","geometry":{"type":"LineString","coordinates":[[3.765218,51.03904],[3.765591,51.03864],[3.765835,51.03854]]},"properties":{"name":"Meersemwegel","highway":"path","vertex1":7073,"vertex2":7027}},{"type":"Feature","geometry":{"type":"LineString","coordinates":[[3.765218,51.03904],[3.765349,51.0391],[3.765442,51.0392]]},"properties":{"name":"Meersemhof","highway":"residential","maxspeed":"30","vertex1":7073,"vertex2":7045}},{"type":"Feature","geometry":{"type":"LineString","coordinates":[[3.763208,51.03796],[3.76324,51.03786]]},"properties":{"name":"Braemkasteelstraat","maxspeed":"50","highway":"residential","vertex1":7072,"vertex2":7066}},{"type":"Feature","geometry":{"type":"LineString","coordinates":[[3.758249,51.03888],[3.756612,51.03861]]},"properties":{"name":"Hipoliet Persoonsstraat","oneway":"yes","highway":"residential","maxspeed":"30","vertex1":7071,"vertex2":8249}},{"type":"Feature","geometry":{"type":"LineString","coordinates":[[3.756612,51.03861],[3.75672,51.03851]]},"properties":{"name":"Robert Rinskopflaan","maxspeed":"50","highway":"tertiary","vertex1":8249,"vertex2":8241}},{"type":"Feature","geometry":{"type":"LineString","coordinates":[[3.757572,51.03774],[3.757183,51.03812],[3.75672,51.03851]]},"properties":{"name":"Robert Rinskopflaan","maxspeed":"50","highway":"tertiary","vertex1":7070,"vertex2":8241}},{"type":"Feature","geometry":{"type":"LineString","coordinates":[[3.759462,51.03716],[3.760045,51.03722]]},"properties":{"name":"Adolf Samuelstraat","highway":"residential","vertex1":7069,"vertex2":7067}},{"type":"Feature","geometry":{"type":"LineString","coordinates":[[3.761415,51.041],[3.761194,51.04119],[3.759698,51.04249],[3.759394,51.04288]]},"properties":{"name":"Emanuel Hielstraat","highway":"residential","vertex1":7068,"vertex2":6712}},{"type":"Feature","geometry":{"type":"LineString","coordinates":[[3.761415,51.041],[3.762116,51.04128]]},"properties":{"highway":"footway","vertex1":7068,"vertex2":7054}},{"type":"Feature","geometry":{"type":"LineString","coordinates":[[3.760045,51.03722],[3.760198,51.03723]]},"properties":{"name":"Adolf Samuelstraat","highway":"footway","vertex1":7067,"vertex2":7021}},{"type":"Feature","geometry":{"type":"LineString","coordinates":[[3.76324,51.03786],[3.763359,51.03753]]},"properties":{"name":"Braemkasteelstraat","maxspeed":"50","highway":"residential","vertex1":7066,"vertex2":7064}},{"type":"Feature","geometry":{"type":"LineString","coordinates":[[3.767434,51.03843],[3.766544,51.03822]]},"properties":{"highway":"path","vertex1":7065,"vertex2":7035}},{"type":"Feature","geometry":{"type":"LineString","coordinates":[[3.764341,51.03946],[3.764541,51.0395]]},"properties":{"name":"Meersemhof","highway":"residential","maxspeed":"30","vertex1":7063,"vertex2":7013}},{"type":"Feature","geometry":{"type":"LineString","coordinates":[[3.766201,51.03758],[3.765626,51.03739],[3.765546,51.03735]]},"properties":{"name":"Driebeekstraat","highway":"unclassified","vertex1":7062,"vertex2":7060}},{"type":"Feature","geometry":{"type":"LineString","coordinates":[[3.766201,51.03758],[3.766472,51.03766]]},"properties":{"name":"Driebeekstraat","highway":"unclassified","vertex1":7062,"vertex2":7037}},{"type":"Feature","geometry":{"type":"LineString","coordinates":[[3.765324,51.03968],[3.764541,51.0395]]},"properties":{"name":"Meersemhof","highway":"residential","maxspeed":"30","vertex1":7061,"vertex2":7013}},{"type":"Feature","geometry":{"type":"LineString","coordinates":[[3.765546,51.03735],[3.765026,51.03709]]},"properties":{"name":"Driebeekstraat","highway":"unclassified","vertex1":7060,"vertex2":7058}},{"type":"Feature","geometry":{"type":"LineString","coordinates":[[3.767898,51.03802],[3.768,51.03781]]},"properties":{"oneway":"yes","highway":"service","vertex1":7056,"vertex2":7009}},{"type":"Feature","geometry":{"type":"LineString","coordinates":[[3.767898,51.03802],[3.768329,51.03815],[3.768789,51.03826]]},"properties":{"name":"Driebeekstraat","highway":"unclassified","vertex1":7056,"vertex2":6977}},{"type":"Feature","geometry":{"type":"LineString","coordinates":[[3.765215,51.03828],[3.765835,51.03854]]},"properties":{"highway":"path","vertex1":7055,"vertex2":7027}},{"type":"Feature","geometry":{"type":"LineString","coordinates":[[3.762116,51.04128],[3.762287,51.04123],[3.762324,51.04118],[3.762483,51.04073],[3.762494,51.04071]]},"properties":{"motorcar":"no","highway":"service","vertex1":7054,"vertex2":7052}},{"type":"Feature","geometry":{"type":"LineString","coordinates":[[3.762116,51.04128],[3.76192,51.04133]]},"properties":{"motorcar":"no","highway":"service","vertex1":7054,"vertex2":7011}},{"type":"Feature","geometry":{"type":"LineString","coordinates":[[3.760286,51.03778],[3.760207,51.03771],[3.760115,51.03764],[3.760059,51.03752],[3.760097,51.0374],[3.760118,51.03736],[3.760142,51.0373],[3.760198,51.03723]]},"properties":{"highway":"footway","vertex1":7053,"vertex2":7021}},{"type":"Feature","geometry":{"type":"LineString","coordinates":[[3.760286,51.03778],[3.760152,51.03794],[3.760122,51.03812],[3.760198,51.03819],[3.760369,51.03822],[3.760581,51.03824],[3.760694,51.03827]]},"properties":{"highway":"footway","vertex1":7053,"vertex2":7050}},{"type":"Feature","geometry":{"type":"LineString","coordinates":[[3.762494,51.04071],[3.762389,51.04067],[3.762308,51.04065]]},"properties":{"name":"Meersemdries","highway":"residential","maxspeed":"30","vertex1":7052,"vertex2":7049}},{"type":"Feature","geometry":{"type":"LineString","coordinates":[[3.760694,51.03827],[3.760872,51.03794]]},"properties":{"bicycle":"yes","motorcar":"yes","highway":"footway","vertex1":7050,"vertex2":7048}},{"type":"Feature","geometry":{"type":"LineString","coordinates":[[3.762308,51.04065],[3.762752,51.04051]]},"properties":{"name":"Meersemdries","motorcar":"no","highway":"track","vertex1":7049,"vertex2":7043}},{"type":"Feature","geometry":{"type":"LineString","coordinates":[[3.760872,51.03794],[3.760901,51.03791],[3.760913,51.03791],[3.761058,51.03788],[3.761236,51.03782],[3.761392,51.03774],[3.761529,51.03767],[3.761598,51.03762],[3.761686,51.03756],[3.761728,51.03755],[3.761774,51.03754],[3.762016,51.0376],[3.762052,51.03761],[3.762094,51.03761]]},"properties":{"bicycle":"yes","motorcar":"yes","highway":"footway","vertex1":7048,"vertex2":7046}},{"type":"Feature","geometry":{"type":"LineString","coordinates":[[3.760872,51.03794],[3.760895,51.03805],[3.761015,51.0381],[3.761209,51.03815],[3.761286,51.03816],[3.761528,51.03825],[3.761706,51.03831],[3.761894,51.03831],[3.762047,51.03837]]},"properties":{"highway":"footway","vertex1":7048,"vertex2":7019}},{"type":"Feature","geometry":{"type":"LineString","coordinates":[[3.764708,51.03925],[3.764961,51.0393],[3.765442,51.0392]]},"properties":{"name":"Meersemwegel","highway":"footway","vertex1":7047,"vertex2":7045}},{"type":"Feature","geometry":{"type":"LineString","coordinates":[[3.764708,51.03925],[3.764541,51.0395]]},"properties":{"name":"Meersemwegel","highway":"footway","vertex1":7047,"vertex2":7013}},{"type":"Feature","geometry":{"type":"LineString","coordinates":[[3.764708,51.03925],[3.764476,51.03921]]},"properties":{"highway":"path","vertex1":7047,"vertex2":7044}},{"type":"Feature","geometry":{"type":"LineString","coordinates":[[3.762094,51.03761],[3.762116,51.03767],[3.762172,51.03772],[3.762252,51.03775],[3.762347,51.03776],[3.762439,51.03774]]},"properties":{"name":"Frans Tochpark","highway":"residential","vertex1":7046,"vertex2":7042}},{"type":"Feature","geometry":{"type":"LineString","coordinates":[[3.762439,51.03774],[3.762561,51.03794],[3.762586,51.03801],[3.762548,51.03812],[3.762475,51.03822],[3.762231,51.03829]]},"properties":{"highway":"footway","vertex1":7042,"vertex2":7040}},{"type":"Feature","geometry":{"type":"LineString","coordinates":[[3.762231,51.03829],[3.762047,51.03837]]},"properties":{"highway":"footway","vertex1":7040,"vertex2":7019}},{"type":"Feature","geometry":{"type":"LineString","coordinates":[[3.762691,51.03962],[3.762516,51.04002],[3.762431,51.04017]]},"properties":{"name":"Braemkasteelstraat","maxspeed":"50","highway":"residential","vertex1":7039,"vertex2":7026}},{"type":"Feature","geometry":{"type":"LineString","coordinates":[[3.766948,51.04044],[3.765716,51.04017]]},"properties":{"name":"Het Kamp","highway":"residential","maxspeed":"30","vertex1":7038,"vertex2":7036}},{"type":"Feature","geometry":{"type":"LineString","coordinates":[[3.766472,51.03766],[3.766608,51.03743]]},"properties":{"oneway":"yes","highway":"service","vertex1":7037,"vertex2":7034}},{"type":"Feature","geometry":{"type":"LineString","coordinates":[[3.765716,51.04017],[3.765929,51.03976]]},"properties":{"name":"Het Kamp","highway":"residential","maxspeed":"30","vertex1":7036,"vertex2":7028}},{"type":"Feature","geometry":{"type":"LineString","coordinates":[[3.766544,51.03822],[3.765835,51.03854]]},"properties":{"highway":"path","vertex1":7035,"vertex2":7027}},{"type":"Feature","geometry":{"type":"LineString","coordinates":[[3.766608,51.03743],[3.768,51.03781]]},"properties":{"highway":"service","vertex1":7034,"vertex2":7009}},{"type":"Feature","geometry":{"type":"LineString","coordinates":[[3.766608,51.03743],[3.76674,51.0372],[3.767063,51.0373],[3.767437,51.0374],[3.767637,51.03745]]},"properties":{"highway":"service","vertex1":7034,"vertex2":7012}},{"type":"Feature","geometry":{"type":"LineString","coordinates":[[3.764378,51.04061],[3.764744,51.0407]]},"properties":{"name":"Voordries","highway":"residential","maxspeed":"30","vertex1":7033,"vertex2":7025}},{"type":"Feature","geometry":{"type":"LineString","coordinates":[[3.768122,51.03757],[3.768,51.03781]]},"properties":{"highway":"service","vertex1":7032,"vertex2":7009}},{"type":"Feature","geometry":{"type":"LineString","coordinates":[[3.768122,51.03757],[3.767979,51.03753]]},"properties":{"highway":"service","vertex1":7032,"vertex2":7030}},{"type":"Feature","geometry":{"type":"LineString","coordinates":[[3.768122,51.03757],[3.768181,51.03748]]},"properties":{"highway":"service","vertex1":7032,"vertex2":7016}},{"type":"Feature","geometry":{"type":"LineString","coordinates":[[3.767979,51.03753],[3.768043,51.03744],[3.768181,51.03748]]},"properties":{"highway":"service","vertex1":7030,"vertex2":7016}},{"type":"Feature","geometry":{"type":"LineString","coordinates":[[3.767979,51.03753],[3.767637,51.03745]]},"properties":{"highway":"service","vertex1":7030,"vertex2":7012}},{"type":"Feature","geometry":{"type":"LineString","coordinates":[[3.765835,51.03854],[3.766039,51.0386],[3.766833,51.03887],[3.767361,51.03903],[3.767924,51.03918],[3.768097,51.03925],[3.768486,51.0393],[3.768872,51.03925]]},"properties":{"highway":"path","vertex1":7027,"vertex2":7006}},{"type":"Feature","geometry":{"type":"LineString","coordinates":[[3.764744,51.0407],[3.764866,51.04051],[3.765,51.04031]]},"properties":{"name":"Meersemhof","highway":"residential","maxspeed":"30","vertex1":7025,"vertex2":7023}},{"type":"Feature","geometry":{"type":"LineString","coordinates":[[3.764744,51.0407],[3.766633,51.04124],[3.768446,51.04185]]},"properties":{"name":"Voordries","highway":"residential","maxspeed":"30","vertex1":7025,"vertex2":6932}},{"type":"Feature","geometry":{"type":"LineString","coordinates":[[3.772539,51.03778],[3.772999,51.03798]]},"properties":{"highway":"path","vertex1":7008,"vertex2":6950}},{"type":"Feature","geometry":{"type":"LineString","coordinates":[[3.772539,51.03778],[3.772012,51.03758],[3.771721,51.03787],[3.771993,51.03798]]},"properties":{"highway":"path","vertex1":7008,"vertex2":6937}},{"type":"Feature","geometry":{"type":"LineString","coordinates":[[3.772539,51.03778],[3.772226,51.03808]]},"properties":{"highway":"path","vertex1":7008,"vertex2":6885}},{"type":"Feature","geometry":{"type":"LineString","coordinates":[[3.768872,51.03925],[3.770538,51.03933],[3.771558,51.03963]]},"properties":{"highway":"path","vertex1":7006,"vertex2":7004}},{"type":"Feature","geometry":{"type":"LineString","coordinates":[[3.768872,51.03925],[3.769581,51.03853]]},"properties":{"highway":"track","vertex1":7006,"vertex2":6986}},{"type":"Feature","geometry":{"type":"LineString","coordinates":[[3.768872,51.03925],[3.769411,51.03968],[3.769486,51.04005]]},"properties":{"highway":"path","vertex1":7006,"vertex2":6921}},{"type":"Feature","geometry":{"type":"LineString","coordinates":[[3.772681,51.03834],[3.77249,51.03855]]},"properties":{"highway":"track","vertex1":7005,"vertex2":6941}},{"type":"Feature","geometry":{"type":"LineString","coordinates":[[3.772681,51.03834],[3.772841,51.03815],[3.772999,51.03798]]},"properties":{"highway":"track","vertex1":7005,"vertex2":6950}},{"type":"Feature","geometry":{"type":"LineString","coordinates":[[3.772681,51.03834],[3.773356,51.03854]]},"properties":{"highway":"track","vertex1":7005,"vertex2":6961}},{"type":"Feature","geometry":{"type":"LineString","coordinates":[[3.771558,51.03963],[3.772142,51.03975],[3.773057,51.03994],[3.77325,51.03999]]},"properties":{"highway":"path","vertex1":7004,"vertex2":6990}},{"type":"Feature","geometry":{"type":"LineString","coordinates":[[3.772394,51.03866],[3.772207,51.03889],[3.772063,51.03913]]},"properties":{"highway":"track","vertex1":7003,"vertex2":6909}},{"type":"Feature","geometry":{"type":"LineString","coordinates":[[3.772394,51.03866],[3.77249,51.03855]]},"properties":{"highway":"track","vertex1":7003,"vertex2":6941}},{"type":"Feature","geometry":{"type":"LineString","coordinates":[[3.772394,51.03866],[3.772654,51.03875]]},"properties":{"highway":"footway","vertex1":7003,"vertex2":6929}},{"type":"Feature","geometry":{"type":"LineString","coordinates":[[3.771874,51.0406],[3.77212,51.04034],[3.772066,51.04026]]},"properties":{"name":"Helene Marshalhof","highway":"residential","maxspeed":"30","vertex1":7002,"vertex2":6945}},{"type":"Feature","geometry":{"type":"LineString","coordinates":[[3.771874,51.0406],[3.771666,51.04052],[3.771261,51.0401],[3.771186,51.04007],[3.770897,51.04002]]},"properties":{"name":"Helene Mareshalhof","highway":"residential","maxspeed":"30","vertex1":7002,"vertex2":6888}},{"type":"Feature","geometry":{"type":"LineString","coordinates":[[3.771874,51.0406],[3.772141,51.04071],[3.772614,51.04115]]},"properties":{"name":"Helene Mareshalhof","highway":"residential","maxspeed":"30","vertex1":7002,"vertex2":6916}},{"type":"Feature","geometry":{"type":"LineString","coordinates":[[3.774406,51.03885],[3.774575,51.0389],[3.774625,51.03892]]},"properties":{"highway":"track","vertex1":7001,"vertex2":6939}},{"type":"Feature","geometry":{"type":"LineString","coordinates":[[3.774406,51.03885],[3.774378,51.03884]]},"properties":{"highway":"track","vertex1":7001,"vertex2":6954}},{"type":"Feature","geometry":{"type":"LineString","coordinates":[[3.774406,51.03885],[3.774737,51.03852],[3.774468,51.03842],[3.774424,51.03844],[3.774196,51.03834]]},"properties":{"highway":"path","vertex1":7001,"vertex2":6923}},{"type":"Feature","geometry":{"type":"LineString","coordinates":[[3.77324,51.03769],[3.773255,51.03767]]},"properties":{"highway":"track","vertex1":7000,"vertex2":6970}},{"type":"Feature","geometry":{"type":"LineString","coordinates":[[3.77324,51.03769],[3.773215,51.03772]]},"properties":{"bridge":"yes","highway":"track","vertex1":7000,"vertex2":6997}},{"type":"Feature","geometry":{"type":"LineString","coordinates":[[3.774439,51.03741],[3.774235,51.03729],[3.774076,51.03716]]},"properties":{"highway":"path","vertex1":6999,"vertex2":6925}},{"type":"Feature","geometry":{"type":"LineString","coordinates":[[3.775774,51.03709],[3.775899,51.03715],[3.776053,51.03725],[3.776287,51.0374],[3.77692,51.03778]]},"properties":{"highway":"track","vertex1":6998,"vertex2":6934}},{"type":"Feature","geometry":{"type":"LineString","coordinates":[[3.775774,51.03709],[3.775668,51.03718]]},"properties":{"highway":"track","vertex1":6998,"vertex2":6974}},{"type":"Feature","geometry":{"type":"LineString","coordinates":[[3.773215,51.03772],[3.77319,51.03775],[3.773054,51.03792]]},"properties":{"highway":"track","vertex1":6997,"vertex2":6893}},{"type":"Feature","geometry":{"type":"LineString","coordinates":[[3.770768,51.0371],[3.770666,51.03724],[3.77049,51.03742]]},"properties":{"highway":"track","vertex1":6996,"vertex2":6994}},{"type":"Feature","geometry":{"type":"LineString","coordinates":[[3.770768,51.0371],[3.770501,51.03706]]},"properties":{"highway":"track","vertex1":6996,"vertex2":6914}},{"type":"Feature","geometry":{"type":"LineString","coordinates":[[3.774132,51.04115],[3.773232,51.0409]]},"properties":{"name":"Boer Janssensstraat","oneway":"yes","highway":"residential","maxspeed":"30","vertex1":6995,"vertex2":6935}},{"type":"Feature","geometry":{"type":"LineString","coordinates":[[3.774132,51.04115],[3.77448,51.04124],[3.774559,51.04131]]},"properties":{"name":"Boer Janssensstraat","oneway":"yes","highway":"residential","maxspeed":"30","vertex1":6995,"vertex2":6907}},{"type":"Feature","geometry":{"type":"LineString","coordinates":[[3.77049,51.03742],[3.770329,51.03764]]},"properties":{"highway":"track","vertex1":6994,"vertex2":6983}},{"type":"Feature","geometry":{"type":"LineString","coordinates":[[3.77049,51.03742],[3.770327,51.0374],[3.770136,51.03738]]},"properties":{"highway":"path","vertex1":6994,"vertex2":6904}},{"type":"Feature","geometry":{"type":"LineString","coordinates":[[3.774383,51.0413],[3.774559,51.04131]]},"properties":{"name":"Boer Janssensstraat","oneway":"yes","highway":"residential","maxspeed":"30","vertex1":6993,"vertex2":6907}},{"type":"Feature","geometry":{"type":"LineString","coordinates":[[3.774383,51.0413],[3.773108,51.04096]]},"properties":{"name":"Boer Janssensstraat","oneway":"yes","highway":"residential","maxspeed":"30","vertex1":6993,"vertex2":6908}},{"type":"Feature","geometry":{"type":"LineString","coordinates":[[3.774383,51.0413],[3.774272,51.04136],[3.773703,51.04172]]},"properties":{"name":"Jules Van Biesbroeckstraat","highway":"residential","maxspeed":"30","vertex1":6993,"vertex2":6928}},{"type":"Feature","geometry":{"type":"LineString","coordinates":[[3.77325,51.03999],[3.773135,51.0401],[3.773077,51.04021],[3.773019,51.04028],[3.772982,51.04038],[3.772929,51.04057]]},"properties":{"name":"Boswachterstraat","highway":"track","vertex1":6990,"vertex2":6890}},{"type":"Feature","geometry":{"type":"LineString","coordinates":[[3.77325,51.03999],[3.773362,51.03984]]},"properties":{"name":"Boswachterstraat","highway":"track","vertex1":6990,"vertex2":6924}},{"type":"Feature","geometry":{"type":"LineString","coordinates":[[3.772412,51.03813],[3.772278,51.03807],[3.772226,51.03808]]},"properties":{"highway":"path","vertex1":6989,"vertex2":6885}},{"type":"Feature","geometry":{"type":"LineString","coordinates":[[3.769793,51.03825],[3.769804,51.03824],[3.770329,51.03764]]},"properties":{"highway":"track","vertex1":6988,"vertex2":6983}},{"type":"Feature","geometry":{"type":"LineString","coordinates":[[3.769793,51.03825],[3.769581,51.03853]]},"properties":{"highway":"track","vertex1":6988,"vertex2":6986}},{"type":"Feature","geometry":{"type":"LineString","coordinates":[[3.769793,51.03825],[3.769768,51.03773],[3.769772,51.03761],[3.769491,51.03744],[3.769589,51.03739],[3.769731,51.03728]]},"properties":{"highway":"path","vertex1":6988,"vertex2":6896}},{"type":"Feature","geometry":{"type":"LineString","coordinates":[[3.77554,51.03996],[3.775648,51.03993],[3.775945,51.0398]]},"properties":{"name":"Emiel Van Swedenlaan","maxspeed":"50","highway":"residential","vertex1":6987,"vertex2":6887}},{"type":"Feature","geometry":{"type":"LineString","coordinates":[[3.77554,51.03996],[3.774956,51.04021]]},"properties":{"name":"Emiel Van Swedenlaan","maxspeed":"50","highway":"residential","vertex1":6987,"vertex2":6933}},{"type":"Feature","geometry":{"type":"LineString","coordinates":[[3.77554,51.03996],[3.775532,51.04014],[3.775606,51.04037]]},"properties":{"highway":"cycleway","vertex1":6987,"vertex2":6883}},{"type":"Feature","geometry":{"type":"LineString","coordinates":[[3.77554,51.03996],[3.774139,51.03963]]},"properties":{"name":"Boswachterstraat","highway":"track","vertex1":6987,"vertex2":6894}},{"type":"Feature","geometry":{"type":"LineString","coordinates":[[3.769581,51.03853],[3.769466,51.03848],[3.769265,51.03843],[3.768852,51.03833],[3.768789,51.03826]]},"properties":{"highway":"track","vertex1":6986,"vertex2":6977}},{"type":"Feature","geometry":{"type":"LineString","coordinates":[[3.769581,51.03853],[3.772063,51.03913]]},"properties":{"highway":"track","vertex1":6986,"vertex2":6909}},{"type":"Feature","geometry":{"type":"LineString","coordinates":[[3.77172,51.03822],[3.77209,51.03838]]},"properties":{"highway":"path","vertex1":6985,"vertex2":6905}},{"type":"Feature","geometry":{"type":"LineString","coordinates":[[3.77172,51.03822],[3.771543,51.03815]]},"properties":{"highway":"path","vertex1":6985,"vertex2":6931}},{"type":"Feature","geometry":{"type":"LineString","coordinates":[[3.77172,51.03822],[3.771993,51.03798]]},"properties":{"highway":"path","vertex1":6985,"vertex2":6937}},{"type":"Feature","geometry":{"type":"LineString","coordinates":[[3.770329,51.03764],[3.771297,51.03805],[3.771543,51.03815]]},"properties":{"highway":"path","vertex1":6983,"vertex2":6931}},{"type":"Feature","geometry":{"type":"LineString","coordinates":[[3.770329,51.03764],[3.77021,51.03757],[3.770022,51.03745]]},"properties":{"highway":"path","vertex1":6983,"vertex2":6900}},{"type":"Feature","geometry":{"type":"LineString","coordinates":[[3.770736,51.04093],[3.771645,51.04158]]},"properties":{"name":"Philippe van de Veldehof","highway":"residential","maxspeed":"30","vertex1":6982,"vertex2":6984}},{"type":"Feature","geometry":{"type":"LineString","coordinates":[[3.770736,51.04093],[3.770295,51.04059],[3.770169,51.04054]]},"properties":{"name":"Philippe van de Veldehof","highway":"residential","maxspeed":"30","vertex1":6982,"vertex2":6944}},{"type":"Feature","geometry":{"type":"LineString","coordinates":[[3.770736,51.04093],[3.76968,51.04148],[3.769469,51.04151]]},"properties":{"name":"Philippe van de Veldehof","highway":"residential","maxspeed":"30","vertex1":6982,"vertex2":6942}},{"type":"Feature","geometry":{"type":"LineString","coordinates":[[3.771645,51.04158],[3.772614,51.04115]]},"properties":{"name":"Emiel Van Swedenlaan","maxspeed":"50","highway":"residential","vertex1":6984,"vertex2":6916}},{"type":"Feature","geometry":{"type":"LineString","coordinates":[[3.771282,51.03838],[3.771186,51.03847]]},"properties":{"highway":"footway","vertex1":6981,"vertex2":6891}},{"type":"Feature","geometry":{"type":"LineString","coordinates":[[3.771282,51.03838],[3.771543,51.03815]]},"properties":{"highway":"footway","vertex1":6981,"vertex2":6931}},{"type":"Feature","geometry":{"type":"LineString","coordinates":[[3.771282,51.03838],[3.77178,51.0386],[3.771862,51.03853],[3.771906,51.03855],[3.77209,51.03838]]},"properties":{"highway":"path","vertex1":6981,"vertex2":6905}},{"type":"Feature","geometry":{"type":"LineString","coordinates":[[3.773963,51.03937],[3.774039,51.03932]]},"properties":{"highway":"track","vertex1":6980,"vertex2":6892}},{"type":"Feature","geometry":{"type":"LineString","coordinates":[[3.773963,51.03937],[3.774139,51.03963]]},"properties":{"name":"Boswachterstraat","highway":"track","vertex1":6980,"vertex2":6894}},{"type":"Feature","geometry":{"type":"LineString","coordinates":[[3.773963,51.03937],[3.773927,51.03939],[3.773766,51.0395],[3.773721,51.03953]]},"properties":{"name":"Boswachterstraat","highway":"track","vertex1":6980,"vertex2":6926}},{"type":"Feature","geometry":{"type":"LineString","coordinates":[[3.773612,51.03862],[3.773433,51.03882],[3.773335,51.03879],[3.77319,51.03894],[3.772654,51.03875]]},"properties":{"highway":"footway","vertex1":6979,"vertex2":6929}},{"type":"Feature","geometry":{"type":"LineString","coordinates":[[3.773612,51.03862],[3.77384,51.03868]]},"properties":{"highway":"track","vertex1":6979,"vertex2":6882}},{"type":"Feature","geometry":{"type":"LineString","coordinates":[[3.773612,51.03862],[3.773356,51.03854]]},"properties":{"highway":"track","vertex1":6979,"vertex2":6961}},{"type":"Feature","geometry":{"type":"LineString","coordinates":[[3.775104,51.03846],[3.775102,51.03855],[3.775078,51.0386],[3.775027,51.03865],[3.774704,51.03887],[3.774625,51.03892]]},"properties":{"highway":"track","vertex1":6978,"vertex2":6939}},{"type":"Feature","geometry":{"type":"LineString","coordinates":[[3.775104,51.03846],[3.775096,51.03841]]},"properties":{"highway":"track","vertex1":6978,"vertex2":6955}},{"type":"Feature","geometry":{"type":"LineString","coordinates":[[3.775104,51.03846],[3.774924,51.03833],[3.77444,51.03799],[3.774203,51.0379],[3.774072,51.03787],[3.773454,51.03771],[3.773255,51.03767]]},"properties":{"highway":"path","vertex1":6978,"vertex2":6970}},{"type":"Feature","geometry":{"type":"LineString","coordinates":[[3.775099,51.03835],[3.775096,51.03841]]},"properties":{"highway":"track","vertex1":6976,"vertex2":6955}},{"type":"Feature","geometry":{"type":"LineString","coordinates":[[3.775099,51.03835],[3.775111,51.03828]]},"properties":{"bridge":"yes","highway":"track","vertex1":6976,"vertex2":6968}},{"type":"Feature","geometry":{"type":"LineString","coordinates":[[3.776798,51.03944],[3.77708,51.03932],[3.777501,51.03908]]},"properties":{"name":"Emiel Van Swedenlaan","maxspeed":"50","highway":"residential","vertex1":6975,"vertex2":6919}},{"type":"Feature","geometry":{"type":"LineString","coordinates":[[3.776798,51.03944],[3.776687,51.03949]]},"properties":{"name":"Emiel Van Swedenlaan","maxspeed":"50","highway":"residential","vertex1":6975,"vertex2":6927}},{"type":"Feature","geometry":{"type":"LineString","coordinates":[[3.776798,51.03944],[3.776901,51.03953],[3.777124,51.03971],[3.777248,51.03983],[3.777338,51.03995],[3.777501,51.04014]]},"properties":{"highway":"track","vertex1":6975,"vertex2":6947}},{"type":"Feature","geometry":{"type":"LineString","coordinates":[[3.775668,51.03718],[3.775341,51.03706]]},"properties":{"highway":"track","vertex1":6974,"vertex2":6972}},{"type":"Feature","geometry":{"type":"LineString","coordinates":[[3.775668,51.03718],[3.775472,51.03742]]},"properties":{"highway":"track","vertex1":6974,"vertex2":6901}},{"type":"Feature","geometry":{"type":"LineString","coordinates":[[3.774452,51.03748],[3.774529,51.03752]]},"properties":{"highway":"path","vertex1":6973,"vertex2":6948}},{"type":"Feature","geometry":{"type":"LineString","coordinates":[[3.774452,51.03748],[3.774307,51.03754]]},"properties":{"bridge":"yes","highway":"path","vertex1":6973,"vertex2":6946}},{"type":"Feature","geometry":{"type":"LineString","coordinates":[[3.775341,51.03706],[3.775312,51.03707],[3.775213,51.03709],[3.775125,51.03713],[3.775039,51.03717]]},"properties":{"highway":"path","vertex1":6972,"vertex2":6971}},{"type":"Feature","geometry":{"type":"LineString","coordinates":[[3.775039,51.03717],[3.775164,51.03719],[3.775325,51.03728],[3.775472,51.03742]]},"properties":{"highway":"path","vertex1":6971,"vertex2":6901}},{"type":"Feature","geometry":{"type":"LineString","coordinates":[[3.775039,51.03717],[3.774899,51.03715],[3.774597,51.03712],[3.774396,51.03711],[3.774239,51.03712],[3.774076,51.03716]]},"properties":{"highway":"path","vertex1":6971,"vertex2":6925}},{"type":"Feature","geometry":{"type":"LineString","coordinates":[[3.775039,51.03717],[3.774966,51.03719],[3.774886,51.03724],[3.77484,51.03727],[3.774754,51.03735],[3.774695,51.03743],[3.774631,51.0375]]},"properties":{"highway":"path","vertex1":6971,"vertex2":6969}},{"type":"Feature","geometry":{"type":"LineString","coordinates":[[3.773255,51.03767],[3.773198,51.03765],[3.772499,51.03748],[3.772074,51.03738],[3.771694,51.03732],[3.771406,51.03728],[3.770774,51.03722]]},"properties":{"highway":"path","vertex1":6970,"vertex2":6918}},{"type":"Feature","geometry":{"type":"LineString","coordinates":[[3.774631,51.0375],[3.774594,51.03749]]},"properties":{"highway":"path","vertex1":6969,"vertex2":6952}},{"type":"Feature","geometry":{"type":"LineString","coordinates":[[3.774631,51.0375],[3.774614,51.03757],[3.774698,51.03772],[3.774742,51.03794],[3.77481,51.03801],[3.775113,51.03825]]},"properties":{"highway":"path","vertex1":6969,"vertex2":6964}},{"type":"Feature","geometry":{"type":"LineString","coordinates":[[3.775111,51.03828],[3.775113,51.03825]]},"properties":{"highway":"track","vertex1":6968,"vertex2":6964}},{"type":"Feature","geometry":{"type":"LineString","coordinates":[[3.774337,51.0382],[3.774196,51.03834]]},"properties":{"highway":"path","vertex1":6967,"vertex2":6923}},{"type":"Feature","geometry":{"type":"LineString","coordinates":[[3.774337,51.0382],[3.774414,51.03813]]},"properties":{"highway":"path","vertex1":6967,"vertex2":6899}},{"type":"Feature","geometry":{"type":"LineString","coordinates":[[3.774337,51.0382],[3.774032,51.03809],[3.77397,51.03815],[3.773762,51.03807],[3.773702,51.03814]]},"properties":{"highway":"path","vertex1":6967,"vertex2":6959}},{"type":"Feature","geometry":{"type":"LineString","coordinates":[[3.775881,51.04079],[3.776083,51.04076],[3.776196,51.04075],[3.777558,51.04106]]},"properties":{"highway":"track","vertex1":6966,"vertex2":6958}},{"type":"Feature","geometry":{"type":"LineString","coordinates":[[3.775881,51.04079],[3.774782,51.04123],[3.774559,51.04131]]},"properties":{"name":"Boer Janssensstraat","highway":"residential","vertex1":6966,"vertex2":6907}},{"type":"Feature","geometry":{"type":"LineString","coordinates":[[3.775881,51.04079],[3.775606,51.04037]]},"properties":{"highway":"cycleway","vertex1":6966,"vertex2":6883}},{"type":"Feature","geometry":{"type":"LineString","coordinates":[[3.769325,51.0404],[3.770169,51.04054]]},"properties":{"name":"Doornweide","highway":"residential","maxspeed":"20","vertex1":6965,"vertex2":6944}},{"type":"Feature","geometry":{"type":"LineString","coordinates":[[3.769325,51.0404],[3.769486,51.04005]]},"properties":{"name":"Doornweide","highway":"residential","maxspeed":"20","vertex1":6965,"vertex2":6921}},{"type":"Feature","geometry":{"type":"LineString","coordinates":[[3.769325,51.0404],[3.769148,51.0406]]},"properties":{"name":"Doornweide","highway":"residential","maxspeed":"20","vertex1":6965,"vertex2":6963}},{"type":"Feature","geometry":{"type":"LineString","coordinates":[[3.775113,51.03825],[3.775115,51.0382],[3.775193,51.03793],[3.775291,51.03773],[3.775472,51.03742]]},"properties":{"highway":"track","vertex1":6964,"vertex2":6901}},{"type":"Feature","geometry":{"type":"LineString","coordinates":[[3.778468,51.04096],[3.776864,51.04057]]},"properties":{"highway":"motorway","oneway":"yes","maxspeed":"90","vertex1":6962,"vertex2":6960}},{"type":"Feature","geometry":{"type":"LineString","coordinates":[[3.778468,51.04096],[3.779776,51.04127]]},"properties":{"highway":"motorway","maxspeed":"120","oneway":"yes","vertex1":6962,"vertex2":4249}},{"type":"Feature","geometry":{"type":"LineString","coordinates":[[3.773356,51.03854],[3.773702,51.03814]]},"properties":{"highway":"path","vertex1":6961,"vertex2":6959}},{"type":"Feature","geometry":{"type":"LineString","coordinates":[[3.776864,51.04057],[3.775915,51.04034]]},"properties":{"highway":"motorway","oneway":"yes","maxspeed":"90","vertex1":6960,"vertex2":6886}},{"type":"Feature","geometry":{"type":"LineString","coordinates":[[3.773702,51.03814],[3.773054,51.03792]]},"properties":{"highway":"path","vertex1":6959,"vertex2":6893}},{"type":"Feature","geometry":{"type":"LineString","coordinates":[[3.777558,51.04106],[3.776935,51.0419],[3.776489,51.0428],[3.776145,51.04333]]},"properties":{"highway":"track","vertex1":6958,"vertex2":6857}},{"type":"Feature","geometry":{"type":"LineString","coordinates":[[3.777558,51.04106],[3.777979,51.04116],[3.778704,51.04134],[3.779416,51.04152],[3.78086,51.04213],[3.782459,51.04286],[3.783789,51.04326],[3.785201,51.04345],[3.785941,51.04355],[3.787373,51.04362],[3.787948,51.04367],[3.788441,51.04375],[3.789963,51.04409],[3.790973,51.04432],[3.79137,51.04443]]},"properties":{"highway":"track","vertex1":6958,"vertex2":5110}},{"type":"Feature","geometry":{"type":"LineString","coordinates":[[3.776145,51.04333],[3.776096,51.04322],[3.776058,51.04316],[3.776013,51.04309],[3.775508,51.04239],[3.774852,51.04165]]},"properties":{"name":"Hoogoeverstraat","highway":"unclassified","vertex1":6857,"vertex2":6991}},{"type":"Feature","geometry":{"type":"LineString","coordinates":[[3.7756,51.03873],[3.776687,51.03949]]},"properties":{"name":"Paul Lebrunstraat","highway":"residential","vertex1":6957,"vertex2":6927}},{"type":"Feature","geometry":{"type":"LineString","coordinates":[[3.7756,51.03873],[3.775498,51.03867]]},"properties":{"name":"Paul Lebrunstraat","highway":"residential","vertex1":6957,"vertex2":6917}},{"type":"Feature","geometry":{"type":"LineString","coordinates":[[3.7756,51.03873],[3.777012,51.03783]]},"properties":{"name":"Oscar Roelsstraat","highway":"residential","vertex1":6957,"vertex2":6936}},{"type":"Feature","geometry":{"type":"LineString","coordinates":[[3.775096,51.03841],[3.775498,51.03867]]},"properties":{"highway":"track","vertex1":6955,"vertex2":6917}},{"type":"Feature","geometry":{"type":"LineString","coordinates":[[3.774378,51.03884],[3.77384,51.03868]]},"properties":{"highway":"track","vertex1":6954,"vertex2":6882}},{"type":"Feature","geometry":{"type":"LineString","coordinates":[[3.777751,51.03893],[3.778118,51.03868],[3.778276,51.03856]]},"properties":{"name":"Emiel Van Swedenlaan","maxspeed":"50","highway":"residential","vertex1":6953,"vertex2":6915}},{"type":"Feature","geometry":{"type":"LineString","coordinates":[[3.777751,51.03893],[3.777627,51.03901]]},"properties":{"name":"Emiel Van Swedenlaan","maxspeed":"50","highway":"residential","vertex1":6953,"vertex2":6897}},{"type":"Feature","geometry":{"type":"LineString","coordinates":[[3.777751,51.03893],[3.777398,51.03867],[3.777133,51.03881],[3.777501,51.03908]]},"properties":{"name":"Emiel Van Swedenlaan","highway":"living_street","vertex1":6953,"vertex2":6919}},{"type":"Feature","geometry":{"type":"LineString","coordinates":[[3.774594,51.03749],[3.774529,51.03752]]},"properties":{"bridge":"yes","highway":"path","vertex1":6952,"vertex2":6948}},{"type":"Feature","geometry":{"type":"LineString","coordinates":[[3.778549,51.03834],[3.778416,51.03845],[3.778276,51.03856]]},"properties":{"name":"Emiel Van Swedenlaan","maxspeed":"50","highway":"residential","vertex1":6951,"vertex2":6915}},{"type":"Feature","geometry":{"type":"LineString","coordinates":[[3.772999,51.03798],[3.773054,51.03792]]},"properties":{"highway":"track","vertex1":6950,"vertex2":6893}},{"type":"Feature","geometry":{"type":"LineString","coordinates":[[3.777501,51.04014],[3.778952,51.03949]]},"properties":{"name":"Koningsdonkstraat","oneway":"yes","highway":"residential","vertex1":6947,"vertex2":6895}},{"type":"Feature","geometry":{"type":"LineString","coordinates":[[3.777501,51.04014],[3.776165,51.03984]]},"properties":{"name":"Koningsdonkstraat","oneway":"yes","highway":"residential","vertex1":6947,"vertex2":6913}},{"type":"Feature","geometry":{"type":"LineString","coordinates":[[3.770881,51.03994],[3.770897,51.04002]]},"properties":{"name":"Helene Mareshalhof","highway":"residential","maxspeed":"30","vertex1":6943,"vertex2":6888}},{"type":"Feature","geometry":{"type":"LineString","coordinates":[[3.770881,51.03994],[3.77087,51.03991],[3.770854,51.03989],[3.770805,51.03987],[3.770754,51.03988],[3.770714,51.03989],[3.770689,51.03991],[3.770681,51.03993],[3.770693,51.03996],[3.770724,51.03998],[3.770773,51.04]]},"properties":{"name":"Helene Mareshalhof","highway":"residential","maxspeed":"30","vertex1":6943,"vertex2":6911}},{"type":"Feature","geometry":{"type":"LineString","coordinates":[[3.77249,51.03855],[3.77209,51.03838]]},"properties":{"highway":"path","vertex1":6941,"vertex2":6905}},{"type":"Feature","geometry":{"type":"LineString","coordinates":[[3.778862,51.03885],[3.778276,51.03856]]},"properties":{"name":"Tineke Van Heulestraat","highway":"residential","vertex1":6940,"vertex2":6915}},{"type":"Feature","geometry":{"type":"LineString","coordinates":[[3.778862,51.03885],[3.779572,51.03921]]},"properties":{"name":"Tineke Van Heulestraat","highway":"residential","vertex1":6940,"vertex2":4273}},{"type":"Feature","geometry":{"type":"LineString","coordinates":[[3.778862,51.03885],[3.778219,51.03934],[3.777806,51.03913],[3.777627,51.03901]]},"properties":{"name":"Grootmeersweg","highway":"living_street","vertex1":6940,"vertex2":6897}},{"type":"Feature","geometry":{"type":"LineString","coordinates":[[3.779572,51.03921],[3.778952,51.03949]]},"properties":{"name":"Koningsdonkstraat","oneway":"yes","highway":"residential","vertex1":4273,"vertex2":6895}},{"type":"Feature","geometry":{"type":"LineString","coordinates":[[3.774625,51.03892],[3.774454,51.03905],[3.774112,51.03928],[3.774039,51.03932]]},"properties":{"highway":"track","vertex1":6939,"vertex2":6892}},{"type":"Feature","geometry":{"type":"LineString","coordinates":[[3.777652,51.03823],[3.777012,51.03783]]},"properties":{"name":"Tineke Van Heulestraat","highway":"residential","vertex1":6938,"vertex2":6936}},{"type":"Feature","geometry":{"type":"LineString","coordinates":[[3.777652,51.03823],[3.778276,51.03856]]},"properties":{"name":"Tineke Van Heulestraat","highway":"residential","vertex1":6938,"vertex2":6915}},{"type":"Feature","geometry":{"type":"LineString","coordinates":[[3.777652,51.03823],[3.779302,51.03715]]},"properties":{"name":"Lieven Duvoselstraat","highway":"residential","vertex1":6938,"vertex2":4246}},{"type":"Feature","geometry":{"type":"LineString","coordinates":[[3.771993,51.03798],[3.772226,51.03808]]},"properties":{"highway":"path","vertex1":6937,"vertex2":6885}},{"type":"Feature","geometry":{"type":"LineString","coordinates":[[3.777012,51.03783],[3.77692,51.03778]]},"properties":{"name":"Tineke Van Heulestraat","highway":"residential","vertex1":6936,"vertex2":6934}},{"type":"Feature","geometry":{"type":"LineString","coordinates":[[3.773232,51.0409],[3.774956,51.04021]]},"properties":{"name":"Emiel Van Swedenlaan","maxspeed":"50","highway":"residential","vertex1":6935,"vertex2":6933}},{"type":"Feature","geometry":{"type":"LineString","coordinates":[[3.773232,51.0409],[3.773108,51.04096]]},"properties":{"name":"Emiel Van Swedenlaan","maxspeed":"50","highway":"residential","vertex1":6935,"vertex2":6908}},{"type":"Feature","geometry":{"type":"LineString","coordinates":[[3.774956,51.04021],[3.773362,51.03984]]},"properties":{"highway":"path","vertex1":6933,"vertex2":6924}},{"type":"Feature","geometry":{"type":"LineString","coordinates":[[3.772654,51.03875],[3.7728,51.0386]]},"properties":{"highway":"footway","vertex1":6929,"vertex2":6903}},{"type":"Feature","geometry":{"type":"LineString","coordinates":[[3.776687,51.03949],[3.775945,51.0398]]},"properties":{"name":"Emiel Van Swedenlaan","maxspeed":"50","highway":"residential","vertex1":6927,"vertex2":6887}},{"type":"Feature","geometry":{"type":"LineString","coordinates":[[3.773721,51.03953],[3.773362,51.03984]]},"properties":{"name":"Boswachterstraat","highway":"track","vertex1":6926,"vertex2":6924}},{"type":"Feature","geometry":{"type":"LineString","coordinates":[[3.773721,51.03953],[3.774139,51.03963]]},"properties":{"name":"Boswachterstraat","highway":"track","vertex1":6926,"vertex2":6894}},{"type":"Feature","geometry":{"type":"LineString","coordinates":[[3.773721,51.03953],[3.772063,51.03913]]},"properties":{"highway":"track","vertex1":6926,"vertex2":6909}},{"type":"Feature","geometry":{"type":"LineString","coordinates":[[3.774196,51.03834],[3.77384,51.03868]]},"properties":{"highway":"path","vertex1":6923,"vertex2":6882}},{"type":"Feature","geometry":{"type":"LineString","coordinates":[[3.770623,51.0372],[3.770774,51.03722]]},"properties":{"bridge":"yes","highway":"path","vertex1":6920,"vertex2":6918}},{"type":"Feature","geometry":{"type":"LineString","coordinates":[[3.777501,51.03908],[3.777627,51.03901]]},"properties":{"name":"Emiel Van Swedenlaan","maxspeed":"50","highway":"residential","vertex1":6919,"vertex2":6897}},{"type":"Feature","geometry":{"type":"LineString","coordinates":[[3.772614,51.04115],[3.773024,51.04099]]},"properties":{"name":"Emiel Van Swedenlaan","maxspeed":"50","highway":"residential","vertex1":6916,"vertex2":6910}},{"type":"Feature","geometry":{"type":"LineString","coordinates":[[3.770501,51.03706],[3.770555,51.03711]]},"properties":{"highway":"path","vertex1":6914,"vertex2":6912}},{"type":"Feature","geometry":{"type":"LineString","coordinates":[[3.776165,51.03984],[3.775945,51.0398]]},"properties":{"name":"Koningsdonkstraat","oneway":"yes","highway":"residential","vertex1":6913,"vertex2":6887}},{"type":"Feature","geometry":{"type":"LineString","coordinates":[[3.776165,51.03984],[3.775973,51.03996],[3.775875,51.04004],[3.775606,51.04037]]},"properties":{"highway":"cycleway","vertex1":6913,"vertex2":6883}},{"type":"Feature","geometry":{"type":"LineString","coordinates":[[3.770773,51.04],[3.770897,51.04002]]},"properties":{"name":"Helene Mareshalhof","highway":"residential","maxspeed":"30","vertex1":6911,"vertex2":6888}},{"type":"Feature","geometry":{"type":"LineString","coordinates":[[3.773024,51.04099],[3.773108,51.04096]]},"properties":{"name":"Emiel Van Swedenlaan","maxspeed":"50","highway":"residential","vertex1":6910,"vertex2":6908}},{"type":"Feature","geometry":{"type":"LineString","coordinates":[[3.773024,51.04099],[3.772958,51.04093],[3.7729,51.04084],[3.772898,51.04073],[3.772919,51.04062],[3.772929,51.04057]]},"properties":{"name":"Boswachterstraat","highway":"residential","maxspeed":"30","vertex1":6910,"vertex2":6890}},{"type":"Feature","geometry":{"type":"LineString","coordinates":[[3.774559,51.04131],[3.774652,51.04139],[3.774673,51.04141],[3.774722,51.04147],[3.774852,51.04165]]},"properties":{"name":"Hoogoeverstraat","highway":"unclassified","vertex1":6907,"vertex2":6991}},{"type":"Feature","geometry":{"type":"LineString","coordinates":[[3.770136,51.03738],[3.769838,51.03734]]},"properties":{"highway":"path","vertex1":6904,"vertex2":6902}},{"type":"Feature","geometry":{"type":"LineString","coordinates":[[3.770136,51.03738],[3.770022,51.03745]]},"properties":{"highway":"path","vertex1":6904,"vertex2":6900}},{"type":"Feature","geometry":{"type":"LineString","coordinates":[[3.769838,51.03734],[3.770022,51.03745]]},"properties":{"highway":"path","vertex1":6902,"vertex2":6900}},{"type":"Feature","geometry":{"type":"LineString","coordinates":[[3.769838,51.03734],[3.769731,51.03728]]},"properties":{"highway":"path","vertex1":6902,"vertex2":6896}},{"type":"Feature","geometry":{"type":"LineString","coordinates":[[3.778952,51.03949],[3.77932,51.03971]]},"properties":{"name":"Koningsdonkstraat","highway":"residential","vertex1":6895,"vertex2":4283}},{"type":"Feature","geometry":{"type":"LineString","coordinates":[[3.77932,51.03971],[3.779379,51.03974]]},"properties":{"highway":"track","vertex1":4283,"vertex2":4268}},{"type":"Feature","geometry":{"type":"LineString","coordinates":[[3.778483,51.04036],[3.778553,51.04036],[3.778685,51.04034],[3.779005,51.0401],[3.77913,51.03999],[3.7793,51.03983],[3.779379,51.03974]]},"properties":{"bicycle":"no","motorcar":"no","foot":"no","highway":"track","vertex1":6889,"vertex2":4268}},{"type":"Feature","geometry":{"type":"LineString","coordinates":[[3.775915,51.04034],[3.770944,51.03916],[3.766732,51.03815],[3.764613,51.03764],[3.762502,51.03714],[3.760241,51.03657],[3.759709,51.03642],[3.759264,51.03629],[3.758846,51.03615],[3.758205,51.03593],[3.757516,51.03566],[3.75636,51.03518],[3.755688,51.03486]]},"properties":{"bridge":"viaduct","highway":"motorway","oneway":"yes","maxspeed":"90","vertex1":6886,"vertex2":8175}},{"type":"Feature","geometry":{"type":"LineString","coordinates":[[3.776546,51.04033],[3.775997,51.0402]]},"properties":{"highway":"motorway","oneway":"yes","maxspeed":"90","vertex1":6884,"vertex2":6881}},{"type":"Feature","geometry":{"type":"LineString","coordinates":[[3.776546,51.04033],[3.779557,51.04102]]},"properties":{"highway":"motorway","oneway":"yes","maxspeed":"90","vertex1":6884,"vertex2":4287}}]}