{"type":"FeatureCollection","features":[{"type":"Feature","geometry":{"type":"LineString","coordinates":[[3.757324,51.02758],[3.779297,51.02758],[3.779297,51.01376],[3.757324,51.01376],[3.757324,51.02758]]},"properties":{"id":"89841835","zoom":"14"}},{"type":"Feature","geometry":{"type":"LineString","coordinates":[[3.773903,51.01427],[3.775158,51.01373],[3.775271,51.01371],[3.775418,51.01374],[3.775718,51.01402]]},"properties":{"highway":"service","vertex1":3393,"vertex2":3363}},{"type":"Feature","geometry":{"type":"LineString","coordinates":[[3.770911,51.01405],[3.770984,51.01427]]},"properties":{"name":"Vijverveldlaan","highway":"residential","vertex1":3385,"vertex2":3377}},{"type":"Feature","geometry":{"type":"LineString","coordinates":[[3.770911,51.01405],[3.770991,51.01392],[3.771203,51.01365],[3.771412,51.01342]]},"properties":{"name":"Vijverveldlaan","highway":"residential","vertex1":3385,"vertex2":3361}},{"type":"Feature","geometry":{"type":"LineString","coordinates":[[3.770911,51.01405],[3.769287,51.0135]]},"properties":{"name":"Olfkenskouterlaan","highway":"residential","vertex1":3385,"vertex2":3391}},{"type":"Feature","geometry":{"type":"LineString","coordinates":[[3.770984,51.01427],[3.771469,51.01414],[3.771946,51.01401],[3.77361,51.01324]]},"properties":{"name":"Park Ten Hovelaan","highway":"residential","vertex1":3377,"vertex2":3365}},{"type":"Feature","geometry":{"type":"LineString","coordinates":[[3.770984,51.01427],[3.7701,51.01448],[3.769814,51.01448],[3.769557,51.01443],[3.76764,51.01376]]},"properties":{"name":"Park Ten Hovelaan","highway":"residential","vertex1":3377,"vertex2":3240}},{"type":"Feature","geometry":{"type":"LineString","coordinates":[[3.76764,51.01376],[3.76643,51.01492]]},"properties":{"name":"Gontrode Heirweg","maxspeed":"50","highway":"tertiary","vertex1":3240,"vertex2":3210}},{"type":"Feature","geometry":{"type":"LineString","coordinates":[[3.775718,51.01402],[3.776578,51.01361]]},"properties":{"name":"Vijverwegel","oneway:bicycle":"no","highway":"residential","oneway":"-1","vertex1":3363,"vertex2":3359}},{"type":"Feature","geometry":{"type":"LineString","coordinates":[[3.775718,51.01402],[3.771919,51.01587],[3.770926,51.01636]]},"properties":{"name":"Vijverwegel","oneway:bicycle":"no","highway":"residential","oneway":"-1","vertex1":3363,"vertex2":3315}},{"type":"Feature","geometry":{"type":"LineString","coordinates":[[3.769764,51.02008],[3.76979,51.02029]]},"properties":{"name":"Merelbekestraat","oneway":"yes","highway":"tertiary","vertex1":3356,"vertex2":3317}},{"type":"Feature","geometry":{"type":"LineString","coordinates":[[3.769764,51.02008],[3.769759,51.01994],[3.769751,51.01988],[3.769725,51.01981],[3.769666,51.01974]]},"properties":{"name":"Merelbekestraat","oneway":"yes","maxspeed":"30","highway":"tertiary","vertex1":3356,"vertex2":3340}},{"type":"Feature","geometry":{"type":"LineString","coordinates":[[3.776246,51.01865],[3.776312,51.01838],[3.776248,51.01826],[3.776332,51.01797]]},"properties":{"name":"Camille Melloyhof","highway":"residential","vertex1":3355,"vertex2":3334}},{"type":"Feature","geometry":{"type":"LineString","coordinates":[[3.776246,51.01865],[3.774303,51.01846]]},"properties":{"name":"Tuinstraat","maxspeed":"50","highway":"residential","vertex1":3355,"vertex2":3345}},{"type":"Feature","geometry":{"type":"LineString","coordinates":[[3.776246,51.01865],[3.776819,51.0187]]},"properties":{"name":"Tuinstraat","maxspeed":"50","highway":"residential","vertex1":3355,"vertex2":3319}},{"type":"Feature","geometry":{"type":"LineString","coordinates":[[3.77838,51.02033],[3.780002,51.01905]]},"properties":{"name":"Brusselsesteenweg","highway":"primary","maxspeed":"70","vertex1":3354,"vertex2":4084}},{"type":"Feature","geometry":{"type":"LineString","coordinates":[[3.77838,51.02033],[3.777961,51.02066]]},"properties":{"name":"Brusselsesteenweg","highway":"primary","maxspeed":"70","vertex1":3354,"vertex2":7364}},{"type":"Feature","geometry":{"type":"LineString","coordinates":[[3.780002,51.01905],[3.779855,51.01899],[3.779418,51.01895]]},"properties":{"name":"Tuinstraat","maxspeed":"50","highway":"residential","vertex1":4084,"vertex2":4081}},{"type":"Feature","geometry":{"type":"LineString","coordinates":[[3.769187,51.01943],[3.768977,51.01943],[3.768895,51.01942]]},"properties":{"name":"Merelbekestraat","oneway":"yes","maxspeed":"30","highway":"tertiary","vertex1":3353,"vertex2":3342}},{"type":"Feature","geometry":{"type":"LineString","coordinates":[[3.769187,51.01943],[3.769221,51.01946],[3.769266,51.01947],[3.769316,51.01948],[3.769367,51.01947]]},"properties":{"name":"Merelbekestraat","maxspeed":"30","highway":"tertiary","junction":"roundabout","vertex1":3353,"vertex2":3310}},{"type":"Feature","geometry":{"type":"LineString","coordinates":[[3.769187,51.01943],[3.769168,51.0194],[3.769166,51.01937]]},"properties":{"name":"Merelbekestraat","maxspeed":"30","highway":"tertiary","junction":"roundabout","vertex1":3353,"vertex2":3328}},{"type":"Feature","geometry":{"type":"LineString","coordinates":[[3.769133,51.01848],[3.769011,51.01858]]},"properties":{"highway":"service","vertex1":3352,"vertex2":3318}},{"type":"Feature","geometry":{"type":"LineString","coordinates":[[3.776842,51.01767],[3.7768,51.01775],[3.776737,51.01785],[3.77657,51.01789],[3.776501,51.01788]]},"properties":{"bicycle":"yes","highway":"footway","vertex1":3351,"vertex2":3313}},{"type":"Feature","geometry":{"type":"LineString","coordinates":[[3.776842,51.01767],[3.77699,51.01769],[3.777166,51.01768],[3.777421,51.01763]]},"properties":{"name":"Nonnenwegel","maxspeed":"50","highway":"unclassified","vertex1":3351,"vertex2":3325}},{"type":"Feature","geometry":{"type":"LineString","coordinates":[[3.776842,51.01767],[3.776388,51.01756],[3.776211,51.01754],[3.776054,51.01756],[3.775927,51.01758],[3.775804,51.01763],[3.775534,51.01782],[3.77539,51.01789],[3.775205,51.01795],[3.774988,51.01798],[3.77474,51.01797],[3.77454,51.01796],[3.774278,51.01791],[3.774081,51.01783],[3.773674,51.01763],[3.773406,51.01752],[3.773147,51.01745],[3.772795,51.0174],[3.772588,51.01737]]},"properties":{"name":"Nonnenwegel","maxspeed":"50","highway":"unclassified","vertex1":3351,"vertex2":3339}},{"type":"Feature","geometry":{"type":"LineString","coordinates":[[3.769578,51.01905],[3.76949,51.01899]]},"properties":{"highway":"service","vertex1":3350,"vertex2":3343}},{"type":"Feature","geometry":{"type":"LineString","coordinates":[[3.769578,51.01905],[3.769554,51.01909]]},"properties":{"name":"Tuinstraat","highway":"residential","maxspeed":"30","vertex1":3350,"vertex2":3348}},{"type":"Feature","geometry":{"type":"LineString","coordinates":[[3.769578,51.01905],[3.769724,51.01892]]},"properties":{"name":"Tuinstraat","highway":"residential","maxspeed":"30","vertex1":3350,"vertex2":3330}},{"type":"Feature","geometry":{"type":"LineString","coordinates":[[3.776444,51.01794],[3.776458,51.01788]]},"properties":{"name":"Camille Melloyhof","highway":"residential","vertex1":3349,"vertex2":3314}},{"type":"Feature","geometry":{"type":"LineString","coordinates":[[3.776444,51.01794],[3.776332,51.01797]]},"properties":{"name":"Camille Melloyhof","highway":"residential","vertex1":3349,"vertex2":3334}},{"type":"Feature","geometry":{"type":"LineString","coordinates":[[3.769554,51.01909],[3.769823,51.01968]]},"properties":{"name":"Merelbekestraat","highway":"residential","vertex1":3348,"vertex2":3332}},{"type":"Feature","geometry":{"type":"LineString","coordinates":[[3.769554,51.01909],[3.769379,51.01927],[3.769362,51.01929]]},"properties":{"name":"Tuinstraat","highway":"residential","maxspeed":"30","vertex1":3348,"vertex2":3346}},{"type":"Feature","geometry":{"type":"LineString","coordinates":[[3.773993,51.01971],[3.774303,51.01846]]},"properties":{"name":"Begoniastraat","highway":"residential","vertex1":3347,"vertex2":3345}},{"type":"Feature","geometry":{"type":"LineString","coordinates":[[3.773993,51.01971],[3.773762,51.02068]]},"properties":{"name":"Begoniastraat","highway":"residential","vertex1":3347,"vertex2":7354}},{"type":"Feature","geometry":{"type":"LineString","coordinates":[[3.773993,51.01971],[3.769887,51.01968],[3.769823,51.01968]]},"properties":{"name":"Palmstraat","highway":"residential","vertex1":3347,"vertex2":3332}},{"type":"Feature","geometry":{"type":"LineString","coordinates":[[3.769362,51.01929],[3.769297,51.01929],[3.769236,51.0193],[3.76919,51.01933],[3.769166,51.01937]]},"properties":{"name":"Merelbekestraat","maxspeed":"30","highway":"tertiary","junction":"roundabout","vertex1":3346,"vertex2":3328}},{"type":"Feature","geometry":{"type":"LineString","coordinates":[[3.769362,51.01929],[3.769406,51.0193],[3.769442,51.01933],[3.769464,51.01935],[3.769473,51.01938],[3.769466,51.01941],[3.769443,51.01944]]},"properties":{"name":"Merelbekestraat","maxspeed":"30","highway":"tertiary","junction":"roundabout","vertex1":3346,"vertex2":3344}},{"type":"Feature","geometry":{"type":"LineString","coordinates":[[3.774303,51.01846],[3.772476,51.01827],[3.772232,51.01825]]},"properties":{"name":"Tuinstraat","maxspeed":"50","highway":"residential","vertex1":3345,"vertex2":3337}},{"type":"Feature","geometry":{"type":"LineString","coordinates":[[3.769443,51.01944],[3.769594,51.01958]]},"properties":{"name":"Merelbekestraat","oneway":"yes","maxspeed":"30","highway":"tertiary","vertex1":3344,"vertex2":3316}},{"type":"Feature","geometry":{"type":"LineString","coordinates":[[3.769443,51.01944],[3.769409,51.01946],[3.769367,51.01947]]},"properties":{"name":"Merelbekestraat","maxspeed":"30","highway":"tertiary","junction":"roundabout","vertex1":3344,"vertex2":3310}},{"type":"Feature","geometry":{"type":"LineString","coordinates":[[3.76949,51.01899],[3.769619,51.01888]]},"properties":{"highway":"service","vertex1":3343,"vertex2":3335}},{"type":"Feature","geometry":{"type":"LineString","coordinates":[[3.76949,51.01899],[3.768966,51.01861],[3.769011,51.01858]]},"properties":{"highway":"service","vertex1":3343,"vertex2":3318}},{"type":"Feature","geometry":{"type":"LineString","coordinates":[[3.768895,51.01942],[3.768742,51.01944],[3.768641,51.01944]]},"properties":{"name":"Kardinaal Mercierlaan","highway":"cycleway","vertex1":3342,"vertex2":3312}},{"type":"Feature","geometry":{"type":"LineString","coordinates":[[3.768895,51.01942],[3.768798,51.01941],[3.768729,51.01937],[3.768678,51.01934],[3.768595,51.01926]]},"properties":{"name":"Merelbekestraat","oneway":"yes","maxspeed":"30","highway":"tertiary","vertex1":3342,"vertex2":3311}},{"type":"Feature","geometry":{"type":"LineString","coordinates":[[3.772422,51.01756],[3.772469,51.01743],[3.772514,51.01739],[3.772588,51.01737]]},"properties":{"name":"Nonnenwegel","maxspeed":"50","highway":"unclassified","vertex1":3341,"vertex2":3339}},{"type":"Feature","geometry":{"type":"LineString","coordinates":[[3.772422,51.01756],[3.772382,51.01767],[3.772283,51.01806],[3.772232,51.01825]]},"properties":{"name":"Nonnenwegel","maxspeed":"50","highway":"unclassified","vertex1":3341,"vertex2":3337}},{"type":"Feature","geometry":{"type":"LineString","coordinates":[[3.772422,51.01756],[3.771427,51.01742]]},"properties":{"name":"Nonnenwegel","highway":"service","vertex1":3341,"vertex2":3324}},{"type":"Feature","geometry":{"type":"LineString","coordinates":[[3.769666,51.01974],[3.769732,51.01972]]},"properties":{"name":"Palmstraat","highway":"residential","vertex1":3340,"vertex2":3320}},{"type":"Feature","geometry":{"type":"LineString","coordinates":[[3.769666,51.01974],[3.769654,51.01972],[3.769383,51.01949],[3.769367,51.01947]]},"properties":{"name":"Merelbekestraat","oneway":"yes","maxspeed":"30","highway":"tertiary","vertex1":3340,"vertex2":3310}},{"type":"Feature","geometry":{"type":"LineString","coordinates":[[3.772588,51.01737],[3.772558,51.01731],[3.772583,51.01724],[3.772889,51.01681],[3.772927,51.01675],[3.772954,51.01669],[3.772967,51.01662],[3.77288,51.0163]]},"properties":{"highway":"service","vertex1":3339,"vertex2":3331}},{"type":"Feature","geometry":{"type":"LineString","coordinates":[[3.777257,51.01734],[3.777819,51.01722]]},"properties":{"highway":"service","vertex1":3338,"vertex2":3322}},{"type":"Feature","geometry":{"type":"LineString","coordinates":[[3.777257,51.01734],[3.776974,51.0174]]},"properties":{"highway":"service","vertex1":3338,"vertex2":3326}},{"type":"Feature","geometry":{"type":"LineString","coordinates":[[3.777257,51.01734],[3.777358,51.01752],[3.777421,51.01763]]},"properties":{"highway":"service","vertex1":3338,"vertex2":3325}},{"type":"Feature","geometry":{"type":"LineString","coordinates":[[3.772232,51.01825],[3.771929,51.01822],[3.771605,51.01821],[3.77124,51.01824],[3.770903,51.01828],[3.770676,51.01833],[3.770471,51.01839],[3.770208,51.01853],[3.770069,51.01863],[3.769929,51.01873],[3.769724,51.01892]]},"properties":{"name":"Tuinstraat","highway":"residential","maxspeed":"30","vertex1":3337,"vertex2":3330}},{"type":"Feature","geometry":{"type":"LineString","coordinates":[[3.768517,51.02045],[3.767384,51.01945]]},"properties":{"name":"Guido Gezellestraat","highway":"residential","vertex1":3336,"vertex2":3251}},{"type":"Feature","geometry":{"type":"LineString","coordinates":[[3.768517,51.02045],[3.769126,51.02076]]},"properties":{"name":"Guido Gezellestraat","highway":"residential","vertex1":3336,"vertex2":7337}},{"type":"Feature","geometry":{"type":"LineString","coordinates":[[3.768517,51.02045],[3.76822,51.02059],[3.767458,51.02072],[3.766827,51.02075],[3.76621,51.02066]]},"properties":{"name":"Emiel Hullebroeckstraat","highway":"residential","vertex1":3336,"vertex2":7394}},{"type":"Feature","geometry":{"type":"LineString","coordinates":[[3.769619,51.01888],[3.769724,51.01892]]},"properties":{"highway":"service","vertex1":3335,"vertex2":3330}},{"type":"Feature","geometry":{"type":"LineString","coordinates":[[3.769619,51.01888],[3.769011,51.01858]]},"properties":{"highway":"service","vertex1":3335,"vertex2":3318}},{"type":"Feature","geometry":{"type":"LineString","coordinates":[[3.776332,51.01797],[3.776286,51.01792],[3.776302,51.01787],[3.776399,51.01785],[3.776458,51.01788]]},"properties":{"name":"Camille Melloyhof","highway":"residential","vertex1":3334,"vertex2":3314}},{"type":"Feature","geometry":{"type":"LineString","coordinates":[[3.779241,51.01776],[3.779086,51.01768],[3.779425,51.01741]]},"properties":{"name":"Rootputte","highway":"residential","vertex1":3333,"vertex2":4078}},{"type":"Feature","geometry":{"type":"LineString","coordinates":[[3.779425,51.01741],[3.778973,51.01719]]},"properties":{"highway":"path","vertex1":4078,"vertex2":3321}},{"type":"Feature","geometry":{"type":"LineString","coordinates":[[3.769823,51.01968],[3.769732,51.01972]]},"properties":{"name":"Palmstraat","highway":"residential","vertex1":3332,"vertex2":3320}},{"type":"Feature","geometry":{"type":"LineString","coordinates":[[3.77288,51.0163],[3.772969,51.01627],[3.773219,51.01625],[3.773741,51.01617],[3.774153,51.01608],[3.774262,51.01603],[3.774289,51.01576],[3.774238,51.01568],[3.774134,51.01553]]},"properties":{"highway":"track","vertex1":3331,"vertex2":3327}},{"type":"Feature","geometry":{"type":"LineString","coordinates":[[3.778662,51.01776],[3.778605,51.01767],[3.778458,51.01738]]},"properties":{"highway":"service","vertex1":3329,"vertex2":3323}},{"type":"Feature","geometry":{"type":"LineString","coordinates":[[3.769166,51.01937],[3.769134,51.01937],[3.768972,51.01938],[3.768852,51.01936],[3.768711,51.01932],[3.768595,51.01926]]},"properties":{"name":"Merelbekestraat","oneway":"yes","maxspeed":"30","highway":"tertiary","vertex1":3328,"vertex2":3311}},{"type":"Feature","geometry":{"type":"LineString","coordinates":[[3.777421,51.01763],[3.778458,51.01738]]},"properties":{"name":"Nonnenwegel","maxspeed":"50","highway":"unclassified","vertex1":3325,"vertex2":3323}},{"type":"Feature","geometry":{"type":"LineString","coordinates":[[3.778458,51.01738],[3.778805,51.01728],[3.778973,51.01719]]},"properties":{"name":"Nonnenwegel","maxspeed":"50","highway":"unclassified","vertex1":3323,"vertex2":3321}},{"type":"Feature","geometry":{"type":"LineString","coordinates":[[3.778973,51.01719],[3.779093,51.01712],[3.779389,51.01688],[3.779735,51.01662],[3.780261,51.01627],[3.780506,51.01617],[3.780616,51.01609]]},"properties":{"name":"Nonnenwegel","maxspeed":"50","highway":"unclassified","vertex1":3321,"vertex2":4098}},{"type":"Feature","geometry":{"type":"LineString","coordinates":[[3.769732,51.01972],[3.769594,51.01958]]},"properties":{"name":"Merelbekestraat","oneway":"yes","highway":"tertiary","vertex1":3320,"vertex2":3316}},{"type":"Feature","geometry":{"type":"LineString","coordinates":[[3.769732,51.01972],[3.769776,51.01976],[3.769815,51.01983],[3.769826,51.01989],[3.76984,51.01995],[3.769828,51.02008],[3.76979,51.02029]]},"properties":{"name":"Merelbekestraat","oneway":"yes","highway":"tertiary","vertex1":3320,"vertex2":3317}},{"type":"Feature","geometry":{"type":"LineString","coordinates":[[3.776819,51.0187],[3.776232,51.02062]]},"properties":{"name":"Azaleastraat","highway":"residential","vertex1":3319,"vertex2":7332}},{"type":"Feature","geometry":{"type":"LineString","coordinates":[[3.776819,51.0187],[3.778898,51.01891],[3.779418,51.01895]]},"properties":{"name":"Tuinstraat","maxspeed":"50","highway":"residential","vertex1":3319,"vertex2":4081}},{"type":"Feature","geometry":{"type":"LineString","coordinates":[[3.76979,51.02029],[3.76973,51.02077]]},"properties":{"name":"Merelbekestraat","highway":"tertiary","vertex1":3317,"vertex2":7360}},{"type":"Feature","geometry":{"type":"LineString","coordinates":[[3.770926,51.01636],[3.769226,51.01588],[3.767562,51.0154],[3.76643,51.01492]]},"properties":{"name":"Platanendreef","highway":"residential","vertex1":3315,"vertex2":3210}},{"type":"Feature","geometry":{"type":"LineString","coordinates":[[3.770926,51.01636],[3.769461,51.01712],[3.768332,51.01774],[3.767209,51.01831]]},"properties":{"name":"Vijverwegel","oneway:bicycle":"no","highway":"residential","oneway":"-1","vertex1":3315,"vertex2":3275}},{"type":"Feature","geometry":{"type":"LineString","coordinates":[[3.776458,51.01788],[3.776501,51.01788]]},"properties":{"bicycle":"yes","highway":"footway","vertex1":3314,"vertex2":3313}},{"type":"Feature","geometry":{"type":"LineString","coordinates":[[3.768641,51.01944],[3.768448,51.01937],[3.767976,51.01906],[3.767828,51.01906],[3.767384,51.01945]]},"properties":{"name":"Kardinaal Mercierlaan","highway":"residential","vertex1":3312,"vertex2":3251}},{"type":"Feature","geometry":{"type":"LineString","coordinates":[[3.768595,51.01926],[3.767922,51.01874]]},"properties":{"name":"Merelbekestraat","highway":"tertiary","vertex1":3311,"vertex2":3285}},{"type":"Feature","geometry":{"type":"LineString","coordinates":[[3.76755,51.01657],[3.767308,51.01655]]},"properties":{"name":"Hof Ter Beuken","highway":"residential","vertex1":3309,"vertex2":3274}},{"type":"Feature","geometry":{"type":"LineString","coordinates":[[3.76755,51.01657],[3.767622,51.01659],[3.767671,51.01662],[3.767684,51.01665],[3.767684,51.01669],[3.767665,51.01672],[3.767635,51.01674],[3.767535,51.01681]]},"properties":{"name":"Hof Ter Beuken","highway":"residential","vertex1":3309,"vertex2":3302}},{"type":"Feature","geometry":{"type":"LineString","coordinates":[[3.761112,51.01781],[3.762929,51.01851]]},"properties":{"name":"Leopold De Vosstraat","highway":"residential","vertex1":3308,"vertex2":3307}},{"type":"Feature","geometry":{"type":"LineString","coordinates":[[3.761112,51.01781],[3.760656,51.01766],[3.760457,51.01764],[3.7603,51.01766]]},"properties":{"name":"Pastoor Clausplein","highway":"residential","vertex1":3308,"vertex2":3265}},{"type":"Feature","geometry":{"type":"LineString","coordinates":[[3.761112,51.01781],[3.760491,51.01851]]},"properties":{"name":"Koning Boudewijnstraat","highway":"residential","vertex1":3308,"vertex2":3299}},{"type":"Feature","geometry":{"type":"LineString","coordinates":[[3.761112,51.01781],[3.76194,51.01682],[3.762118,51.01669]]},"properties":{"name":"Koning Boudewijnstraat","highway":"residential","vertex1":3308,"vertex2":3276}},{"type":"Feature","geometry":{"type":"LineString","coordinates":[[3.762929,51.01851],[3.762658,51.01884]]},"properties":{"name":"Gontrode Heirweg","highway":"residential","vertex1":3307,"vertex2":3294}},{"type":"Feature","geometry":{"type":"LineString","coordinates":[[3.762929,51.01851],[3.763521,51.01783]]},"properties":{"name":"Gontrode Heirweg","highway":"residential","vertex1":3307,"vertex2":3270}},{"type":"Feature","geometry":{"type":"LineString","coordinates":[[3.765612,51.01754],[3.765727,51.0176]]},"properties":{"name":"Merelbekestraat","highway":"tertiary","vertex1":3306,"vertex2":3262}},{"type":"Feature","geometry":{"type":"LineString","coordinates":[[3.765612,51.01754],[3.765383,51.01744]]},"properties":{"name":"Merelbekestraat","highway":"tertiary","vertex1":3306,"vertex2":3304}},{"type":"Feature","geometry":{"type":"LineString","coordinates":[[3.765612,51.01754],[3.764528,51.01847],[3.764535,51.01853]]},"properties":{"name":"Tulpenhof","oneway":"yes","highway":"residential","vertex1":3306,"vertex2":3248}},{"type":"Feature","geometry":{"type":"LineString","coordinates":[[3.764145,51.01572],[3.764091,51.01572],[3.764035,51.01575],[3.764042,51.01578],[3.76411,51.01582]]},"properties":{"name":"Avenskouter","bicycle":"no","motorcar":"no","foot":"no","highway":"residential","vertex1":3305,"vertex2":3303}},{"type":"Feature","geometry":{"type":"LineString","coordinates":[[3.764145,51.01572],[3.76422,51.01577]]},"properties":{"name":"Avenskouter","bicycle":"no","motorcar":"no","foot":"no","highway":"residential","vertex1":3305,"vertex2":3295}},{"type":"Feature","geometry":{"type":"LineString","coordinates":[[3.765383,51.01744],[3.765432,51.01738]]},"properties":{"name":"Hof Ter Beuken","highway":"residential","vertex1":3304,"vertex2":3298}},{"type":"Feature","geometry":{"type":"LineString","coordinates":[[3.765383,51.01744],[3.765102,51.01729]]},"properties":{"name":"Merelbekestraat","highway":"tertiary","vertex1":3304,"vertex2":3258}},{"type":"Feature","geometry":{"type":"LineString","coordinates":[[3.76411,51.01582],[3.76422,51.01577]]},"properties":{"name":"Avenskouter","bicycle":"no","motorcar":"no","foot":"no","highway":"residential","vertex1":3303,"vertex2":3295}},{"type":"Feature","geometry":{"type":"LineString","coordinates":[[3.767535,51.01681],[3.76734,51.017]]},"properties":{"name":"Hof Ter Beuken","highway":"residential","vertex1":3302,"vertex2":3252}},{"type":"Feature","geometry":{"type":"LineString","coordinates":[[3.767535,51.01681],[3.767452,51.01672],[3.767396,51.01665],[3.767308,51.01655]]},"properties":{"name":"Hof Ter Beuken","highway":"residential","vertex1":3302,"vertex2":3274}},{"type":"Feature","geometry":{"type":"LineString","coordinates":[[3.759722,51.01702],[3.759925,51.0177]]},"properties":{"highway":"service","vertex1":3301,"vertex2":3269}},{"type":"Feature","geometry":{"type":"LineString","coordinates":[[3.759722,51.01702],[3.759907,51.01698],[3.760071,51.01743],[3.7603,51.01766]]},"properties":{"highway":"service","vertex1":3301,"vertex2":3265}},{"type":"Feature","geometry":{"type":"LineString","coordinates":[[3.765538,51.01913],[3.765638,51.01907],[3.766764,51.01848],[3.767204,51.01818],[3.767237,51.01804]]},"properties":{"name":"Mellestraat","highway":"tertiary","vertex1":3300,"vertex2":3272}},{"type":"Feature","geometry":{"type":"LineString","coordinates":[[3.765538,51.01913],[3.765618,51.01915],[3.765705,51.01915],[3.765995,51.01902],[3.766979,51.01854],[3.767209,51.01831]]},"properties":{"name":"Mellestraat","oneway":"yes","highway":"tertiary","vertex1":3300,"vertex2":3275}},{"type":"Feature","geometry":{"type":"LineString","coordinates":[[3.765538,51.01913],[3.764774,51.01951]]},"properties":{"name":"Mellestraat","highway":"tertiary","vertex1":3300,"vertex2":3288}},{"type":"Feature","geometry":{"type":"LineString","coordinates":[[3.760491,51.01851],[3.760143,51.01845],[3.760029,51.01844]]},"properties":{"name":"Van Goethemstraat","highway":"residential","maxspeed":"30","vertex1":3299,"vertex2":3260}},{"type":"Feature","geometry":{"type":"LineString","coordinates":[[3.760491,51.01851],[3.760968,51.01862],[3.761713,51.01881]]},"properties":{"name":"Van Goethemstraat","highway":"residential","maxspeed":"30","vertex1":3299,"vertex2":3278}},{"type":"Feature","geometry":{"type":"LineString","coordinates":[[3.765432,51.01738],[3.765102,51.01729]]},"properties":{"name":"Merelbekestraat","highway":"tertiary","vertex1":3298,"vertex2":3258}},{"type":"Feature","geometry":{"type":"LineString","coordinates":[[3.765432,51.01738],[3.767237,51.01804]]},"properties":{"name":"Merelbekestraat","highway":"tertiary","vertex1":3298,"vertex2":3272}},{"type":"Feature","geometry":{"type":"LineString","coordinates":[[3.765432,51.01738],[3.765504,51.01733],[3.766477,51.01664],[3.766656,51.01653],[3.766766,51.0165],[3.76692,51.01649],[3.767126,51.01651],[3.767308,51.01655]]},"properties":{"name":"Hof Ter Beuken","highway":"residential","vertex1":3298,"vertex2":3274}},{"type":"Feature","geometry":{"type":"LineString","coordinates":[[3.763885,51.01944],[3.764186,51.01965],[3.764319,51.01973]]},"properties":{"name":"Bloemstraat","highway":"residential","vertex1":3297,"vertex2":3256}},{"type":"Feature","geometry":{"type":"LineString","coordinates":[[3.763885,51.01944],[3.762906,51.01894],[3.762658,51.01884]]},"properties":{"name":"Bloemstraat","highway":"residential","vertex1":3297,"vertex2":3294}},{"type":"Feature","geometry":{"type":"LineString","coordinates":[[3.763885,51.01944],[3.763626,51.01957]]},"properties":{"highway":"residential","vertex1":3297,"vertex2":3263}},{"type":"Feature","geometry":{"type":"LineString","coordinates":[[3.764296,51.01698],[3.763521,51.01783]]},"properties":{"name":"Gontrode Heirweg","highway":"residential","vertex1":3296,"vertex2":3270}},{"type":"Feature","geometry":{"type":"LineString","coordinates":[[3.764296,51.01698],[3.762414,51.01552],[3.761941,51.01495]]},"properties":{"name":"Fraterstraat","highway":"tertiary","vertex1":3296,"vertex2":3234}},{"type":"Feature","geometry":{"type":"LineString","coordinates":[[3.764296,51.01698],[3.765102,51.01729]]},"properties":{"name":"Merelbekestraat","highway":"tertiary","vertex1":3296,"vertex2":3258}},{"type":"Feature","geometry":{"type":"LineString","coordinates":[[3.764296,51.01698],[3.765232,51.01607]]},"properties":{"name":"Gontrode Heirweg","maxspeed":"50","highway":"tertiary","vertex1":3296,"vertex2":3267}},{"type":"Feature","geometry":{"type":"LineString","coordinates":[[3.76422,51.01577],[3.764384,51.01581],[3.764661,51.01566]]},"properties":{"name":"Avenskouter","bicycle":"no","motorcar":"no","foot":"no","highway":"residential","vertex1":3295,"vertex2":3280}},{"type":"Feature","geometry":{"type":"LineString","coordinates":[[3.762658,51.01884],[3.762537,51.01907]]},"properties":{"name":"Teaterstraat","highway":"residential","vertex1":3294,"vertex2":3249}},{"type":"Feature","geometry":{"type":"LineString","coordinates":[[3.761071,51.01968],[3.760768,51.01952]]},"properties":{"bicycle":"no","motorcar":"no","foot":"no","highway":"service","vertex1":3293,"vertex2":3264}},{"type":"Feature","geometry":{"type":"LineString","coordinates":[[3.763904,51.01511],[3.763592,51.01507],[3.763555,51.01504],[3.763571,51.01499],[3.763638,51.01498],[3.763708,51.015]]},"properties":{"name":"Avenskouter","highway":"residential","vertex1":3292,"vertex2":3205}},{"type":"Feature","geometry":{"type":"LineString","coordinates":[[3.763904,51.01511],[3.763873,51.01506],[3.763839,51.01502]]},"properties":{"name":"Avenskouter","highway":"residential","vertex1":3292,"vertex2":3261}},{"type":"Feature","geometry":{"type":"LineString","coordinates":[[3.763904,51.01511],[3.764661,51.01566]]},"properties":{"name":"Avenskouter","highway":"residential","vertex1":3292,"vertex2":3280}},{"type":"Feature","geometry":{"type":"LineString","coordinates":[[3.766333,51.02048],[3.766532,51.02016],[3.767384,51.01945]]},"properties":{"name":"Kardinaal Mercierlaan","highway":"residential","vertex1":3291,"vertex2":3251}},{"type":"Feature","geometry":{"type":"LineString","coordinates":[[3.766333,51.02048],[3.76621,51.02066]]},"properties":{"name":"Désiré Mercierlaan","highway":"residential","vertex1":3291,"vertex2":7394}},{"type":"Feature","geometry":{"type":"LineString","coordinates":[[3.764234,51.0201],[3.763448,51.02053]]},"properties":{"highway":"service","vertex1":3290,"vertex2":7372}},{"type":"Feature","geometry":{"type":"LineString","coordinates":[[3.758956,51.01722],[3.759135,51.01783],[3.759413,51.0178]]},"properties":{"highway":"residential","vertex1":3289,"vertex2":3279}},{"type":"Feature","geometry":{"type":"LineString","coordinates":[[3.764774,51.01951],[3.764319,51.01973]]},"properties":{"name":"Merelbekestationplein","highway":"tertiary","vertex1":3288,"vertex2":3256}},{"type":"Feature","geometry":{"type":"LineString","coordinates":[[3.759913,51.01817],[3.759807,51.01772]]},"properties":{"highway":"residential","vertex1":3287,"vertex2":3277}},{"type":"Feature","geometry":{"type":"LineString","coordinates":[[3.764504,51.0186],[3.764501,51.01857],[3.764535,51.01853]]},"properties":{"highway":"residential","vertex1":3286,"vertex2":3248}},{"type":"Feature","geometry":{"type":"LineString","coordinates":[[3.767922,51.01874],[3.767386,51.01841]]},"properties":{"name":"Merelbekestraat","bridge":"yes","highway":"tertiary","vertex1":3285,"vertex2":3283}},{"type":"Feature","geometry":{"type":"LineString","coordinates":[[3.760326,51.01997],[3.760768,51.01952]]},"properties":{"name":"Hendrik Consciencestraat","highway":"residential","vertex1":3284,"vertex2":3264}},{"type":"Feature","geometry":{"type":"LineString","coordinates":[[3.760326,51.01997],[3.759547,51.02071]]},"properties":{"name":"Hendrik Consciencestraat","highway":"residential","vertex1":3284,"vertex2":7377}},{"type":"Feature","geometry":{"type":"LineString","coordinates":[[3.760326,51.01997],[3.759715,51.01973],[3.759956,51.01945]]},"properties":{"highway":"service","vertex1":3284,"vertex2":3254}},{"type":"Feature","geometry":{"type":"LineString","coordinates":[[3.767386,51.01841],[3.767209,51.01831]]},"properties":{"name":"Merelbekestraat","highway":"tertiary","vertex1":3283,"vertex2":3275}},{"type":"Feature","geometry":{"type":"LineString","coordinates":[[3.767044,51.01823],[3.767185,51.0183]]},"properties":{"name":"Merelbekestraat","bridge":"yes","highway":"tertiary","vertex1":3282,"vertex2":3266}},{"type":"Feature","geometry":{"type":"LineString","coordinates":[[3.767044,51.01823],[3.765727,51.0176]]},"properties":{"name":"Merelbekestraat","highway":"tertiary","vertex1":3282,"vertex2":3262}},{"type":"Feature","geometry":{"type":"LineString","coordinates":[[3.759584,51.01844],[3.759454,51.01795],[3.759413,51.0178]]},"properties":{"name":"Floraplein","highway":"residential","vertex1":3281,"vertex2":3279}},{"type":"Feature","geometry":{"type":"LineString","coordinates":[[3.759584,51.01844],[3.757835,51.01861]]},"properties":{"name":"Van Goethemstraat","highway":"residential","maxspeed":"30","vertex1":3281,"vertex2":3259}},{"type":"Feature","geometry":{"type":"LineString","coordinates":[[3.759584,51.01844],[3.760029,51.01844]]},"properties":{"name":"Van Goethemstraat","highway":"residential","maxspeed":"30","vertex1":3281,"vertex2":3260}},{"type":"Feature","geometry":{"type":"LineString","coordinates":[[3.764661,51.01566],[3.765045,51.01593],[3.765232,51.01607]]},"properties":{"name":"Avenskouter","highway":"residential","vertex1":3280,"vertex2":3267}},{"type":"Feature","geometry":{"type":"LineString","coordinates":[[3.759413,51.0178],[3.759399,51.01775],[3.759658,51.01773],[3.759772,51.01772],[3.759807,51.01772]]},"properties":{"name":"Floraplein","highway":"residential","vertex1":3279,"vertex2":3277}},{"type":"Feature","geometry":{"type":"LineString","coordinates":[[3.761713,51.01881],[3.760916,51.01937],[3.760768,51.01952]]},"properties":{"name":"Hendrik Consciencestraat","highway":"residential","vertex1":3278,"vertex2":3264}},{"type":"Feature","geometry":{"type":"LineString","coordinates":[[3.761713,51.01881],[3.762537,51.01907]]},"properties":{"name":"Van Goethemstraat","highway":"residential","maxspeed":"30","vertex1":3278,"vertex2":3249}},{"type":"Feature","geometry":{"type":"LineString","coordinates":[[3.759807,51.01772],[3.759925,51.0177]]},"properties":{"name":"Floraplein","highway":"residential","vertex1":3277,"vertex2":3269}},{"type":"Feature","geometry":{"type":"LineString","coordinates":[[3.762118,51.01669],[3.763521,51.01783]]},"properties":{"name":"Sint-Jozefstraat","highway":"residential","vertex1":3276,"vertex2":3270}},{"type":"Feature","geometry":{"type":"LineString","coordinates":[[3.762118,51.01669],[3.761824,51.01639],[3.761822,51.01502],[3.76186,51.01499],[3.761941,51.01495]]},"properties":{"name":"Sint-Jozefstraat","highway":"residential","vertex1":3276,"vertex2":3234}},{"type":"Feature","geometry":{"type":"LineString","coordinates":[[3.767209,51.01831],[3.767185,51.0183]]},"properties":{"name":"Merelbekestraat","highway":"tertiary","vertex1":3275,"vertex2":3266}},{"type":"Feature","geometry":{"type":"LineString","coordinates":[[3.760779,51.02044],[3.7612,51.02053],[3.761425,51.02052],[3.761695,51.02059]]},"properties":{"bicycle":"no","motorcar":"no","foot":"no","highway":"service","vertex1":3273,"vertex2":7406}},{"type":"Feature","geometry":{"type":"LineString","coordinates":[[3.76112,51.02018],[3.76182,51.02036]]},"properties":{"bicycle":"no","motorcar":"no","foot":"no","highway":"service","vertex1":3271,"vertex2":3268}},{"type":"Feature","geometry":{"type":"LineString","coordinates":[[3.759925,51.0177],[3.7603,51.01766]]},"properties":{"name":"Pastoor Clausplein","highway":"residential","vertex1":3269,"vertex2":3265}},{"type":"Feature","geometry":{"type":"LineString","coordinates":[[3.76182,51.02036],[3.761695,51.02059]]},"properties":{"name":"Teaterstraat","oneway":"yes","highway":"residential","vertex1":3268,"vertex2":7406}},{"type":"Feature","geometry":{"type":"LineString","coordinates":[[3.76182,51.02036],[3.762537,51.01907]]},"properties":{"name":"Teaterstraat","oneway":"yes","highway":"residential","vertex1":3268,"vertex2":3249}},{"type":"Feature","geometry":{"type":"LineString","coordinates":[[3.765232,51.01607],[3.765825,51.01551],[3.76643,51.01492]]},"properties":{"name":"Gontrode Heirweg","maxspeed":"50","highway":"tertiary","vertex1":3267,"vertex2":3210}},{"type":"Feature","geometry":{"type":"LineString","coordinates":[[3.763626,51.01957],[3.764032,51.01987]]},"properties":{"name":"Merelbekestationplein","highway":"residential","vertex1":3263,"vertex2":3250}},{"type":"Feature","geometry":{"type":"LineString","coordinates":[[3.765727,51.0176],[3.764621,51.01851],[3.764535,51.01853]]},"properties":{"name":"Tulpenhof","oneway":"yes","highway":"residential","vertex1":3262,"vertex2":3248}},{"type":"Feature","geometry":{"type":"LineString","coordinates":[[3.763839,51.01502],[3.763708,51.015]]},"properties":{"name":"Avenskouter","highway":"residential","vertex1":3261,"vertex2":3205}},{"type":"Feature","geometry":{"type":"LineString","coordinates":[[3.760029,51.01844],[3.759912,51.01909],[3.759959,51.01913],[3.760324,51.01924]]},"properties":{"highway":"service","vertex1":3260,"vertex2":3253}},{"type":"Feature","geometry":{"type":"LineString","coordinates":[[3.757835,51.01861],[3.757305,51.01662],[3.757134,51.01643]]},"properties":{"name":"Herfstlaan","highway":"residential","vertex1":3259,"vertex2":3120}},{"type":"Feature","geometry":{"type":"LineString","coordinates":[[3.757835,51.01861],[3.756777,51.01872]]},"properties":{"name":"Van Goethemstraat","highway":"residential","maxspeed":"30","vertex1":3259,"vertex2":3091}},{"type":"Feature","geometry":{"type":"LineString","coordinates":[[3.757134,51.01643],[3.758736,51.01565]]},"properties":{"name":"Koningin Elisabethlaan","highway":"residential","vertex1":3120,"vertex2":3255}},{"type":"Feature","geometry":{"type":"LineString","coordinates":[[3.759434,51.01625],[3.758736,51.01565]]},"properties":{"name":"Tien Aprillaan","highway":"residential","vertex1":3257,"vertex2":3255}},{"type":"Feature","geometry":{"type":"LineString","coordinates":[[3.764319,51.01973],[3.764143,51.01982],[3.764032,51.01987]]},"properties":{"name":"Merelbekestationplein","highway":"tertiary","vertex1":3256,"vertex2":3250}},{"type":"Feature","geometry":{"type":"LineString","coordinates":[[3.758736,51.01565],[3.761481,51.01437]]},"properties":{"name":"Koningin Elisabethlaan","highway":"residential","vertex1":3255,"vertex2":3209}},{"type":"Feature","geometry":{"type":"LineString","coordinates":[[3.764032,51.01987],[3.762816,51.02052]]},"properties":{"name":"Mellestraat","maxspeed":"50","highway":"tertiary","vertex1":3250,"vertex2":7420}},{"type":"Feature","geometry":{"type":"LineString","coordinates":[[3.761941,51.01495],[3.76331,51.01453]]},"properties":{"name":"Vinkenlaan","highway":"residential","vertex1":3234,"vertex2":3208}},{"type":"Feature","geometry":{"type":"LineString","coordinates":[[3.761941,51.01495],[3.761857,51.01483],[3.761799,51.01468],[3.761744,51.01437]]},"properties":{"name":"Fraterstraat","highway":"tertiary","vertex1":3234,"vertex2":3223}},{"type":"Feature","geometry":{"type":"LineString","coordinates":[[3.761744,51.01437],[3.761481,51.01437]]},"properties":{"name":"Koningin Elisabethlaan","oneway":"yes","highway":"residential","vertex1":3223,"vertex2":3209}},{"type":"Feature","geometry":{"type":"LineString","coordinates":[[3.761744,51.01437],[3.761724,51.01423]]},"properties":{"name":"Fraterstraat","highway":"tertiary","vertex1":3223,"vertex2":3215}},{"type":"Feature","geometry":{"type":"LineString","coordinates":[[3.761724,51.01423],[3.76166,51.01372],[3.761642,51.01365]]},"properties":{"name":"Fraterstraat","highway":"tertiary","vertex1":3215,"vertex2":3238}},{"type":"Feature","geometry":{"type":"LineString","coordinates":[[3.761724,51.01423],[3.761481,51.01437]]},"properties":{"name":"Koningin Elisabethlaan","oneway":"yes","highway":"residential","vertex1":3215,"vertex2":3209}},{"type":"Feature","geometry":{"type":"LineString","coordinates":[[3.76331,51.01453],[3.763373,51.01451],[3.763441,51.01447],[3.763489,51.01443],[3.764098,51.01303]]},"properties":{"name":"Vinkenlaan","highway":"residential","vertex1":3208,"vertex2":3236}},{"type":"Feature","geometry":{"type":"LineString","coordinates":[[3.76331,51.01453],[3.763362,51.01459],[3.763823,51.01478],[3.763708,51.015]]},"properties":{"highway":"path","vertex1":3208,"vertex2":3205}},{"type":"Feature","geometry":{"type":"LineString","coordinates":[[3.758115,51.02747],[3.758036,51.0275]]},"properties":{"highway":"footway","vertex1":7548,"vertex2":7546}},{"type":"Feature","geometry":{"type":"LineString","coordinates":[[3.758115,51.02747],[3.758304,51.02767]]},"properties":{"highway":"footway","vertex1":7548,"vertex2":7511}},{"type":"Feature","geometry":{"type":"LineString","coordinates":[[3.758115,51.02747],[3.758212,51.02743],[3.758422,51.02763]]},"properties":{"highway":"footway","vertex1":7548,"vertex2":7449}},{"type":"Feature","geometry":{"type":"LineString","coordinates":[[3.758304,51.02767],[3.758358,51.02765],[3.758422,51.02763]]},"properties":{"highway":"footway","vertex1":7511,"vertex2":7449}},{"type":"Feature","geometry":{"type":"LineString","coordinates":[[3.758036,51.0275],[3.757896,51.02757],[3.757752,51.02764],[3.757787,51.02767],[3.757698,51.02771]]},"properties":{"highway":"footway","vertex1":7546,"vertex2":7533}},{"type":"Feature","geometry":{"type":"LineString","coordinates":[[3.758036,51.0275],[3.757851,51.02733]]},"properties":{"highway":"footway","vertex1":7546,"vertex2":7531}},{"type":"Feature","geometry":{"type":"LineString","coordinates":[[3.757698,51.02771],[3.757665,51.02768],[3.757626,51.02764],[3.757455,51.02749]]},"properties":{"highway":"footway","vertex1":7533,"vertex2":7463}},{"type":"Feature","geometry":{"type":"LineString","coordinates":[[3.767382,51.0261],[3.767171,51.02617],[3.766665,51.0261]]},"properties":{"name":"Pinguinstraat","oneway":"yes","oneway:bicycle":"no","highway":"residential","vertex1":7544,"vertex2":7542}},{"type":"Feature","geometry":{"type":"LineString","coordinates":[[3.767382,51.0261],[3.766938,51.02549]]},"properties":{"name":"Vogelhoekstraat","highway":"residential","vertex1":7544,"vertex2":7434}},{"type":"Feature","geometry":{"type":"LineString","coordinates":[[3.767382,51.0261],[3.767463,51.02615],[3.767504,51.02617],[3.767589,51.02623]]},"properties":{"name":"Vogelhoekstraat","highway":"residential","vertex1":7544,"vertex2":7500}},{"type":"Feature","geometry":{"type":"LineString","coordinates":[[3.766665,51.0261],[3.766623,51.0261],[3.76627,51.02607],[3.765979,51.02605],[3.765931,51.02605]]},"properties":{"name":"Pinguinstraat","oneway":"yes","oneway:bicycle":"no","highway":"residential","vertex1":7542,"vertex2":7518}},{"type":"Feature","geometry":{"type":"LineString","coordinates":[[3.766665,51.0261],[3.766604,51.02618]]},"properties":{"highway":"path","vertex1":7542,"vertex2":7469}},{"type":"Feature","geometry":{"type":"LineString","coordinates":[[3.767655,51.02623],[3.767589,51.02623]]},"properties":{"name":"Vogelhoekstraat","highway":"residential","vertex1":7535,"vertex2":7500}},{"type":"Feature","geometry":{"type":"LineString","coordinates":[[3.767655,51.02623],[3.770238,51.02655],[3.770315,51.02657]]},"properties":{"name":"Vogelhoekstraat","highway":"residential","vertex1":7535,"vertex2":7282}},{"type":"Feature","geometry":{"type":"LineString","coordinates":[[3.767655,51.02623],[3.767858,51.02575]]},"properties":{"name":"Vogelhoekstraat","highway":"residential","vertex1":7535,"vertex2":7402}},{"type":"Feature","geometry":{"type":"LineString","coordinates":[[3.757851,51.02733],[3.757806,51.02733]]},"properties":{"highway":"footway","vertex1":7531,"vertex2":7446}},{"type":"Feature","geometry":{"type":"LineString","coordinates":[[3.764187,51.02676],[3.764315,51.02644],[3.764334,51.02639]]},"properties":{"highway":"path","vertex1":7529,"vertex2":7451}},{"type":"Feature","geometry":{"type":"LineString","coordinates":[[3.764187,51.02676],[3.763944,51.02736]]},"properties":{"highway":"path","vertex1":7529,"vertex2":7509}},{"type":"Feature","geometry":{"type":"LineString","coordinates":[[3.764187,51.02676],[3.764496,51.02674],[3.764654,51.02674],[3.765005,51.0268],[3.765397,51.0268],[3.765867,51.02682],[3.766226,51.02681],[3.766612,51.02678]]},"properties":{"highway":"track","vertex1":7529,"vertex2":7443}},{"type":"Feature","geometry":{"type":"LineString","coordinates":[[3.7644,51.02625],[3.764527,51.02592]]},"properties":{"name":"Désiré Mercierlaan","highway":"residential","vertex1":7527,"vertex2":7442}},{"type":"Feature","geometry":{"type":"LineString","coordinates":[[3.7644,51.02625],[3.764334,51.02639]]},"properties":{"name":"Désiré Mercierlaan","highway":"residential","vertex1":7527,"vertex2":7451}},{"type":"Feature","geometry":{"type":"LineString","coordinates":[[3.7644,51.02625],[3.764551,51.02629],[3.764608,51.02626],[3.76466,51.02618],[3.764754,51.02617],[3.764913,51.0262],[3.765129,51.02624],[3.765555,51.02629],[3.765884,51.02633]]},"properties":{"highway":"path","vertex1":7527,"vertex2":7505}},{"type":"Feature","geometry":{"type":"LineString","coordinates":[[3.761998,51.02608],[3.761949,51.02629],[3.761912,51.02641],[3.761857,51.02652],[3.761653,51.0269]]},"properties":{"name":"Werkhuizenstraat","maxspeed":"50","highway":"residential","vertex1":7526,"vertex2":7524}},{"type":"Feature","geometry":{"type":"LineString","coordinates":[[3.761998,51.02608],[3.761999,51.02603],[3.762062,51.0257],[3.762083,51.0256],[3.762122,51.02552],[3.762826,51.02442]]},"properties":{"name":"Werkhuizenstraat","maxspeed":"50","highway":"residential","vertex1":7526,"vertex2":7388}},{"type":"Feature","geometry":{"type":"LineString","coordinates":[[3.761998,51.02608],[3.764148,51.02643],[3.764248,51.02642],[3.764334,51.02639]]},"properties":{"name":"Wegelakker","highway":"residential","vertex1":7526,"vertex2":7451}},{"type":"Feature","geometry":{"type":"LineString","coordinates":[[3.761653,51.0269],[3.761362,51.02734],[3.761312,51.0274],[3.761216,51.02744],[3.761117,51.02745],[3.761009,51.02744],[3.759681,51.02713]]},"properties":{"name":"Werkhuizenstraat","maxspeed":"50","highway":"residential","vertex1":7524,"vertex2":7522}},{"type":"Feature","geometry":{"type":"LineString","coordinates":[[3.761653,51.0269],[3.762896,51.0272],[3.763944,51.02736]]},"properties":{"name":"Jean Jaurèslaan","oneway":"yes","maxspeed":"50","highway":"residential","vertex1":7524,"vertex2":7509}},{"type":"Feature","geometry":{"type":"LineString","coordinates":[[3.759681,51.02713],[3.760856,51.02853]]},"properties":{"name":"Peter Benoitlaan","maxspeed":"50","highway":"residential","vertex1":7522,"vertex2":7467}},{"type":"Feature","geometry":{"type":"LineString","coordinates":[[3.759681,51.02713],[3.759663,51.0271]]},"properties":{"name":"Peter Benoitlaan","maxspeed":"50","highway":"residential","vertex1":7522,"vertex2":7477}},{"type":"Feature","geometry":{"type":"LineString","coordinates":[[3.765931,51.02605],[3.765744,51.02605]]},"properties":{"name":"Pinguinstraat","oneway":"yes","oneway:bicycle":"no","highway":"residential","vertex1":7518,"vertex2":7516}},{"type":"Feature","geometry":{"type":"LineString","coordinates":[[3.765931,51.02605],[3.765885,51.02615]]},"properties":{"highway":"service","vertex1":7518,"vertex2":7503}},{"type":"Feature","geometry":{"type":"LineString","coordinates":[[3.765744,51.02605],[3.765418,51.02604],[3.765169,51.02602],[3.764804,51.02596],[3.764527,51.02592]]},"properties":{"name":"Pinguinstraat","oneway":"yes","oneway:bicycle":"no","highway":"residential","vertex1":7516,"vertex2":7442}},{"type":"Feature","geometry":{"type":"LineString","coordinates":[[3.765744,51.02605],[3.765921,51.0255]]},"properties":{"name":"Pinguinstraat","highway":"residential","vertex1":7516,"vertex2":7426}},{"type":"Feature","geometry":{"type":"LineString","coordinates":[[3.767319,51.02705],[3.767327,51.02702],[3.767436,51.02669]]},"properties":{"name":"Eduard Pêcherstraat","highway":"residential","vertex1":7514,"vertex2":7512}},{"type":"Feature","geometry":{"type":"LineString","coordinates":[[3.767319,51.02705],[3.767339,51.0271],[3.767404,51.02713],[3.767518,51.02719],[3.768572,51.0278]]},"properties":{"name":"Eduard Pêcherstraat","highway":"residential","vertex1":7514,"vertex2":7307}},{"type":"Feature","geometry":{"type":"LineString","coordinates":[[3.767319,51.02705],[3.767194,51.02704],[3.766966,51.02699],[3.766816,51.02691],[3.766612,51.02678]]},"properties":{"highway":"track","vertex1":7514,"vertex2":7443}},{"type":"Feature","geometry":{"type":"LineString","coordinates":[[3.768572,51.0278],[3.769165,51.02743],[3.769511,51.02718],[3.770315,51.02657]]},"properties":{"name":"Brusselsesteenweg","oneway":"yes","highway":"primary","maxspeed":"70","vertex1":7307,"vertex2":7282}},{"type":"Feature","geometry":{"type":"LineString","coordinates":[[3.767436,51.02669],[3.767589,51.02623]]},"properties":{"name":"Eduard Pêcherstraat","highway":"residential","vertex1":7512,"vertex2":7500}},{"type":"Feature","geometry":{"type":"LineString","coordinates":[[3.767436,51.02669],[3.766578,51.02649]]},"properties":{"highway":"service","vertex1":7512,"vertex2":7497}},{"type":"Feature","geometry":{"type":"LineString","coordinates":[[3.763944,51.02736],[3.764393,51.02742],[3.76481,51.02752],[3.76571,51.02783],[3.767198,51.02842],[3.76728,51.02845]]},"properties":{"name":"Jean Jaurèslaan","oneway":"yes","maxspeed":"50","highway":"residential","vertex1":7509,"vertex2":7515}},{"type":"Feature","geometry":{"type":"LineString","coordinates":[[3.763944,51.02736],[3.763855,51.02753],[3.763775,51.02766],[3.763685,51.02778],[3.763581,51.0279],[3.763441,51.02802],[3.76296,51.02836]]},"properties":{"name":"Oscar De Gruyterstraat","maxspeed":"50","highway":"residential","vertex1":7509,"vertex2":7481}},{"type":"Feature","geometry":{"type":"LineString","coordinates":[[3.765971,51.02615],[3.765884,51.02633]]},"properties":{"highway":"path","vertex1":7507,"vertex2":7505}},{"type":"Feature","geometry":{"type":"LineString","coordinates":[[3.765971,51.02615],[3.765885,51.02615]]},"properties":{"highway":"path","vertex1":7507,"vertex2":7503}},{"type":"Feature","geometry":{"type":"LineString","coordinates":[[3.765971,51.02615],[3.766316,51.02616],[3.766604,51.02618]]},"properties":{"highway":"path","vertex1":7507,"vertex2":7469}},{"type":"Feature","geometry":{"type":"LineString","coordinates":[[3.765884,51.02633],[3.76586,51.02638],[3.766073,51.02649],[3.766186,51.02656],[3.766556,51.02674],[3.766612,51.02678]]},"properties":{"highway":"track","vertex1":7505,"vertex2":7443}},{"type":"Feature","geometry":{"type":"LineString","coordinates":[[3.765885,51.02615],[3.765783,51.02623],[3.765628,51.02626],[3.765271,51.02621],[3.764836,51.02613]]},"properties":{"highway":"service","vertex1":7503,"vertex2":7471}},{"type":"Feature","geometry":{"type":"LineString","coordinates":[[3.766463,51.02647],[3.766505,51.02638],[3.766604,51.02618]]},"properties":{"highway":"path","vertex1":7499,"vertex2":7469}},{"type":"Feature","geometry":{"type":"LineString","coordinates":[[3.766463,51.02647],[3.76644,51.02652]]},"properties":{"highway":"path","vertex1":7499,"vertex2":7455}},{"type":"Feature","geometry":{"type":"LineString","coordinates":[[3.766463,51.02647],[3.766578,51.02649]]},"properties":{"highway":"path","vertex1":7499,"vertex2":7497}},{"type":"Feature","geometry":{"type":"LineString","coordinates":[[3.757755,51.02677],[3.758021,51.02683],[3.75829,51.02682],[3.758846,51.02652]]},"properties":{"name":"Tuinwijk ter Heide","highway":"residential","maxspeed":"30","vertex1":7488,"vertex2":7456}},{"type":"Feature","geometry":{"type":"LineString","coordinates":[[3.757755,51.02677],[3.757271,51.02703]]},"properties":{"name":"Tuinwijk ter Heide","highway":"residential","maxspeed":"30","vertex1":7488,"vertex2":7633}},{"type":"Feature","geometry":{"type":"LineString","coordinates":[[3.757755,51.02677],[3.757288,51.02643]]},"properties":{"name":"Tuinwijk ter Heide","oneway":"yes","highway":"residential","maxspeed":"30","vertex1":7488,"vertex2":7658}},{"type":"Feature","geometry":{"type":"LineString","coordinates":[[3.757271,51.02703],[3.757349,51.02712],[3.757335,51.02728],[3.757286,51.02739],[3.757235,51.02743]]},"properties":{"name":"Tuinwijk ter Heide","highway":"residential","maxspeed":"30","vertex1":7633,"vertex2":7639}},{"type":"Feature","geometry":{"type":"LineString","coordinates":[[3.759663,51.0271],[3.758493,51.02759]]},"properties":{"highway":"footway","vertex1":7477,"vertex2":7513}},{"type":"Feature","geometry":{"type":"LineString","coordinates":[[3.759663,51.0271],[3.759242,51.02662]]},"properties":{"name":"Peter Benoitlaan","maxspeed":"50","highway":"residential","vertex1":7477,"vertex2":7462}},{"type":"Feature","geometry":{"type":"LineString","coordinates":[[3.757455,51.02749],[3.757406,51.02751],[3.757235,51.02743]]},"properties":{"highway":"footway","vertex1":7463,"vertex2":7639}},{"type":"Feature","geometry":{"type":"LineString","coordinates":[[3.757455,51.02749],[3.757806,51.02733]]},"properties":{"highway":"footway","vertex1":7463,"vertex2":7446}},{"type":"Feature","geometry":{"type":"LineString","coordinates":[[3.759242,51.02662],[3.759846,51.02628],[3.760249,51.02568],[3.759476,51.02516]]},"properties":{"name":"Prosper Van Langendonckstraat","maxspeed":"50","highway":"residential","vertex1":7462,"vertex2":7393}},{"type":"Feature","geometry":{"type":"LineString","coordinates":[[3.759242,51.02662],[3.759027,51.02643]]},"properties":{"name":"Peter Benoitlaan","maxspeed":"50","highway":"residential","vertex1":7462,"vertex2":7458}},{"type":"Feature","geometry":{"type":"LineString","coordinates":[[3.763996,51.02609],[3.763559,51.02603]]},"properties":{"highway":"path","vertex1":7461,"vertex2":7447}},{"type":"Feature","geometry":{"type":"LineString","coordinates":[[3.75854,51.02608],[3.759317,51.02528],[3.759476,51.02516]]},"properties":{"name":"Vuurstokerstraat","maxspeed":"50","highway":"residential","vertex1":7460,"vertex2":7393}},{"type":"Feature","geometry":{"type":"LineString","coordinates":[[3.75854,51.02608],[3.759027,51.02643]]},"properties":{"name":"Peter Benoitlaan","maxspeed":"50","highway":"residential","vertex1":7460,"vertex2":7458}},{"type":"Feature","geometry":{"type":"LineString","coordinates":[[3.75854,51.02608],[3.758454,51.02601],[3.75832,51.02594],[3.758166,51.02588],[3.756862,51.02547]]},"properties":{"name":"Peter Benoitlaan","maxspeed":"50","highway":"residential","vertex1":7460,"vertex2":7696}},{"type":"Feature","geometry":{"type":"LineString","coordinates":[[3.756862,51.02547],[3.757349,51.02529],[3.75782,51.02508],[3.758628,51.02459]]},"properties":{"name":"Gontrodestraat","maxspeed":"50","highway":"residential","vertex1":7696,"vertex2":7417}},{"type":"Feature","geometry":{"type":"LineString","coordinates":[[3.759027,51.02643],[3.758846,51.02652]]},"properties":{"name":"Tuinwijk ter Heide","tunnel":"building_passage","highway":"residential","maxspeed":"30","vertex1":7458,"vertex2":7456}},{"type":"Feature","geometry":{"type":"LineString","coordinates":[[3.763559,51.02603],[3.763678,51.02572]]},"properties":{"highway":"path","vertex1":7447,"vertex2":7441}},{"type":"Feature","geometry":{"type":"LineString","coordinates":[[3.763559,51.02603],[3.762902,51.02593]]},"properties":{"highway":"path","vertex1":7447,"vertex2":7390}},{"type":"Feature","geometry":{"type":"LineString","coordinates":[[3.764527,51.02592],[3.764541,51.02583]]},"properties":{"name":"Désiré Mercierlaan","highway":"residential","vertex1":7442,"vertex2":7411}},{"type":"Feature","geometry":{"type":"LineString","coordinates":[[3.763678,51.02572],[3.763935,51.02575]]},"properties":{"name":"Ibisstraat","highway":"residential","vertex1":7441,"vertex2":7415}},{"type":"Feature","geometry":{"type":"LineString","coordinates":[[3.763678,51.02572],[3.763508,51.0257]]},"properties":{"name":"Ibisstraat","highway":"residential","vertex1":7441,"vertex2":7381}},{"type":"Feature","geometry":{"type":"LineString","coordinates":[[3.758917,51.02144],[3.758932,51.0213],[3.759547,51.02071]]},"properties":{"name":"Hendrik Consciencestraat","highway":"residential","vertex1":7440,"vertex2":7377}},{"type":"Feature","geometry":{"type":"LineString","coordinates":[[3.758917,51.02144],[3.758422,51.02145]]},"properties":{"name":"Florastraat","highway":"residential","vertex1":7440,"vertex2":7378}},{"type":"Feature","geometry":{"type":"LineString","coordinates":[[3.758917,51.02144],[3.760586,51.02146],[3.760804,51.0216]]},"properties":{"name":"Florastraat","oneway":"yes","highway":"residential","vertex1":7440,"vertex2":7376}},{"type":"Feature","geometry":{"type":"LineString","coordinates":[[3.757909,51.02129],[3.757886,51.02143]]},"properties":{"highway":"service","vertex1":7439,"vertex2":7438}},{"type":"Feature","geometry":{"type":"LineString","coordinates":[[3.757909,51.02129],[3.758235,51.0213],[3.758248,51.02143]]},"properties":{"highway":"service","vertex1":7439,"vertex2":7392}},{"type":"Feature","geometry":{"type":"LineString","coordinates":[[3.757886,51.02143],[3.755877,51.0214],[3.755304,51.02132]]},"properties":{"name":"Florastraat","oneway":"yes","highway":"residential","vertex1":7438,"vertex2":7701}},{"type":"Feature","geometry":{"type":"LineString","coordinates":[[3.757886,51.02143],[3.758248,51.02143]]},"properties":{"name":"Florastraat","highway":"residential","vertex1":7438,"vertex2":7392}},{"type":"Feature","geometry":{"type":"LineString","coordinates":[[3.765092,51.02555],[3.765218,51.02526]]},"properties":{"highway":"path","vertex1":7437,"vertex2":7403}},{"type":"Feature","geometry":{"type":"LineString","coordinates":[[3.765092,51.02555],[3.765039,51.02569]]},"properties":{"highway":"path","vertex1":7437,"vertex2":7385}},{"type":"Feature","geometry":{"type":"LineString","coordinates":[[3.765092,51.02555],[3.76452,51.02546]]},"properties":{"highway":"path","vertex1":7437,"vertex2":7433}},{"type":"Feature","geometry":{"type":"LineString","coordinates":[[3.765092,51.02555],[3.765202,51.02556],[3.765409,51.02549],[3.765452,51.02549]]},"properties":{"highway":"path","vertex1":7437,"vertex2":7431}},{"type":"Feature","geometry":{"type":"LineString","coordinates":[[3.766467,51.02549],[3.766434,51.02557]]},"properties":{"highway":"service","vertex1":7436,"vertex2":7405}},{"type":"Feature","geometry":{"type":"LineString","coordinates":[[3.766467,51.02549],[3.766499,51.02542]]},"properties":{"highway":"path","vertex1":7436,"vertex2":7424}},{"type":"Feature","geometry":{"type":"LineString","coordinates":[[3.764515,51.02538],[3.764473,51.02467]]},"properties":{"name":"Désiré Mercierlaan","highway":"residential","vertex1":7435,"vertex2":7383}},{"type":"Feature","geometry":{"type":"LineString","coordinates":[[3.764515,51.02538],[3.76452,51.02546]]},"properties":{"name":"Désiré Mercierlaan","highway":"residential","vertex1":7435,"vertex2":7433}},{"type":"Feature","geometry":{"type":"LineString","coordinates":[[3.764515,51.02538],[3.764286,51.02535]]},"properties":{"highway":"path","vertex1":7435,"vertex2":7375}},{"type":"Feature","geometry":{"type":"LineString","coordinates":[[3.766938,51.02549],[3.766514,51.02491]]},"properties":{"name":"Vogelhoekstraat","highway":"residential","vertex1":7434,"vertex2":7382}},{"type":"Feature","geometry":{"type":"LineString","coordinates":[[3.766938,51.02549],[3.766716,51.02546],[3.766499,51.02542]]},"properties":{"highway":"service","vertex1":7434,"vertex2":7424}},{"type":"Feature","geometry":{"type":"LineString","coordinates":[[3.76452,51.02546],[3.764541,51.02583]]},"properties":{"name":"Désiré Mercierlaan","highway":"residential","vertex1":7433,"vertex2":7411}},{"type":"Feature","geometry":{"type":"LineString","coordinates":[[3.768236,51.02365],[3.768378,51.02356],[3.768456,51.02347],[3.769103,51.02265]]},"properties":{"name":"Vogelstraat","highway":"residential","vertex1":7432,"vertex2":7348}},{"type":"Feature","geometry":{"type":"LineString","coordinates":[[3.768236,51.02365],[3.768136,51.02369],[3.768023,51.02373],[3.76775,51.02378]]},"properties":{"name":"Vogelstraat","highway":"residential","vertex1":7432,"vertex2":7429}},{"type":"Feature","geometry":{"type":"LineString","coordinates":[[3.768236,51.02365],[3.768284,51.0237],[3.768281,51.02435]]},"properties":{"highway":"service","vertex1":7432,"vertex2":7371}},{"type":"Feature","geometry":{"type":"LineString","coordinates":[[3.765452,51.02549],[3.765607,51.02552],[3.765626,51.02546]]},"properties":{"highway":"path","vertex1":7431,"vertex2":7409}},{"type":"Feature","geometry":{"type":"LineString","coordinates":[[3.765452,51.02549],[3.765339,51.02574],[3.765039,51.02569]]},"properties":{"highway":"path","vertex1":7431,"vertex2":7385}},{"type":"Feature","geometry":{"type":"LineString","coordinates":[[3.764379,51.02375],[3.764448,51.02355],[3.764512,51.02341],[3.764607,51.02326],[3.764651,51.02319]]},"properties":{"name":"Désiré Mercierlaan","highway":"residential","vertex1":7430,"vertex2":7400}},{"type":"Feature","geometry":{"type":"LineString","coordinates":[[3.764379,51.02375],[3.764341,51.02378],[3.764322,51.02383],[3.764306,51.02398],[3.764301,51.02411],[3.764374,51.02424],[3.764454,51.02438]]},"properties":{"highway":"path","vertex1":7430,"vertex2":7401}},{"type":"Feature","geometry":{"type":"LineString","coordinates":[[3.76775,51.02378],[3.76598,51.02417]]},"properties":{"name":"Jan Van Ryswyckstraat","highway":"residential","vertex1":7429,"vertex2":7384}},{"type":"Feature","geometry":{"type":"LineString","coordinates":[[3.765543,51.02174],[3.76621,51.02066]]},"properties":{"name":"Désiré Mercierlaan","highway":"residential","vertex1":7428,"vertex2":7394}},{"type":"Feature","geometry":{"type":"LineString","coordinates":[[3.765543,51.02174],[3.764651,51.02319]]},"properties":{"name":"Désiré Mercierlaan","highway":"residential","vertex1":7428,"vertex2":7400}},{"type":"Feature","geometry":{"type":"LineString","coordinates":[[3.765543,51.02174],[3.766457,51.02193],[3.767091,51.02191],[3.767345,51.02186]]},"properties":{"name":"Jozef Vercoulliestraat","highway":"residential","vertex1":7428,"vertex2":7396}},{"type":"Feature","geometry":{"type":"LineString","coordinates":[[3.763125,51.02497],[3.763052,51.02517]]},"properties":{"name":"Ibisstraat","highway":"residential","vertex1":7427,"vertex2":7397}},{"type":"Feature","geometry":{"type":"LineString","coordinates":[[3.765921,51.0255],[3.766434,51.02557]]},"properties":{"highway":"service","vertex1":7426,"vertex2":7405}},{"type":"Feature","geometry":{"type":"LineString","coordinates":[[3.765921,51.0255],[3.765626,51.02546]]},"properties":{"highway":"service","vertex1":7426,"vertex2":7409}},{"type":"Feature","geometry":{"type":"LineString","coordinates":[[3.76324,51.0252],[3.763664,51.02526]]},"properties":{"name":"Ibisstraat","highway":"residential","vertex1":7425,"vertex2":7395}},{"type":"Feature","geometry":{"type":"LineString","coordinates":[[3.76324,51.0252],[3.763052,51.02517]]},"properties":{"highway":"path","vertex1":7425,"vertex2":7397}},{"type":"Feature","geometry":{"type":"LineString","coordinates":[[3.766499,51.02542],[3.765924,51.02533]]},"properties":{"highway":"service","vertex1":7424,"vertex2":7422}},{"type":"Feature","geometry":{"type":"LineString","coordinates":[[3.764088,51.02532],[3.763664,51.02526]]},"properties":{"name":"Ibisstraat","highway":"residential","vertex1":7423,"vertex2":7395}},{"type":"Feature","geometry":{"type":"LineString","coordinates":[[3.764088,51.02532],[3.764286,51.02535]]},"properties":{"name":"Ibisstraat","highway":"residential","vertex1":7423,"vertex2":7375}},{"type":"Feature","geometry":{"type":"LineString","coordinates":[[3.764088,51.02532],[3.764009,51.02553]]},"properties":{"highway":"path","vertex1":7423,"vertex2":7373}},{"type":"Feature","geometry":{"type":"LineString","coordinates":[[3.762894,51.02561],[3.763508,51.0257]]},"properties":{"name":"Ibisstraat","highway":"residential","vertex1":7421,"vertex2":7381}},{"type":"Feature","geometry":{"type":"LineString","coordinates":[[3.762894,51.02561],[3.763052,51.02517]]},"properties":{"name":"Ibisstraat","highway":"residential","vertex1":7421,"vertex2":7397}},{"type":"Feature","geometry":{"type":"LineString","coordinates":[[3.762894,51.02561],[3.762812,51.02583]]},"properties":{"name":"Ibisstraat","highway":"residential","vertex1":7421,"vertex2":7419}},{"type":"Feature","geometry":{"type":"LineString","coordinates":[[3.762816,51.02052],[3.762764,51.02055]]},"properties":{"name":"Mellestraat","maxspeed":"50","highway":"tertiary","vertex1":7420,"vertex2":7418}},{"type":"Feature","geometry":{"type":"LineString","coordinates":[[3.762816,51.02052],[3.762973,51.02064]]},"properties":{"oneway":"yes","highway":"service","vertex1":7420,"vertex2":7413}},{"type":"Feature","geometry":{"type":"LineString","coordinates":[[3.762764,51.02055],[3.761618,51.02114]]},"properties":{"name":"Mellestraat","maxspeed":"50","highway":"tertiary","vertex1":7418,"vertex2":7408}},{"type":"Feature","geometry":{"type":"LineString","coordinates":[[3.762764,51.02055],[3.762922,51.02066]]},"properties":{"oneway":"yes","highway":"service","vertex1":7418,"vertex2":7379}},{"type":"Feature","geometry":{"type":"LineString","coordinates":[[3.758628,51.02459],[3.759476,51.02516]]},"properties":{"name":"Prosper Van Langendonckstraat","maxspeed":"50","highway":"residential","vertex1":7417,"vertex2":7393}},{"type":"Feature","geometry":{"type":"LineString","coordinates":[[3.758628,51.02459],[3.75886,51.02443]]},"properties":{"name":"Gontrodestraat","maxspeed":"50","highway":"residential","vertex1":7417,"vertex2":7387}},{"type":"Feature","geometry":{"type":"LineString","coordinates":[[3.766334,51.02579],[3.766394,51.02566]]},"properties":{"highway":"path","vertex1":7416,"vertex2":7414}},{"type":"Feature","geometry":{"type":"LineString","coordinates":[[3.766334,51.02579],[3.766578,51.02569],[3.766665,51.02584]]},"properties":{"highway":"path","vertex1":7416,"vertex2":7412}},{"type":"Feature","geometry":{"type":"LineString","coordinates":[[3.766334,51.02579],[3.766305,51.02586]]},"properties":{"highway":"path","vertex1":7416,"vertex2":7410}},{"type":"Feature","geometry":{"type":"LineString","coordinates":[[3.763935,51.02575],[3.764541,51.02583]]},"properties":{"name":"Ibisstraat","highway":"residential","vertex1":7415,"vertex2":7411}},{"type":"Feature","geometry":{"type":"LineString","coordinates":[[3.763935,51.02575],[3.763987,51.0256]]},"properties":{"highway":"path","vertex1":7415,"vertex2":7399}},{"type":"Feature","geometry":{"type":"LineString","coordinates":[[3.766394,51.02566],[3.766434,51.02557]]},"properties":{"highway":"path","vertex1":7414,"vertex2":7405}},{"type":"Feature","geometry":{"type":"LineString","coordinates":[[3.766394,51.02566],[3.766665,51.02584]]},"properties":{"highway":"path","vertex1":7414,"vertex2":7412}},{"type":"Feature","geometry":{"type":"LineString","coordinates":[[3.762973,51.02064],[3.763311,51.02047],[3.763383,51.02048],[3.763448,51.02053]]},"properties":{"highway":"service","vertex1":7413,"vertex2":7372}},{"type":"Feature","geometry":{"type":"LineString","coordinates":[[3.762973,51.02064],[3.762922,51.02066]]},"properties":{"highway":"service","vertex1":7413,"vertex2":7379}},{"type":"Feature","geometry":{"type":"LineString","coordinates":[[3.765626,51.02546],[3.765664,51.02535]]},"properties":{"highway":"service","vertex1":7409,"vertex2":7389}},{"type":"Feature","geometry":{"type":"LineString","coordinates":[[3.761618,51.02114],[3.761468,51.021],[3.761695,51.02059]]},"properties":{"name":"Teaterstraat","oneway":"yes","highway":"residential","vertex1":7408,"vertex2":7406}},{"type":"Feature","geometry":{"type":"LineString","coordinates":[[3.761618,51.02114],[3.761378,51.02128]]},"properties":{"name":"Mellestraat","maxspeed":"50","highway":"tertiary","vertex1":7408,"vertex2":7391}},{"type":"Feature","geometry":{"type":"LineString","coordinates":[[3.764231,51.02114],[3.763069,51.02173],[3.760173,51.02327],[3.759834,51.02366],[3.75886,51.02443]]},"properties":{"highway":"service","vertex1":7407,"vertex2":7387}},{"type":"Feature","geometry":{"type":"LineString","coordinates":[[3.767081,51.02274],[3.766914,51.02279],[3.766707,51.02286],[3.766001,51.02312],[3.765512,51.02331],[3.765429,51.02338]]},"properties":{"name":"Henri Van Daelestraat","highway":"residential","vertex1":7404,"vertex2":7398}},{"type":"Feature","geometry":{"type":"LineString","coordinates":[[3.767081,51.02274],[3.767236,51.02271],[3.767375,51.02269],[3.76752,51.02267],[3.767637,51.02266],[3.769103,51.02265]]},"properties":{"name":"Gebroeders Dechampsstraat","highway":"residential","vertex1":7404,"vertex2":7348}},{"type":"Feature","geometry":{"type":"LineString","coordinates":[[3.764454,51.02438],[3.764473,51.02467]]},"properties":{"name":"Désiré Mercierlaan","highway":"residential","vertex1":7401,"vertex2":7383}},{"type":"Feature","geometry":{"type":"LineString","coordinates":[[3.764651,51.02319],[3.765429,51.02338]]},"properties":{"name":"Vogelhoekstraat","highway":"residential","vertex1":7400,"vertex2":7398}},{"type":"Feature","geometry":{"type":"LineString","coordinates":[[3.764651,51.02319],[3.76454,51.02316],[3.764409,51.02312]]},"properties":{"name":"Werkhuizenstraat","highway":"residential","vertex1":7400,"vertex2":7386}},{"type":"Feature","geometry":{"type":"LineString","coordinates":[[3.765429,51.02338],[3.765437,51.02343],[3.765477,51.02349],[3.76598,51.02417]]},"properties":{"name":"Vogelhoekstraat","highway":"residential","vertex1":7398,"vertex2":7384}},{"type":"Feature","geometry":{"type":"LineString","coordinates":[[3.767345,51.02186],[3.767699,51.02179],[3.768375,51.02157],[3.768758,51.02127],[3.769126,51.02076]]},"properties":{"name":"Dokter Jean Vercouilliestraat","highway":"residential","vertex1":7396,"vertex2":7337}},{"type":"Feature","geometry":{"type":"LineString","coordinates":[[3.763664,51.02526],[3.763508,51.0257]]},"properties":{"name":"Ibisstraat","highway":"residential","vertex1":7395,"vertex2":7381}},{"type":"Feature","geometry":{"type":"LineString","coordinates":[[3.758248,51.02143],[3.758422,51.02145]]},"properties":{"name":"Florastraat","highway":"residential","vertex1":7392,"vertex2":7378}},{"type":"Feature","geometry":{"type":"LineString","coordinates":[[3.761378,51.02128],[3.761217,51.02122],[3.760882,51.02114],[3.760542,51.02104],[3.760154,51.02095],[3.759985,51.02089],[3.759547,51.02071]]},"properties":{"bicycle":"no","motorcar":"no","foot":"no","highway":"service","vertex1":7391,"vertex2":7377}},{"type":"Feature","geometry":{"type":"LineString","coordinates":[[3.761378,51.02128],[3.760804,51.0216]]},"properties":{"name":"Mellestraat","maxspeed":"50","highway":"tertiary","vertex1":7391,"vertex2":7376}},{"type":"Feature","geometry":{"type":"LineString","coordinates":[[3.762826,51.02442],[3.764473,51.02467]]},"properties":{"name":"Steenbekestraat","highway":"residential","vertex1":7388,"vertex2":7383}},{"type":"Feature","geometry":{"type":"LineString","coordinates":[[3.762826,51.02442],[3.763417,51.02343],[3.763473,51.02334],[3.763563,51.02327],[3.763657,51.0232],[3.763797,51.02315],[3.763947,51.02311],[3.764102,51.02309],[3.764265,51.0231],[3.764409,51.02312]]},"properties":{"name":"Werkhuizenstraat","maxspeed":"50","highway":"residential","vertex1":7388,"vertex2":7386}},{"type":"Feature","geometry":{"type":"LineString","coordinates":[[3.76598,51.02417],[3.766514,51.02491]]},"properties":{"name":"Vogelhoekstraat","highway":"residential","vertex1":7384,"vertex2":7382}},{"type":"Feature","geometry":{"type":"LineString","coordinates":[[3.764473,51.02467],[3.765212,51.02479]]},"properties":{"name":"Steenbekestraat","highway":"residential","vertex1":7383,"vertex2":7380}},{"type":"Feature","geometry":{"type":"LineString","coordinates":[[3.766514,51.02491],[3.766393,51.02494],[3.766224,51.02494],[3.765212,51.02479]]},"properties":{"name":"Steenbekestraat","highway":"residential","vertex1":7382,"vertex2":7380}},{"type":"Feature","geometry":{"type":"LineString","coordinates":[[3.762922,51.02066],[3.762412,51.02093],[3.762396,51.02097],[3.76242,51.02101],[3.762474,51.02103],[3.762533,51.02102],[3.763448,51.02053]]},"properties":{"highway":"service","vertex1":7379,"vertex2":7372}},{"type":"Feature","geometry":{"type":"LineString","coordinates":[[3.758422,51.02145],[3.758423,51.02166],[3.758385,51.02176],[3.758288,51.02187],[3.758144,51.02196],[3.75729,51.02237],[3.757252,51.02241]]},"properties":{"name":"Herdenkingswijk","highway":"residential","vertex1":7378,"vertex2":7703}},{"type":"Feature","geometry":{"type":"LineString","coordinates":[[3.757252,51.02241],[3.757188,51.0224]]},"properties":{"name":"Herdenkingswijk","oneway":"yes","highway":"residential","vertex1":7703,"vertex2":7705}},{"type":"Feature","geometry":{"type":"LineString","coordinates":[[3.757252,51.02241],[3.757358,51.02247]]},"properties":{"name":"Herdenkingswijk","oneway":"yes","highway":"residential","vertex1":7703,"vertex2":7374}},{"type":"Feature","geometry":{"type":"LineString","coordinates":[[3.760804,51.0216],[3.756712,51.02375],[3.755688,51.0243],[3.755573,51.02436]]},"properties":{"name":"Mellestraat","maxspeed":"50","highway":"tertiary","vertex1":7376,"vertex2":7695}},{"type":"Feature","geometry":{"type":"LineString","coordinates":[[3.757358,51.02247],[3.757337,51.02259],[3.757252,51.02262],[3.757141,51.02263],[3.757049,51.02259],[3.757021,51.02248],[3.757104,51.02242],[3.757188,51.0224]]},"properties":{"name":"Herdenkingswijk","oneway":"yes","highway":"residential","vertex1":7374,"vertex2":7705}},{"type":"Feature","geometry":{"type":"LineString","coordinates":[[3.770878,51.02551],[3.771486,51.02564]]},"properties":{"highway":"service","vertex1":7370,"vertex2":7362}},{"type":"Feature","geometry":{"type":"LineString","coordinates":[[3.770878,51.02551],[3.770844,51.0256],[3.770924,51.02569],[3.771088,51.02577],[3.771195,51.02587]]},"properties":{"highway":"service","vertex1":7370,"vertex2":7359}},{"type":"Feature","geometry":{"type":"LineString","coordinates":[[3.772808,51.02455],[3.77264,51.02468]]},"properties":{"name":"Brusselsesteenweg","oneway":"yes","highway":"primary","maxspeed":"70","vertex1":7369,"vertex2":7328}},{"type":"Feature","geometry":{"type":"LineString","coordinates":[[3.772808,51.02455],[3.772839,51.02452],[3.772975,51.02441],[3.773478,51.02404],[3.77386,51.02379]]},"properties":{"name":"Brusselsesteenweg","oneway":"yes","highway":"primary","maxspeed":"70","vertex1":7369,"vertex2":7329}},{"type":"Feature","geometry":{"type":"LineString","coordinates":[[3.776675,51.02259],[3.776839,51.02249]]},"properties":{"oneway":"yes","highway":"service","vertex1":7368,"vertex2":7324}},{"type":"Feature","geometry":{"type":"LineString","coordinates":[[3.776675,51.02259],[3.776257,51.02241],[3.776422,51.02227]]},"properties":{"oneway":"yes","highway":"service","vertex1":7368,"vertex2":7344}},{"type":"Feature","geometry":{"type":"LineString","coordinates":[[3.774668,51.02191],[3.774593,51.0219]]},"properties":{"highway":"track","vertex1":7367,"vertex2":7356}},{"type":"Feature","geometry":{"type":"LineString","coordinates":[[3.774668,51.02191],[3.77589,51.02213]]},"properties":{"highway":"track","vertex1":7367,"vertex2":7365}},{"type":"Feature","geometry":{"type":"LineString","coordinates":[[3.77508,51.02284],[3.775154,51.02291]]},"properties":{"oneway":"yes","highway":"service","vertex1":7366,"vertex2":7326}},{"type":"Feature","geometry":{"type":"LineString","coordinates":[[3.77508,51.02284],[3.774907,51.02274],[3.774915,51.0227],[3.775055,51.0226],[3.775124,51.02262],[3.775383,51.02273]]},"properties":{"oneway":"yes","highway":"service","vertex1":7366,"vertex2":7346}},{"type":"Feature","geometry":{"type":"LineString","coordinates":[[3.77589,51.02213],[3.77595,51.02215],[3.776044,51.02219]]},"properties":{"highway":"track","vertex1":7365,"vertex2":7318}},{"type":"Feature","geometry":{"type":"LineString","coordinates":[[3.777961,51.02066],[3.777846,51.02063],[3.777709,51.02061],[3.777503,51.02061],[3.776232,51.02062]]},"properties":{"name":"Wautersdreef","maxspeed":"50","highway":"residential","vertex1":7364,"vertex2":7332}},{"type":"Feature","geometry":{"type":"LineString","coordinates":[[3.777961,51.02066],[3.777547,51.02099]]},"properties":{"name":"Brusselsesteenweg","highway":"primary","maxspeed":"70","vertex1":7364,"vertex2":7341}},{"type":"Feature","geometry":{"type":"LineString","coordinates":[[3.771746,51.0252],[3.770869,51.02477]]},"properties":{"name":"Hovenierstraat","highway":"residential","vertex1":7363,"vertex2":7319}},{"type":"Feature","geometry":{"type":"LineString","coordinates":[[3.771746,51.0252],[3.771897,51.02529]]},"properties":{"name":"Hovenierstraat","highway":"residential","vertex1":7363,"vertex2":7323}},{"type":"Feature","geometry":{"type":"LineString","coordinates":[[3.771486,51.02564],[3.771464,51.02565],[3.771305,51.02578],[3.771195,51.02587]]},"properties":{"name":"Brusselsesteenweg","oneway":"yes","highway":"primary","maxspeed":"70","vertex1":7362,"vertex2":7359}},{"type":"Feature","geometry":{"type":"LineString","coordinates":[[3.771486,51.02564],[3.771897,51.02529]]},"properties":{"name":"Brusselsesteenweg","oneway":"yes","highway":"primary","maxspeed":"70","vertex1":7362,"vertex2":7323}},{"type":"Feature","geometry":{"type":"LineString","coordinates":[[3.773599,51.02414],[3.773973,51.02385]]},"properties":{"name":"Brusselsesteenweg","oneway":"yes","highway":"primary","maxspeed":"70","vertex1":7361,"vertex2":7357}},{"type":"Feature","geometry":{"type":"LineString","coordinates":[[3.773599,51.02414],[3.773162,51.02449],[3.773029,51.02461],[3.772826,51.02477]]},"properties":{"name":"Brusselsesteenweg","oneway":"yes","highway":"primary","maxspeed":"70","vertex1":7361,"vertex2":7350}},{"type":"Feature","geometry":{"type":"LineString","coordinates":[[3.76973,51.02077],[3.769126,51.02076]]},"properties":{"name":"Guido Gezellestraat","highway":"residential","vertex1":7360,"vertex2":7337}},{"type":"Feature","geometry":{"type":"LineString","coordinates":[[3.76973,51.02077],[3.769667,51.02172],[3.769686,51.02191],[3.769699,51.02196]]},"properties":{"name":"Merelbekestraat","highway":"tertiary","vertex1":7360,"vertex2":7325}},{"type":"Feature","geometry":{"type":"LineString","coordinates":[[3.76973,51.02077],[3.773762,51.02068]]},"properties":{"name":"Wautersdreef","maxspeed":"50","highway":"residential","vertex1":7360,"vertex2":7354}},{"type":"Feature","geometry":{"type":"LineString","coordinates":[[3.771195,51.02587],[3.770315,51.02657]]},"properties":{"name":"Brusselsesteenweg","oneway":"yes","highway":"primary","maxspeed":"70","vertex1":7359,"vertex2":7282}},{"type":"Feature","geometry":{"type":"LineString","coordinates":[[3.77215,51.02508],[3.77264,51.02468]]},"properties":{"name":"Brusselsesteenweg","oneway":"yes","highway":"primary","maxspeed":"70","vertex1":7358,"vertex2":7328}},{"type":"Feature","geometry":{"type":"LineString","coordinates":[[3.77215,51.02508],[3.771897,51.02529]]},"properties":{"name":"Brusselsesteenweg","oneway":"yes","highway":"primary","maxspeed":"70","vertex1":7358,"vertex2":7323}},{"type":"Feature","geometry":{"type":"LineString","coordinates":[[3.773973,51.02385],[3.774215,51.02367]]},"properties":{"name":"Brusselsesteenweg","oneway":"yes","highway":"primary","maxspeed":"70","vertex1":7357,"vertex2":7355}},{"type":"Feature","geometry":{"type":"LineString","coordinates":[[3.773973,51.02385],[3.77386,51.02379]]},"properties":{"highway":"residential","vertex1":7357,"vertex2":7329}},{"type":"Feature","geometry":{"type":"LineString","coordinates":[[3.774593,51.0219],[3.77461,51.02181],[3.774516,51.02161],[3.774385,51.02153],[3.773531,51.02135]]},"properties":{"name":"Ringlaan","highway":"residential","vertex1":7356,"vertex2":7322}},{"type":"Feature","geometry":{"type":"LineString","coordinates":[[3.774593,51.0219],[3.774486,51.02211],[3.77436,51.02223],[3.774144,51.02236],[3.773951,51.02239],[3.773076,51.02221]]},"properties":{"name":"Ringlaan","highway":"residential","vertex1":7356,"vertex2":7316}},{"type":"Feature","geometry":{"type":"LineString","coordinates":[[3.774215,51.02367],[3.774412,51.02352]]},"properties":{"name":"Brusselsesteenweg","oneway":"yes","highway":"primary","maxspeed":"70","vertex1":7355,"vertex2":7347}},{"type":"Feature","geometry":{"type":"LineString","coordinates":[[3.774215,51.02367],[3.774118,51.02361]]},"properties":{"highway":"residential","vertex1":7355,"vertex2":7327}},{"type":"Feature","geometry":{"type":"LineString","coordinates":[[3.773762,51.02068],[3.776232,51.02062]]},"properties":{"name":"Wautersdreef","maxspeed":"50","highway":"residential","vertex1":7354,"vertex2":7332}},{"type":"Feature","geometry":{"type":"LineString","coordinates":[[3.773762,51.02068],[3.773531,51.02135]]},"properties":{"name":"François Spaestraat","highway":"residential","vertex1":7354,"vertex2":7322}},{"type":"Feature","geometry":{"type":"LineString","coordinates":[[3.775858,51.02449],[3.77546,51.02406],[3.775456,51.02399],[3.775418,51.02396],[3.775338,51.02394],[3.775266,51.02396],[3.775219,51.02401],[3.775222,51.02404],[3.775412,51.02418],[3.775768,51.02454]]},"properties":{"name":"Kasteeldreef","highway":"residential","vertex1":7353,"vertex2":7351}},{"type":"Feature","geometry":{"type":"LineString","coordinates":[[3.775858,51.02449],[3.775923,51.02462]]},"properties":{"name":"Kasteeldreef","highway":"residential","vertex1":7353,"vertex2":7349}},{"type":"Feature","geometry":{"type":"LineString","coordinates":[[3.769526,51.0249],[3.769472,51.02506]]},"properties":{"name":"Petegemstraat","highway":"residential","vertex1":7352,"vertex2":7320}},{"type":"Feature","geometry":{"type":"LineString","coordinates":[[3.775768,51.02454],[3.775923,51.02462]]},"properties":{"name":"Kasteeldreef","highway":"residential","vertex1":7351,"vertex2":7349}},{"type":"Feature","geometry":{"type":"LineString","coordinates":[[3.772826,51.02477],[3.77264,51.02468]]},"properties":{"name":"Heusdenbaan","highway":"primary","vertex1":7350,"vertex2":7328}},{"type":"Feature","geometry":{"type":"LineString","coordinates":[[3.772826,51.02477],[3.773316,51.02498],[3.775041,51.0257]]},"properties":{"name":"Heusdenbaan","maxspeed":"50","highway":"secondary","vertex1":7350,"vertex2":7334}},{"type":"Feature","geometry":{"type":"LineString","coordinates":[[3.772826,51.02477],[3.77161,51.02575]]},"properties":{"name":"Brusselsesteenweg","oneway":"yes","highway":"primary","maxspeed":"70","vertex1":7350,"vertex2":7321}},{"type":"Feature","geometry":{"type":"LineString","coordinates":[[3.775923,51.02462],[3.776008,51.02472]]},"properties":{"name":"Kasteeldreef","highway":"residential","vertex1":7349,"vertex2":7339}},{"type":"Feature","geometry":{"type":"LineString","coordinates":[[3.769103,51.02265],[3.769579,51.02209]]},"properties":{"name":"Vogelstraat","highway":"residential","vertex1":7348,"vertex2":7312}},{"type":"Feature","geometry":{"type":"LineString","coordinates":[[3.774412,51.02352],[3.77455,51.02341],[3.774613,51.02332]]},"properties":{"name":"Brusselsesteenweg","oneway":"yes","highway":"primary","maxspeed":"70","vertex1":7347,"vertex2":7345}},{"type":"Feature","geometry":{"type":"LineString","coordinates":[[3.774412,51.02352],[3.774326,51.02346]]},"properties":{"highway":"residential","vertex1":7347,"vertex2":7333}},{"type":"Feature","geometry":{"type":"LineString","coordinates":[[3.775383,51.02273],[3.775581,51.02258]]},"properties":{"name":"Brusselsesteenweg","highway":"primary","maxspeed":"70","vertex1":7346,"vertex2":7313}},{"type":"Feature","geometry":{"type":"LineString","coordinates":[[3.775383,51.02273],[3.775154,51.02291]]},"properties":{"name":"Brusselsesteenweg","highway":"primary","maxspeed":"70","vertex1":7346,"vertex2":7326}},{"type":"Feature","geometry":{"type":"LineString","coordinates":[[3.774613,51.02332],[3.7751,51.02295],[3.775154,51.02291]]},"properties":{"name":"Brusselsesteenweg","highway":"primary","maxspeed":"70","vertex1":7345,"vertex2":7326}},{"type":"Feature","geometry":{"type":"LineString","coordinates":[[3.774613,51.02332],[3.77447,51.02337],[3.774326,51.02346]]},"properties":{"name":"Brusselsesteenweg","oneway":"yes","highway":"primary","maxspeed":"70","vertex1":7345,"vertex2":7333}},{"type":"Feature","geometry":{"type":"LineString","coordinates":[[3.776422,51.02227],[3.776839,51.02249]]},"properties":{"oneway":"yes","highway":"service","vertex1":7344,"vertex2":7324}},{"type":"Feature","geometry":{"type":"LineString","coordinates":[[3.776422,51.02227],[3.776559,51.02217]]},"properties":{"oneway":"yes","highway":"service","vertex1":7344,"vertex2":7314}},{"type":"Feature","geometry":{"type":"LineString","coordinates":[[3.777823,51.02227],[3.777566,51.02219],[3.77718,51.02222]]},"properties":{"highway":"service","vertex1":7343,"vertex2":7342}},{"type":"Feature","geometry":{"type":"LineString","coordinates":[[3.77718,51.02222],[3.776559,51.02217]]},"properties":{"oneway":"yes","highway":"service","vertex1":7342,"vertex2":7314}},{"type":"Feature","geometry":{"type":"LineString","coordinates":[[3.77718,51.02222],[3.776976,51.02238]]},"properties":{"oneway":"yes","highway":"service","vertex1":7342,"vertex2":7340}},{"type":"Feature","geometry":{"type":"LineString","coordinates":[[3.777547,51.02099],[3.778688,51.02139],[3.778704,51.02143],[3.778562,51.02179],[3.778511,51.02182]]},"properties":{"name":"Waterstraat","highway":"residential","vertex1":7341,"vertex2":7338}},{"type":"Feature","geometry":{"type":"LineString","coordinates":[[3.777547,51.02099],[3.77625,51.02201]]},"properties":{"name":"Brusselsesteenweg","highway":"primary","maxspeed":"70","vertex1":7341,"vertex2":7310}},{"type":"Feature","geometry":{"type":"LineString","coordinates":[[3.776976,51.02238],[3.776559,51.02217]]},"properties":{"highway":"service","vertex1":7340,"vertex2":7314}},{"type":"Feature","geometry":{"type":"LineString","coordinates":[[3.776976,51.02238],[3.776839,51.02249]]},"properties":{"oneway":"yes","highway":"service","vertex1":7340,"vertex2":7324}},{"type":"Feature","geometry":{"type":"LineString","coordinates":[[3.776008,51.02472],[3.77638,51.02448],[3.776682,51.02433]]},"properties":{"name":"Oude Brusselseweg","highway":"unclassified","vertex1":7339,"vertex2":7308}},{"type":"Feature","geometry":{"type":"LineString","coordinates":[[3.776008,51.02472],[3.775041,51.0257]]},"properties":{"name":"Oude Brusselseweg","highway":"unclassified","vertex1":7339,"vertex2":7334}},{"type":"Feature","geometry":{"type":"LineString","coordinates":[[3.779229,51.02496],[3.779357,51.0249],[3.779457,51.02488],[3.77966,51.02488],[3.77969,51.02486]]},"properties":{"name":"Spiegelhof","oneway":"yes","highway":"residential","vertex1":7336,"vertex2":4118}},{"type":"Feature","geometry":{"type":"LineString","coordinates":[[3.779229,51.02496],[3.779089,51.02551],[3.778706,51.02601],[3.778695,51.02614],[3.778836,51.02624],[3.779708,51.02645]]},"properties":{"name":"Spiegelhof","highway":"residential","vertex1":7336,"vertex2":4219}},{"type":"Feature","geometry":{"type":"LineString","coordinates":[[3.779229,51.02496],[3.779338,51.02486]]},"properties":{"name":"Spiegelhof","oneway":"yes","highway":"residential","vertex1":7336,"vertex2":4110}},{"type":"Feature","geometry":{"type":"LineString","coordinates":[[3.77969,51.02486],[3.780074,51.02517],[3.780123,51.02534],[3.779894,51.02581],[3.779708,51.02645]]},"properties":{"name":"Spiegelhof","highway":"residential","vertex1":4118,"vertex2":4219}},{"type":"Feature","geometry":{"type":"LineString","coordinates":[[3.77969,51.02486],[3.779454,51.02484],[3.779338,51.02486]]},"properties":{"name":"Spiegelhof","oneway":"yes","highway":"residential","vertex1":4118,"vertex2":4110}},{"type":"Feature","geometry":{"type":"LineString","coordinates":[[3.779708,51.02645],[3.779634,51.02682],[3.779418,51.02723]]},"properties":{"name":"Spiegelhof","highway":"residential","vertex1":4219,"vertex2":4193}},{"type":"Feature","geometry":{"type":"LineString","coordinates":[[3.772216,51.02247],[3.770614,51.02243],[3.770542,51.02243],[3.770355,51.02246],[3.770186,51.02252]]},"properties":{"highway":"service","vertex1":7335,"vertex2":7331}},{"type":"Feature","geometry":{"type":"LineString","coordinates":[[3.775041,51.0257],[3.775001,51.02573],[3.774262,51.02645],[3.774025,51.0266],[3.772772,51.02716]]},"properties":{"name":"Oude Brusselseweg","highway":"residential","vertex1":7334,"vertex2":7294}},{"type":"Feature","geometry":{"type":"LineString","coordinates":[[3.775041,51.0257],[3.777272,51.02662],[3.777828,51.02681],[3.778429,51.02699],[3.779418,51.02723]]},"properties":{"name":"Heusdenbaan","maxspeed":"50","highway":"secondary","vertex1":7334,"vertex2":4193}},{"type":"Feature","geometry":{"type":"LineString","coordinates":[[3.774326,51.02346],[3.774118,51.02361]]},"properties":{"name":"Brusselsesteenweg","oneway":"yes","highway":"primary","maxspeed":"70","vertex1":7333,"vertex2":7327}},{"type":"Feature","geometry":{"type":"LineString","coordinates":[[3.770186,51.02252],[3.770377,51.0227],[3.771174,51.02338]]},"properties":{"name":"Merelbekestraat","highway":"tertiary","vertex1":7331,"vertex2":7315}},{"type":"Feature","geometry":{"type":"LineString","coordinates":[[3.770186,51.02252],[3.769775,51.02206]]},"properties":{"name":"Merelbekestraat","highway":"tertiary","vertex1":7331,"vertex2":7311}},{"type":"Feature","geometry":{"type":"LineString","coordinates":[[3.77155,51.02371],[3.772245,51.0234],[3.772599,51.02312],[3.773076,51.02221]]},"properties":{"name":"François Spaestraat","highway":"residential","vertex1":7330,"vertex2":7316}},{"type":"Feature","geometry":{"type":"LineString","coordinates":[[3.77155,51.02371],[3.772526,51.02459],[3.77264,51.02468]]},"properties":{"name":"Merelbekestraat","highway":"tertiary","vertex1":7330,"vertex2":7328}},{"type":"Feature","geometry":{"type":"LineString","coordinates":[[3.77155,51.02371],[3.771174,51.02338]]},"properties":{"name":"Merelbekestraat","highway":"tertiary","vertex1":7330,"vertex2":7315}},{"type":"Feature","geometry":{"type":"LineString","coordinates":[[3.77386,51.02379],[3.774118,51.02361]]},"properties":{"name":"Brusselsesteenweg","oneway":"yes","highway":"primary","maxspeed":"70","vertex1":7329,"vertex2":7327}},{"type":"Feature","geometry":{"type":"LineString","coordinates":[[3.769699,51.02196],[3.769639,51.02199],[3.769579,51.02209]]},"properties":{"name":"Vogelstraat","oneway":"yes","highway":"residential","vertex1":7325,"vertex2":7312}},{"type":"Feature","geometry":{"type":"LineString","coordinates":[[3.769699,51.02196],[3.769775,51.02206]]},"properties":{"name":"Merelbekestraat","highway":"tertiary","vertex1":7325,"vertex2":7311}},{"type":"Feature","geometry":{"type":"LineString","coordinates":[[3.773531,51.02135],[3.773076,51.02221]]},"properties":{"name":"François Spaestraat","highway":"residential","vertex1":7322,"vertex2":7316}},{"type":"Feature","geometry":{"type":"LineString","coordinates":[[3.77161,51.02575],[3.772429,51.02611]]},"properties":{"highway":"service","vertex1":7321,"vertex2":7304}},{"type":"Feature","geometry":{"type":"LineString","coordinates":[[3.77161,51.02575],[3.769629,51.02731],[3.769044,51.0277],[3.768709,51.02791],[3.767818,51.02837]]},"properties":{"name":"Brusselsesteenweg","oneway":"yes","highway":"primary","maxspeed":"70","vertex1":7321,"vertex2":7528}},{"type":"Feature","geometry":{"type":"LineString","coordinates":[[3.767818,51.02837],[3.767895,51.02841],[3.76793,51.02843],[3.768841,51.02892]]},"properties":{"name":"Jan Van Aelbroecklaan","highway":"residential","vertex1":7528,"vertex2":7293}},{"type":"Feature","geometry":{"type":"LineString","coordinates":[[3.769472,51.02506],[3.77048,51.0252],[3.770531,51.02505],[3.770552,51.02502],[3.770575,51.025],[3.770869,51.02477]]},"properties":{"name":"Petegemstraat","highway":"residential","vertex1":7320,"vertex2":7319}},{"type":"Feature","geometry":{"type":"LineString","coordinates":[[3.769472,51.02506],[3.769421,51.02521]]},"properties":{"name":"Petegemstraat","highway":"residential","vertex1":7320,"vertex2":7309}},{"type":"Feature","geometry":{"type":"LineString","coordinates":[[3.770869,51.02477],[3.770824,51.02475],[3.770786,51.02472],[3.77076,51.02469],[3.770746,51.02466],[3.770738,51.02462],[3.770737,51.02459],[3.77083,51.02422]]},"properties":{"name":"Hovenierstraat","highway":"residential","vertex1":7319,"vertex2":7317}},{"type":"Feature","geometry":{"type":"LineString","coordinates":[[3.776044,51.02219],[3.77625,51.02201]]},"properties":{"name":"Brusselsesteenweg","highway":"primary","maxspeed":"70","vertex1":7318,"vertex2":7310}},{"type":"Feature","geometry":{"type":"LineString","coordinates":[[3.776044,51.02219],[3.775581,51.02258]]},"properties":{"name":"Brusselsesteenweg","highway":"primary","maxspeed":"70","vertex1":7318,"vertex2":7313}},{"type":"Feature","geometry":{"type":"LineString","coordinates":[[3.77083,51.02422],[3.770885,51.02404],[3.771071,51.02347],[3.771174,51.02338]]},"properties":{"name":"Hovenierstraat","highway":"residential","vertex1":7317,"vertex2":7315}},{"type":"Feature","geometry":{"type":"LineString","coordinates":[[3.776559,51.02217],[3.77625,51.02201]]},"properties":{"highway":"service","vertex1":7314,"vertex2":7310}},{"type":"Feature","geometry":{"type":"LineString","coordinates":[[3.775581,51.02258],[3.776116,51.02287],[3.776266,51.02296],[3.776328,51.02303],[3.776428,51.0232],[3.776532,51.02346],[3.776568,51.02362],[3.776553,51.02382],[3.776522,51.02405],[3.776562,51.02417],[3.776682,51.02433]]},"properties":{"highway":"track","vertex1":7313,"vertex2":7308}},{"type":"Feature","geometry":{"type":"LineString","coordinates":[[3.769579,51.02209],[3.769687,51.02208],[3.769775,51.02206]]},"properties":{"name":"Vogelstraat","oneway":"yes","highway":"residential","vertex1":7312,"vertex2":7311}},{"type":"Feature","geometry":{"type":"LineString","coordinates":[[3.776682,51.02433],[3.776836,51.02428],[3.777792,51.02402],[3.778786,51.02376],[3.77991,51.02347],[3.780093,51.02335]]},"properties":{"name":"Oude Brusselseweg","highway":"unclassified","vertex1":7308,"vertex2":4109}},{"type":"Feature","geometry":{"type":"LineString","coordinates":[[3.772429,51.02611],[3.772152,51.02634]]},"properties":{"highway":"service","vertex1":7304,"vertex2":7292}},{"type":"Feature","geometry":{"type":"LineString","coordinates":[[3.772429,51.02611],[3.772618,51.02619]]},"properties":{"highway":"service","vertex1":7304,"vertex2":7283}},{"type":"Feature","geometry":{"type":"LineString","coordinates":[[3.772323,51.02644],[3.772618,51.02619]]},"properties":{"highway":"service","vertex1":7302,"vertex2":7283}},{"type":"Feature","geometry":{"type":"LineString","coordinates":[[3.7723,51.02736],[3.768841,51.02892]]},"properties":{"name":"Jules Destreelaan","highway":"residential","vertex1":7296,"vertex2":7293}},{"type":"Feature","geometry":{"type":"LineString","coordinates":[[3.7723,51.02736],[3.772182,51.02726],[3.771829,51.02705],[3.771548,51.02697]]},"properties":{"name":"Jules Destreelaan","highway":"residential","vertex1":7296,"vertex2":7284}},{"type":"Feature","geometry":{"type":"LineString","coordinates":[[3.7723,51.02736],[3.772772,51.02716]]},"properties":{"name":"Jules Destreelaan","highway":"residential","maxspeed":"30","vertex1":7296,"vertex2":7294}},{"type":"Feature","geometry":{"type":"LineString","coordinates":[[3.772772,51.02716],[3.775287,51.02824]]},"properties":{"highway":"service","vertex1":7294,"vertex2":7285}},{"type":"Feature","geometry":{"type":"LineString","coordinates":[[3.772833,51.026],[3.772618,51.02619]]},"properties":{"highway":"service","vertex1":7290,"vertex2":7283}}]}